{"type":"FeatureCollection","features":[{"type":"Feature","properties":{"idx":180,"road":"御殿場箱根線","cls":"secondary","shops":0,"st_km":4.86,"mesh":"52387719"},"geometry":{"type":"LineString","coordinates":[[138.99106,35.27226],[138.99129,35.27196],[138.99189,35.27154],[138.99193,35.27139],[138.9918,35.27106],[138.99179,35.27089],[138.99205,35.27058],[138.99246,35.2705],[138.99252,35.27031],[138.99245,35.27],[138.99253,35.26961],[138.99251,35.26952],[138.99204,35.2691],[138.99154,35.26878],[138.99137,35.26859],[138.9911,35.26838],[138.99096,35.26782],[138.99061,35.26764],[138.99044,35.26741],[138.99043,35.2669],[138.99036,35.26668],[138.99004,35.26655],[138.98971,35.26649],[138.98951,35.26654],[138.98928,35.2667],[138.98845,35.2669],[138.98827,35.26685],[138.98798,35.26669],[138.98757,35.2666],[138.9875,35.26643],[138.98754,35.26633],[138.98782,35.2661],[138.98791,35.26586],[138.98774,35.26544],[138.9875,35.26525],[138.98705,35.26475],[138.98701,35.26442],[138.98651,35.26435],[138.98631,35.26438],[138.98593,35.26465],[138.98555,35.26472],[138.98532,35.26466],[138.98498,35.26466],[138.98486,35.26457],[138.98454,35.26452],[138.98446,35.26447],[138.98433,35.26423],[138.98417,35.26419],[138.98395,35.26438],[138.9839,35.26469],[138.98384,35.26478],[138.98289,35.26524],[138.98252,35.26554],[138.98238,35.26559],[138.98199,35.26545],[138.98157,35.26545],[138.98147,35.26539],[138.98142,35.26522],[138.98126,35.26505],[138.98125,35.26497],[138.98141,35.26475],[138.98135,35.26433],[138.98138,35.264],[138.98107,35.26352],[138.98037,35.26356],[138.98006,35.26377],[138.97956,35.26374],[138.97904,35.2641],[138.97891,35.26414]]}},{"type":"Feature","properties":{"idx":13,"road":"御殿場箱根線","cls":"secondary","shops":0,"st_km":4.93,"mesh":"52387717"},"geometry":{"type":"LineString","coordinates":[[138.97501,35.25863],[138.97489,35.25864]]}},{"type":"Feature","properties":{"idx":8,"road":"御殿場箱根線","cls":"secondary","shops":0,"st_km":4.97,"mesh":"52387718"},"geometry":{"type":"LineString","coordinates":[[138.97569,35.25857],[138.97501,35.25863]]}},{"type":"Feature","properties":{"idx":167,"road":NaN,"cls":"tertiary","shops":0,"st_km":3.62,"mesh":"52387719"},"geometry":{"type":"LineString","coordinates":[[138.9969,35.25862],[139.00112,35.25922]]}},{"type":"Feature","properties":{"idx":384,"road":NaN,"cls":"tertiary","shops":0,"st_km":3.68,"mesh":"52387709"},"geometry":{"type":"LineString","coordinates":[[138.99542,35.25087],[138.99599,35.25065],[138.99608,35.25055]]}},{"type":"Feature","properties":{"idx":15,"road":"長尾芦川線","cls":"secondary","shops":0,"st_km":5.02,"mesh":"52387708"},"geometry":{"type":"LineString","coordinates":[[138.98586,35.25593],[138.98587,35.25562],[138.98571,35.2553],[138.98559,35.25517],[138.98538,35.2551],[138.9849,35.25513],[138.98469,35.25537],[138.9843,35.25566],[138.98409,35.25563],[138.98382,35.25549],[138.98252,35.25549],[138.98228,35.25536],[138.98177,35.25527],[138.98162,35.25507],[138.98143,35.25455],[138.98068,35.25304],[138.98071,35.25268],[138.98106,35.25202],[138.98108,35.25183],[138.98136,35.25114],[138.98139,35.25031],[138.98153,35.24981],[138.9815,35.24929],[138.98157,35.24924],[138.98178,35.24922],[138.98233,35.24951],[138.98258,35.24955],[138.98267,35.24917],[138.98252,35.2488],[138.98256,35.24858],[138.98272,35.24822],[138.98291,35.24794],[138.98367,35.24761],[138.98398,35.24762],[138.98444,35.24746],[138.98491,35.2475],[138.98536,35.24721],[138.98553,35.24682]]}},{"type":"Feature","properties":{"idx":7,"road":"御殿場箱根線","cls":"secondary","shops":0,"st_km":5.01,"mesh":"52387718"},"geometry":{"type":"LineString","coordinates":[[138.97891,35.26414],[138.97858,35.26383],[138.97825,35.26376],[138.97817,35.2637],[138.97805,35.26349],[138.97781,35.26325],[138.97781,35.26311],[138.97804,35.26273],[138.97801,35.26245],[138.97789,35.26223],[138.97744,35.26214],[138.97735,35.26209],[138.97725,35.26189],[138.97724,35.26177],[138.97734,35.26164],[138.9772,35.26141],[138.97721,35.26136],[138.97735,35.26118],[138.97758,35.26101],[138.97764,35.2609],[138.97763,35.26083],[138.97724,35.26055],[138.97719,35.26049],[138.97717,35.26015],[138.97694,35.26],[138.97694,35.25948],[138.97666,35.25928],[138.97597,35.25906],[138.97588,35.25894],[138.97582,35.25861],[138.97569,35.25857]]}}]}