{"type":"FeatureCollection","features":[{"type":"Feature","properties":{"idx":24,"road":NaN,"cls":"tertiary","shops":0,"st_km":4.19,"mesh":"52386789"},"geometry":{"type":"LineString","coordinates":[[138.9935,35.23975],[138.99324,35.23964],[138.99259,35.23946],[138.99138,35.23949],[138.99097,35.23964],[138.99004,35.24039],[138.98958,35.24049],[138.98732,35.24068]]}},{"type":"Feature","properties":{"idx":18,"road":NaN,"cls":"tertiary","shops":0,"st_km":4.49,"mesh":"52386788"},"geometry":{"type":"LineString","coordinates":[[138.98732,35.24068],[138.98674,35.2407]]}},{"type":"Feature","properties":{"idx":46,"road":NaN,"cls":"tertiary","shops":0,"st_km":3.45,"mesh":"52386799"},"geometry":{"type":"LineString","coordinates":[[138.99915,35.25123],[138.99825,35.25062],[138.9982,35.25052],[138.99821,35.24995],[138.99754,35.24905],[138.99721,35.24893],[138.997,35.24891],[138.99681,35.24896],[138.99663,35.24908]]}},{"type":"Feature","properties":{"idx":46,"road":NaN,"cls":"tertiary","shops":0,"st_km":3.57,"mesh":"52386799"},"geometry":{"type":"LineString","coordinates":[[138.99608,35.25055],[138.99654,35.25],[138.99698,35.24969],[138.99696,35.24956],[138.99663,35.24908]]}},{"type":"Feature","properties":{"idx":38,"road":"長尾芦川線","cls":"secondary","shops":0,"st_km":4.57,"mesh":"52386798"},"geometry":{"type":"LineString","coordinates":[[138.98661,35.24071],[138.98635,35.24167],[138.98598,35.24229],[138.98561,35.24324],[138.98554,35.24356],[138.98557,35.24372],[138.98569,35.24394],[138.98604,35.24412],[138.98639,35.24507],[138.98638,35.24557],[138.98631,35.24598],[138.98626,35.24616],[138.98611,35.2464],[138.98562,35.2467],[138.98553,35.24682]]}},{"type":"Feature","properties":{"idx":58,"road":"湯河原箱根仙石原線","cls":"primary","shops":0,"st_km":3.44,"mesh":"52386799"},"geometry":{"type":"LineString","coordinates":[[138.99479,35.23839],[138.99434,35.23875],[138.99406,35.23907],[138.9935,35.23975],[138.99336,35.24002],[138.99336,35.2405],[138.99346,35.2407],[138.99375,35.24098],[138.99394,35.24108],[138.99429,35.24116],[138.99866,35.24165],[138.99899,35.24178],[138.9992,35.24193],[138.99949,35.24236],[138.99974,35.24289],[138.99976,35.24311],[138.99967,35.24346],[138.99951,35.24367],[138.99854,35.2446],[138.99849,35.24471],[138.99843,35.24533],[138.99838,35.24543],[138.99826,35.24558],[138.99789,35.24583],[138.99772,35.24619],[138.99749,35.24651],[138.99687,35.24704],[138.9968,35.24729],[138.99694,35.24752],[138.9975,35.24789],[138.99776,35.24802],[138.99828,35.24814],[138.99839,35.24822],[138.99845,35.24836],[138.99847,35.24883],[138.99877,35.24924],[138.99877,35.24941],[138.99867,35.24975],[138.99871,35.25004],[138.99887,35.25019],[138.99945,35.25045],[138.99958,35.25064],[138.99958,35.25076],[138.99947,35.25101],[138.99789,35.25213],[138.99783,35.2522],[138.99781,35.25241],[138.99791,35.25252],[138.99813,35.25258],[138.99969,35.25259],[138.99982,35.25266],[139.00009,35.25298],[139.00013,35.25307],[139.00006,35.25333],[138.99946,35.25423],[138.99937,35.25466],[138.99937,35.25491],[138.99948,35.25507],[138.99958,35.25514],[139.00025,35.25528],[139.00039,35.25533],[139.00046,35.25542],[139.00061,35.25631],[139.00088,35.25884],[139.00112,35.25922],[139.00179,35.25957]]}},{"type":"Feature","properties":{"idx":108,"road":"湯河原箱根仙石原線","cls":"primary","shops":5,"st_km":3.81,"mesh":"52386789"},"geometry":{"type":"LineString","coordinates":[[138.99571,35.23779],[138.99526,35.23804],[138.99479,35.23839]]}},{"type":"Feature","properties":{"idx":31,"road":"湯河原箱根仙石原線","cls":"primary","shops":0,"st_km":3.51,"mesh":"52386789"},"geometry":{"type":"LineString","coordinates":[[138.9983,35.23481],[138.99806,35.23765],[138.99808,35.23784],[138.99819,35.23794],[138.99914,35.23804],[138.99983,35.23835],[139.00023,35.23837],[139.00166,35.23781],[139.00201,35.23739],[139.00206,35.23706]]}},{"type":"Feature","properties":{"idx":18,"road":"芦ノ湖スカイライン湖尻線","cls":"tertiary","shops":0,"st_km":4.56,"mesh":"52386788"},"geometry":{"type":"LineString","coordinates":[[138.98661,35.24071],[138.98636,35.24066],[138.98585,35.2404]]}},{"type":"Feature","properties":{"idx":31,"road":"湯河原箱根仙石原線","cls":"primary","shops":0,"st_km":3.66,"mesh":"52386789"},"geometry":{"type":"LineString","coordinates":[[138.99782,35.23479],[138.99762,35.23632],[138.99745,35.23667],[138.99722,35.23694],[138.9965,35.23754],[138.99571,35.23779]]}},{"type":"Feature","properties":{"idx":47,"road":"姥子通り","cls":"tertiary","shops":0,"st_km":3.35,"mesh":"52386799"},"geometry":{"type":"LineString","coordinates":[[138.9987,35.24913],[138.99872,35.249],[138.99865,35.24875],[138.99879,35.24838],[138.99889,35.24829],[138.99907,35.24836],[138.99933,35.24857],[138.99954,35.24885],[138.9997,35.24889],[139.00008,35.24888]]}},{"type":"Feature","properties":{"idx":18,"road":NaN,"cls":"tertiary","shops":0,"st_km":4.52,"mesh":"52386788"},"geometry":{"type":"LineString","coordinates":[[138.98674,35.2407],[138.98661,35.24071]]}},{"type":"Feature","properties":{"idx":20,"road":"長尾芦川線","cls":"secondary","shops":0,"st_km":4.56,"mesh":"52386788"},"geometry":{"type":"LineString","coordinates":[[138.98589,35.23944],[138.98619,35.23965],[138.98633,35.23982],[138.98633,35.24049],[138.98661,35.24065],[138.98661,35.24071]]}},{"type":"Feature","properties":{"idx":47,"road":"湯河原箱根仙石原線","cls":"primary","shops":1,"st_km":3.67,"mesh":"52386789"},"geometry":{"type":"LineString","coordinates":[[138.99813,35.23455],[138.99827,35.23463]]}},{"type":"Feature","properties":{"idx":78,"road":"湯河原箱根仙石原線","cls":"primary","shops":3,"st_km":3.69,"mesh":"52386789"},"geometry":{"type":"LineString","coordinates":[[138.99793,35.23457],[138.99813,35.23455]]}},{"type":"Feature","properties":{"idx":18,"road":"芦ノ湖スカイライン湖尻線","cls":"tertiary","shops":0,"st_km":5.09,"mesh":"52386788"},"geometry":{"type":"LineString","coordinates":[[138.98585,35.2404],[138.98542,35.24018],[138.9846,35.23996],[138.98446,35.23984],[138.98441,35.23958],[138.98451,35.23896],[138.9844,35.23857],[138.9844,35.23817],[138.98428,35.238],[138.98401,35.23795],[138.98308,35.23797],[138.98257,35.23785],[138.98232,35.23771],[138.98165,35.23713],[138.98146,35.23686],[138.98128,35.23626],[138.98128,35.23608],[138.98146,35.23575],[138.98148,35.23555],[138.98117,35.23514],[138.98114,35.23502],[138.98117,35.23476],[138.98112,35.23439],[138.98116,35.23426],[138.98128,35.23414],[138.98161,35.23399],[138.98208,35.23362],[138.98244,35.23353],[138.98262,35.23338],[138.98255,35.23312],[138.98242,35.23296],[138.98239,35.23282],[138.98244,35.23246],[138.9824,35.23236],[138.98181,35.23196],[138.98147,35.23196],[138.9809,35.23211],[138.98069,35.23212],[138.98045,35.23209],[138.98013,35.23199],[138.97988,35.23179],[138.97958,35.23136],[138.9791,35.23109]]}},{"type":"Feature","properties":{"idx":3,"road":NaN,"cls":"tertiary","shops":0,"st_km":5.47,"mesh":"52386778"},"geometry":{"type":"LineString","coordinates":[[138.97866,35.2311],[138.97876,35.23103],[138.97896,35.23102]]}},{"type":"Feature","properties":{"idx":3,"road":"芦ノ湖スカイライン湖尻線","cls":"tertiary","shops":0,"st_km":5.46,"mesh":"52386778"},"geometry":{"type":"LineString","coordinates":[[138.97876,35.23092],[138.97896,35.23102]]}},{"type":"Feature","properties":{"idx":4,"road":"芦ノ湖スカイライン湖尻線","cls":"tertiary","shops":0,"st_km":5.45,"mesh":"52386778"},"geometry":{"type":"LineString","coordinates":[[138.97905,35.23106],[138.97896,35.23102]]}},{"type":"Feature","properties":{"idx":4,"road":"芦ノ湖スカイライン湖尻線","cls":"tertiary","shops":0,"st_km":5.44,"mesh":"52386778"},"geometry":{"type":"LineString","coordinates":[[138.9791,35.23109],[138.97905,35.23106]]}},{"type":"Feature","properties":{"idx":47,"road":"湯河原箱根仙石原線","cls":"primary","shops":1,"st_km":3.65,"mesh":"52386789"},"geometry":{"type":"LineString","coordinates":[[138.9983,35.23473],[138.9983,35.23481]]}},{"type":"Feature","properties":{"idx":47,"road":"湯河原箱根仙石原線","cls":"primary","shops":1,"st_km":3.66,"mesh":"52386789"},"geometry":{"type":"LineString","coordinates":[[138.99827,35.23463],[138.9983,35.23473]]}},{"type":"Feature","properties":{"idx":62,"road":"湯河原箱根仙石原線","cls":"primary","shops":2,"st_km":3.69,"mesh":"52386789"},"geometry":{"type":"LineString","coordinates":[[138.99783,35.2347],[138.99782,35.23479]]}},{"type":"Feature","properties":{"idx":62,"road":"湯河原箱根仙石原線","cls":"primary","shops":2,"st_km":3.7,"mesh":"52386789"},"geometry":{"type":"LineString","coordinates":[[138.99793,35.23457],[138.99783,35.2347]]}}]}