{"type":"FeatureCollection","features":[{"type":"Feature","properties":{"idx":174,"road":NaN,"cls":"pedestrian","shops":11,"st_km":0.24,"mesh":"52397368"},"geometry":{"type":"LineString","coordinates":[[139.4847,35.30776],[139.48454,35.30759]]}},{"type":"Feature","properties":{"idx":58,"road":NaN,"cls":"tertiary","shops":4,"st_km":0.25,"mesh":"52397368"},"geometry":{"type":"LineString","coordinates":[[139.48455,35.30749],[139.48448,35.3074]]}},{"type":"Feature","properties":{"idx":32,"road":NaN,"cls":"pedestrian","shops":2,"st_km":0.78,"mesh":"52397368"},"geometry":{"type":"LineString","coordinates":[[139.48129,35.30248],[139.48123,35.30232]]}},{"type":"Feature","properties":{"idx":1399,"road":NaN,"cls":"tertiary","shops":2,"st_km":0.37,"mesh":"52397388"},"geometry":{"type":"LineString","coordinates":[[139.48668,35.32442],[139.48764,35.32428]]}},{"type":"Feature","properties":{"idx":48,"road":NaN,"cls":"pedestrian","shops":4,"st_km":0.78,"mesh":"52397368"},"geometry":{"type":"LineString","coordinates":[[139.48125,35.30238],[139.48135,35.30241],[139.48142,35.3025]]}},{"type":"Feature","properties":{"idx":12,"road":"湘南港臨港道路","cls":"tertiary","shops":0,"st_km":0.74,"mesh":"52397368"},"geometry":{"type":"LineString","coordinates":[[139.48168,35.30298],[139.48159,35.30267],[139.48163,35.30241]]}},{"type":"Feature","properties":{"idx":43,"road":NaN,"cls":"pedestrian","shops":1,"st_km":0.16,"mesh":"52397368"},"geometry":{"type":"LineString","coordinates":[[139.48446,35.30794],[139.48376,35.30848]]}},{"type":"Feature","properties":{"idx":3615,"road":NaN,"cls":"pedestrian","shops":17,"st_km":0.11,"mesh":"52397378"},"geometry":{"type":"LineString","coordinates":[[139.48376,35.30848],[139.48358,35.30862]]}},{"type":"Feature","properties":{"idx":161,"road":NaN,"cls":"pedestrian","shops":10,"st_km":0.24,"mesh":"52397368"},"geometry":{"type":"LineString","coordinates":[[139.4845,35.30766],[139.48455,35.30761]]}},{"type":"Feature","properties":{"idx":208,"road":"新屋敷橋","cls":"tertiary","shops":0,"st_km":0.42,"mesh":"52397389"},"geometry":{"type":"LineString","coordinates":[[139.48764,35.32428],[139.48818,35.32421]]}},{"type":"Feature","properties":{"idx":163,"road":NaN,"cls":"tertiary","shops":0,"st_km":0.68,"mesh":"52397389"},"geometry":{"type":"LineString","coordinates":[[139.49448,35.32309],[139.49116,35.32378],[139.48818,35.32421]]}},{"type":"Feature","properties":{"idx":457,"road":"腰越大船線","cls":"secondary","shops":0,"st_km":0.3,"mesh":"52397379"},"geometry":{"type":"LineString","coordinates":[[139.49269,35.30861],[139.49329,35.30891],[139.49346,35.30906],[139.49385,35.30955],[139.49411,35.30976],[139.49434,35.30987],[139.49623,35.31039],[139.49656,35.31056],[139.49727,35.31113],[139.49877,35.31189]]}},{"type":"Feature","properties":{"idx":606,"road":"辻堂駅南海岸線（海浜公園通り）","cls":"tertiary","shops":0,"st_km":0.98,"mesh":"52397395"},"geometry":{"type":"LineString","coordinates":[[139.44786,35.3228],[139.44765,35.32692],[139.44725,35.33335]]}},{"type":"Feature","properties":{"idx":3067,"road":"辻堂停車場辻堂線","cls":"secondary","shops":2,"st_km":0.77,"mesh":"52397396"},"geometry":{"type":"LineString","coordinates":[[139.44978,35.33575],[139.45051,35.33298],[139.45301,35.32717]]}},{"type":"Feature","properties":{"idx":1055,"road":NaN,"cls":"tertiary","shops":0,"st_km":0.12,"mesh":"52397392"},"geometry":{"type":"LineString","coordinates":[[139.41136,35.33071],[139.40833,35.33045],[139.40743,35.33018],[139.40733,35.33014],[139.40733,35.33007]]}},{"type":"Feature","properties":{"idx":645,"road":"鵠沼新道","cls":"tertiary","shops":0,"st_km":0.46,"mesh":"52397397"},"geometry":{"type":"LineString","coordinates":[[139.47287,35.33483],[139.47261,35.33454],[139.47115,35.33212],[139.46829,35.32857],[139.46768,35.32722]]}},{"type":"Feature","properties":{"idx":3999,"road":"茅ヶ崎中央通り","cls":"secondary","shops":6,"st_km":0.28,"mesh":"52397392"},"geometry":{"type":"LineString","coordinates":[[139.40595,35.33162],[139.40563,35.33318]]}},{"type":"Feature","properties":{"idx":816,"road":"茅ヶ崎停車場茅ヶ崎線(雄三通り)","cls":"secondary","shops":0,"st_km":0.99,"mesh":"52397382"},"geometry":{"type":"LineString","coordinates":[[139.40816,35.31868],[139.40828,35.32477]]}},{"type":"Feature","properties":{"idx":572,"road":"サザン通り","cls":"tertiary","shops":0,"st_km":0.73,"mesh":"52397392"},"geometry":{"type":"LineString","coordinates":[[139.40156,35.32433],[139.40245,35.32546],[139.40281,35.32639],[139.40357,35.32718]]}},{"type":"Feature","properties":{"idx":742,"road":"茅ヶ崎ツインウェーブ","cls":"tertiary","shops":0,"st_km":0.46,"mesh":"52397392"},"geometry":{"type":"LineString","coordinates":[[139.40441,35.32921],[139.40351,35.32899],[139.40339,35.32904],[139.40328,35.32919],[139.4033,35.32928],[139.40343,35.32942],[139.40424,35.32973]]}},{"type":"Feature","properties":{"idx":1292,"road":NaN,"cls":"tertiary","shops":1,"st_km":0.31,"mesh":"52397392"},"geometry":{"type":"LineString","coordinates":[[139.40424,35.32973],[139.40455,35.32987],[139.40462,35.32995],[139.40474,35.33061]]}},{"type":"Feature","properties":{"idx":1187,"road":"一中通り","cls":"tertiary","shops":0,"st_km":0.64,"mesh":"52397393"},"geometry":{"type":"LineString","coordinates":[[139.41492,35.32498],[139.41458,35.32757],[139.41448,35.32888],[139.41448,35.32973],[139.41465,35.33206]]}},{"type":"Feature","properties":{"idx":1132,"road":NaN,"cls":"tertiary","shops":0,"st_km":1.24,"mesh":"52397391"},"geometry":{"type":"LineString","coordinates":[[139.39452,35.32908],[139.39436,35.32959],[139.39424,35.32982]]}},{"type":"Feature","properties":{"idx":864,"road":"鉄砲道","cls":"tertiary","shops":0,"st_km":1.16,"mesh":"52397381"},"geometry":{"type":"LineString","coordinates":[[139.40828,35.32477],[139.40724,35.32472],[139.4046,35.32427],[139.40407,35.32422],[139.40347,35.32421],[139.40148,35.32434],[139.40076,35.32432],[139.39815,35.32391],[139.39396,35.32306],[139.38833,35.3225]]}},{"type":"Feature","properties":{"idx":85,"road":NaN,"cls":"tertiary","shops":0,"st_km":1.55,"mesh":"52397385"},"geometry":{"type":"LineString","coordinates":[[139.44151,35.32291],[139.44786,35.3228]]}},{"type":"Feature","properties":{"idx":423,"road":NaN,"cls":"tertiary","shops":0,"st_km":1.69,"mesh":"52397386"},"geometry":{"type":"LineString","coordinates":[[139.45236,35.32244],[139.45243,35.32273]]}},{"type":"Feature","properties":{"idx":78,"road":NaN,"cls":"tertiary","shops":0,"st_km":1.7,"mesh":"52397385"},"geometry":{"type":"LineString","coordinates":[[139.44432,35.32287],[139.44424,35.32099],[139.44414,35.32027]]}},{"type":"Feature","properties":{"idx":547,"road":NaN,"cls":"tertiary","shops":0,"st_km":1.11,"mesh":"52397395"},"geometry":{"type":"LineString","coordinates":[[139.43856,35.33294],[139.43821,35.32929],[139.43788,35.3276],[139.43745,35.32631],[139.43726,35.32526]]}},{"type":"Feature","properties":{"idx":530,"road":"桜道","cls":"tertiary","shops":0,"st_km":1.7,"mesh":"52397394"},"geometry":{"type":"LineString","coordinates":[[139.43856,35.33294],[139.42818,35.33265],[139.4277,35.33268],[139.42572,35.33293],[139.42202,35.33295],[139.41954,35.33276],[139.41776,35.33272],[139.41465,35.33206]]}},{"type":"Feature","properties":{"idx":1130,"road":"一中通り","cls":"tertiary","shops":0,"st_km":0.69,"mesh":"52397393"},"geometry":{"type":"LineString","coordinates":[[139.41481,35.33301],[139.4149,35.33356]]}},{"type":"Feature","properties":{"idx":135,"road":NaN,"cls":"tertiary","shops":1,"st_km":2.44,"mesh":"52397380"},"geometry":{"type":"LineString","coordinates":[[139.38695,35.31698],[139.38694,35.31707]]}},{"type":"Feature","properties":{"idx":2060,"road":NaN,"cls":"tertiary","shops":0,"st_km":0.22,"mesh":"52397398"},"geometry":{"type":"LineString","coordinates":[[139.48506,35.32853],[139.48482,35.32827],[139.48351,35.32786],[139.48292,35.32757],[139.48248,35.32715],[139.48141,35.32567]]}},{"type":"Feature","properties":{"idx":1548,"road":NaN,"cls":"pedestrian","shops":0,"st_km":0.39,"mesh":"52397399"},"geometry":{"type":"LineString","coordinates":[[139.49161,35.33294],[139.49119,35.33262],[139.49001,35.33191],[139.48969,35.3316],[139.48949,35.33123],[139.48912,35.32984]]}},{"type":"Feature","properties":{"idx":2020,"road":NaN,"cls":"tertiary","shops":0,"st_km":0.16,"mesh":"52397398"},"geometry":{"type":"LineString","coordinates":[[139.48676,35.3321],[139.4871,35.33332],[139.4875,35.33443]]}},{"type":"Feature","properties":{"idx":760,"road":NaN,"cls":"pedestrian","shops":0,"st_km":0.25,"mesh":"52397387"},"geometry":{"type":"LineString","coordinates":[[139.47327,35.32267],[139.47282,35.32232]]}},{"type":"Feature","properties":{"idx":412,"road":NaN,"cls":"tertiary","shops":0,"st_km":0.56,"mesh":"52397387"},"geometry":{"type":"LineString","coordinates":[[139.46739,35.32387],[139.46615,35.3245]]}},{"type":"Feature","properties":{"idx":864,"road":NaN,"cls":"pedestrian","shops":0,"st_km":0.5,"mesh":"52397397"},"geometry":{"type":"LineString","coordinates":[[139.47007,35.32537],[139.46996,35.32493]]}},{"type":"Feature","properties":{"idx":795,"road":NaN,"cls":"pedestrian","shops":0,"st_km":0.59,"mesh":"52397397"},"geometry":{"type":"LineString","coordinates":[[139.47112,35.32618],[139.47134,35.32591]]}},{"type":"Feature","properties":{"idx":876,"road":NaN,"cls":"pedestrian","shops":0,"st_km":0.57,"mesh":"52397388"},"geometry":{"type":"LineString","coordinates":[[139.47496,35.31698],[139.47549,35.31661]]}},{"type":"Feature","properties":{"idx":1923,"road":NaN,"cls":"pedestrian","shops":2,"st_km":0.03,"mesh":"52397387"},"geometry":{"type":"LineString","coordinates":[[139.47105,35.32063],[139.47115,35.32068],[139.47152,35.32021]]}},{"type":"Feature","properties":{"idx":394,"road":NaN,"cls":"tertiary","shops":0,"st_km":0.6,"mesh":"52397387"},"geometry":{"type":"LineString","coordinates":[[139.46394,35.31998],[139.46462,35.31969],[139.46538,35.31909]]}},{"type":"Feature","properties":{"idx":468,"road":NaN,"cls":"tertiary","shops":0,"st_km":0.42,"mesh":"52397387"},"geometry":{"type":"LineString","coordinates":[[139.46538,35.31909],[139.46601,35.31877],[139.46655,35.31879],[139.46688,35.31875],[139.46948,35.31788]]}},{"type":"Feature","properties":{"idx":409,"road":NaN,"cls":"tertiary","shops":0,"st_km":0.97,"mesh":"52397397"},"geometry":{"type":"LineString","coordinates":[[139.46575,35.32804],[139.4644,35.32877]]}},{"type":"Feature","properties":{"idx":387,"road":NaN,"cls":"tertiary","shops":0,"st_km":1.04,"mesh":"52397397"},"geometry":{"type":"LineString","coordinates":[[139.46415,35.32891],[139.46403,35.32898]]}},{"type":"Feature","properties":{"idx":391,"road":NaN,"cls":"tertiary","shops":0,"st_km":1.03,"mesh":"52397397"},"geometry":{"type":"LineString","coordinates":[[139.4644,35.32877],[139.46415,35.32891]]}},{"type":"Feature","properties":{"idx":354,"road":"鵠沼新道","cls":"tertiary","shops":0,"st_km":0.72,"mesh":"52397387"},"geometry":{"type":"LineString","coordinates":[[139.46357,35.31942],[139.46338,35.31916]]}},{"type":"Feature","properties":{"idx":326,"road":"鵠沼新道","cls":"tertiary","shops":0,"st_km":0.82,"mesh":"52397387"},"geometry":{"type":"LineString","coordinates":[[139.46331,35.31907],[139.46229,35.31769],[139.46221,35.3175]]}},{"type":"Feature","properties":{"idx":633,"road":NaN,"cls":"pedestrian","shops":0,"st_km":0.44,"mesh":"52397387"},"geometry":{"type":"LineString","coordinates":[[139.46654,35.32005],[139.46648,35.31996],[139.4665,35.31983]]}},{"type":"Feature","properties":{"idx":2855,"road":NaN,"cls":"pedestrian","shops":0,"st_km":0.14,"mesh":"52397398"},"geometry":{"type":"LineString","coordinates":[[139.48686,35.33155],[139.48629,35.33153]]}},{"type":"Feature","properties":{"idx":666,"road":NaN,"cls":"pedestrian","shops":0,"st_km":0.39,"mesh":"52397387"},"geometry":{"type":"LineString","coordinates":[[139.47359,35.31783],[139.47371,35.31794]]}},{"type":"Feature","properties":{"idx":293,"road":NaN,"cls":"pedestrian","shops":0,"st_km":0.25,"mesh":"52397378"},"geometry":{"type":"LineString","coordinates":[[139.4808,35.31399],[139.48112,35.31419]]}},{"type":"Feature","properties":{"idx":239,"road":NaN,"cls":"pedestrian","shops":0,"st_km":0.46,"mesh":"52397378"},"geometry":{"type":"LineString","coordinates":[[139.47857,35.31362],[139.47867,35.31369]]}},{"type":"Feature","properties":{"idx":361,"road":NaN,"cls":"pedestrian","shops":1,"st_km":0.45,"mesh":"52397378"},"geometry":{"type":"LineString","coordinates":[[139.47909,35.31289],[139.47923,35.31298]]}},{"type":"Feature","properties":{"idx":214,"road":NaN,"cls":"pedestrian","shops":0,"st_km":0.58,"mesh":"52397378"},"geometry":{"type":"LineString","coordinates":[[139.47684,35.31549],[139.47698,35.31558]]}},{"type":"Feature","properties":{"idx":232,"road":NaN,"cls":"pedestrian","shops":0,"st_km":0.61,"mesh":"52397378"},"geometry":{"type":"LineString","coordinates":[[139.47538,35.31652],[139.4755,35.31644]]}},{"type":"Feature","properties":{"idx":126,"road":NaN,"cls":"tertiary_link","shops":0,"st_km":2.21,"mesh":"52397384"},"geometry":{"type":"LineString","coordinates":[[139.43297,35.32007],[139.4325,35.32009],[139.43234,35.32014]]}},{"type":"Feature","properties":{"idx":244,"road":NaN,"cls":"tertiary","shops":0,"st_km":1.79,"mesh":"52397384"},"geometry":{"type":"LineString","coordinates":[[139.43459,35.32189],[139.43426,35.32248],[139.43411,35.32288],[139.43342,35.32525],[139.43339,35.32551],[139.43344,35.32574],[139.43378,35.3264]]}},{"type":"Feature","properties":{"idx":394,"road":NaN,"cls":"tertiary","shops":1,"st_km":1.65,"mesh":"52397384"},"geometry":{"type":"LineString","coordinates":[[139.43581,35.3228],[139.43556,35.32489],[139.4356,35.32521],[139.43599,35.3263]]}},{"type":"Feature","properties":{"idx":229,"road":NaN,"cls":"tertiary","shops":0,"st_km":0.34,"mesh":"52397389"},"geometry":{"type":"LineString","coordinates":[[139.49409,35.31651],[139.49367,35.31659],[139.49353,35.31672],[139.49349,35.31685],[139.49448,35.32309]]}},{"type":"Feature","properties":{"idx":36,"road":"江の島弁財天仲見世通り","cls":"pedestrian","shops":3,"st_km":0.9,"mesh":"52397368"},"geometry":{"type":"LineString","coordinates":[[139.48108,35.3021],[139.48092,35.30188],[139.48037,35.30075]]}},{"type":"Feature","properties":{"idx":300,"road":NaN,"cls":"pedestrian","shops":0,"st_km":0.34,"mesh":"52397378"},"geometry":{"type":"LineString","coordinates":[[139.48033,35.31151],[139.4802,35.31143]]}},{"type":"Feature","properties":{"idx":1410,"road":NaN,"cls":"pedestrian","shops":5,"st_km":0.05,"mesh":"52397378"},"geometry":{"type":"LineString","coordinates":[[139.4835,35.30929],[139.4835,35.30955]]}},{"type":"Feature","properties":{"idx":588,"road":NaN,"cls":"pedestrian","shops":0,"st_km":0.93,"mesh":"52397397"},"geometry":{"type":"LineString","coordinates":[[139.46384,35.32726],[139.46315,35.32539]]}},{"type":"Feature","properties":{"idx":638,"road":NaN,"cls":"tertiary","shops":1,"st_km":0.25,"mesh":"52397379"},"geometry":{"type":"LineString","coordinates":[[139.48957,35.31073],[139.49068,35.3099],[139.49269,35.30861]]}},{"type":"Feature","properties":{"idx":694,"road":"サザン通り","cls":"tertiary","shops":0,"st_km":1.47,"mesh":"52397381"},"geometry":{"type":"LineString","coordinates":[[139.39938,35.31862],[139.3998,35.32005]]}},{"type":"Feature","properties":{"idx":392,"road":"柳島通り","cls":"tertiary","shops":0,"st_km":2.56,"mesh":"52397390"},"geometry":{"type":"LineString","coordinates":[[139.37659,35.3264],[139.37695,35.32631],[139.37749,35.32585]]}},{"type":"Feature","properties":{"idx":381,"road":NaN,"cls":"tertiary","shops":0,"st_km":2.67,"mesh":"52397390"},"geometry":{"type":"LineString","coordinates":[[139.38111,35.32913],[139.37979,35.32852],[139.37895,35.32785],[139.37873,35.32775],[139.3782,35.32729],[139.37787,35.32689],[139.37744,35.32658],[139.37731,35.32619],[139.37723,35.32609]]}},{"type":"Feature","properties":{"idx":82,"road":NaN,"cls":"tertiary","shops":0,"st_km":2.78,"mesh":"52397380"},"geometry":{"type":"LineString","coordinates":[[139.38204,35.31738],[139.38211,35.31745]]}},{"type":"Feature","properties":{"idx":1106,"road":"上山大橋","cls":"tertiary","shops":0,"st_km":0.41,"mesh":"52397399"},"geometry":{"type":"LineString","coordinates":[[139.48862,35.32994],[139.48906,35.32985]]}},{"type":"Feature","properties":{"idx":1190,"road":"ラチエン通り","cls":"tertiary","shops":1,"st_km":1.61,"mesh":"52397383"},"geometry":{"type":"LineString","coordinates":[[139.4188,35.31976],[139.41859,35.31871],[139.41862,35.31824]]}},{"type":"Feature","properties":{"idx":890,"road":NaN,"cls":"tertiary","shops":0,"st_km":1.3,"mesh":"52397396"},"geometry":{"type":"LineString","coordinates":[[139.45793,35.33226],[139.45967,35.33135]]}},{"type":"Feature","properties":{"idx":1082,"road":NaN,"cls":"tertiary","shops":0,"st_km":0.43,"mesh":"52397399"},"geometry":{"type":"LineString","coordinates":[[139.4892,35.32983],[139.48906,35.32985]]}},{"type":"Feature","properties":{"idx":465,"road":NaN,"cls":"tertiary","shops":0,"st_km":2.06,"mesh":"52397390"},"geometry":{"type":"LineString","coordinates":[[139.38861,35.327],[139.38658,35.32694],[139.38551,35.32637],[139.38487,35.32611],[139.38418,35.32596],[139.38333,35.32588]]}},{"type":"Feature","properties":{"idx":545,"road":NaN,"cls":"tertiary_link","shops":0,"st_km":1.64,"mesh":"52397391"},"geometry":{"type":"LineString","coordinates":[[139.39037,35.3293],[139.38997,35.32956],[139.3895,35.32958]]}},{"type":"Feature","properties":{"idx":1963,"road":NaN,"cls":"tertiary","shops":2,"st_km":0.18,"mesh":"52397392"},"geometry":{"type":"LineString","coordinates":[[139.40701,35.33347],[139.407,35.33111],[139.40689,35.33101],[139.40656,35.33092]]}},{"type":"Feature","properties":{"idx":829,"road":NaN,"cls":"tertiary","shops":0,"st_km":0.35,"mesh":"52397392"},"geometry":{"type":"LineString","coordinates":[[139.40446,35.3328],[139.40436,35.33065]]}},{"type":"Feature","properties":{"idx":1017,"road":NaN,"cls":"tertiary","shops":0,"st_km":0.15,"mesh":"52397392"},"geometry":{"type":"LineString","coordinates":[[139.40735,35.32982],[139.40796,35.32982],[139.40947,35.33],[139.4111,35.33053],[139.41136,35.33071]]}},{"type":"Feature","properties":{"idx":576,"road":NaN,"cls":"tertiary","shops":0,"st_km":0.73,"mesh":"52397392"},"geometry":{"type":"LineString","coordinates":[[139.40085,35.3312],[139.40013,35.33241],[139.3998,35.33327]]}},{"type":"Feature","properties":{"idx":1238,"road":"茅ヶ崎ツインウェーブ","cls":"tertiary","shops":1,"st_km":0.35,"mesh":"52397392"},"geometry":{"type":"LineString","coordinates":[[139.40465,35.32928],[139.40441,35.32921]]}},{"type":"Feature","properties":{"idx":1029,"road":NaN,"cls":"tertiary","shops":0,"st_km":1.38,"mesh":"52397391"},"geometry":{"type":"LineString","coordinates":[[139.3945,35.33324],[139.39177,35.33293]]}},{"type":"Feature","properties":{"idx":92,"road":NaN,"cls":"tertiary","shops":0,"st_km":2.37,"mesh":"52397380"},"geometry":{"type":"LineString","coordinates":[[139.38333,35.32588],[139.3834,35.32542],[139.3834,35.3251],[139.38328,35.32431],[139.38323,35.32318],[139.38317,35.32284],[139.38324,35.3219]]}},{"type":"Feature","properties":{"idx":1117,"road":NaN,"cls":"tertiary","shops":0,"st_km":1.26,"mesh":"52397391"},"geometry":{"type":"LineString","coordinates":[[139.39424,35.32982],[139.39407,35.33007]]}},{"type":"Feature","properties":{"idx":1068,"road":NaN,"cls":"tertiary","shops":0,"st_km":1.32,"mesh":"52397391"},"geometry":{"type":"LineString","coordinates":[[139.39407,35.33007],[139.39381,35.33051],[139.39379,35.33068],[139.39363,35.3332],[139.39293,35.33548]]}},{"type":"Feature","properties":{"idx":455,"road":NaN,"cls":"tertiary","shops":0,"st_km":1.56,"mesh":"52397386"},"geometry":{"type":"LineString","coordinates":[[139.45036,35.32388],[139.45044,35.32259]]}},{"type":"Feature","properties":{"idx":673,"road":NaN,"cls":"pedestrian","shops":0,"st_km":1.26,"mesh":"52397395"},"geometry":{"type":"LineString","coordinates":[[139.44919,35.32516],[139.44923,35.32521],[139.44912,35.32646]]}},{"type":"Feature","properties":{"idx":644,"road":NaN,"cls":"pedestrian","shops":0,"st_km":1.32,"mesh":"52397395"},"geometry":{"type":"LineString","coordinates":[[139.44772,35.32505],[139.44909,35.32519],[139.44919,35.32516]]}},{"type":"Feature","properties":{"idx":90,"road":NaN,"cls":"tertiary","shops":0,"st_km":1.47,"mesh":"52397385"},"geometry":{"type":"LineString","coordinates":[[139.44779,35.3238],[139.45036,35.32388]]}},{"type":"Feature","properties":{"idx":608,"road":NaN,"cls":"pedestrian","shops":0,"st_km":0.89,"mesh":"52397397"},"geometry":{"type":"LineString","coordinates":[[139.46309,35.32523],[139.46315,35.32539]]}},{"type":"Feature","properties":{"idx":482,"road":NaN,"cls":"tertiary","shops":0,"st_km":0.14,"mesh":"52397379"},"geometry":{"type":"LineString","coordinates":[[139.49613,35.31647],[139.49613,35.31632],[139.49624,35.31612],[139.49681,35.316],[139.49656,35.31553]]}},{"type":"Feature","properties":{"idx":299,"road":NaN,"cls":"tertiary","shops":0,"st_km":0.07,"mesh":"52397389"},"geometry":{"type":"LineString","coordinates":[[139.49609,35.31718],[139.49609,35.31679],[139.49664,35.31673],[139.49667,35.31668],[139.49661,35.31643],[139.49613,35.31647]]}},{"type":"Feature","properties":{"idx":226,"road":NaN,"cls":"tertiary","shops":0,"st_km":0.35,"mesh":"52397389"},"geometry":{"type":"LineString","coordinates":[[139.50046,35.31828],[139.50017,35.31823],[139.49985,35.31802],[139.49964,35.31804],[139.49946,35.31815]]}},{"type":"Feature","properties":{"idx":194,"road":NaN,"cls":"tertiary","shops":0,"st_km":0.51,"mesh":"52397389"},"geometry":{"type":"LineString","coordinates":[[139.49204,35.32142],[139.49163,35.31888]]}},{"type":"Feature","properties":{"idx":962,"road":NaN,"cls":"tertiary","shops":0,"st_km":0.56,"mesh":"52397399"},"geometry":{"type":"LineString","coordinates":[[139.48983,35.32804],[139.49031,35.32817],[139.49043,35.32824],[139.49057,35.32841],[139.49083,35.32897],[139.49124,35.33057],[139.49181,35.33172],[139.49211,35.33215],[139.49334,35.33374],[139.49365,35.33404],[139.49443,35.33457]]}},{"type":"Feature","properties":{"idx":169,"road":NaN,"cls":"tertiary","shops":0,"st_km":0.66,"mesh":"52397389"},"geometry":{"type":"LineString","coordinates":[[139.49452,35.32337],[139.49709,35.32311]]}},{"type":"Feature","properties":{"idx":208,"road":NaN,"cls":"tertiary","shops":0,"st_km":0.44,"mesh":"52397389"},"geometry":{"type":"LineString","coordinates":[[139.49136,35.32003],[139.49394,35.31976]]}},{"type":"Feature","properties":{"idx":414,"road":NaN,"cls":"tertiary","shops":0,"st_km":1.65,"mesh":"52397386"},"geometry":{"type":"LineString","coordinates":[[139.45243,35.32273],[139.45406,35.32266]]}},{"type":"Feature","properties":{"idx":518,"road":NaN,"cls":"pedestrian","shops":0,"st_km":1.83,"mesh":"52397386"},"geometry":{"type":"LineString","coordinates":[[139.45101,35.32035],[139.45109,35.3207]]}},{"type":"Feature","properties":{"idx":87,"road":NaN,"cls":"tertiary","shops":0,"st_km":1.52,"mesh":"52397385"},"geometry":{"type":"LineString","coordinates":[[139.44151,35.32291],[139.44157,35.32436]]}},{"type":"Feature","properties":{"idx":93,"road":NaN,"cls":"tertiary","shops":0,"st_km":1.42,"mesh":"52397385"},"geometry":{"type":"LineString","coordinates":[[139.44157,35.32436],[139.44324,35.32438]]}},{"type":"Feature","properties":{"idx":107,"road":NaN,"cls":"pedestrian","shops":0,"st_km":1.71,"mesh":"52397385"},"geometry":{"type":"LineString","coordinates":[[139.44792,35.3216],[139.44842,35.32158],[139.44928,35.32146]]}},{"type":"Feature","properties":{"idx":101,"road":NaN,"cls":"pedestrian","shops":0,"st_km":1.83,"mesh":"52397385"},"geometry":{"type":"LineString","coordinates":[[139.44928,35.32146],[139.44937,35.32128],[139.44949,35.32084],[139.44964,35.32073],[139.45105,35.3205]]}},{"type":"Feature","properties":{"idx":107,"road":NaN,"cls":"pedestrian","shops":0,"st_km":1.72,"mesh":"52397385"},"geometry":{"type":"LineString","coordinates":[[139.44641,35.32124],[139.44685,35.32129],[139.44766,35.32156],[139.44792,35.3216]]}},{"type":"Feature","properties":{"idx":602,"road":NaN,"cls":"tertiary","shops":0,"st_km":1.49,"mesh":"52397394"},"geometry":{"type":"LineString","coordinates":[[139.43522,35.32645],[139.43599,35.3263]]}},{"type":"Feature","properties":{"idx":1012,"road":NaN,"cls":"tertiary","shops":1,"st_km":1.32,"mesh":"52397394"},"geometry":{"type":"LineString","coordinates":[[139.43222,35.33294],[139.43218,35.33276]]}},{"type":"Feature","properties":{"idx":619,"road":NaN,"cls":"tertiary","shops":0,"st_km":1.45,"mesh":"52397394"},"geometry":{"type":"LineString","coordinates":[[139.43599,35.3263],[139.4374,35.32605]]}},{"type":"Feature","properties":{"idx":582,"road":NaN,"cls":"tertiary","shops":0,"st_km":1.55,"mesh":"52397394"},"geometry":{"type":"LineString","coordinates":[[139.43368,35.32637],[139.434,35.32648],[139.4344,35.32654],[139.43522,35.32645]]}},{"type":"Feature","properties":{"idx":537,"road":NaN,"cls":"tertiary","shops":0,"st_km":1.68,"mesh":"52397394"},"geometry":{"type":"LineString","coordinates":[[139.43249,35.32554],[139.4325,35.32586],[139.43368,35.32637]]}},{"type":"Feature","properties":{"idx":88,"road":NaN,"cls":"tertiary","shops":0,"st_km":2.51,"mesh":"52397380"},"geometry":{"type":"LineString","coordinates":[[139.3827,35.31958],[139.38287,35.3201],[139.38316,35.32064],[139.38324,35.3219]]}},{"type":"Feature","properties":{"idx":1411,"road":NaN,"cls":"tertiary","shops":0,"st_km":0.96,"mesh":"52397391"},"geometry":{"type":"LineString","coordinates":[[139.39735,35.33216],[139.39764,35.33115]]}},{"type":"Feature","properties":{"idx":11,"road":NaN,"cls":"living_street","shops":1,"st_km":1.0,"mesh":"52397368"},"geometry":{"type":"LineString","coordinates":[[139.48205,35.30089],[139.48211,35.30019],[139.48203,35.29998],[139.48193,35.29988]]}},{"type":"Feature","properties":{"idx":11,"road":NaN,"cls":"living_street","shops":1,"st_km":0.99,"mesh":"52397368"},"geometry":{"type":"LineString","coordinates":[[139.48192,35.30142],[139.48189,35.3002],[139.48174,35.29981],[139.48147,35.29948]]}},{"type":"Feature","properties":{"idx":105,"road":NaN,"cls":"living_street","shops":1,"st_km":1.05,"mesh":"52397358"},"geometry":{"type":"LineString","coordinates":[[139.48205,35.29983],[139.48179,35.29991]]}},{"type":"Feature","properties":{"idx":83,"road":"柳島通り","cls":"tertiary","shops":0,"st_km":2.73,"mesh":"52397380"},"geometry":{"type":"LineString","coordinates":[[139.38215,35.3175],[139.38143,35.31977]]}},{"type":"Feature","properties":{"idx":84,"road":"柳島通り","cls":"tertiary","shops":0,"st_km":2.7,"mesh":"52397380"},"geometry":{"type":"LineString","coordinates":[[139.38143,35.31977],[139.38131,35.32008],[139.37932,35.32387],[139.37834,35.32508],[139.37781,35.32557]]}},{"type":"Feature","properties":{"idx":84,"road":"鉄砲道","cls":"tertiary","shops":0,"st_km":2.69,"mesh":"52397380"},"geometry":{"type":"LineString","coordinates":[[139.38324,35.3219],[139.378,35.32082]]}},{"type":"Feature","properties":{"idx":316,"road":"鉄砲道","cls":"tertiary","shops":5,"st_km":2.42,"mesh":"52397380"},"geometry":{"type":"LineString","coordinates":[[139.3837,35.32199],[139.38342,35.32193]]}},{"type":"Feature","properties":{"idx":659,"road":NaN,"cls":"primary_link","shops":0,"st_km":1.71,"mesh":"52397383"},"geometry":{"type":"LineString","coordinates":[[139.41848,35.31812],[139.41835,35.31758]]}},{"type":"Feature","properties":{"idx":287,"road":"戸塚茅ヶ崎線（湘南新道）","cls":"primary","shops":0,"st_km":1.91,"mesh":"52397384"},"geometry":{"type":"LineString","coordinates":[[139.43346,35.32065],[139.43459,35.32189],[139.43509,35.32235],[139.43581,35.3228],[139.43676,35.32322]]}},{"type":"Feature","properties":{"idx":255,"road":NaN,"cls":"primary","shops":0,"st_km":2.2,"mesh":"52397384"},"geometry":{"type":"LineString","coordinates":[[139.43234,35.32014],[139.433,35.32025],[139.4332,35.32036]]}},{"type":"Feature","properties":{"idx":258,"road":"戸塚茅ヶ崎線（湘南新道）","cls":"primary","shops":0,"st_km":2.16,"mesh":"52397384"},"geometry":{"type":"LineString","coordinates":[[139.43353,35.3206],[139.43323,35.32019],[139.43305,35.32008]]}},{"type":"Feature","properties":{"idx":259,"road":NaN,"cls":"primary","shops":0,"st_km":2.15,"mesh":"52397384"},"geometry":{"type":"LineString","coordinates":[[139.43451,35.32018],[139.43332,35.32015],[139.43318,35.32026],[139.4332,35.32036]]}},{"type":"Feature","properties":{"idx":953,"road":"サザン通り","cls":"tertiary","shops":1,"st_km":1.16,"mesh":"52397382"},"geometry":{"type":"LineString","coordinates":[[139.3998,35.32005],[139.40005,35.32141],[139.40017,35.32173],[139.40156,35.32433]]}},{"type":"Feature","properties":{"idx":387,"road":NaN,"cls":"tertiary","shops":0,"st_km":2.61,"mesh":"52397390"},"geometry":{"type":"LineString","coordinates":[[139.37781,35.32557],[139.37749,35.32585]]}},{"type":"Feature","properties":{"idx":780,"road":"神戶橋","cls":"tertiary","shops":1,"st_km":0.05,"mesh":"52397379"},"geometry":{"type":"LineString","coordinates":[[139.49274,35.30858],[139.49288,35.30849]]}},{"type":"Feature","properties":{"idx":287,"road":NaN,"cls":"tertiary","shops":1,"st_km":0.1,"mesh":"52397369"},"geometry":{"type":"LineString","coordinates":[[139.49288,35.30849],[139.49493,35.30678],[139.49503,35.30658]]}},{"type":"Feature","properties":{"idx":319,"road":NaN,"cls":"pedestrian","shops":0,"st_km":0.16,"mesh":"52397378"},"geometry":{"type":"LineString","coordinates":[[139.48437,35.31621],[139.48458,35.31614],[139.4848,35.31615],[139.48501,35.31605]]}},{"type":"Feature","properties":{"idx":546,"road":NaN,"cls":"pedestrian","shops":1,"st_km":0.15,"mesh":"52397378"},"geometry":{"type":"LineString","coordinates":[[139.48167,35.3102],[139.48179,35.31031]]}},{"type":"Feature","properties":{"idx":483,"road":"産業道路","cls":"primary","shops":0,"st_km":2.62,"mesh":"52397390"},"geometry":{"type":"LineString","coordinates":[[139.37733,35.33288],[139.37714,35.33121]]}},{"type":"Feature","properties":{"idx":867,"road":NaN,"cls":"pedestrian","shops":0,"st_km":1.17,"mesh":"52397382"},"geometry":{"type":"LineString","coordinates":[[139.40365,35.32003],[139.4059,35.32089]]}},{"type":"Feature","properties":{"idx":486,"road":"相模原茅ヶ崎線","cls":"primary","shops":0,"st_km":2.59,"mesh":"52397390"},"geometry":{"type":"LineString","coordinates":[[139.37714,35.33121],[139.37712,35.33104]]}},{"type":"Feature","properties":{"idx":495,"road":"産業道路","cls":"primary","shops":0,"st_km":2.52,"mesh":"52397390"},"geometry":{"type":"LineString","coordinates":[[139.37712,35.33104],[139.37656,35.32623],[139.37645,35.32588],[139.37575,35.32424]]}},{"type":"Feature","properties":{"idx":139,"road":"湘南港臨港道路","cls":"tertiary","shops":1,"st_km":1.05,"mesh":"52397358"},"geometry":{"type":"LineString","coordinates":[[139.48247,35.30128],[139.48257,35.30104],[139.48275,35.30023],[139.48288,35.29993],[139.48317,35.29951],[139.48401,35.29862]]}},{"type":"Feature","properties":{"idx":17,"road":"湘南港臨港道路","cls":"tertiary","shops":1,"st_km":0.84,"mesh":"52397368"},"geometry":{"type":"LineString","coordinates":[[139.48171,35.30224],[139.48223,35.30166],[139.48247,35.30128]]}},{"type":"Feature","properties":{"idx":41,"road":"湘南港臨港道路","cls":"tertiary","shops":5,"st_km":0.78,"mesh":"52397368"},"geometry":{"type":"LineString","coordinates":[[139.48163,35.30241],[139.48171,35.30224]]}},{"type":"Feature","properties":{"idx":45,"road":"湘南港臨港道路","cls":"tertiary","shops":3,"st_km":0.31,"mesh":"52397368"},"geometry":{"type":"LineString","coordinates":[[139.48448,35.3074],[139.48317,35.30617],[139.48293,35.30573]]}},{"type":"Feature","properties":{"idx":80,"road":NaN,"cls":"pedestrian","shops":4,"st_km":0.25,"mesh":"52397368"},"geometry":{"type":"LineString","coordinates":[[139.48454,35.30759],[139.48422,35.30728]]}},{"type":"Feature","properties":{"idx":26,"road":NaN,"cls":"pedestrian","shops":0,"st_km":0.26,"mesh":"52397368"},"geometry":{"type":"LineString","coordinates":[[139.48422,35.30728],[139.48402,35.30709]]}},{"type":"Feature","properties":{"idx":26,"road":NaN,"cls":"pedestrian","shops":0,"st_km":0.25,"mesh":"52397368"},"geometry":{"type":"LineString","coordinates":[[139.48416,35.30729],[139.4842,35.30726]]}},{"type":"Feature","properties":{"idx":308,"road":"戸塚茅ヶ崎線（湘南新道）","cls":"primary","shops":0,"st_km":1.77,"mesh":"52397384"},"geometry":{"type":"LineString","coordinates":[[139.43988,35.32453],[139.43605,35.32284],[139.43537,35.32247],[139.43466,35.32184],[139.43353,35.3206]]}},{"type":"Feature","properties":{"idx":80,"road":"湘南港臨港道路","cls":"tertiary","shops":0,"st_km":1.25,"mesh":"52397358"},"geometry":{"type":"LineString","coordinates":[[139.4842,35.29842],[139.48437,35.29823],[139.48438,35.29815],[139.48431,35.29809],[139.48417,35.29814],[139.4842,35.29842]]}},{"type":"Feature","properties":{"idx":39,"road":NaN,"cls":"pedestrian","shops":1,"st_km":0.26,"mesh":"52397368"},"geometry":{"type":"LineString","coordinates":[[139.48452,35.30727],[139.48434,35.3074]]}},{"type":"Feature","properties":{"idx":26,"road":NaN,"cls":"pedestrian","shops":0,"st_km":0.27,"mesh":"52397368"},"geometry":{"type":"LineString","coordinates":[[139.48416,35.30699],[139.48446,35.30726]]}},{"type":"Feature","properties":{"idx":109,"road":NaN,"cls":"pedestrian","shops":0,"st_km":1.68,"mesh":"52397385"},"geometry":{"type":"LineString","coordinates":[[139.44928,35.32146],[139.44932,35.32178],[139.44949,35.32214],[139.4495,35.32229],[139.44937,35.3225]]}},{"type":"Feature","properties":{"idx":113,"road":NaN,"cls":"pedestrian","shops":0,"st_km":1.62,"mesh":"52397385"},"geometry":{"type":"LineString","coordinates":[[139.44795,35.32258],[139.44862,35.32257],[139.44994,35.32244],[139.45018,35.32237],[139.45049,35.3222]]}},{"type":"Feature","properties":{"idx":166,"road":NaN,"cls":"pedestrian","shops":1,"st_km":1.65,"mesh":"52397385"},"geometry":{"type":"LineString","coordinates":[[139.44786,35.32247],[139.44792,35.3216]]}},{"type":"Feature","properties":{"idx":102,"road":NaN,"cls":"pedestrian","shops":0,"st_km":1.81,"mesh":"52397385"},"geometry":{"type":"LineString","coordinates":[[139.44644,35.32124],[139.44629,35.32106],[139.44639,35.32064],[139.44827,35.32058],[139.44876,35.3206],[139.44914,35.32068],[139.44949,35.32084]]}},{"type":"Feature","properties":{"idx":577,"road":NaN,"cls":"pedestrian","shops":0,"st_km":1.71,"mesh":"52397386"},"geometry":{"type":"LineString","coordinates":[[139.44945,35.32207],[139.4497,35.32213],[139.45039,35.32217],[139.45077,35.32239],[139.45097,35.32239],[139.45194,35.32215],[139.452,35.32201],[139.45185,35.32144],[139.45157,35.32105],[139.45143,35.32053]]}},{"type":"Feature","properties":{"idx":111,"road":NaN,"cls":"pedestrian","shops":0,"st_km":1.65,"mesh":"52397385"},"geometry":{"type":"LineString","coordinates":[[139.44654,35.32124],[139.44645,35.32163],[139.44652,35.32179],[139.44713,35.3223],[139.44776,35.32251]]}},{"type":"Feature","properties":{"idx":228,"road":NaN,"cls":"pedestrian","shops":2,"st_km":1.6,"mesh":"52397385"},"geometry":{"type":"LineString","coordinates":[[139.44778,35.32262],[139.44791,35.32262],[139.44795,35.32252],[139.44786,35.32247],[139.44778,35.32248],[139.44774,35.32254],[139.44778,35.32262]]}},{"type":"Feature","properties":{"idx":1184,"road":"戸塚茅ヶ崎線（湘南新道）","cls":"primary","shops":0,"st_km":1.21,"mesh":"52397396"},"geometry":{"type":"LineString","coordinates":[[139.45301,35.32717],[139.45013,35.32671]]}},{"type":"Feature","properties":{"idx":483,"road":"辻堂停車場辻堂線","cls":"secondary","shops":0,"st_km":1.58,"mesh":"52397386"},"geometry":{"type":"LineString","coordinates":[[139.45301,35.32717],[139.45393,35.32391],[139.45405,35.3231],[139.45404,35.32238],[139.45379,35.3208],[139.45363,35.31999],[139.45334,35.31894]]}},{"type":"Feature","properties":{"idx":111,"road":"産業道路","cls":"primary","shops":0,"st_km":2.49,"mesh":"52397380"},"geometry":{"type":"LineString","coordinates":[[139.37513,35.32122],[139.37517,35.32033]]}},{"type":"Feature","properties":{"idx":110,"road":"産業道路","cls":"primary","shops":0,"st_km":2.51,"mesh":"52397380"},"geometry":{"type":"LineString","coordinates":[[139.37517,35.32033],[139.37516,35.32]]}},{"type":"Feature","properties":{"idx":110,"road":"産業道路","cls":"primary","shops":0,"st_km":2.52,"mesh":"52397380"},"geometry":{"type":"LineString","coordinates":[[139.37517,35.32033],[139.37528,35.32019],[139.37541,35.32017]]}},{"type":"Feature","properties":{"idx":222,"road":NaN,"cls":"tertiary","shops":0,"st_km":1.99,"mesh":"52397384"},"geometry":{"type":"LineString","coordinates":[[139.43234,35.32014],[139.43222,35.32357],[139.43194,35.32472],[139.43166,35.32552]]}},{"type":"Feature","properties":{"idx":126,"road":NaN,"cls":"tertiary_link","shops":0,"st_km":2.23,"mesh":"52397384"},"geometry":{"type":"LineString","coordinates":[[139.43234,35.32014],[139.43224,35.32003]]}},{"type":"Feature","properties":{"idx":195,"road":NaN,"cls":"tertiary","shops":2,"st_km":1.35,"mesh":"52397385"},"geometry":{"type":"LineString","coordinates":[[139.44302,35.32537],[139.4432,35.32484],[139.44324,35.32438]]}},{"type":"Feature","properties":{"idx":632,"road":NaN,"cls":"pedestrian","shops":0,"st_km":1.35,"mesh":"52397395"},"geometry":{"type":"LineString","coordinates":[[139.44919,35.32516],[139.44926,35.32508],[139.45029,35.32513]]}},{"type":"Feature","properties":{"idx":523,"road":NaN,"cls":"pedestrian","shops":0,"st_km":1.81,"mesh":"52397386"},"geometry":{"type":"LineString","coordinates":[[139.45106,35.32059],[139.45152,35.32052]]}},{"type":"Feature","properties":{"idx":419,"road":"鵠沼海岸引地線","cls":"tertiary","shops":0,"st_km":0.96,"mesh":"52397397"},"geometry":{"type":"LineString","coordinates":[[139.4673,35.33245],[139.46648,35.33147],[139.4646,35.32965],[139.46412,35.3291],[139.46377,35.3286],[139.46356,35.32814],[139.46146,35.32245],[139.46137,35.32196],[139.46139,35.32137],[139.46152,35.32091],[139.46173,35.32047],[139.4619,35.32019],[139.46236,35.31968],[139.46325,35.31899]]}},{"type":"Feature","properties":{"idx":1074,"road":"戸塚茅ヶ崎線（湘南新道）","cls":"primary","shops":0,"st_km":1.35,"mesh":"52397396"},"geometry":{"type":"LineString","coordinates":[[139.46487,35.33438],[139.45869,35.33077],[139.45438,35.32764],[139.45388,35.32741],[139.45301,35.32717]]}},{"type":"Feature","properties":{"idx":349,"road":"鵠沼新道","cls":"tertiary","shops":0,"st_km":0.74,"mesh":"52397387"},"geometry":{"type":"LineString","coordinates":[[139.46338,35.31916],[139.46331,35.31907]]}},{"type":"Feature","properties":{"idx":858,"road":"左富士通り","cls":"tertiary","shops":0,"st_km":1.67,"mesh":"52397391"},"geometry":{"type":"LineString","coordinates":[[139.38959,35.32985],[139.38965,35.33008]]}},{"type":"Feature","properties":{"idx":854,"road":"左富士通り","cls":"tertiary","shops":0,"st_km":1.68,"mesh":"52397391"},"geometry":{"type":"LineString","coordinates":[[139.38951,35.3296],[139.38959,35.32985]]}},{"type":"Feature","properties":{"idx":1460,"road":"戸塚茅ヶ崎線（湘南新道）","cls":"primary","shops":3,"st_km":1.32,"mesh":"52397395"},"geometry":{"type":"LineString","coordinates":[[139.44294,35.32557],[139.44113,35.32505]]}},{"type":"Feature","properties":{"idx":649,"road":"戸塚茅ヶ崎線（湘南新道）","cls":"primary","shops":0,"st_km":1.18,"mesh":"52397395"},"geometry":{"type":"LineString","coordinates":[[139.45013,35.32671],[139.44945,35.32657],[139.44767,35.32633]]}},{"type":"Feature","properties":{"idx":477,"road":NaN,"cls":"tertiary","shops":0,"st_km":1.3,"mesh":"52397395"},"geometry":{"type":"LineString","coordinates":[[139.443,35.32544],[139.44302,35.32537]]}},{"type":"Feature","properties":{"idx":480,"road":NaN,"cls":"tertiary","shops":0,"st_km":1.29,"mesh":"52397395"},"geometry":{"type":"LineString","coordinates":[[139.44294,35.32557],[139.443,35.32544]]}},{"type":"Feature","properties":{"idx":420,"road":NaN,"cls":"tertiary","shops":0,"st_km":1.7,"mesh":"52397386"},"geometry":{"type":"LineString","coordinates":[[139.44786,35.3228],[139.45236,35.32244],[139.45218,35.32171],[139.45166,35.32053],[139.45368,35.3202]]}},{"type":"Feature","properties":{"idx":1112,"road":"鉄砲道","cls":"tertiary","shops":2,"st_km":1.62,"mesh":"52397394"},"geometry":{"type":"LineString","coordinates":[[139.43726,35.32526],[139.43619,35.32548],[139.43498,35.32561],[139.43166,35.32552]]}},{"type":"Feature","properties":{"idx":90,"road":"鉄砲道","cls":"tertiary","shops":0,"st_km":1.48,"mesh":"52397385"},"geometry":{"type":"LineString","coordinates":[[139.43984,35.32461],[139.43978,35.32468],[139.43943,35.32478],[139.43726,35.32526]]}},{"type":"Feature","properties":{"idx":269,"road":NaN,"cls":"tertiary","shops":0,"st_km":1.62,"mesh":"52397384"},"geometry":{"type":"LineString","coordinates":[[139.43726,35.32526],[139.43702,35.32456],[139.43695,35.32393],[139.43676,35.32322]]}},{"type":"Feature","properties":{"idx":1613,"road":NaN,"cls":"tertiary","shops":1,"st_km":0.1,"mesh":"52397392"},"geometry":{"type":"LineString","coordinates":[[139.40733,35.33007],[139.40735,35.32982]]}},{"type":"Feature","properties":{"idx":651,"road":"戸塚茅ヶ崎線（湘南新道）","cls":"primary","shops":0,"st_km":1.18,"mesh":"52397395"},"geometry":{"type":"LineString","coordinates":[[139.44292,35.32564],[139.44459,35.32599],[139.45013,35.32671]]}},{"type":"Feature","properties":{"idx":641,"road":"戸塚茅ヶ崎線（湘南新道）","cls":"primary","shops":0,"st_km":1.2,"mesh":"52397395"},"geometry":{"type":"LineString","coordinates":[[139.44767,35.32633],[139.44441,35.32589],[139.4436,35.32574]]}},{"type":"Feature","properties":{"idx":484,"road":NaN,"cls":"tertiary","shops":0,"st_km":1.28,"mesh":"52397395"},"geometry":{"type":"LineString","coordinates":[[139.44292,35.32564],[139.44294,35.32557]]}},{"type":"Feature","properties":{"idx":610,"road":"戸塚茅ヶ崎線（湘南新道）","cls":"primary","shops":0,"st_km":1.26,"mesh":"52397395"},"geometry":{"type":"LineString","coordinates":[[139.4436,35.32574],[139.44294,35.32557]]}},{"type":"Feature","properties":{"idx":208,"road":"戸塚茅ヶ崎線（湘南新道）","cls":"primary","shops":2,"st_km":1.59,"mesh":"52397385"},"geometry":{"type":"LineString","coordinates":[[139.43676,35.32322],[139.43984,35.32461]]}},{"type":"Feature","properties":{"idx":252,"road":NaN,"cls":"tertiary","shops":0,"st_km":1.73,"mesh":"52397384"},"geometry":{"type":"LineString","coordinates":[[139.43676,35.32322],[139.43679,35.32316]]}},{"type":"Feature","properties":{"idx":571,"road":"戸塚茅ヶ崎線（湘南新道）","cls":"primary","shops":0,"st_km":1.36,"mesh":"52397395"},"geometry":{"type":"LineString","coordinates":[[139.43984,35.32461],[139.44111,35.32512],[139.44292,35.32564]]}},{"type":"Feature","properties":{"idx":90,"road":"鉄砲道","cls":"tertiary","shops":0,"st_km":1.47,"mesh":"52397385"},"geometry":{"type":"LineString","coordinates":[[139.43988,35.32453],[139.43984,35.32461]]}},{"type":"Feature","properties":{"idx":1434,"road":"茅ヶ崎停車場茅ヶ崎線(雄三通り)","cls":"secondary","shops":1,"st_km":0.32,"mesh":"52397392"},"geometry":{"type":"LineString","coordinates":[[139.4083,35.32568],[139.40829,35.32602],[139.40823,35.32628],[139.40719,35.32977]]}},{"type":"Feature","properties":{"idx":1225,"road":"鉄砲道","cls":"tertiary","shops":2,"st_km":1.47,"mesh":"52397393"},"geometry":{"type":"LineString","coordinates":[[139.42913,35.32544],[139.41629,35.32503]]}},{"type":"Feature","properties":{"idx":965,"road":NaN,"cls":"tertiary","shops":0,"st_km":1.48,"mesh":"52397391"},"geometry":{"type":"LineString","coordinates":[[139.39176,35.33061],[139.39176,35.33012]]}},{"type":"Feature","properties":{"idx":1405,"road":"桜道","cls":"tertiary","shops":0,"st_km":0.46,"mesh":"52397393"},"geometry":{"type":"LineString","coordinates":[[139.41465,35.33206],[139.41272,35.33134],[139.41188,35.33091],[139.41136,35.33071]]}},{"type":"Feature","properties":{"idx":1175,"road":"一中通り","cls":"tertiary","shops":0,"st_km":0.65,"mesh":"52397393"},"geometry":{"type":"LineString","coordinates":[[139.41465,35.33206],[139.41481,35.33301]]}},{"type":"Feature","properties":{"idx":1038,"road":"一中通り","cls":"tertiary","shops":0,"st_km":1.21,"mesh":"52397383"},"geometry":{"type":"LineString","coordinates":[[139.41528,35.31814],[139.41537,35.32194],[139.41492,35.32498]]}},{"type":"Feature","properties":{"idx":1377,"road":"鉄砲道","cls":"tertiary","shops":1,"st_km":0.72,"mesh":"52397382"},"geometry":{"type":"LineString","coordinates":[[139.41492,35.32498],[139.40828,35.32477]]}},{"type":"Feature","properties":{"idx":1091,"road":"茅ヶ崎停車場茅ヶ崎線(雄三通り)","cls":"secondary","shops":1,"st_km":0.6,"mesh":"52397392"},"geometry":{"type":"LineString","coordinates":[[139.40828,35.32477],[139.4083,35.32568]]}},{"type":"Feature","properties":{"idx":2935,"road":NaN,"cls":"pedestrian","shops":4,"st_km":0.34,"mesh":"52397388"},"geometry":{"type":"LineString","coordinates":[[139.48593,35.31746],[139.48569,35.31745]]}},{"type":"Feature","properties":{"idx":8,"road":NaN,"cls":"living_street","shops":0,"st_km":0.91,"mesh":"52397368"},"geometry":{"type":"LineString","coordinates":[[139.48204,35.30143],[139.48205,35.30089]]}},{"type":"Feature","properties":{"idx":16,"road":NaN,"cls":"living_street","shops":2,"st_km":0.85,"mesh":"52397368"},"geometry":{"type":"LineString","coordinates":[[139.48157,35.30192],[139.48169,35.30182],[139.48192,35.30142]]}},{"type":"Feature","properties":{"idx":29,"road":NaN,"cls":"living_street","shops":5,"st_km":0.83,"mesh":"52397368"},"geometry":{"type":"LineString","coordinates":[[139.48146,35.30197],[139.48157,35.30192]]}},{"type":"Feature","properties":{"idx":29,"road":NaN,"cls":"living_street","shops":5,"st_km":0.82,"mesh":"52397368"},"geometry":{"type":"LineString","coordinates":[[139.48129,35.302],[139.48146,35.30197]]}},{"type":"Feature","properties":{"idx":428,"road":NaN,"cls":"tertiary","shops":0,"st_km":2.27,"mesh":"52397390"},"geometry":{"type":"LineString","coordinates":[[139.38379,35.3328],[139.38361,35.33244],[139.38338,35.33221],[139.38298,35.33126],[139.38275,35.33084],[139.38226,35.33018]]}},{"type":"Feature","properties":{"idx":112,"road":"産業道路","cls":"primary","shops":0,"st_km":2.45,"mesh":"52397380"},"geometry":{"type":"LineString","coordinates":[[139.37575,35.32424],[139.37538,35.3234]]}},{"type":"Feature","properties":{"idx":113,"road":"産業道路","cls":"primary","shops":0,"st_km":2.44,"mesh":"52397380"},"geometry":{"type":"LineString","coordinates":[[139.37538,35.3234],[139.37517,35.32287],[139.37508,35.32249],[139.37506,35.32211],[139.37513,35.32122]]}},{"type":"Feature","properties":{"idx":415,"road":NaN,"cls":"tertiary","shops":0,"st_km":2.36,"mesh":"52397390"},"geometry":{"type":"LineString","coordinates":[[139.38234,35.32894],[139.38181,35.32912]]}},{"type":"Feature","properties":{"idx":421,"road":NaN,"cls":"tertiary","shops":0,"st_km":2.32,"mesh":"52397390"},"geometry":{"type":"LineString","coordinates":[[139.38278,35.32843],[139.38263,35.3287],[139.38234,35.32894]]}},{"type":"Feature","properties":{"idx":874,"road":NaN,"cls":"tertiary","shops":0,"st_km":1.23,"mesh":"52397396"},"geometry":{"type":"LineString","coordinates":[[139.45967,35.33135],[139.46105,35.33056],[139.46403,35.32898]]}},{"type":"Feature","properties":{"idx":83,"road":NaN,"cls":"tertiary","shops":0,"st_km":2.77,"mesh":"52397380"},"geometry":{"type":"LineString","coordinates":[[139.38211,35.31745],[139.38215,35.3175]]}},{"type":"Feature","properties":{"idx":96,"road":NaN,"cls":"tertiary","shops":0,"st_km":2.24,"mesh":"52397380"},"geometry":{"type":"LineString","coordinates":[[139.38694,35.31707],[139.38681,35.31829],[139.38687,35.31887],[139.38738,35.32049],[139.38824,35.32183],[139.3883,35.32203],[139.38833,35.3225]]}},{"type":"Feature","properties":{"idx":547,"road":"左富士通り","cls":"tertiary","shops":0,"st_km":1.89,"mesh":"52397381"},"geometry":{"type":"LineString","coordinates":[[139.38833,35.3225],[139.38861,35.327]]}},{"type":"Feature","properties":{"idx":456,"road":NaN,"cls":"tertiary","shops":0,"st_km":1.56,"mesh":"52397386"},"geometry":{"type":"LineString","coordinates":[[139.45243,35.32273],[139.45275,35.32415],[139.45302,35.32435],[139.45372,35.32467]]}},{"type":"Feature","properties":{"idx":839,"road":NaN,"cls":"pedestrian","shops":0,"st_km":0.16,"mesh":"52397387"},"geometry":{"type":"LineString","coordinates":[[139.47051,35.32205],[139.47035,35.322]]}},{"type":"Feature","properties":{"idx":779,"road":NaN,"cls":"tertiary","shops":0,"st_km":0.89,"mesh":"52397399"},"geometry":{"type":"LineString","coordinates":[[139.49448,35.32309],[139.49487,35.32566],[139.4948,35.32589],[139.49462,35.32605],[139.49321,35.3268],[139.49201,35.32695]]}},{"type":"Feature","properties":{"idx":202,"road":NaN,"cls":"tertiary","shops":0,"st_km":0.47,"mesh":"52397389"},"geometry":{"type":"LineString","coordinates":[[139.48925,35.31913],[139.49376,35.31865]]}},{"type":"Feature","properties":{"idx":205,"road":NaN,"cls":"tertiary","shops":0,"st_km":0.45,"mesh":"52397389"},"geometry":{"type":"LineString","coordinates":[[139.49163,35.31888],[139.49121,35.31756]]}},{"type":"Feature","properties":{"idx":153,"road":NaN,"cls":"tertiary","shops":0,"st_km":0.76,"mesh":"52397389"},"geometry":{"type":"LineString","coordinates":[[139.49272,35.32346],[139.49291,35.32398],[139.49287,35.32416],[139.49265,35.32446],[139.49218,35.32451],[139.492,35.32477]]}},{"type":"Feature","properties":{"idx":115,"road":NaN,"cls":"pedestrian","shops":0,"st_km":2.71,"mesh":"52397380"},"geometry":{"type":"LineString","coordinates":[[139.3762,35.32198],[139.37627,35.32167],[139.37642,35.32137],[139.37663,35.3212],[139.37682,35.32113],[139.37721,35.32109],[139.37769,35.32118],[139.378,35.32137],[139.37814,35.32161],[139.37811,35.32194],[139.37789,35.32267],[139.37767,35.3229],[139.37735,35.32299],[139.37688,35.32298],[139.37638,35.32274],[139.37622,35.32246],[139.3762,35.32198]]}},{"type":"Feature","properties":{"idx":97,"road":"鉄砲道","cls":"tertiary","shops":0,"st_km":2.21,"mesh":"52397380"},"geometry":{"type":"LineString","coordinates":[[139.38833,35.3225],[139.3837,35.32199]]}},{"type":"Feature","properties":{"idx":814,"road":"左富士通り","cls":"tertiary","shops":0,"st_km":1.77,"mesh":"52397391"},"geometry":{"type":"LineString","coordinates":[[139.38861,35.327],[139.38865,35.32786],[139.38874,35.32835],[139.38884,35.32858],[139.38951,35.3296]]}},{"type":"Feature","properties":{"idx":1584,"road":NaN,"cls":"tertiary","shops":1,"st_km":0.11,"mesh":"52397392"},"geometry":{"type":"LineString","coordinates":[[139.40735,35.32982],[139.40719,35.32977]]}},{"type":"Feature","properties":{"idx":629,"road":"茅ヶ崎停車場茅ヶ崎線(雄三通り)","cls":"secondary","shops":0,"st_km":1.33,"mesh":"52397382"},"geometry":{"type":"LineString","coordinates":[[139.40815,35.31859],[139.40816,35.31868]]}},{"type":"Feature","properties":{"idx":829,"road":"一中通り","cls":"tertiary","shops":0,"st_km":1.54,"mesh":"52397383"},"geometry":{"type":"LineString","coordinates":[[139.41528,35.31805],[139.41528,35.31814]]}},{"type":"Feature","properties":{"idx":314,"road":"鉄砲道","cls":"tertiary","shops":5,"st_km":2.44,"mesh":"52397380"},"geometry":{"type":"LineString","coordinates":[[139.38342,35.32193],[139.38324,35.3219]]}},{"type":"Feature","properties":{"idx":744,"road":"鵠沼新道","cls":"tertiary","shops":2,"st_km":0.67,"mesh":"52397387"},"geometry":{"type":"LineString","coordinates":[[139.46424,35.3206],[139.46387,35.31986],[139.46357,35.31942]]}},{"type":"Feature","properties":{"idx":512,"road":NaN,"cls":"tertiary","shops":0,"st_km":1.77,"mesh":"52397394"},"geometry":{"type":"LineString","coordinates":[[139.43166,35.32552],[139.43138,35.32639],[139.43132,35.32677]]}},{"type":"Feature","properties":{"idx":474,"road":"鉄砲道","cls":"tertiary","shops":0,"st_km":1.93,"mesh":"52397394"},"geometry":{"type":"LineString","coordinates":[[139.43068,35.32549],[139.42913,35.32544]]}},{"type":"Feature","properties":{"idx":700,"road":NaN,"cls":"pedestrian","shops":0,"st_km":2.05,"mesh":"52397381"},"geometry":{"type":"LineString","coordinates":[[139.38773,35.32261],[139.38777,35.3223]]}},{"type":"Feature","properties":{"idx":1453,"road":NaN,"cls":"pedestrian","shops":2,"st_km":1.97,"mesh":"52397381"},"geometry":{"type":"LineString","coordinates":[[139.38807,35.32302],[139.3882,35.32319],[139.38874,35.32313]]}},{"type":"Feature","properties":{"idx":761,"road":"ラチエン通り","cls":"tertiary","shops":0,"st_km":1.69,"mesh":"52397383"},"geometry":{"type":"LineString","coordinates":[[139.41862,35.31824],[139.41865,35.31815]]}},{"type":"Feature","properties":{"idx":440,"road":NaN,"cls":"tertiary","shops":0,"st_km":0.1,"mesh":"52397379"},"geometry":{"type":"LineString","coordinates":[[139.49409,35.31651],[139.49383,35.31579],[139.49359,35.31536],[139.49315,35.31497],[139.49198,35.31431],[139.49157,35.3142],[139.49068,35.31416],[139.49018,35.31387],[139.48972,35.3137],[139.48909,35.31317],[139.48885,35.31278],[139.48824,35.31231],[139.48811,35.31204],[139.48819,35.31157],[139.48833,35.31147],[139.48895,35.31126],[139.48903,35.31115],[139.48899,35.31094]]}},{"type":"Feature","properties":{"idx":604,"road":NaN,"cls":"tertiary","shops":2,"st_km":0.06,"mesh":"52397389"},"geometry":{"type":"LineString","coordinates":[[139.49764,35.31722],[139.49609,35.31718],[139.4951,35.31727],[139.49476,35.31725],[139.49455,35.31718],[139.49434,35.317],[139.49423,35.31685],[139.49409,35.31651]]}},{"type":"Feature","properties":{"idx":320,"road":NaN,"cls":"tertiary","shops":0,"st_km":0.57,"mesh":"52397379"},"geometry":{"type":"LineString","coordinates":[[139.49861,35.31153],[139.49844,35.31169]]}},{"type":"Feature","properties":{"idx":324,"road":NaN,"cls":"tertiary","shops":0,"st_km":0.55,"mesh":"52397379"},"geometry":{"type":"LineString","coordinates":[[139.49866,35.31148],[139.49861,35.31153]]}},{"type":"Feature","properties":{"idx":1029,"road":NaN,"cls":"tertiary","shops":2,"st_km":0.06,"mesh":"52397379"},"geometry":{"type":"LineString","coordinates":[[139.49269,35.30861],[139.49274,35.30858]]}},{"type":"Feature","properties":{"idx":352,"road":"腰越大船線","cls":"secondary","shops":0,"st_km":0.59,"mesh":"52397379"},"geometry":{"type":"LineString","coordinates":[[139.49877,35.31189],[139.49884,35.31194]]}},{"type":"Feature","properties":{"idx":435,"road":"腰越大船線","cls":"secondary","shops":2,"st_km":0.1,"mesh":"52397369"},"geometry":{"type":"LineString","coordinates":[[139.49189,35.30801],[139.49269,35.30861]]}},{"type":"Feature","properties":{"idx":34,"road":NaN,"cls":"pedestrian","shops":3,"st_km":0.99,"mesh":"52397368"},"geometry":{"type":"LineString","coordinates":[[139.48028,35.30064],[139.48043,35.30059],[139.48049,35.30064]]}},{"type":"Feature","properties":{"idx":1367,"road":"鉄砲道","cls":"tertiary","shops":1,"st_km":0.93,"mesh":"52397393"},"geometry":{"type":"LineString","coordinates":[[139.41629,35.32503],[139.41492,35.32498]]}},{"type":"Feature","properties":{"idx":495,"road":"鉄砲道","cls":"tertiary","shops":0,"st_km":1.84,"mesh":"52397394"},"geometry":{"type":"LineString","coordinates":[[139.43166,35.32552],[139.43068,35.32549]]}},{"type":"Feature","properties":{"idx":260,"road":"戸塚茅ヶ崎線（湘南新道）","cls":"primary","shops":0,"st_km":2.14,"mesh":"52397384"},"geometry":{"type":"LineString","coordinates":[[139.4332,35.32036],[139.43346,35.32065]]}},{"type":"Feature","properties":{"idx":259,"road":"戸塚茅ヶ崎線（湘南新道）","cls":"primary","shops":0,"st_km":2.15,"mesh":"52397384"},"geometry":{"type":"LineString","coordinates":[[139.43353,35.3206],[139.43346,35.32034],[139.43354,35.32025],[139.43364,35.32022]]}},{"type":"Feature","properties":{"idx":116,"road":"戸塚茅ヶ崎線（湘南新道）","cls":"primary","shops":0,"st_km":1.42,"mesh":"52397385"},"geometry":{"type":"LineString","coordinates":[[139.44113,35.32505],[139.43988,35.32453]]}},{"type":"Feature","properties":{"idx":108,"road":NaN,"cls":"pedestrian","shops":0,"st_km":1.18,"mesh":"52397358"},"geometry":{"type":"LineString","coordinates":[[139.48799,35.29897],[139.48708,35.2987],[139.48704,35.29876]]}},{"type":"Feature","properties":{"idx":34,"road":NaN,"cls":"pedestrian","shops":3,"st_km":0.98,"mesh":"52397368"},"geometry":{"type":"LineString","coordinates":[[139.48049,35.30064],[139.48037,35.30075]]}},{"type":"Feature","properties":{"idx":406,"road":NaN,"cls":"tertiary","shops":0,"st_km":2.43,"mesh":"52397390"},"geometry":{"type":"LineString","coordinates":[[139.38111,35.32913],[139.38147,35.32914]]}},{"type":"Feature","properties":{"idx":410,"road":NaN,"cls":"tertiary","shops":0,"st_km":2.4,"mesh":"52397390"},"geometry":{"type":"LineString","coordinates":[[139.38147,35.32914],[139.38181,35.32912]]}},{"type":"Feature","properties":{"idx":160,"road":NaN,"cls":"pedestrian","shops":1,"st_km":1.72,"mesh":"52397385"},"geometry":{"type":"LineString","coordinates":[[139.44459,35.32147],[139.44641,35.32124]]}},{"type":"Feature","properties":{"idx":707,"road":NaN,"cls":"pedestrian","shops":0,"st_km":2.03,"mesh":"52397381"},"geometry":{"type":"LineString","coordinates":[[139.38749,35.32272],[139.38751,35.32258],[139.38783,35.32262],[139.38788,35.3227],[139.38805,35.32273],[139.38815,35.32286],[139.38811,35.32307]]}},{"type":"Feature","properties":{"idx":699,"road":NaN,"cls":"pedestrian","shops":0,"st_km":2.05,"mesh":"52397381"},"geometry":{"type":"LineString","coordinates":[[139.38773,35.32255],[139.38762,35.32253]]}},{"type":"Feature","properties":{"idx":39,"road":NaN,"cls":"pedestrian","shops":1,"st_km":0.27,"mesh":"52397368"},"geometry":{"type":"LineString","coordinates":[[139.48446,35.30726],[139.4845,35.30729]]}},{"type":"Feature","properties":{"idx":180,"road":NaN,"cls":"pedestrian","shops":11,"st_km":0.21,"mesh":"52397368"},"geometry":{"type":"LineString","coordinates":[[139.48448,35.30793],[139.48446,35.30794]]}},{"type":"Feature","properties":{"idx":83,"road":"湘南港臨港道路","cls":"tertiary","shops":0,"st_km":1.2,"mesh":"52397358"},"geometry":{"type":"LineString","coordinates":[[139.48401,35.29862],[139.4842,35.29842]]}},{"type":"Feature","properties":{"idx":215,"road":NaN,"cls":"pedestrian","shops":14,"st_km":0.24,"mesh":"52397368"},"geometry":{"type":"LineString","coordinates":[[139.48473,35.30779],[139.4847,35.30776]]}},{"type":"Feature","properties":{"idx":162,"road":NaN,"cls":"pedestrian","shops":10,"st_km":0.23,"mesh":"52397368"},"geometry":{"type":"LineString","coordinates":[[139.48451,35.30767],[139.4845,35.30766]]}},{"type":"Feature","properties":{"idx":32,"road":NaN,"cls":"secondary","shops":3,"st_km":0.8,"mesh":"52397368"},"geometry":{"type":"LineString","coordinates":[[139.48123,35.30232],[139.48108,35.3021]]}},{"type":"Feature","properties":{"idx":393,"road":"鵠沼新道","cls":"tertiary","shops":0,"st_km":0.61,"mesh":"52397387"},"geometry":{"type":"LineString","coordinates":[[139.46495,35.32206],[139.46424,35.3206]]}},{"type":"Feature","properties":{"idx":385,"road":"鵠沼新道","cls":"tertiary","shops":0,"st_km":0.63,"mesh":"52397387"},"geometry":{"type":"LineString","coordinates":[[139.46768,35.32722],[139.46724,35.32623],[139.46649,35.32514],[139.46495,35.32206]]}},{"type":"Feature","properties":{"idx":675,"road":"鉄砲道","cls":"tertiary","shops":14,"st_km":2.68,"mesh":"52397380"},"geometry":{"type":"LineString","coordinates":[[139.378,35.32082],[139.37694,35.32055],[139.37681,35.32044],[139.37677,35.32022]]}},{"type":"Feature","properties":{"idx":176,"road":NaN,"cls":"pedestrian","shops":1,"st_km":2.62,"mesh":"52397380"},"geometry":{"type":"LineString","coordinates":[[139.37673,35.32049],[139.37661,35.32094]]}},{"type":"Feature","properties":{"idx":177,"road":NaN,"cls":"pedestrian","shops":1,"st_km":2.6,"mesh":"52397380"},"geometry":{"type":"LineString","coordinates":[[139.37658,35.32105],[139.37652,35.32127]]}},{"type":"Feature","properties":{"idx":641,"road":NaN,"cls":"pedestrian","shops":9,"st_km":2.66,"mesh":"52397380"},"geometry":{"type":"LineString","coordinates":[[139.37682,35.32113],[139.37707,35.321],[139.37711,35.32082],[139.37699,35.32069],[139.37669,35.32063]]}},{"type":"Feature","properties":{"idx":173,"road":NaN,"cls":"pedestrian","shops":1,"st_km":2.71,"mesh":"52397380"},"geometry":{"type":"LineString","coordinates":[[139.37702,35.32104],[139.37734,35.32099],[139.37782,35.32106],[139.37811,35.32144],[139.37808,35.32148]]}},{"type":"Feature","properties":{"idx":576,"road":NaN,"cls":"pedestrian","shops":0,"st_km":1.71,"mesh":"52397386"},"geometry":{"type":"LineString","coordinates":[[139.45228,35.32241],[139.45215,35.32233],[139.45217,35.32229],[139.45225,35.32231],[139.45228,35.32238]]}},{"type":"Feature","properties":{"idx":573,"road":NaN,"cls":"pedestrian","shops":0,"st_km":1.72,"mesh":"52397386"},"geometry":{"type":"LineString","coordinates":[[139.45194,35.32214],[139.45217,35.32229]]}},{"type":"Feature","properties":{"idx":729,"road":NaN,"cls":"tertiary","shops":1,"st_km":0.17,"mesh":"52397379"},"geometry":{"type":"LineString","coordinates":[[139.48932,35.31084],[139.48957,35.31073]]}}]}