{"type":"FeatureCollection","features":[{"type":"Feature","properties":{"idx":895,"road":"湯河原箱根仙石原線","cls":"primary","shops":1,"st_km":0.19,"mesh":"52395078"},"geometry":{"type":"LineString","coordinates":[[139.11325,35.14457],[139.11145,35.14552],[139.11116,35.14562],[139.10893,35.14583],[139.10618,35.146],[139.10409,35.14597],[139.10182,35.14541],[139.10154,35.14529],[139.10131,35.14513],[139.09923,35.14321],[139.09878,35.14284],[139.09829,35.14273],[139.09708,35.14267],[139.09649,35.14269]]}},{"type":"Feature","properties":{"idx":174,"road":"湯河原箱根仙石原線","cls":"primary","shops":1,"st_km":0.65,"mesh":"52395077"},"geometry":{"type":"LineString","coordinates":[[139.09649,35.14269],[139.09629,35.14271]]}},{"type":"Feature","properties":{"idx":290,"road":"湯河原箱根仙石原線","cls":"primary","shops":2,"st_km":1.8,"mesh":"52395076"},"geometry":{"type":"LineString","coordinates":[[139.09629,35.14271],[139.09604,35.14268],[139.09412,35.14207],[139.0922,35.14169],[139.09102,35.14129],[139.09002,35.14119],[139.08959,35.14126],[139.08721,35.142],[139.08695,35.14203],[139.08251,35.14216],[139.0822,35.1422],[139.08184,35.14231],[139.08036,35.14294],[139.0792,35.14325],[139.07822,35.14371],[139.07778,35.14409],[139.07729,35.14474],[139.07674,35.1451],[139.07626,35.14526],[139.0753,35.1453],[139.07504,35.1454],[139.07382,35.14638],[139.07316,35.14672],[139.07287,35.14693],[139.07241,35.14766],[139.07214,35.14788],[139.07204,35.14788]]}},{"type":"Feature","properties":{"idx":228,"road":"","cls":"tertiary","shops":0,"st_km":1.01,"mesh":"52395078"},"geometry":{"type":"LineString","coordinates":[[139.11461,35.14573],[139.11391,35.14631],[139.11364,35.14664],[139.11063,35.15374]]}},{"type":"Feature","properties":{"idx":46,"road":"湯河原箱根仙石原線","cls":"primary","shops":0,"st_km":3.4,"mesh":"52395085"},"geometry":{"type":"LineString","coordinates":[[139.06384,35.1555],[139.06328,35.15614],[139.06256,35.15641],[139.06235,35.15659],[139.06145,35.15835],[139.0606,35.15909],[139.06043,35.15943],[139.06042,35.15956],[139.06069,35.15969],[139.06083,35.15971],[139.06095,35.15968],[139.06217,35.15885],[139.06248,35.15844],[139.06238,35.15803],[139.0624,35.15794],[139.06261,35.15762],[139.06273,35.1571],[139.0629,35.15693],[139.0635,35.15675],[139.06412,35.1563],[139.06545,35.15606],[139.06627,35.15566],[139.06649,35.15571],[139.06687,35.15614],[139.06698,35.15634],[139.06708,35.15637],[139.06717,35.15634],[139.06746,35.156],[139.06747,35.15547],[139.06757,35.15521],[139.06768,35.15513],[139.06782,35.15516],[139.06785,35.15522],[139.06768,35.15564],[139.06781,35.15645],[139.06832,35.15718],[139.06814,35.15751],[139.06814,35.1576],[139.06821,35.15765],[139.06831,35.15767],[139.06878,35.1575],[139.06907,35.15757],[139.06922,35.15755],[139.06927,35.15744],[139.06913,35.15682],[139.06917,35.15617],[139.06922,35.15604],[139.06933,35.15598],[139.06966,35.15601],[139.06984,35.15588],[139.07009,35.15581],[139.07079,35.15576],[139.07089,35.15567],[139.07099,35.15546],[139.07085,35.15511],[139.07089,35.15503],[139.07101,35.15498],[139.07126,35.15503],[139.07154,35.15523],[139.07192,35.15517],[139.07207,35.15522],[139.07204,35.15555],[139.07178,35.15617],[139.07167,35.15662],[139.07169,35.1567],[139.07175,35.15675],[139.07194,35.15674],[139.07232,35.15645],[139.07256,35.15642],[139.07265,35.15646],[139.07274,35.15658],[139.07275,35.15692]]}},{"type":"Feature","properties":{"idx":364,"road":"","cls":"tertiary","shops":0,"st_km":0.63,"mesh":"52395068"},"geometry":{"type":"LineString","coordinates":[[139.09102,35.14129],[139.09116,35.1412],[139.09482,35.14085],[139.09664,35.14078],[139.09798,35.14064],[139.09886,35.14071],[139.10068,35.14058],[139.10093,35.14061],[139.10277,35.14114],[139.10402,35.14127],[139.10499,35.14153],[139.10644,35.14164],[139.1078,35.14211],[139.11028,35.14228]]}},{"type":"Feature","properties":{"idx":636,"road":"","cls":"tertiary","shops":2,"st_km":0.61,"mesh":"52395078"},"geometry":{"type":"LineString","coordinates":[[139.1078,35.14211],[139.10812,35.14247],[139.1086,35.14314],[139.10864,35.14327],[139.10893,35.14583],[139.10912,35.14964]]}},{"type":"Feature","properties":{"idx":435,"road":"","cls":"tertiary","shops":0,"st_km":0.29,"mesh":"52395078"},"geometry":{"type":"LineString","coordinates":[[139.10105,35.14373],[139.10501,35.14357]]}},{"type":"Feature","properties":{"idx":106,"road":"","cls":"tertiary","shops":0,"st_km":0.51,"mesh":"52395077"},"geometry":{"type":"LineString","coordinates":[[139.09498,35.14235],[139.0949,35.14245],[139.09492,35.14254],[139.09578,35.14338],[139.09669,35.14446],[139.0968,35.1447],[139.09677,35.14495],[139.09664,35.14511],[139.09645,35.14521],[139.09623,35.14525],[139.09598,35.14523],[139.09577,35.14512],[139.09484,35.14446],[139.09441,35.14432],[139.09399,35.14431]]}},{"type":"Feature","properties":{"idx":278,"road":"","cls":"tertiary","shops":0,"st_km":0.76,"mesh":"52395078"},"geometry":{"type":"LineString","coordinates":[[139.10755,35.14725],[139.11282,35.14712],[139.11337,35.14728]]}},{"type":"Feature","properties":{"idx":642,"road":"","cls":"tertiary","shops":1,"st_km":0.3,"mesh":"52395078"},"geometry":{"type":"LineString","coordinates":[[139.10517,35.146],[139.10501,35.14357]]}},{"type":"Feature","properties":{"idx":992,"road":"","cls":"tertiary","shops":0,"st_km":1.43,"mesh":"52395067"},"geometry":{"type":"LineString","coordinates":[[139.0822,35.1422],[139.08224,35.14205],[139.08252,35.14179],[139.08382,35.14124],[139.08422,35.1412],[139.08557,35.14126],[139.08731,35.14112],[139.08829,35.14096],[139.08975,35.14047],[139.09067,35.14055],[139.09261,35.14082],[139.09334,35.14087],[139.09357,35.14095]]}},{"type":"Feature","properties":{"idx":241,"road":"","cls":"tertiary","shops":0,"st_km":0.94,"mesh":"52395078"},"geometry":{"type":"LineString","coordinates":[[139.10904,35.14965],[139.11203,35.14964],[139.11404,35.1495]]}},{"type":"Feature","properties":{"idx":195,"road":"","cls":"tertiary","shops":0,"st_km":1.42,"mesh":"52395088"},"geometry":{"type":"LineString","coordinates":[[139.10937,35.15738],[139.10937,35.15752]]}},{"type":"Feature","properties":{"idx":668,"road":"","cls":"tertiary","shops":1,"st_km":0.26,"mesh":"52395078"},"geometry":{"type":"LineString","coordinates":[[139.10051,35.14438],[139.10105,35.14373]]}},{"type":"Feature","properties":{"idx":100,"road":"","cls":"tertiary","shops":0,"st_km":0.58,"mesh":"52395077"},"geometry":{"type":"LineString","coordinates":[[139.09878,35.14284],[139.09874,35.14066]]}},{"type":"Feature","properties":{"idx":15,"road":"湯河原箱根仙石原線","cls":"primary","shops":0,"st_km":4.35,"mesh":"52395094"},"geometry":{"type":"LineString","coordinates":[[139.06003,35.16413],[139.06017,35.16429],[139.06055,35.16445],[139.0607,35.16466],[139.06067,35.16486],[139.06023,35.16528],[139.0601,35.16534],[139.05902,35.16546]]}},{"type":"Feature","properties":{"idx":47,"road":"湯河原箱根仙石原線","cls":"primary","shops":0,"st_km":3.09,"mesh":"52395085"},"geometry":{"type":"LineString","coordinates":[[139.06868,35.15031],[139.06879,35.15042]]}},{"type":"Feature","properties":{"idx":200,"road":"湯河原箱根仙石原線","cls":"primary","shops":0,"st_km":2.76,"mesh":"52395075"},"geometry":{"type":"LineString","coordinates":[[139.07204,35.14788],[139.07186,35.14782]]}},{"type":"Feature","properties":{"idx":36,"road":"","cls":"tertiary","shops":0,"st_km":3.44,"mesh":"52395085"},"geometry":{"type":"LineString","coordinates":[[139.0679,35.15348],[139.06736,35.15375],[139.06693,35.15402],[139.06546,35.15534],[139.06521,35.15551],[139.0649,35.15558],[139.06408,35.15546],[139.06374,35.15561]]}},{"type":"Feature","properties":{"idx":50,"road":"","cls":"tertiary","shops":0,"st_km":1.28,"mesh":"52395099"},"geometry":{"type":"LineString","coordinates":[[139.11975,35.15758],[139.11976,35.1577],[139.11961,35.15791],[139.11931,35.1582],[139.11894,35.15876],[139.11885,35.15899],[139.11866,35.15992],[139.11861,35.16044],[139.11852,35.16069],[139.11796,35.16169],[139.11776,35.16193]]}},{"type":"Feature","properties":{"idx":180,"road":"","cls":"tertiary","shops":0,"st_km":1.68,"mesh":"52395098"},"geometry":{"type":"LineString","coordinates":[[139.10718,35.15926],[139.10779,35.16009],[139.10794,35.16041],[139.10798,35.16062],[139.10793,35.16078],[139.10811,35.16129],[139.10857,35.16135],[139.1087,35.16146]]}},{"type":"Feature","properties":{"idx":151,"road":"","cls":"tertiary","shops":1,"st_km":2.15,"mesh":"52395076"},"geometry":{"type":"LineString","coordinates":[[139.07789,35.14399],[139.0781,35.14399],[139.07848,35.14387],[139.0789,35.14384],[139.0793,35.14402],[139.07954,35.14431]]}},{"type":"Feature","properties":{"idx":39,"road":"","cls":"tertiary","shops":0,"st_km":2.94,"mesh":"52395085"},"geometry":{"type":"LineString","coordinates":[[139.0709,35.15204],[139.07071,35.15213]]}},{"type":"Feature","properties":{"idx":41,"road":"","cls":"tertiary","shops":0,"st_km":1.61,"mesh":"52395099"},"geometry":{"type":"LineString","coordinates":[[139.11682,35.16365],[139.11696,35.16416]]}},{"type":"Feature","properties":{"idx":196,"road":"","cls":"tertiary","shops":0,"st_km":1.52,"mesh":"52395098"},"geometry":{"type":"LineString","coordinates":[[139.10712,35.15914],[139.10718,35.15926]]}},{"type":"Feature","properties":{"idx":198,"road":"","cls":"tertiary","shops":0,"st_km":1.5,"mesh":"52395098"},"geometry":{"type":"LineString","coordinates":[[139.10597,35.15923],[139.10711,35.15905]]}},{"type":"Feature","properties":{"idx":37,"road":"","cls":"tertiary","shops":0,"st_km":3.21,"mesh":"52395085"},"geometry":{"type":"LineString","coordinates":[[139.06829,35.1533],[139.0679,35.15348]]}},{"type":"Feature","properties":{"idx":42,"road":"","cls":"tertiary","shops":0,"st_km":1.57,"mesh":"52395099"},"geometry":{"type":"LineString","coordinates":[[139.11818,35.16498],[139.11869,35.16544],[139.11885,35.16549]]}},{"type":"Feature","properties":{"idx":81,"road":"","cls":"tertiary","shops":0,"st_km":0.81,"mesh":"52395077"},"geometry":{"type":"LineString","coordinates":[[139.09399,35.14431],[139.09317,35.1443]]}},{"type":"Feature","properties":{"idx":58,"road":"","cls":"tertiary","shops":0,"st_km":1.24,"mesh":"52395077"},"geometry":{"type":"LineString","coordinates":[[139.08909,35.14409],[139.08868,35.144]]}},{"type":"Feature","properties":{"idx":44,"road":"","cls":"tertiary","shops":0,"st_km":1.5,"mesh":"52395099"},"geometry":{"type":"LineString","coordinates":[[139.12,35.16537],[139.1191,35.16551]]}},{"type":"Feature","properties":{"idx":98,"road":"","cls":"tertiary","shops":0,"st_km":2.22,"mesh":"52395076"},"geometry":{"type":"LineString","coordinates":[[139.07821,35.1466],[139.0774,35.14698]]}},{"type":"Feature","properties":{"idx":39,"road":"","cls":"tertiary","shops":0,"st_km":2.97,"mesh":"52395085"},"geometry":{"type":"LineString","coordinates":[[139.07071,35.15213],[139.07022,35.15237]]}},{"type":"Feature","properties":{"idx":147,"road":"","cls":"tertiary","shops":0,"st_km":1.36,"mesh":"52395076"},"geometry":{"type":"LineString","coordinates":[[139.08794,35.14388],[139.08701,35.14387]]}},{"type":"Feature","properties":{"idx":73,"road":"","cls":"tertiary","shops":0,"st_km":0.93,"mesh":"52395077"},"geometry":{"type":"LineString","coordinates":[[139.09317,35.1443],[139.0913,35.14428]]}},{"type":"Feature","properties":{"idx":40,"road":"","cls":"tertiary","shops":0,"st_km":2.79,"mesh":"52395085"},"geometry":{"type":"LineString","coordinates":[[139.07346,35.15028],[139.07298,35.15068],[139.07168,35.15163],[139.0709,35.15204]]}},{"type":"Feature","properties":{"idx":43,"road":"","cls":"tertiary","shops":0,"st_km":1.55,"mesh":"52395099"},"geometry":{"type":"LineString","coordinates":[[139.1191,35.16551],[139.11885,35.16549]]}},{"type":"Feature","properties":{"idx":56,"road":"","cls":"tertiary","shops":0,"st_km":1.29,"mesh":"52395077"},"geometry":{"type":"LineString","coordinates":[[139.08868,35.144],[139.08794,35.14388]]}},{"type":"Feature","properties":{"idx":48,"road":"","cls":"tertiary","shops":0,"st_km":1.33,"mesh":"52395099"},"geometry":{"type":"LineString","coordinates":[[139.12205,35.1652],[139.12185,35.16522],[139.12157,35.16536]]}},{"type":"Feature","properties":{"idx":61,"road":"","cls":"tertiary","shops":0,"st_km":1.16,"mesh":"52395077"},"geometry":{"type":"LineString","coordinates":[[139.09025,35.14427],[139.08983,35.14424],[139.08909,35.14409]]}},{"type":"Feature","properties":{"idx":91,"road":"","cls":"tertiary","shops":0,"st_km":2.46,"mesh":"52395076"},"geometry":{"type":"LineString","coordinates":[[139.0774,35.14698],[139.07346,35.15028]]}},{"type":"Feature","properties":{"idx":38,"road":"","cls":"tertiary","shops":0,"st_km":3.09,"mesh":"52395085"},"geometry":{"type":"LineString","coordinates":[[139.07022,35.15237],[139.06829,35.1533]]}},{"type":"Feature","properties":{"idx":193,"road":"","cls":"tertiary","shops":0,"st_km":1.43,"mesh":"52395088"},"geometry":{"type":"LineString","coordinates":[[139.10937,35.15752],[139.10936,35.15767]]}},{"type":"Feature","properties":{"idx":66,"road":"","cls":"tertiary","shops":0,"st_km":1.06,"mesh":"52395077"},"geometry":{"type":"LineString","coordinates":[[139.0913,35.14428],[139.09025,35.14427]]}},{"type":"Feature","properties":{"idx":42,"road":"","cls":"tertiary","shops":0,"st_km":1.59,"mesh":"52395099"},"geometry":{"type":"LineString","coordinates":[[139.11716,35.16474],[139.11768,35.16473],[139.11787,35.16478],[139.11818,35.16498]]}},{"type":"Feature","properties":{"idx":43,"road":"","cls":"tertiary","shops":0,"st_km":1.53,"mesh":"52395099"},"geometry":{"type":"LineString","coordinates":[[139.11776,35.16193],[139.11737,35.16239],[139.11676,35.16345],[139.11682,35.16365]]}},{"type":"Feature","properties":{"idx":45,"road":"","cls":"tertiary","shops":0,"st_km":1.44,"mesh":"52395099"},"geometry":{"type":"LineString","coordinates":[[139.12082,35.16546],[139.12,35.16537]]}},{"type":"Feature","properties":{"idx":47,"road":"","cls":"tertiary","shops":0,"st_km":1.39,"mesh":"52395099"},"geometry":{"type":"LineString","coordinates":[[139.12157,35.16536],[139.12124,35.16547],[139.12082,35.16546]]}},{"type":"Feature","properties":{"idx":41,"road":"","cls":"tertiary","shops":0,"st_km":1.62,"mesh":"52395099"},"geometry":{"type":"LineString","coordinates":[[139.11696,35.16416],[139.11716,35.16474]]}},{"type":"Feature","properties":{"idx":116,"road":"","cls":"tertiary","shops":0,"st_km":1.79,"mesh":"52395076"},"geometry":{"type":"LineString","coordinates":[[139.08701,35.14387],[139.08614,35.144],[139.0856,35.14416],[139.0842,35.14471],[139.08356,35.14491],[139.07997,35.14589],[139.07821,35.1466]]}},{"type":"Feature","properties":{"idx":49,"road":"","cls":"tertiary","shops":0,"st_km":1.31,"mesh":"52395099"},"geometry":{"type":"LineString","coordinates":[[139.10936,35.15767],[139.10936,35.15772],[139.10952,35.15782],[139.11028,35.15868],[139.11041,35.15878],[139.11052,35.15879],[139.11114,35.15847],[139.11153,35.15843],[139.11182,35.15829],[139.11246,35.15789],[139.11304,35.15733],[139.11316,35.15728],[139.11365,35.15728],[139.11376,35.15736],[139.11383,35.15763],[139.11376,35.15779],[139.11379,35.15789],[139.1139,35.15795],[139.11415,35.15791],[139.11439,35.15776],[139.1151,35.15758],[139.11542,35.15756],[139.11605,35.15781],[139.1161,35.15789],[139.11612,35.15823],[139.11641,35.15839],[139.11664,35.15868],[139.11683,35.15876],[139.11737,35.15872],[139.11772,35.15901],[139.11786,35.15903],[139.11831,35.15886],[139.11871,35.15843],[139.11876,35.15804],[139.11943,35.15769],[139.12012,35.15741],[139.12033,35.15701],[139.12044,35.15692],[139.12057,35.15689],[139.12112,35.15698],[139.12147,35.1572],[139.12167,35.15744],[139.12198,35.15759],[139.12213,35.15759],[139.12265,35.15743],[139.12343,35.15708],[139.12383,35.15698],[139.12431,35.15662],[139.12448,35.15659],[139.12493,35.15662],[139.12507,35.15657],[139.12535,35.15637],[139.12561,35.15626],[139.12589,35.15605],[139.12657,35.15607],[139.12722,35.15515]]}},{"type":"Feature","properties":{"idx":196,"road":"湯河原箱根仙石原線","cls":"primary","shops":0,"st_km":2.87,"mesh":"52395075"},"geometry":{"type":"LineString","coordinates":[[139.07186,35.14782],[139.07175,35.14783],[139.0712,35.14827],[139.07077,35.14853],[139.07042,35.14865],[139.06972,35.14874],[139.06955,35.14884]]}},{"type":"Feature","properties":{"idx":46,"road":"湯河原箱根仙石原線","cls":"primary","shops":0,"st_km":3.31,"mesh":"52395085"},"geometry":{"type":"LineString","coordinates":[[139.06879,35.15042],[139.06901,35.15075],[139.06907,35.15102],[139.06897,35.15127],[139.06847,35.15193],[139.06783,35.15255],[139.06733,35.15278],[139.06714,35.15291],[139.06674,35.15358],[139.06532,35.15508],[139.06506,35.1553],[139.06487,35.1554],[139.06469,35.15543],[139.06412,35.15531],[139.06397,35.15537],[139.06384,35.1555]]}},{"type":"Feature","properties":{"idx":438,"road":"","cls":"tertiary","shops":1,"st_km":0.71,"mesh":"52395078"},"geometry":{"type":"LineString","coordinates":[[139.11109,35.15267],[139.11054,35.15219],[139.10864,35.14902],[139.10791,35.14797],[139.10759,35.14762],[139.10747,35.14592]]}},{"type":"Feature","properties":{"idx":416,"road":"","cls":"tertiary","shops":0,"st_km":0.33,"mesh":"52395078"},"geometry":{"type":"LineString","coordinates":[[139.10242,35.14528],[139.10229,35.14245],[139.10301,35.14143],[139.10315,35.14118]]}},{"type":"Feature","properties":{"idx":48,"road":"湯河原箱根仙石原線","cls":"primary","shops":0,"st_km":2.94,"mesh":"52395085"},"geometry":{"type":"LineString","coordinates":[[139.07275,35.15692],[139.07275,35.15707],[139.07282,35.15711],[139.07313,35.15702]]}},{"type":"Feature","properties":{"idx":49,"road":"湯河原箱根仙石原線","cls":"primary","shops":0,"st_km":2.93,"mesh":"52395085"},"geometry":{"type":"LineString","coordinates":[[139.07313,35.15702],[139.0729,35.15704],[139.07275,35.15692]]}},{"type":"Feature","properties":{"idx":200,"road":"","cls":"tertiary","shops":0,"st_km":1.38,"mesh":"52395088"},"geometry":{"type":"LineString","coordinates":[[139.11057,35.15385],[139.11006,35.15474],[139.10997,35.15504],[139.10993,35.15551],[139.10963,35.15596],[139.10969,35.15687],[139.10958,35.15707],[139.10937,35.15738],[139.10796,35.15798],[139.10751,35.15825],[139.10738,35.15838],[139.10722,35.15873],[139.10712,35.15914]]}},{"type":"Feature","properties":{"idx":234,"road":"","cls":"tertiary","shops":0,"st_km":1.14,"mesh":"52395088"},"geometry":{"type":"LineString","coordinates":[[139.11063,35.15374],[139.11057,35.15385]]}},{"type":"Feature","properties":{"idx":39,"road":"","cls":"tertiary","shops":0,"st_km":1.72,"mesh":"52395099"},"geometry":{"type":"LineString","coordinates":[[139.1139,35.15795],[139.11402,35.15835],[139.11382,35.15856],[139.11356,35.15867],[139.11351,35.15879],[139.11356,35.15896],[139.11389,35.15943],[139.11398,35.1598],[139.11383,35.16016]]}},{"type":"Feature","properties":{"idx":398,"road":"","cls":"tertiary","shops":1,"st_km":0.82,"mesh":"52395078"},"geometry":{"type":"LineString","coordinates":[[139.10989,35.14226],[139.10996,35.14243]]}},{"type":"Feature","properties":{"idx":50,"road":"","cls":"tertiary","shops":0,"st_km":1.29,"mesh":"52395099"},"geometry":{"type":"LineString","coordinates":[[139.12205,35.1652],[139.12301,35.16549],[139.12327,35.16548],[139.12336,35.16543]]}},{"type":"Feature","properties":{"idx":48,"road":"","cls":"tertiary","shops":0,"st_km":1.36,"mesh":"52395099"},"geometry":{"type":"LineString","coordinates":[[139.12183,35.16566],[139.12233,35.16587]]}},{"type":"Feature","properties":{"idx":48,"road":"","cls":"tertiary","shops":0,"st_km":1.36,"mesh":"52395099"},"geometry":{"type":"LineString","coordinates":[[139.12157,35.16536],[139.12183,35.16566]]}},{"type":"Feature","properties":{"idx":15,"road":"湯河原箱根仙石原線","cls":"primary","shops":0,"st_km":4.05,"mesh":"52395094"},"geometry":{"type":"LineString","coordinates":[[139.06018,35.16051],[139.06002,35.1606]]}},{"type":"Feature","properties":{"idx":23,"road":"湯河原箱根仙石原線","cls":"primary","shops":1,"st_km":4.0,"mesh":"52395094"},"geometry":{"type":"LineString","coordinates":[[139.06042,35.15956],[139.06031,35.15987],[139.06018,35.16051]]}},{"type":"Feature","properties":{"idx":190,"road":"湯河原箱根仙石原線","cls":"primary","shops":0,"st_km":3.06,"mesh":"52395075"},"geometry":{"type":"LineString","coordinates":[[139.06918,35.14939],[139.06915,35.14951],[139.06868,35.15025],[139.06868,35.15031]]}},{"type":"Feature","properties":{"idx":191,"road":"湯河原箱根仙石原線","cls":"primary","shops":0,"st_km":3.03,"mesh":"52395075"},"geometry":{"type":"LineString","coordinates":[[139.0692,35.14922],[139.06918,35.14939]]}},{"type":"Feature","properties":{"idx":191,"road":"湯河原箱根仙石原線","cls":"primary","shops":0,"st_km":3.02,"mesh":"52395075"},"geometry":{"type":"LineString","coordinates":[[139.06946,35.14892],[139.06924,35.14911],[139.0692,35.14922]]}},{"type":"Feature","properties":{"idx":192,"road":"湯河原箱根仙石原線","cls":"primary","shops":0,"st_km":2.99,"mesh":"52395075"},"geometry":{"type":"LineString","coordinates":[[139.06955,35.14884],[139.06946,35.14892]]}},{"type":"Feature","properties":{"idx":316,"road":"","cls":"tertiary","shops":0,"st_km":0.62,"mesh":"52395078"},"geometry":{"type":"LineString","coordinates":[[139.10501,35.14357],[139.10669,35.14351],[139.10728,35.14343],[139.10851,35.14301],[139.11023,35.14231],[139.11072,35.14205]]}},{"type":"Feature","properties":{"idx":363,"road":"","cls":"tertiary","shops":0,"st_km":0.47,"mesh":"52395078"},"geometry":{"type":"LineString","coordinates":[[139.10501,35.14357],[139.10489,35.14151]]}},{"type":"Feature","properties":{"idx":17,"road":"","cls":"tertiary","shops":0,"st_km":2.01,"mesh":"52395097"},"geometry":{"type":"LineString","coordinates":[[139.09631,35.16362],[139.09625,35.16356]]}},{"type":"Feature","properties":{"idx":16,"road":"","cls":"tertiary","shops":0,"st_km":2.03,"mesh":"52395097"},"geometry":{"type":"LineString","coordinates":[[139.09676,35.16399],[139.09631,35.16362]]}},{"type":"Feature","properties":{"idx":16,"road":"","cls":"tertiary","shops":0,"st_km":2.07,"mesh":"52395097"},"geometry":{"type":"LineString","coordinates":[[139.09768,35.16472],[139.09676,35.16399]]}},{"type":"Feature","properties":{"idx":12,"road":"湯河原パークウェイ","cls":"tertiary","shops":0,"st_km":4.49,"mesh":"52395094"},"geometry":{"type":"LineString","coordinates":[[139.05887,35.16546],[139.05902,35.16546]]}},{"type":"Feature","properties":{"idx":12,"road":"湯河原パークウェイ","cls":"tertiary","shops":0,"st_km":4.5,"mesh":"52395094"},"geometry":{"type":"LineString","coordinates":[[139.05869,35.16547],[139.05887,35.16546]]}},{"type":"Feature","properties":{"idx":15,"road":"湯河原箱根仙石原線","cls":"primary","shops":0,"st_km":4.33,"mesh":"52395094"},"geometry":{"type":"LineString","coordinates":[[139.05997,35.164],[139.06003,35.16413]]}},{"type":"Feature","properties":{"idx":15,"road":"湯河原箱根仙石原線","cls":"primary","shops":0,"st_km":4.22,"mesh":"52395094"},"geometry":{"type":"LineString","coordinates":[[139.06002,35.1606],[139.0599,35.16174],[139.05997,35.16205],[139.05978,35.16287],[139.05997,35.164]]}},{"type":"Feature","properties":{"idx":369,"road":"","cls":"tertiary","shops":0,"st_km":0.46,"mesh":"52395078"},"geometry":{"type":"LineString","coordinates":[[139.1008,35.14059],[139.10105,35.14373]]}}]}