{"type":"FeatureCollection","features":[{"type":"Feature","properties":{"idx":1061,"road":"平塚伊勢原線","cls":"primary","shops":1,"st_km":0.83,"mesh":"52397287"},"geometry":{"type":"LineString","coordinates":[[139.3435,35.31934],[139.34329,35.31998],[139.34217,35.32447]]}},{"type":"Feature","properties":{"idx":320,"road":"相模原大磯線","cls":"primary","shops":0,"st_km":2.0,"mesh":"52397262"},"geometry":{"type":"LineString","coordinates":[[139.27747,35.30437],[139.27744,35.3053]]}},{"type":"Feature","properties":{"idx":283,"road":"平塚停車場袖ヶ浜線","cls":"secondary","shops":0,"st_km":1.09,"mesh":"52397288"},"geometry":{"type":"LineString","coordinates":[[139.35406,35.31619],[139.3531,35.32048]]}},{"type":"Feature","properties":{"idx":275,"road":"平塚港平塚停車場線","cls":"secondary","shops":0,"st_km":1.13,"mesh":"52397288"},"geometry":{"type":"LineString","coordinates":[[139.36012,35.32359],[139.36059,35.32313]]}},{"type":"Feature","properties":{"idx":844,"road":"","cls":"tertiary","shops":1,"st_km":0.84,"mesh":"52397287"},"geometry":{"type":"LineString","coordinates":[[139.3531,35.32048],[139.35155,35.32032],[139.34729,35.31975],[139.3435,35.31934]]}},{"type":"Feature","properties":{"idx":195,"road":"大磯停車場線","cls":"secondary","shops":2,"st_km":0.17,"mesh":"52397275"},"geometry":{"type":"LineString","coordinates":[[139.31379,35.3112],[139.31404,35.31126],[139.31475,35.31113],[139.31606,35.31131],[139.31649,35.31112]]}},{"type":"Feature","properties":{"idx":749,"road":"神奈川県道703号二宮停車場線","cls":"secondary","shops":8,"st_km":0.18,"mesh":"52397250"},"geometry":{"type":"LineString","coordinates":[[139.25871,35.29808],[139.2586,35.29831]]}},{"type":"Feature","properties":{"idx":469,"road":"","cls":"tertiary","shops":0,"st_km":1.06,"mesh":"52397287"},"geometry":{"type":"LineString","coordinates":[[139.33834,35.32249],[139.33723,35.32727]]}},{"type":"Feature","properties":{"idx":786,"road":"平塚秦野線","cls":"primary","shops":0,"st_km":1.82,"mesh":"52397286"},"geometry":{"type":"LineString","coordinates":[[139.32958,35.32359],[139.33034,35.32242],[139.33094,35.32097],[139.33099,35.32068],[139.33101,35.32032],[139.33094,35.3198],[139.33036,35.31779],[139.33037,35.31737],[139.3306,35.3169]]}},{"type":"Feature","properties":{"idx":647,"road":"","cls":"tertiary","shops":4,"st_km":0.91,"mesh":"52397297"},"geometry":{"type":"LineString","coordinates":[[139.33226,35.32915],[139.33336,35.32944],[139.33477,35.32917],[139.34015,35.33032],[139.34348,35.33083],[139.34716,35.33127]]}},{"type":"Feature","properties":{"idx":137,"road":"","cls":"tertiary","shops":0,"st_km":2.76,"mesh":"52397282"},"geometry":{"type":"LineString","coordinates":[[139.27765,35.31699],[139.27664,35.31711]]}},{"type":"Feature","properties":{"idx":34,"road":"","cls":"tertiary","shops":0,"st_km":2.82,"mesh":"52397281"},"geometry":{"type":"LineString","coordinates":[[139.27383,35.31974],[139.27349,35.32011]]}},{"type":"Feature","properties":{"idx":34,"road":"","cls":"tertiary","shops":0,"st_km":2.76,"mesh":"52397281"},"geometry":{"type":"LineString","coordinates":[[139.27349,35.32011],[139.27338,35.32018],[139.27327,35.32017],[139.27272,35.31987],[139.27257,35.31984],[139.27236,35.31986],[139.27201,35.31999],[139.2716,35.3199]]}},{"type":"Feature","properties":{"idx":35,"road":"","cls":"tertiary","shops":0,"st_km":2.69,"mesh":"52397281"},"geometry":{"type":"LineString","coordinates":[[139.27637,35.31716],[139.27526,35.31736],[139.27509,35.31744],[139.2749,35.31775],[139.27485,35.31792],[139.27492,35.31846],[139.27489,35.31867],[139.27478,35.31886],[139.27446,35.31923]]}},{"type":"Feature","properties":{"idx":236,"road":"","cls":"tertiary","shops":0,"st_km":2.12,"mesh":"52397271"},"geometry":{"type":"LineString","coordinates":[[139.27255,35.31068],[139.27243,35.31088],[139.27219,35.31168],[139.27206,35.3124],[139.27232,35.3129],[139.27238,35.31356],[139.27305,35.31463],[139.27309,35.31498]]}},{"type":"Feature","properties":{"idx":273,"road":"","cls":"tertiary","shops":0,"st_km":1.78,"mesh":"52397271"},"geometry":{"type":"LineString","coordinates":[[139.27255,35.31068],[139.27167,35.31047],[139.27147,35.31036],[139.27091,35.30985],[139.26914,35.30881]]}},{"type":"Feature","properties":{"idx":249,"road":"","cls":"tertiary","shops":0,"st_km":1.98,"mesh":"52397271"},"geometry":{"type":"LineString","coordinates":[[139.27167,35.31047],[139.27045,35.3119],[139.27045,35.31211],[139.27071,35.31302],[139.27068,35.31314],[139.27049,35.31335],[139.26903,35.31264],[139.26873,35.31243],[139.26817,35.31194],[139.2679,35.31181],[139.26556,35.31108]]}},{"type":"Feature","properties":{"idx":330,"road":"","cls":"tertiary","shops":0,"st_km":0.88,"mesh":"52397260"},"geometry":{"type":"LineString","coordinates":[[139.26055,35.30959],[139.25983,35.30855],[139.25973,35.30835],[139.25958,35.30782],[139.25919,35.30724],[139.25861,35.30654],[139.25769,35.306],[139.25736,35.30561],[139.25711,35.30493],[139.25706,35.30338]]}},{"type":"Feature","properties":{"idx":523,"road":"","cls":"tertiary","shops":0,"st_km":1.89,"mesh":"52397294"},"geometry":{"type":"LineString","coordinates":[[139.31044,35.3288],[139.31007,35.3285],[139.30898,35.32833],[139.30874,35.32822],[139.30852,35.32795],[139.3084,35.32768],[139.30821,35.32745],[139.30796,35.32719],[139.30759,35.32694],[139.3074,35.32663]]}},{"type":"Feature","properties":{"idx":291,"road":"","cls":"tertiary","shops":0,"st_km":1.97,"mesh":"52397296"},"geometry":{"type":"LineString","coordinates":[[139.3312,35.33341],[139.32985,35.33318],[139.32774,35.33293],[139.32703,35.33297],[139.32555,35.33334]]}},{"type":"Feature","properties":{"idx":375,"road":"","cls":"tertiary","shops":0,"st_km":1.5,"mesh":"52397296"},"geometry":{"type":"LineString","coordinates":[[139.33293,35.32718],[139.33274,35.3273],[139.33267,35.32743],[139.33226,35.32915]]}},{"type":"Feature","properties":{"idx":728,"road":"","cls":"tertiary","shops":0,"st_km":1.56,"mesh":"52397286"},"geometry":{"type":"LineString","coordinates":[[139.3341,35.31745],[139.33398,35.3181],[139.33427,35.32149],[139.33488,35.32334]]}},{"type":"Feature","properties":{"idx":28,"road":"","cls":"tertiary","shops":0,"st_km":2.68,"mesh":"52397293"},"geometry":{"type":"LineString","coordinates":[[139.29007,35.32751],[139.29036,35.3275],[139.2915,35.32785],[139.29186,35.32803],[139.29224,35.3283],[139.29252,35.32838],[139.29299,35.32839],[139.29386,35.32827],[139.29428,35.32827]]}},{"type":"Feature","properties":{"idx":57,"road":"","cls":"tertiary","shops":0,"st_km":1.53,"mesh":"52397273"},"geometry":{"type":"LineString","coordinates":[[139.29902,35.30972],[139.29491,35.30924],[139.29427,35.30928]]}},{"type":"Feature","properties":{"idx":402,"road":"","cls":"tertiary","shops":0,"st_km":1.4,"mesh":"52397296"},"geometry":{"type":"LineString","coordinates":[[139.33573,35.33207],[139.33503,35.33441]]}},{"type":"Feature","properties":{"idx":522,"road":"","cls":"tertiary","shops":1,"st_km":1.63,"mesh":"52397296"},"geometry":{"type":"LineString","coordinates":[[139.33226,35.32915],[139.33125,35.33335],[139.3312,35.33341]]}},{"type":"Feature","properties":{"idx":227,"road":"","cls":"tertiary","shops":0,"st_km":0.9,"mesh":"52397298"},"geometry":{"type":"LineString","coordinates":[[139.36005,35.32755],[139.35836,35.32598],[139.3579,35.32567],[139.35738,35.3254]]}},{"type":"Feature","properties":{"idx":276,"road":"","cls":"tertiary","shops":0,"st_km":0.98,"mesh":"52397288"},"geometry":{"type":"LineString","coordinates":[[139.35742,35.32334],[139.35898,35.32241]]}},{"type":"Feature","properties":{"idx":751,"road":"","cls":"tertiary","shops":0,"st_km":0.53,"mesh":"52397287"},"geometry":{"type":"LineString","coordinates":[[139.34217,35.32447],[139.34367,35.32476],[139.34549,35.32505],[139.34612,35.32521]]}},{"type":"Feature","properties":{"idx":324,"road":"","cls":"tertiary_link","shops":0,"st_km":0.93,"mesh":"52397287"},"geometry":{"type":"LineString","coordinates":[[139.34251,35.32312],[139.33834,35.32249]]}},{"type":"Feature","properties":{"idx":937,"road":"","cls":"tertiary","shops":1,"st_km":0.72,"mesh":"52397287"},"geometry":{"type":"LineString","coordinates":[[139.34804,35.31568],[139.34743,35.31908],[139.3465,35.32353],[139.3458,35.32658]]}},{"type":"Feature","properties":{"idx":379,"road":"","cls":"tertiary","shops":0,"st_km":0.31,"mesh":"52397297"},"geometry":{"type":"LineString","coordinates":[[139.34546,35.3282],[139.3458,35.32658]]}},{"type":"Feature","properties":{"idx":1585,"road":"","cls":"tertiary","shops":6,"st_km":0.27,"mesh":"52397297"},"geometry":{"type":"LineString","coordinates":[[139.34785,35.32774],[139.34753,35.32954],[139.34716,35.33127]]}},{"type":"Feature","properties":{"idx":57,"road":"","cls":"tertiary","shops":0,"st_km":1.54,"mesh":"52397273"},"geometry":{"type":"LineString","coordinates":[[139.29662,35.30942],[139.29675,35.30793]]}},{"type":"Feature","properties":{"idx":48,"road":"城山トンネル","cls":"tertiary","shops":0,"st_km":1.87,"mesh":"52397273"},"geometry":{"type":"LineString","coordinates":[[139.29427,35.30928],[139.29131,35.30985]]}},{"type":"Feature","properties":{"idx":43,"road":"","cls":"tertiary","shops":0,"st_km":2.16,"mesh":"52397273"},"geometry":{"type":"LineString","coordinates":[[139.29131,35.30985],[139.29076,35.30989],[139.29043,35.30984],[139.29014,35.30971],[139.28976,35.3093],[139.28945,35.30857],[139.28932,35.30839],[139.28893,35.30812],[139.28842,35.30799]]}},{"type":"Feature","properties":{"idx":869,"road":"","cls":"tertiary","shops":0,"st_km":0.38,"mesh":"52397287"},"geometry":{"type":"LineString","coordinates":[[139.34648,35.32362],[139.35191,35.32444]]}},{"type":"Feature","properties":{"idx":223,"road":"","cls":"tertiary","shops":0,"st_km":0.87,"mesh":"52397297"},"geometry":{"type":"LineString","coordinates":[[139.34162,35.32626],[139.34023,35.32591],[139.33786,35.32507]]}},{"type":"Feature","properties":{"idx":330,"road":"","cls":"tertiary","shops":0,"st_km":0.49,"mesh":"52397298"},"geometry":{"type":"LineString","coordinates":[[139.35661,35.32927],[139.35615,35.32926],[139.35291,35.32948],[139.35117,35.32916]]}},{"type":"Feature","properties":{"idx":267,"road":"","cls":"tertiary","shops":0,"st_km":0.72,"mesh":"52397298"},"geometry":{"type":"LineString","coordinates":[[139.35738,35.3254],[139.35741,35.32556],[139.35686,35.3279],[139.3563,35.33095],[139.35579,35.33287]]}},{"type":"Feature","properties":{"idx":570,"road":"","cls":"tertiary","shops":1,"st_km":0.31,"mesh":"52397297"},"geometry":{"type":"LineString","coordinates":[[139.34576,35.32653],[139.34587,35.32655]]}},{"type":"Feature","properties":{"idx":281,"road":"","cls":"tertiary","shops":0,"st_km":1.96,"mesh":"52397296"},"geometry":{"type":"LineString","coordinates":[[139.32855,35.32284],[139.32824,35.32323],[139.32813,35.32375],[139.3277,35.32432],[139.32633,35.32548],[139.32321,35.32606],[139.32261,35.32628],[139.32252,35.32639],[139.32252,35.32649]]}},{"type":"Feature","properties":{"idx":613,"road":"扇松海岸通り","cls":"tertiary","shops":0,"st_km":0.74,"mesh":"52397287"},"geometry":{"type":"LineString","coordinates":[[139.34926,35.31578],[139.34924,35.31597],[139.3494,35.31801],[139.34961,35.32292],[139.34948,35.32492],[139.3495,35.32574]]}},{"type":"Feature","properties":{"idx":965,"road":"","cls":"tertiary","shops":0,"st_km":1.15,"mesh":"52397286"},"geometry":{"type":"LineString","coordinates":[[139.33766,35.32499],[139.33605,35.32432]]}},{"type":"Feature","properties":{"idx":191,"road":"","cls":"tertiary","shops":0,"st_km":1.06,"mesh":"52397297"},"geometry":{"type":"LineString","coordinates":[[139.33786,35.32507],[139.33766,35.32499]]}},{"type":"Feature","properties":{"idx":76,"road":"","cls":"tertiary","shops":0,"st_km":0.3,"mesh":"52397275"},"geometry":{"type":"LineString","coordinates":[[139.31555,35.3134],[139.31588,35.31312]]}},{"type":"Feature","properties":{"idx":115,"road":"","cls":"tertiary","shops":0,"st_km":2.29,"mesh":"52397263"},"geometry":{"type":"LineString","coordinates":[[139.28863,35.30669],[139.28907,35.30576],[139.28907,35.30503],[139.28921,35.30478],[139.28934,35.30466]]}},{"type":"Feature","properties":{"idx":181,"road":"","cls":"tertiary","shops":0,"st_km":1.35,"mesh":"52397263"},"geometry":{"type":"LineString","coordinates":[[139.29684,35.30687],[139.29879,35.30726],[139.3018,35.30779]]}},{"type":"Feature","properties":{"idx":204,"road":"","cls":"tertiary","shops":0,"st_km":0.95,"mesh":"52397264"},"geometry":{"type":"LineString","coordinates":[[139.30374,35.3082],[139.30391,35.30735]]}},{"type":"Feature","properties":{"idx":497,"road":"","cls":"tertiary","shops":0,"st_km":0.93,"mesh":"52397274"},"geometry":{"type":"LineString","coordinates":[[139.30353,35.30936],[139.30374,35.3082]]}},{"type":"Feature","properties":{"idx":64,"road":"","cls":"tertiary","shops":0,"st_km":0.48,"mesh":"52397275"},"geometry":{"type":"LineString","coordinates":[[139.31901,35.31025],[139.31894,35.31009],[139.31825,35.30962],[139.31769,35.30911],[139.31711,35.30834],[139.31685,35.3079]]}},{"type":"Feature","properties":{"idx":38,"road":"","cls":"tertiary","shops":0,"st_km":1.07,"mesh":"52397275"},"geometry":{"type":"LineString","coordinates":[[139.32602,35.31389],[139.32419,35.31328],[139.32348,35.31315]]}},{"type":"Feature","properties":{"idx":126,"road":"","cls":"tertiary","shops":0,"st_km":1.16,"mesh":"52397276"},"geometry":{"type":"LineString","coordinates":[[139.32499,35.31526],[139.32565,35.3144]]}},{"type":"Feature","properties":{"idx":665,"road":"","cls":"tertiary","shops":0,"st_km":1.62,"mesh":"52397286"},"geometry":{"type":"LineString","coordinates":[[139.33051,35.31688],[139.32922,35.31661]]}},{"type":"Feature","properties":{"idx":529,"road":"","cls":"tertiary","shops":0,"st_km":1.87,"mesh":"52397294"},"geometry":{"type":"LineString","coordinates":[[139.3074,35.32663],[139.30727,35.32653],[139.3072,35.32652],[139.30606,35.32664],[139.30599,35.32659],[139.30588,35.32635],[139.30577,35.3258],[139.30564,35.32552],[139.30557,35.32543],[139.30502,35.32532],[139.3038,35.32543],[139.30308,35.32575],[139.30265,35.32584],[139.30249,35.32592],[139.3018,35.32681],[139.30227,35.32797],[139.30225,35.33023],[139.30236,35.33051]]}},{"type":"Feature","properties":{"idx":38,"road":"","cls":"tertiary","shops":0,"st_km":1.37,"mesh":"52397284"},"geometry":{"type":"LineString","coordinates":[[139.3072,35.31934],[139.30707,35.31938],[139.30707,35.31948],[139.30746,35.31961],[139.30755,35.3197],[139.30764,35.3199],[139.30769,35.32023],[139.30779,35.32034],[139.30934,35.32074],[139.30954,35.32089],[139.30942,35.32112],[139.3092,35.32133],[139.30871,35.32161],[139.30751,35.32209],[139.3074,35.32223],[139.30742,35.32241],[139.30763,35.32259],[139.31028,35.32434],[139.31039,35.32451],[139.31042,35.32466],[139.31031,35.32493],[139.30933,35.32568],[139.30929,35.32597],[139.30952,35.32656],[139.30938,35.32673],[139.30884,35.32686],[139.30865,35.32677],[139.30841,35.32653],[139.30823,35.32645],[139.30757,35.32654]]}},{"type":"Feature","properties":{"idx":198,"road":"","cls":"tertiary","shops":0,"st_km":1.42,"mesh":"52397288"},"geometry":{"type":"LineString","coordinates":[[139.35931,35.31652],[139.359,35.31888]]}},{"type":"Feature","properties":{"idx":717,"road":"","cls":"tertiary","shops":0,"st_km":0.57,"mesh":"52397287"},"geometry":{"type":"LineString","coordinates":[[139.34581,35.3196],[139.34587,35.32226],[139.34556,35.32331],[139.34552,35.3238],[139.34538,35.32404],[139.3456,35.32651]]}},{"type":"Feature","properties":{"idx":441,"road":"","cls":"tertiary","shops":0,"st_km":1.13,"mesh":"52397287"},"geometry":{"type":"LineString","coordinates":[[139.34581,35.3196],[139.3457,35.31823],[139.34551,35.31792],[139.3462,35.31561]]}},{"type":"Feature","properties":{"idx":334,"road":"公所大磯線","cls":"secondary","shops":0,"st_km":1.93,"mesh":"52397296"},"geometry":{"type":"LineString","coordinates":[[139.32611,35.32715],[139.32622,35.32719],[139.32681,35.32656],[139.32869,35.32482],[139.32937,35.32401],[139.32951,35.32371]]}},{"type":"Feature","properties":{"idx":307,"road":"公所大磯線","cls":"secondary","shops":0,"st_km":2.03,"mesh":"52397296"},"geometry":{"type":"LineString","coordinates":[[139.32463,35.32649],[139.32611,35.32715]]}},{"type":"Feature","properties":{"idx":260,"road":"","cls":"tertiary","shops":0,"st_km":1.79,"mesh":"52397289"},"geometry":{"type":"LineString","coordinates":[[139.36509,35.31935],[139.36542,35.31916],[139.36647,35.3187]]}},{"type":"Feature","properties":{"idx":141,"road":"","cls":"tertiary","shops":0,"st_km":2.69,"mesh":"52397272"},"geometry":{"type":"LineString","coordinates":[[139.27778,35.31465],[139.28,35.31485]]}},{"type":"Feature","properties":{"idx":1650,"road":"","cls":"tertiary","shops":0,"st_km":0.99,"mesh":"52397261"},"geometry":{"type":"LineString","coordinates":[[139.25987,35.30662],[139.26,35.30631],[139.26078,35.30541],[139.26088,35.30498],[139.26107,35.30457],[139.26119,35.30444],[139.26227,35.30508],[139.26287,35.30562],[139.26321,35.30618],[139.26367,35.30824],[139.26274,35.3103]]}},{"type":"Feature","properties":{"idx":36,"road":"","cls":"tertiary","shops":0,"st_km":2.56,"mesh":"52397281"},"geometry":{"type":"LineString","coordinates":[[139.26757,35.3232],[139.2674,35.32313],[139.2674,35.32267],[139.26709,35.32239],[139.26699,35.32215],[139.26707,35.32198],[139.26725,35.32186],[139.26769,35.32191],[139.26789,35.32178],[139.26791,35.3217],[139.26786,35.32159],[139.26757,35.32129],[139.26741,35.32119],[139.26649,35.32145],[139.26593,35.32123],[139.26496,35.32118],[139.26483,35.32109],[139.26455,35.32073],[139.26436,35.32065],[139.26345,35.32099],[139.26319,35.32117],[139.26281,35.32118],[139.26275,35.32123],[139.26271,35.32136],[139.2627,35.32177],[139.26265,35.32187],[139.26237,35.32213],[139.26202,35.32229],[139.26187,35.32261],[139.26097,35.32318],[139.26082,35.32352],[139.26069,35.3236],[139.26021,35.32349],[139.26005,35.32337],[139.25972,35.32281],[139.25985,35.32254],[139.25983,35.32245],[139.25971,35.3224],[139.25914,35.32233],[139.25898,35.32226],[139.25881,35.32212],[139.25846,35.32163],[139.25829,35.3215]]}},{"type":"Feature","properties":{"idx":295,"road":"","cls":"tertiary","shops":0,"st_km":1.02,"mesh":"52397260"},"geometry":{"type":"LineString","coordinates":[[139.25844,35.3064],[139.25987,35.30662],[139.26012,35.3067],[139.26042,35.30684],[139.26071,35.3071],[139.26083,35.30731],[139.26101,35.30738],[139.26339,35.30701]]}},{"type":"Feature","properties":{"idx":294,"road":"","cls":"tertiary","shops":0,"st_km":1.64,"mesh":"52397271"},"geometry":{"type":"LineString","coordinates":[[139.26914,35.30881],[139.26746,35.31086],[139.26712,35.31157]]}},{"type":"Feature","properties":{"idx":318,"road":"","cls":"tertiary","shops":0,"st_km":0.53,"mesh":"52397298"},"geometry":{"type":"LineString","coordinates":[[139.3501,35.33276],[139.3502,35.33153]]}},{"type":"Feature","properties":{"idx":413,"road":"","cls":"tertiary","shops":1,"st_km":0.59,"mesh":"52397265"},"geometry":{"type":"LineString","coordinates":[[139.31675,35.30716],[139.3163,35.30674],[139.31568,35.30638]]}},{"type":"Feature","properties":{"idx":296,"road":"","cls":"tertiary","shops":0,"st_km":0.52,"mesh":"52397265"},"geometry":{"type":"LineString","coordinates":[[139.31568,35.30638],[139.31426,35.30767]]}},{"type":"Feature","properties":{"idx":327,"road":"","cls":"tertiary","shops":0,"st_km":0.5,"mesh":"52397298"},"geometry":{"type":"LineString","coordinates":[[139.35238,35.32938],[139.35193,35.33276],[139.35187,35.33295]]}},{"type":"Feature","properties":{"idx":687,"road":"","cls":"tertiary","shops":1,"st_km":1.21,"mesh":"52397296"},"geometry":{"type":"LineString","coordinates":[[139.33018,35.33075],[139.34412,35.33408]]}},{"type":"Feature","properties":{"idx":712,"road":"","cls":"tertiary","shops":1,"st_km":0.14,"mesh":"52397298"},"geometry":{"type":"LineString","coordinates":[[139.3509,35.32697],[139.34996,35.32712]]}},{"type":"Feature","properties":{"idx":273,"road":"","cls":"tertiary","shops":0,"st_km":2.75,"mesh":"52397280"},"geometry":{"type":"LineString","coordinates":[[139.25781,35.32516],[139.2579,35.325],[139.2581,35.32483],[139.25816,35.32469],[139.25814,35.32457],[139.25785,35.3241],[139.25785,35.32391],[139.25834,35.32309],[139.25849,35.32257],[139.2582,35.32166],[139.25829,35.3215]]}},{"type":"Feature","properties":{"idx":811,"road":"弦斎通り","cls":"tertiary","shops":2,"st_km":0.24,"mesh":"52397297"},"geometry":{"type":"LineString","coordinates":[[139.34612,35.32521],[139.3495,35.32574]]}},{"type":"Feature","properties":{"idx":138,"road":"諏訪の下橋","cls":"tertiary","shops":0,"st_km":2.78,"mesh":"52397272"},"geometry":{"type":"LineString","coordinates":[[139.28,35.31485],[139.28015,35.31486]]}},{"type":"Feature","properties":{"idx":141,"road":"","cls":"tertiary","shops":0,"st_km":2.69,"mesh":"52397272"},"geometry":{"type":"LineString","coordinates":[[139.28015,35.31486],[139.28036,35.31487],[139.28074,35.31463],[139.28091,35.31438],[139.28105,35.31389],[139.28116,35.31168],[139.2814,35.31115],[139.28146,35.31073],[139.28115,35.30967]]}},{"type":"Feature","properties":{"idx":153,"road":"","cls":"tertiary","shops":0,"st_km":2.38,"mesh":"52397272"},"geometry":{"type":"LineString","coordinates":[[139.27888,35.31017],[139.27874,35.3102]]}},{"type":"Feature","properties":{"idx":232,"road":"","cls":"tertiary","shops":1,"st_km":2.34,"mesh":"52397272"},"geometry":{"type":"LineString","coordinates":[[139.27874,35.3102],[139.27758,35.31048]]}},{"type":"Feature","properties":{"idx":164,"road":"境橋","cls":"primary","shops":0,"st_km":2.96,"mesh":"52397282"},"geometry":{"type":"LineString","coordinates":[[139.28341,35.32215],[139.28355,35.32233]]}},{"type":"Feature","properties":{"idx":168,"road":"相模原大磯線","cls":"primary","shops":0,"st_km":2.83,"mesh":"52397282"},"geometry":{"type":"LineString","coordinates":[[139.28355,35.32233],[139.28429,35.32327],[139.28495,35.32395],[139.28526,35.32421],[139.28641,35.32487],[139.28746,35.32503],[139.28814,35.32524],[139.28854,35.32541],[139.2888,35.32572],[139.28898,35.32626],[139.2891,35.32646],[139.29007,35.32751]]}},{"type":"Feature","properties":{"idx":2071,"road":"","cls":"tertiary","shops":7,"st_km":0.12,"mesh":"52397297"},"geometry":{"type":"LineString","coordinates":[[139.34996,35.32712],[139.34755,35.32671],[139.34587,35.32655]]}},{"type":"Feature","properties":{"idx":2122,"road":"","cls":"pedestrian","shops":5,"st_km":0.16,"mesh":"52397297"},"geometry":{"type":"LineString","coordinates":[[139.34964,35.32891],[139.34766,35.32881]]}},{"type":"Feature","properties":{"idx":159,"road":"","cls":"tertiary","shops":0,"st_km":1.56,"mesh":"52397263"},"geometry":{"type":"LineString","coordinates":[[139.29675,35.30793],[139.29678,35.30767]]}},{"type":"Feature","properties":{"idx":155,"road":"","cls":"tertiary","shops":0,"st_km":1.6,"mesh":"52397263"},"geometry":{"type":"LineString","coordinates":[[139.29684,35.3069],[139.29696,35.30558]]}},{"type":"Feature","properties":{"idx":215,"road":"","cls":"tertiary","shops":0,"st_km":1.3,"mesh":"52397288"},"geometry":{"type":"LineString","coordinates":[[139.35992,35.31995],[139.359,35.31888]]}},{"type":"Feature","properties":{"idx":34,"road":"入会橋","cls":"primary","shops":0,"st_km":2.79,"mesh":"52397293"},"geometry":{"type":"LineString","coordinates":[[139.29314,35.33041],[139.2932,35.33052]]}},{"type":"Feature","properties":{"idx":835,"road":"","cls":"tertiary","shops":1,"st_km":1.76,"mesh":"52397294"},"geometry":{"type":"LineString","coordinates":[[139.30757,35.32654],[139.3074,35.32663]]}},{"type":"Feature","properties":{"idx":470,"road":"","cls":"tertiary","shops":0,"st_km":2.16,"mesh":"52397294"},"geometry":{"type":"LineString","coordinates":[[139.30236,35.33051],[139.30422,35.33009],[139.30487,35.3298],[139.30544,35.32978],[139.30569,35.32983],[139.30592,35.32992],[139.30628,35.33019],[139.30662,35.33029],[139.30828,35.32998]]}},{"type":"Feature","properties":{"idx":28,"road":"","cls":"tertiary","shops":0,"st_km":2.65,"mesh":"52397293"},"geometry":{"type":"LineString","coordinates":[[139.29606,35.33075],[139.29646,35.3309]]}},{"type":"Feature","properties":{"idx":95,"road":"","cls":"tertiary","shops":0,"st_km":0.51,"mesh":"52397250"},"geometry":{"type":"LineString","coordinates":[[139.25167,35.29691],[139.25166,35.29635]]}},{"type":"Feature","properties":{"idx":156,"road":"","cls":"pedestrian","shops":0,"st_km":0.34,"mesh":"52397250"},"geometry":{"type":"LineString","coordinates":[[139.25342,35.29739],[139.25351,35.29719]]}},{"type":"Feature","properties":{"idx":93,"road":"","cls":"tertiary","shops":0,"st_km":0.54,"mesh":"52397250"},"geometry":{"type":"LineString","coordinates":[[139.25166,35.29635],[139.25174,35.2959]]}},{"type":"Feature","properties":{"idx":240,"road":"","cls":"tertiary","shops":0,"st_km":2.17,"mesh":"52397262"},"geometry":{"type":"LineString","coordinates":[[139.27985,35.30447],[139.27992,35.30233]]}},{"type":"Feature","properties":{"idx":148,"road":"","cls":"tertiary","shops":0,"st_km":2.46,"mesh":"52397272"},"geometry":{"type":"LineString","coordinates":[[139.28842,35.30799],[139.28805,35.30807],[139.28743,35.30836],[139.28655,35.30911],[139.28637,35.3092],[139.28477,35.30954],[139.2839,35.30957]]}},{"type":"Feature","properties":{"idx":127,"road":"秦野二宮線","cls":"primary","shops":0,"st_km":0.45,"mesh":"52397250"},"geometry":{"type":"LineString","coordinates":[[139.26148,35.29938],[139.26176,35.29926]]}},{"type":"Feature","properties":{"idx":124,"road":"秦野二宮線","cls":"primary","shops":0,"st_km":0.48,"mesh":"52397250"},"geometry":{"type":"LineString","coordinates":[[139.26176,35.29926],[139.26197,35.29916],[139.26208,35.29905]]}},{"type":"Feature","properties":{"idx":162,"road":"相模原大磯線","cls":"primary","shops":0,"st_km":3.06,"mesh":"52397282"},"geometry":{"type":"LineString","coordinates":[[139.27778,35.31465],[139.27761,35.31617],[139.27768,35.31787],[139.27773,35.3181],[139.27798,35.31849],[139.27993,35.32107],[139.28021,35.32138],[139.28053,35.32153],[139.28088,35.32161],[139.28287,35.32174],[139.28312,35.32186],[139.28341,35.32215]]}},{"type":"Feature","properties":{"idx":301,"road":"相模原大磯線","cls":"primary","shops":1,"st_km":2.23,"mesh":"52397272"},"geometry":{"type":"LineString","coordinates":[[139.27755,35.30919],[139.27753,35.30932]]}},{"type":"Feature","properties":{"idx":134,"road":"","cls":"tertiary","shops":0,"st_km":1.47,"mesh":"52397270"},"geometry":{"type":"LineString","coordinates":[[139.26128,35.31114],[139.26044,35.31159],[139.25971,35.31171],[139.25853,35.31199]]}},{"type":"Feature","properties":{"idx":160,"road":"","cls":"tertiary","shops":0,"st_km":1.21,"mesh":"52397270"},"geometry":{"type":"LineString","coordinates":[[139.25774,35.31265],[139.25789,35.31241],[139.2579,35.31229],[139.25758,35.31178],[139.25758,35.31156],[139.25773,35.31142],[139.25841,35.31126],[139.25858,35.31112],[139.25859,35.31044],[139.25874,35.30995],[139.2587,35.30968],[139.25821,35.30895],[139.25809,35.30822],[139.25796,35.30801],[139.25774,35.3078],[139.25749,35.30765],[139.25673,35.30735],[139.25629,35.30699],[139.25588,35.30652]]}},{"type":"Feature","properties":{"idx":271,"road":"","cls":"tertiary","shops":0,"st_km":0.65,"mesh":"52397297"},"geometry":{"type":"LineString","coordinates":[[139.34698,35.33201],[139.34682,35.33269],[139.34662,35.33405]]}},{"type":"Feature","properties":{"idx":751,"road":"","cls":"tertiary","shops":0,"st_km":1.51,"mesh":"52397286"},"geometry":{"type":"LineString","coordinates":[[139.3435,35.31934],[139.33939,35.31845],[139.33732,35.31805],[139.33314,35.31728],[139.3306,35.3169]]}},{"type":"Feature","properties":{"idx":294,"road":"","cls":"tertiary","shops":0,"st_km":1.57,"mesh":"52397289"},"geometry":{"type":"LineString","coordinates":[[139.36578,35.32378],[139.36505,35.32226],[139.36425,35.3204]]}},{"type":"Feature","properties":{"idx":924,"road":"","cls":"tertiary","shops":0,"st_km":0.25,"mesh":"52397274"},"geometry":{"type":"LineString","coordinates":[[139.31192,35.30788],[139.31228,35.3084],[139.3124,35.30966],[139.31319,35.31063]]}},{"type":"Feature","properties":{"idx":35,"road":"","cls":"tertiary","shops":0,"st_km":2.71,"mesh":"52397281"},"geometry":{"type":"LineString","coordinates":[[139.27218,35.3196],[139.27248,35.31943]]}},{"type":"Feature","properties":{"idx":218,"road":"","cls":"tertiary","shops":0,"st_km":2.35,"mesh":"52397271"},"geometry":{"type":"LineString","coordinates":[[139.27309,35.31498],[139.27307,35.31527]]}},{"type":"Feature","properties":{"idx":35,"road":"","cls":"tertiary","shops":0,"st_km":2.71,"mesh":"52397281"},"geometry":{"type":"LineString","coordinates":[[139.2716,35.3199],[139.27218,35.3196]]}},{"type":"Feature","properties":{"idx":36,"road":"","cls":"tertiary","shops":0,"st_km":2.52,"mesh":"52397281"},"geometry":{"type":"LineString","coordinates":[[139.27307,35.31527],[139.27276,35.31731],[139.2728,35.3177],[139.27313,35.31829],[139.27311,35.31847],[139.2729,35.31892]]}},{"type":"Feature","properties":{"idx":317,"road":"相模原大磯線","cls":"primary","shops":0,"st_km":2.03,"mesh":"52397262"},"geometry":{"type":"LineString","coordinates":[[139.27744,35.3053],[139.27744,35.30561]]}},{"type":"Feature","properties":{"idx":457,"road":"相模原大磯線","cls":"primary","shops":1,"st_km":2.13,"mesh":"52397262"},"geometry":{"type":"LineString","coordinates":[[139.27744,35.30561],[139.27763,35.30816],[139.27755,35.30919]]}},{"type":"Feature","properties":{"idx":242,"road":"","cls":"tertiary","shops":0,"st_km":2.14,"mesh":"52397262"},"geometry":{"type":"LineString","coordinates":[[139.27992,35.30232],[139.27993,35.30214]]}},{"type":"Feature","properties":{"idx":224,"road":"","cls":"tertiary","shops":0,"st_km":2.38,"mesh":"52397262"},"geometry":{"type":"LineString","coordinates":[[139.27976,35.3015],[139.28014,35.30184],[139.28035,35.3019],[139.28121,35.30202],[139.28164,35.30197],[139.28233,35.30199],[139.28424,35.30233],[139.28558,35.30247]]}},{"type":"Feature","properties":{"idx":272,"road":"旧東海道","cls":"tertiary","shops":1,"st_km":1.18,"mesh":"52397298"},"geometry":{"type":"LineString","coordinates":[[139.36082,35.33168],[139.36095,35.33175]]}},{"type":"Feature","properties":{"idx":2615,"road":"","cls":"tertiary","shops":0,"st_km":1.34,"mesh":"52397299"},"geometry":{"type":"LineString","coordinates":[[139.36265,35.33218],[139.36264,35.33162]]}},{"type":"Feature","properties":{"idx":388,"road":"","cls":"tertiary","shops":1,"st_km":0.7,"mesh":"52397297"},"geometry":{"type":"LineString","coordinates":[[139.34456,35.33209],[139.34436,35.33303]]}},{"type":"Feature","properties":{"idx":729,"road":"","cls":"tertiary","shops":2,"st_km":0.35,"mesh":"52397297"},"geometry":{"type":"LineString","coordinates":[[139.34537,35.32885],[139.34546,35.3282]]}},{"type":"Feature","properties":{"idx":1378,"road":"旧東海道","cls":"tertiary","shops":5,"st_km":0.27,"mesh":"52397297"},"geometry":{"type":"LineString","coordinates":[[139.35021,35.33001],[139.34742,35.3296],[139.34532,35.32911]]}},{"type":"Feature","properties":{"idx":425,"road":"","cls":"tertiary","shops":0,"st_km":1.31,"mesh":"52397296"},"geometry":{"type":"LineString","coordinates":[[139.33723,35.32727],[139.33229,35.32552],[139.332,35.32556]]}},{"type":"Feature","properties":{"idx":381,"road":"","cls":"tertiary","shops":1,"st_km":0.72,"mesh":"52397297"},"geometry":{"type":"LineString","coordinates":[[139.34417,35.33458],[139.3449,35.33102]]}},{"type":"Feature","properties":{"idx":832,"road":"","cls":"tertiary","shops":10,"st_km":0.14,"mesh":"52397250"},"geometry":{"type":"LineString","coordinates":[[139.2586,35.29831],[139.25832,35.29849],[139.25827,35.29865],[139.25837,35.2987],[139.25845,35.29868],[139.2586,35.29831]]}},{"type":"Feature","properties":{"idx":638,"road":"","cls":"tertiary_link","shops":13,"st_km":0.16,"mesh":"52397250"},"geometry":{"type":"LineString","coordinates":[[139.25855,35.29848],[139.2585,35.29843],[139.25839,35.29845]]}},{"type":"Feature","properties":{"idx":1774,"road":"","cls":"tertiary","shops":6,"st_km":0.2,"mesh":"52397298"},"geometry":{"type":"LineString","coordinates":[[139.35012,35.32877],[139.35013,35.32884],[139.35037,35.32913]]}},{"type":"Feature","properties":{"idx":281,"road":"旧東海道","cls":"tertiary","shops":1,"st_km":1.14,"mesh":"52397298"},"geometry":{"type":"LineString","coordinates":[[139.36082,35.33168],[139.36076,35.33155],[139.36066,35.33148],[139.36006,35.33143]]}},{"type":"Feature","properties":{"idx":361,"road":"","cls":"tertiary","shops":0,"st_km":1.56,"mesh":"52397296"},"geometry":{"type":"LineString","coordinates":[[139.33188,35.32561],[139.332,35.32556]]}},{"type":"Feature","properties":{"idx":595,"road":"旧東海道","cls":"tertiary","shops":1,"st_km":0.31,"mesh":"52397298"},"geometry":{"type":"LineString","coordinates":[[139.35021,35.33001],[139.35034,35.33003]]}},{"type":"Feature","properties":{"idx":684,"road":"","cls":"tertiary","shops":12,"st_km":0.06,"mesh":"52397275"},"geometry":{"type":"LineString","coordinates":[[139.31335,35.31089],[139.31359,35.31106]]}},{"type":"Feature","properties":{"idx":478,"road":"","cls":"tertiary","shops":8,"st_km":0.08,"mesh":"52397275"},"geometry":{"type":"LineString","coordinates":[[139.31335,35.31089],[139.31319,35.31063]]}},{"type":"Feature","properties":{"idx":631,"road":"","cls":"tertiary","shops":11,"st_km":0.06,"mesh":"52397275"},"geometry":{"type":"LineString","coordinates":[[139.31302,35.31084],[139.31319,35.3109],[139.31335,35.31089]]}},{"type":"Feature","properties":{"idx":237,"road":"","cls":"tertiary","shops":3,"st_km":0.08,"mesh":"52397275"},"geometry":{"type":"LineString","coordinates":[[139.31319,35.31063],[139.31304,35.31074],[139.31302,35.31084]]}},{"type":"Feature","properties":{"idx":318,"road":"","cls":"tertiary","shops":0,"st_km":0.53,"mesh":"52397298"},"geometry":{"type":"LineString","coordinates":[[139.35008,35.33152],[139.34999,35.33275]]}},{"type":"Feature","properties":{"idx":607,"road":"","cls":"tertiary","shops":1,"st_km":0.29,"mesh":"52397298"},"geometry":{"type":"LineString","coordinates":[[139.35034,35.33003],[139.35045,35.32955]]}},{"type":"Feature","properties":{"idx":732,"road":"","cls":"tertiary","shops":2,"st_km":0.34,"mesh":"52397297"},"geometry":{"type":"LineString","coordinates":[[139.34546,35.3282],[139.34533,35.32852]]}},{"type":"Feature","properties":{"idx":129,"road":"","cls":"tertiary","shops":0,"st_km":0.21,"mesh":"52397250"},"geometry":{"type":"LineString","coordinates":[[139.25823,35.29934],[139.25903,35.2996],[139.25927,35.29973],[139.25937,35.29986]]}},{"type":"Feature","properties":{"idx":146,"road":"","cls":"tertiary","shops":0,"st_km":2.54,"mesh":"52397272"},"geometry":{"type":"LineString","coordinates":[[139.2761,35.31447],[139.27767,35.31461]]}},{"type":"Feature","properties":{"idx":337,"road":"","cls":"tertiary","shops":0,"st_km":2.03,"mesh":"52397280"},"geometry":{"type":"LineString","coordinates":[[139.24791,35.31609],[139.2486,35.3149],[139.2487,35.31486],[139.25118,35.31581],[139.25276,35.31604],[139.25297,35.31613],[139.25311,35.31627],[139.25317,35.31648],[139.25292,35.31767],[139.25277,35.31787],[139.25252,35.31797],[139.25236,35.31797],[139.25019,35.31766],[139.24981,35.31757],[139.24953,35.31738],[139.24898,35.31679],[139.24865,35.31652],[139.24787,35.31607]]}},{"type":"Feature","properties":{"idx":331,"road":"平塚伊勢原線","cls":"primary","shops":0,"st_km":0.67,"mesh":"52397297"},"geometry":{"type":"LineString","coordinates":[[139.34184,35.3258],[139.34169,35.32636]]}},{"type":"Feature","properties":{"idx":736,"road":"平塚伊勢原線","cls":"primary","shops":4,"st_km":1.02,"mesh":"52397297"},"geometry":{"type":"LineString","coordinates":[[139.3409,35.32818],[139.33799,35.3364]]}},{"type":"Feature","properties":{"idx":508,"road":"","cls":"tertiary","shops":0,"st_km":2.07,"mesh":"52397283"},"geometry":{"type":"LineString","coordinates":[[139.29604,35.32359],[139.29665,35.32422]]}},{"type":"Feature","properties":{"idx":44,"road":"","cls":"tertiary","shops":0,"st_km":2.06,"mesh":"52397273"},"geometry":{"type":"LineString","coordinates":[[139.29006,35.31476],[139.2918,35.31472]]}},{"type":"Feature","properties":{"idx":538,"road":"","cls":"tertiary","shops":0,"st_km":1.93,"mesh":"52397283"},"geometry":{"type":"LineString","coordinates":[[139.30181,35.32293],[139.30161,35.32303],[139.30147,35.32337],[139.30134,35.32346],[139.30075,35.32341],[139.30029,35.32297],[139.30007,35.32297],[139.29993,35.32303],[139.29922,35.32343],[139.29902,35.32398],[139.29886,35.32416],[139.29874,35.3242],[139.29851,35.32416],[139.29628,35.3229],[139.29594,35.32292],[139.29579,35.32305],[139.29575,35.32317],[139.2958,35.32334],[139.29604,35.32359]]}},{"type":"Feature","properties":{"idx":242,"road":"","cls":"tertiary","shops":0,"st_km":2.05,"mesh":"52397271"},"geometry":{"type":"LineString","coordinates":[[139.2745,35.30965],[139.27472,35.31014]]}},{"type":"Feature","properties":{"idx":209,"road":"","cls":"tertiary","shops":0,"st_km":2.63,"mesh":"52397262"},"geometry":{"type":"LineString","coordinates":[[139.28688,35.30209],[139.28674,35.3019]]}},{"type":"Feature","properties":{"idx":208,"road":"","cls":"tertiary","shops":0,"st_km":2.64,"mesh":"52397262"},"geometry":{"type":"LineString","coordinates":[[139.28626,35.3023],[139.28658,35.30241]]}},{"type":"Feature","properties":{"idx":208,"road":"","cls":"tertiary","shops":0,"st_km":2.67,"mesh":"52397262"},"geometry":{"type":"LineString","coordinates":[[139.28558,35.30247],[139.28568,35.30235],[139.28613,35.30228]]}},{"type":"Feature","properties":{"idx":210,"road":"","cls":"tertiary","shops":0,"st_km":2.6,"mesh":"52397262"},"geometry":{"type":"LineString","coordinates":[[139.28658,35.30241],[139.28682,35.30241],[139.28698,35.30232],[139.28701,35.30219],[139.28688,35.30209]]}},{"type":"Feature","properties":{"idx":324,"road":"明石下落合線","cls":"secondary","shops":0,"st_km":0.59,"mesh":"52397297"},"geometry":{"type":"LineString","coordinates":[[139.34893,35.3327],[139.34836,35.33271],[139.34832,35.33276]]}},{"type":"Feature","properties":{"idx":1506,"road":"","cls":"tertiary","shops":4,"st_km":0.91,"mesh":"52397274"},"geometry":{"type":"LineString","coordinates":[[139.30338,35.31012],[139.30353,35.30936]]}},{"type":"Feature","properties":{"idx":323,"road":"平塚伊勢原線","cls":"primary","shops":0,"st_km":0.7,"mesh":"52397297"},"geometry":{"type":"LineString","coordinates":[[139.34169,35.32636],[139.3409,35.32818]]}},{"type":"Feature","properties":{"idx":595,"road":"旧東海道","cls":"tertiary","shops":2,"st_km":0.55,"mesh":"52397297"},"geometry":{"type":"LineString","coordinates":[[139.34532,35.32911],[139.3409,35.32818]]}},{"type":"Feature","properties":{"idx":283,"road":"","cls":"tertiary","shops":0,"st_km":0.65,"mesh":"52397298"},"geometry":{"type":"LineString","coordinates":[[139.3502,35.33153],[139.35366,35.33178],[139.3551,35.33197],[139.35605,35.33197],[139.35743,35.33208]]}},{"type":"Feature","properties":{"idx":278,"road":"","cls":"tertiary_link","shops":1,"st_km":0.6,"mesh":"52397298"},"geometry":{"type":"LineString","coordinates":[[139.35003,35.33285],[139.3501,35.33276]]}},{"type":"Feature","properties":{"idx":366,"road":"","cls":"tertiary","shops":0,"st_km":0.39,"mesh":"52397298"},"geometry":{"type":"LineString","coordinates":[[139.3502,35.33153],[139.35034,35.33003]]}},{"type":"Feature","properties":{"idx":368,"road":"","cls":"tertiary","shops":0,"st_km":0.38,"mesh":"52397298"},"geometry":{"type":"LineString","coordinates":[[139.35021,35.33001],[139.35008,35.33152]]}},{"type":"Feature","properties":{"idx":509,"road":"","cls":"tertiary","shops":1,"st_km":0.47,"mesh":"52397298"},"geometry":{"type":"LineString","coordinates":[[139.35008,35.33152],[139.3502,35.33153]]}},{"type":"Feature","properties":{"idx":627,"road":"","cls":"tertiary","shops":2,"st_km":0.5,"mesh":"52397297"},"geometry":{"type":"LineString","coordinates":[[139.34716,35.33127],[139.34698,35.33201]]}},{"type":"Feature","properties":{"idx":331,"road":"","cls":"tertiary","shops":0,"st_km":0.44,"mesh":"52397297"},"geometry":{"type":"LineString","coordinates":[[139.34716,35.33127],[139.34833,35.33142],[139.35008,35.33152]]}},{"type":"Feature","properties":{"idx":280,"road":"","cls":"tertiary","shops":0,"st_km":2.06,"mesh":"52397296"},"geometry":{"type":"LineString","coordinates":[[139.32622,35.32719],[139.32654,35.32733]]}},{"type":"Feature","properties":{"idx":284,"road":"","cls":"tertiary","shops":0,"st_km":2.03,"mesh":"52397296"},"geometry":{"type":"LineString","coordinates":[[139.32654,35.32733],[139.32686,35.32747]]}},{"type":"Feature","properties":{"idx":379,"road":"平塚秦野線","cls":"primary","shops":0,"st_km":1.89,"mesh":"52397296"},"geometry":{"type":"LineString","coordinates":[[139.33112,35.32475],[139.32555,35.33334]]}},{"type":"Feature","properties":{"idx":475,"road":"","cls":"tertiary","shops":0,"st_km":1.16,"mesh":"52397296"},"geometry":{"type":"LineString","coordinates":[[139.33723,35.32727],[139.33614,35.33094],[139.33573,35.33207]]}},{"type":"Feature","properties":{"idx":324,"road":"旧東海道","cls":"tertiary","shops":1,"st_km":0.9,"mesh":"52397297"},"geometry":{"type":"LineString","coordinates":[[139.3409,35.32818],[139.33723,35.32727]]}},{"type":"Feature","properties":{"idx":175,"road":"旧東海道","cls":"tertiary","shops":1,"st_km":2.26,"mesh":"52397263"},"geometry":{"type":"LineString","coordinates":[[139.28934,35.30466],[139.29084,35.30383]]}},{"type":"Feature","properties":{"idx":298,"road":"旧東海道","cls":"tertiary","shops":1,"st_km":1.06,"mesh":"52397298"},"geometry":{"type":"LineString","coordinates":[[139.36006,35.33143],[139.35927,35.33135]]}},{"type":"Feature","properties":{"idx":1063,"road":"","cls":"tertiary","shops":3,"st_km":0.24,"mesh":"52397298"},"geometry":{"type":"LineString","coordinates":[[139.35052,35.32924],[139.35079,35.32908]]}},{"type":"Feature","properties":{"idx":137,"road":"","cls":"tertiary","shops":0,"st_km":1.44,"mesh":"52397270"},"geometry":{"type":"LineString","coordinates":[[139.25853,35.31199],[139.25822,35.31198],[139.25799,35.31178],[139.25794,35.31165],[139.258,35.31155],[139.25853,35.31129],[139.25856,35.31116]]}},{"type":"Feature","properties":{"idx":209,"road":"","cls":"tertiary","shops":0,"st_km":2.63,"mesh":"52397262"},"geometry":{"type":"LineString","coordinates":[[139.28645,35.30228],[139.28662,35.30216],[139.28688,35.30209]]}},{"type":"Feature","properties":{"idx":432,"road":"弦斎通り","cls":"tertiary","shops":0,"st_km":0.23,"mesh":"52397298"},"geometry":{"type":"LineString","coordinates":[[139.3495,35.32574],[139.35187,35.3261]]}},{"type":"Feature","properties":{"idx":339,"road":"学園通り","cls":"tertiary","shops":0,"st_km":0.74,"mesh":"52397288"},"geometry":{"type":"LineString","coordinates":[[139.35765,35.32121],[139.35218,35.32448]]}},{"type":"Feature","properties":{"idx":288,"road":"旧東海道","cls":"tertiary","shops":0,"st_km":0.64,"mesh":"52397298"},"geometry":{"type":"LineString","coordinates":[[139.35918,35.33134],[139.35722,35.33112],[139.35324,35.33041],[139.35034,35.33003]]}},{"type":"Feature","properties":{"idx":511,"road":"旧東海道","cls":"tertiary","shops":3,"st_km":1.03,"mesh":"52397298"},"geometry":{"type":"LineString","coordinates":[[139.35927,35.33135],[139.35918,35.33134]]}},{"type":"Feature","properties":{"idx":1039,"road":"","cls":"tertiary","shops":3,"st_km":0.26,"mesh":"52397298"},"geometry":{"type":"LineString","coordinates":[[139.35037,35.32913],[139.35039,35.32921],[139.35021,35.33001]]}},{"type":"Feature","properties":{"idx":146,"road":"","cls":"tertiary","shops":2,"st_km":0.34,"mesh":"52397275"},"geometry":{"type":"LineString","coordinates":[[139.31607,35.31299],[139.31721,35.31227],[139.31749,35.312]]}},{"type":"Feature","properties":{"idx":114,"road":"","cls":"tertiary","shops":1,"st_km":0.3,"mesh":"52397275"},"geometry":{"type":"LineString","coordinates":[[139.31588,35.31312],[139.31607,35.31299]]}},{"type":"Feature","properties":{"idx":34,"road":"","cls":"tertiary","shops":0,"st_km":2.78,"mesh":"52397281"},"geometry":{"type":"LineString","coordinates":[[139.2716,35.3199],[139.27101,35.32034],[139.27003,35.3207],[139.26938,35.32168],[139.26919,35.32204],[139.269,35.32227],[139.26831,35.3229],[139.26757,35.3232]]}},{"type":"Feature","properties":{"idx":35,"road":"","cls":"tertiary","shops":0,"st_km":2.71,"mesh":"52397281"},"geometry":{"type":"LineString","coordinates":[[139.27248,35.31943],[139.27288,35.31915],[139.2729,35.31892]]}},{"type":"Feature","properties":{"idx":35,"road":"","cls":"tertiary","shops":0,"st_km":2.71,"mesh":"52397281"},"geometry":{"type":"LineString","coordinates":[[139.27208,35.31956],[139.2716,35.3199]]}},{"type":"Feature","properties":{"idx":35,"road":"","cls":"tertiary","shops":0,"st_km":2.7,"mesh":"52397281"},"geometry":{"type":"LineString","coordinates":[[139.2724,35.31938],[139.27208,35.31956]]}},{"type":"Feature","properties":{"idx":35,"road":"","cls":"tertiary","shops":0,"st_km":2.7,"mesh":"52397281"},"geometry":{"type":"LineString","coordinates":[[139.2729,35.31892],[139.27279,35.31912],[139.2724,35.31938]]}},{"type":"Feature","properties":{"idx":149,"road":"","cls":"tertiary","shops":0,"st_km":2.46,"mesh":"52397272"},"geometry":{"type":"LineString","coordinates":[[139.28115,35.30967],[139.27888,35.31017]]}},{"type":"Feature","properties":{"idx":421,"road":"平塚停車場袖ヶ浜線","cls":"secondary","shops":0,"st_km":0.37,"mesh":"52397298"},"geometry":{"type":"LineString","coordinates":[[139.35187,35.3261],[139.3522,35.32458],[139.35218,35.32448]]}},{"type":"Feature","properties":{"idx":335,"road":"","cls":"tertiary","shops":0,"st_km":0.75,"mesh":"52397288"},"geometry":{"type":"LineString","coordinates":[[139.35503,35.32488],[139.35564,35.32451],[139.35659,35.32383],[139.35742,35.32334]]}},{"type":"Feature","properties":{"idx":455,"road":"","cls":"tertiary","shops":0,"st_km":0.43,"mesh":"52397288"},"geometry":{"type":"LineString","coordinates":[[139.35191,35.32444],[139.35218,35.32448]]}},{"type":"Feature","properties":{"idx":274,"road":"","cls":"tertiary","shops":0,"st_km":0.61,"mesh":"52397264"},"geometry":{"type":"LineString","coordinates":[[139.30906,35.3065],[139.30898,35.3072],[139.30867,35.30797]]}},{"type":"Feature","properties":{"idx":551,"road":"","cls":"tertiary","shops":0,"st_km":0.33,"mesh":"52397260"},"geometry":{"type":"LineString","coordinates":[[139.25961,35.30015],[139.25985,35.30047]]}},{"type":"Feature","properties":{"idx":572,"road":"新原田橋","cls":"tertiary","shops":0,"st_km":0.29,"mesh":"52397260"},"geometry":{"type":"LineString","coordinates":[[139.25937,35.29986],[139.25961,35.30015]]}},{"type":"Feature","properties":{"idx":283,"road":"","cls":"tertiary","shops":0,"st_km":1.47,"mesh":"52397277"},"geometry":{"type":"LineString","coordinates":[[139.3401,35.31478],[139.33929,35.31843]]}},{"type":"Feature","properties":{"idx":791,"road":"平塚伊勢原線","cls":"primary","shops":1,"st_km":1.19,"mesh":"52397287"},"geometry":{"type":"LineString","coordinates":[[139.34484,35.31547],[139.34414,35.31762],[139.3435,35.31934]]}},{"type":"Feature","properties":{"idx":417,"road":"","cls":"tertiary","shops":0,"st_km":1.21,"mesh":"52397287"},"geometry":{"type":"LineString","coordinates":[[139.33929,35.31843],[139.33834,35.32249]]}},{"type":"Feature","properties":{"idx":132,"road":"","cls":"tertiary","shops":1,"st_km":1.83,"mesh":"52397276"},"geometry":{"type":"LineString","coordinates":[[139.33458,35.31492],[139.3341,35.31745]]}},{"type":"Feature","properties":{"idx":563,"road":"","cls":"tertiary","shops":1,"st_km":0.32,"mesh":"52397297"},"geometry":{"type":"LineString","coordinates":[[139.3456,35.32651],[139.34576,35.32653]]}},{"type":"Feature","properties":{"idx":2149,"road":"平塚秦野線","cls":"primary","shops":3,"st_km":1.65,"mesh":"52397286"},"geometry":{"type":"LineString","coordinates":[[139.33116,35.32466],[139.33112,35.32475]]}},{"type":"Feature","properties":{"idx":707,"road":"公所大磯線","cls":"secondary","shops":0,"st_km":1.82,"mesh":"52397286"},"geometry":{"type":"LineString","coordinates":[[139.32951,35.32371],[139.32958,35.32359]]}},{"type":"Feature","properties":{"idx":205,"road":"秦野二宮線","cls":"primary","shops":0,"st_km":1.17,"mesh":"52397270"},"geometry":{"type":"LineString","coordinates":[[139.25086,35.30863],[139.25131,35.3086],[139.25174,35.30844],[139.25204,35.30823],[139.25245,35.30778]]}},{"type":"Feature","properties":{"idx":393,"road":"秦野二宮線","cls":"primary","shops":0,"st_km":0.94,"mesh":"52397260"},"geometry":{"type":"LineString","coordinates":[[139.25245,35.30778],[139.25486,35.30573]]}},{"type":"Feature","properties":{"idx":34,"road":"","cls":"tertiary","shops":0,"st_km":2.8,"mesh":"52397281"},"geometry":{"type":"LineString","coordinates":[[139.27446,35.31923],[139.27383,35.31974]]}},{"type":"Feature","properties":{"idx":479,"road":"","cls":"tertiary","shops":1,"st_km":1.78,"mesh":"52397296"},"geometry":{"type":"LineString","coordinates":[[139.32686,35.32747],[139.32955,35.32864],[139.32991,35.32869],[139.33098,35.3287],[139.33226,35.32915]]}},{"type":"Feature","properties":{"idx":103,"road":"平塚秦野線","cls":"primary","shops":0,"st_km":1.87,"mesh":"52397276"},"geometry":{"type":"LineString","coordinates":[[139.33176,35.31622],[139.33391,35.31528],[139.33417,35.31506],[139.33437,35.31466]]}},{"type":"Feature","properties":{"idx":111,"road":"平塚秦野線","cls":"primary","shops":0,"st_km":1.72,"mesh":"52397276"},"geometry":{"type":"LineString","coordinates":[[139.3306,35.3169],[139.33077,35.31671],[139.33107,35.31652],[139.33176,35.31622]]}},{"type":"Feature","properties":{"idx":492,"road":"平塚伊勢原線","cls":"primary","shops":1,"st_km":0.69,"mesh":"52397297"},"geometry":{"type":"LineString","coordinates":[[139.34217,35.32447],[139.34184,35.3258]]}},{"type":"Feature","properties":{"idx":467,"road":"扇松海岸通り","cls":"tertiary","shops":0,"st_km":0.15,"mesh":"52397298"},"geometry":{"type":"LineString","coordinates":[[139.3495,35.32574],[139.34956,35.326],[139.3509,35.32697]]}},{"type":"Feature","properties":{"idx":696,"road":"平塚停車場袖ヶ浜線","cls":"secondary","shops":1,"st_km":0.27,"mesh":"52397298"},"geometry":{"type":"LineString","coordinates":[[139.35163,35.32696],[139.35171,35.32685],[139.35187,35.3261]]}},{"type":"Feature","properties":{"idx":869,"road":"","cls":"tertiary","shops":2,"st_km":0.22,"mesh":"52397298"},"geometry":{"type":"LineString","coordinates":[[139.35163,35.32696],[139.35132,35.32691],[139.35105,35.32695]]}},{"type":"Feature","properties":{"idx":1657,"road":"平塚港平塚停車場線","cls":"secondary","shops":5,"st_km":0.25,"mesh":"52397298"},"geometry":{"type":"LineString","coordinates":[[139.35163,35.32696],[139.3518,35.32699]]}},{"type":"Feature","properties":{"idx":294,"road":"","cls":"tertiary","shops":0,"st_km":1.57,"mesh":"52397289"},"geometry":{"type":"LineString","coordinates":[[139.36401,35.31998],[139.36316,35.31926],[139.36297,35.31916],[139.36253,35.31905],[139.36163,35.31901]]}},{"type":"Feature","properties":{"idx":290,"road":"","cls":"tertiary","shops":0,"st_km":1.59,"mesh":"52397289"},"geometry":{"type":"LineString","coordinates":[[139.36425,35.3204],[139.36401,35.31998]]}},{"type":"Feature","properties":{"idx":280,"road":"","cls":"tertiary","shops":0,"st_km":1.66,"mesh":"52397289"},"geometry":{"type":"LineString","coordinates":[[139.36401,35.31998],[139.36509,35.31935]]}},{"type":"Feature","properties":{"idx":643,"road":"","cls":"tertiary","shops":0,"st_km":1.68,"mesh":"52397286"},"geometry":{"type":"LineString","coordinates":[[139.3306,35.3169],[139.33051,35.31688]]}},{"type":"Feature","properties":{"idx":98,"road":"","cls":"tertiary","shops":0,"st_km":1.54,"mesh":"52397276"},"geometry":{"type":"LineString","coordinates":[[139.32922,35.31661],[139.32873,35.3165]]}},{"type":"Feature","properties":{"idx":986,"road":"公所大磯線","cls":"secondary","shops":0,"st_km":1.9,"mesh":"52397295"},"geometry":{"type":"LineString","coordinates":[[139.32252,35.32649],[139.32381,35.32637],[139.32429,35.3264],[139.32463,35.32649]]}},{"type":"Feature","properties":{"idx":675,"road":"","cls":"tertiary","shops":1,"st_km":0.19,"mesh":"52397298"},"geometry":{"type":"LineString","coordinates":[[139.35105,35.32695],[139.3509,35.32697]]}},{"type":"Feature","properties":{"idx":440,"road":"平塚停車場袖ヶ浜線","cls":"secondary","shops":0,"st_km":0.32,"mesh":"52397298"},"geometry":{"type":"LineString","coordinates":[[139.35218,35.32448],[139.35212,35.32457],[139.35197,35.3252],[139.35162,35.32681],[139.35163,35.32696]]}},{"type":"Feature","properties":{"idx":264,"road":"","cls":"tertiary","shops":0,"st_km":1.54,"mesh":"52397278"},"geometry":{"type":"LineString","coordinates":[[139.35932,35.31632],[139.35931,35.31652]]}},{"type":"Feature","properties":{"idx":203,"road":"学園通り","cls":"tertiary","shops":0,"st_km":1.39,"mesh":"52397288"},"geometry":{"type":"LineString","coordinates":[[139.36163,35.31901],[139.35992,35.31995]]}},{"type":"Feature","properties":{"idx":237,"road":"学園通り","cls":"tertiary","shops":0,"st_km":1.17,"mesh":"52397288"},"geometry":{"type":"LineString","coordinates":[[139.35992,35.31995],[139.35765,35.32121]]}},{"type":"Feature","properties":{"idx":345,"road":"","cls":"tertiary","shops":0,"st_km":1.32,"mesh":"52397289"},"geometry":{"type":"LineString","coordinates":[[139.36558,35.32492],[139.36262,35.32447],[139.36069,35.32404]]}},{"type":"Feature","properties":{"idx":283,"road":"","cls":"tertiary","shops":0,"st_km":0.95,"mesh":"52397288"},"geometry":{"type":"LineString","coordinates":[[139.35765,35.32121],[139.35734,35.32106],[139.35667,35.32088],[139.3531,35.32048]]}},{"type":"Feature","properties":{"idx":417,"road":"平塚停車場袖ヶ浜線","cls":"secondary","shops":0,"st_km":0.64,"mesh":"52397288"},"geometry":{"type":"LineString","coordinates":[[139.3531,35.32048],[139.35218,35.32448]]}},{"type":"Feature","properties":{"idx":340,"road":"県道608号","cls":"secondary","shops":0,"st_km":1.33,"mesh":"52397278"},"geometry":{"type":"LineString","coordinates":[[139.35408,35.3161],[139.35406,35.31619]]}},{"type":"Feature","properties":{"idx":374,"road":"平塚伊勢原線","cls":"primary","shops":0,"st_km":1.38,"mesh":"52397277"},"geometry":{"type":"LineString","coordinates":[[139.34487,35.31538],[139.34484,35.31547]]}},{"type":"Feature","properties":{"idx":242,"road":"","cls":"tertiary","shops":0,"st_km":2.15,"mesh":"52397262"},"geometry":{"type":"LineString","coordinates":[[139.27992,35.30233],[139.27992,35.30232]]}},{"type":"Feature","properties":{"idx":367,"road":"","cls":"tertiary","shops":1,"st_km":2.12,"mesh":"52397262"},"geometry":{"type":"LineString","coordinates":[[139.27993,35.30214],[139.27993,35.30193],[139.27989,35.30185],[139.27938,35.30164],[139.2793,35.30153]]}},{"type":"Feature","properties":{"idx":371,"road":"","cls":"tertiary","shops":1,"st_km":2.09,"mesh":"52397262"},"geometry":{"type":"LineString","coordinates":[[139.2793,35.30153],[139.27932,35.30146],[139.27939,35.30144],[139.27976,35.3015]]}},{"type":"Feature","properties":{"idx":207,"road":"","cls":"tertiary","shops":0,"st_km":2.67,"mesh":"52397262"},"geometry":{"type":"LineString","coordinates":[[139.28558,35.30247],[139.28602,35.30256],[139.28638,35.30243]]}},{"type":"Feature","properties":{"idx":207,"road":"","cls":"tertiary","shops":0,"st_km":2.66,"mesh":"52397262"},"geometry":{"type":"LineString","coordinates":[[139.28613,35.30228],[139.28626,35.3023]]}},{"type":"Feature","properties":{"idx":190,"road":"相模原大磯線","cls":"primary","shops":0,"st_km":2.4,"mesh":"52397272"},"geometry":{"type":"LineString","coordinates":[[139.27758,35.31048],[139.27803,35.31174],[139.27806,35.31202],[139.27803,35.3126]]}},{"type":"Feature","properties":{"idx":186,"road":"相模原大磯線","cls":"primary","shops":0,"st_km":2.48,"mesh":"52397272"},"geometry":{"type":"LineString","coordinates":[[139.27803,35.3126],[139.27803,35.31269]]}},{"type":"Feature","properties":{"idx":269,"road":"","cls":"tertiary","shops":0,"st_km":0.71,"mesh":"52397298"},"geometry":{"type":"LineString","coordinates":[[139.35738,35.3254],[139.35649,35.3251],[139.35503,35.32488]]}},{"type":"Feature","properties":{"idx":357,"road":"平塚港平塚停車場線","cls":"secondary","shops":0,"st_km":0.53,"mesh":"52397298"},"geometry":{"type":"LineString","coordinates":[[139.3518,35.32699],[139.35402,35.32734],[139.35421,35.32732],[139.35539,35.32668],[139.35738,35.3254]]}},{"type":"Feature","properties":{"idx":257,"road":"","cls":"tertiary","shops":0,"st_km":1.06,"mesh":"52397288"},"geometry":{"type":"LineString","coordinates":[[139.36012,35.32359],[139.3582,35.32161],[139.35765,35.32121]]}},{"type":"Feature","properties":{"idx":319,"road":"平塚港平塚停車場線","cls":"secondary","shops":0,"st_km":0.94,"mesh":"52397288"},"geometry":{"type":"LineString","coordinates":[[139.35738,35.3254],[139.36012,35.32359]]}},{"type":"Feature","properties":{"idx":248,"road":"","cls":"tertiary","shops":0,"st_km":1.11,"mesh":"52397288"},"geometry":{"type":"LineString","coordinates":[[139.36069,35.32404],[139.36054,35.32399],[139.36012,35.32359]]}},{"type":"Feature","properties":{"idx":418,"road":"","cls":"tertiary","shops":0,"st_km":0.52,"mesh":"52397288"},"geometry":{"type":"LineString","coordinates":[[139.35218,35.32448],[139.35503,35.32488]]}},{"type":"Feature","properties":{"idx":94,"road":"","cls":"tertiary","shops":2,"st_km":1.05,"mesh":"52397284"},"geometry":{"type":"LineString","coordinates":[[139.30891,35.32018],[139.30812,35.31992],[139.30797,35.31981],[139.30772,35.31953],[139.3072,35.31934]]}},{"type":"Feature","properties":{"idx":439,"road":"","cls":"tertiary","shops":0,"st_km":2.37,"mesh":"52397294"},"geometry":{"type":"LineString","coordinates":[[139.31005,35.33254],[139.30826,35.33253]]}},{"type":"Feature","properties":{"idx":436,"road":"","cls":"tertiary","shops":0,"st_km":2.39,"mesh":"52397294"},"geometry":{"type":"LineString","coordinates":[[139.30826,35.33253],[139.30725,35.33251]]}},{"type":"Feature","properties":{"idx":1171,"road":"","cls":"tertiary","shops":1,"st_km":2.2,"mesh":"52397295"},"geometry":{"type":"LineString","coordinates":[[139.3159,35.33033],[139.31589,35.33197]]}},{"type":"Feature","properties":{"idx":752,"road":"","cls":"tertiary","shops":0,"st_km":2.31,"mesh":"52397295"},"geometry":{"type":"LineString","coordinates":[[139.31589,35.33197],[139.31582,35.33245]]}},{"type":"Feature","properties":{"idx":744,"road":"","cls":"tertiary","shops":0,"st_km":2.35,"mesh":"52397295"},"geometry":{"type":"LineString","coordinates":[[139.31582,35.33245],[139.31578,35.33256]]}},{"type":"Feature","properties":{"idx":279,"road":"","cls":"tertiary_link","shops":1,"st_km":0.6,"mesh":"52397298"},"geometry":{"type":"LineString","coordinates":[[139.34999,35.33275],[139.35003,35.33285]]}},{"type":"Feature","properties":{"idx":331,"road":"秦野二宮線","cls":"primary","shops":0,"st_km":1.16,"mesh":"52397260"},"geometry":{"type":"LineString","coordinates":[[139.25245,35.30778],[139.25166,35.30836],[139.25086,35.30863]]}},{"type":"Feature","properties":{"idx":646,"road":"秦野二宮線","cls":"primary","shops":0,"st_km":0.39,"mesh":"52397260"},"geometry":{"type":"LineString","coordinates":[[139.25706,35.30338],[139.25788,35.30255],[139.25905,35.30122],[139.25985,35.30047]]}},{"type":"Feature","properties":{"idx":273,"road":"秦野二宮線","cls":"primary","shops":2,"st_km":0.37,"mesh":"52397250"},"geometry":{"type":"LineString","coordinates":[[139.25985,35.30047],[139.26089,35.29965],[139.26148,35.29938]]}},{"type":"Feature","properties":{"idx":496,"road":"","cls":"tertiary","shops":5,"st_km":0.12,"mesh":"52397250"},"geometry":{"type":"LineString","coordinates":[[139.25813,35.29963],[139.25745,35.29948],[139.25715,35.29929]]}},{"type":"Feature","properties":{"idx":1032,"road":"公所大磯線","cls":"secondary","shops":0,"st_km":1.8,"mesh":"52397295"},"geometry":{"type":"LineString","coordinates":[[139.31044,35.3288],[139.3115,35.32843],[139.31376,35.32836],[139.31437,35.32829],[139.31486,35.32814],[139.31748,35.32709],[139.31815,35.32694],[139.32018,35.32664],[139.32252,35.32649]]}},{"type":"Feature","properties":{"idx":30,"road":"","cls":"tertiary","shops":0,"st_km":2.45,"mesh":"52397293"},"geometry":{"type":"LineString","coordinates":[[139.29694,35.33098],[139.29725,35.33106],[139.29752,35.33106],[139.29837,35.33084],[139.29917,35.33049],[139.29979,35.33056],[139.30028,35.33051],[139.30094,35.33067],[139.30148,35.33071],[139.30236,35.33051]]}},{"type":"Feature","properties":{"idx":29,"road":"","cls":"tertiary","shops":0,"st_km":2.6,"mesh":"52397293"},"geometry":{"type":"LineString","coordinates":[[139.29452,35.32833],[139.29464,35.32839],[139.2948,35.32855],[139.29517,35.32975],[139.29534,35.33005],[139.29563,35.33038],[139.29606,35.33075]]}},{"type":"Feature","properties":{"idx":29,"road":"","cls":"tertiary","shops":0,"st_km":2.54,"mesh":"52397293"},"geometry":{"type":"LineString","coordinates":[[139.29428,35.32827],[139.29452,35.32833]]}},{"type":"Feature","properties":{"idx":35,"road":"相模原大磯線","cls":"primary","shops":0,"st_km":2.75,"mesh":"52397293"},"geometry":{"type":"LineString","coordinates":[[139.29007,35.32751],[139.29086,35.32828],[139.29244,35.32933],[139.29314,35.33041]]}},{"type":"Feature","properties":{"idx":115,"road":"","cls":"tertiary","shops":0,"st_km":2.31,"mesh":"52397263"},"geometry":{"type":"LineString","coordinates":[[139.28842,35.30799],[139.28834,35.30736],[139.28852,35.30691]]}},{"type":"Feature","properties":{"idx":115,"road":"","cls":"tertiary","shops":0,"st_km":2.3,"mesh":"52397263"},"geometry":{"type":"LineString","coordinates":[[139.28852,35.30691],[139.28863,35.30669]]}},{"type":"Feature","properties":{"idx":115,"road":"","cls":"tertiary","shops":0,"st_km":2.29,"mesh":"52397263"},"geometry":{"type":"LineString","coordinates":[[139.28849,35.30836],[139.28842,35.30799]]}},{"type":"Feature","properties":{"idx":143,"road":"","cls":"tertiary","shops":0,"st_km":2.64,"mesh":"52397272"},"geometry":{"type":"LineString","coordinates":[[139.2839,35.30957],[139.28115,35.30967]]}},{"type":"Feature","properties":{"idx":198,"road":"相模原大磯線","cls":"primary","shops":0,"st_km":2.27,"mesh":"52397272"},"geometry":{"type":"LineString","coordinates":[[139.2775,35.3096],[139.27746,35.31],[139.27758,35.31048]]}},{"type":"Feature","properties":{"idx":300,"road":"相模原大磯線","cls":"primary","shops":1,"st_km":2.24,"mesh":"52397272"},"geometry":{"type":"LineString","coordinates":[[139.27753,35.30932],[139.2775,35.3096]]}},{"type":"Feature","properties":{"idx":243,"road":"","cls":"tertiary","shops":0,"st_km":2.04,"mesh":"52397271"},"geometry":{"type":"LineString","coordinates":[[139.2775,35.3096],[139.2758,35.30945],[139.27402,35.30971],[139.27311,35.31008],[139.27255,35.31068]]}},{"type":"Feature","properties":{"idx":342,"road":"","cls":"tertiary","shops":0,"st_km":1.39,"mesh":"52397271"},"geometry":{"type":"LineString","coordinates":[[139.26459,35.31085],[139.26416,35.31075],[139.26055,35.30959]]}},{"type":"Feature","properties":{"idx":307,"road":"二宮大磯隧道","cls":"tertiary","shops":0,"st_km":1.56,"mesh":"52397271"},"geometry":{"type":"LineString","coordinates":[[139.26556,35.31108],[139.26459,35.31085]]}},{"type":"Feature","properties":{"idx":128,"road":"","cls":"tertiary","shops":0,"st_km":1.54,"mesh":"52397270"},"geometry":{"type":"LineString","coordinates":[[139.26279,35.3132],[139.26133,35.3114],[139.26128,35.3113],[139.26128,35.31085],[139.26126,35.31073],[139.26115,35.31062]]}},{"type":"Feature","properties":{"idx":97,"road":"","cls":"tertiary","shops":0,"st_km":0.5,"mesh":"52397250"},"geometry":{"type":"LineString","coordinates":[[139.25167,35.297],[139.25167,35.29691]]}},{"type":"Feature","properties":{"idx":883,"road":"","cls":"tertiary","shops":16,"st_km":0.05,"mesh":"52397275"},"geometry":{"type":"LineString","coordinates":[[139.31359,35.31106],[139.31379,35.3112]]}},{"type":"Feature","properties":{"idx":650,"road":"","cls":"tertiary","shops":2,"st_km":0.43,"mesh":"52397264"},"geometry":{"type":"LineString","coordinates":[[139.31185,35.30761],[139.31192,35.30788]]}},{"type":"Feature","properties":{"idx":50,"road":"","cls":"tertiary","shops":0,"st_km":0.74,"mesh":"52397275"},"geometry":{"type":"LineString","coordinates":[[139.32204,35.31255],[139.3207,35.31198]]}},{"type":"Feature","properties":{"idx":117,"road":"","cls":"tertiary","shops":0,"st_km":1.26,"mesh":"52397276"},"geometry":{"type":"LineString","coordinates":[[139.32737,35.3145],[139.32602,35.31389]]}},{"type":"Feature","properties":{"idx":122,"road":"","cls":"tertiary","shops":0,"st_km":1.2,"mesh":"52397276"},"geometry":{"type":"LineString","coordinates":[[139.32602,35.31389],[139.32633,35.31327]]}},{"type":"Feature","properties":{"idx":121,"road":"","cls":"tertiary","shops":0,"st_km":1.21,"mesh":"52397276"},"geometry":{"type":"LineString","coordinates":[[139.32636,35.31321],[139.3266,35.31272]]}},{"type":"Feature","properties":{"idx":121,"road":"","cls":"tertiary","shops":0,"st_km":1.2,"mesh":"52397276"},"geometry":{"type":"LineString","coordinates":[[139.32633,35.31327],[139.32636,35.31321]]}},{"type":"Feature","properties":{"idx":100,"road":"","cls":"tertiary","shops":0,"st_km":1.51,"mesh":"52397276"},"geometry":{"type":"LineString","coordinates":[[139.32873,35.3165],[139.32864,35.31649]]}},{"type":"Feature","properties":{"idx":839,"road":"","cls":"tertiary","shops":2,"st_km":0.26,"mesh":"52397298"},"geometry":{"type":"LineString","coordinates":[[139.35045,35.32955],[139.35052,35.32924]]}},{"type":"Feature","properties":{"idx":45,"road":"","cls":"tertiary","shops":0,"st_km":0.88,"mesh":"52397275"},"geometry":{"type":"LineString","coordinates":[[139.32348,35.31315],[139.32204,35.31255]]}},{"type":"Feature","properties":{"idx":481,"road":"","cls":"tertiary","shops":0,"st_km":2.1,"mesh":"52397294"},"geometry":{"type":"LineString","coordinates":[[139.30828,35.32998],[139.3088,35.3299]]}},{"type":"Feature","properties":{"idx":28,"road":"","cls":"tertiary","shops":0,"st_km":2.63,"mesh":"52397293"},"geometry":{"type":"LineString","coordinates":[[139.29646,35.3309],[139.29694,35.33098]]}},{"type":"Feature","properties":{"idx":148,"road":"","cls":"tertiary","shops":0,"st_km":1.32,"mesh":"52397270"},"geometry":{"type":"LineString","coordinates":[[139.26115,35.31062],[139.26055,35.30959]]}},{"type":"Feature","properties":{"idx":402,"road":"","cls":"tertiary","shops":0,"st_km":1.2,"mesh":"52397274"},"geometry":{"type":"LineString","coordinates":[[139.30129,35.30998],[139.29909,35.30972]]}},{"type":"Feature","properties":{"idx":66,"road":"大町橋","cls":"tertiary","shops":0,"st_km":1.31,"mesh":"52397273"},"geometry":{"type":"LineString","coordinates":[[139.29909,35.30972],[139.29902,35.30972]]}},{"type":"Feature","properties":{"idx":31,"road":"","cls":"tertiary","shops":0,"st_km":2.27,"mesh":"52397293"},"geometry":{"type":"LineString","coordinates":[[139.29691,35.32626],[139.29692,35.32641],[139.29686,35.32656],[139.29678,35.32663],[139.29651,35.32673],[139.29608,35.32679]]}},{"type":"Feature","properties":{"idx":497,"road":"","cls":"tertiary","shops":1,"st_km":0.44,"mesh":"52397297"},"geometry":{"type":"LineString","coordinates":[[139.34533,35.32852],[139.34479,35.331]]}},{"type":"Feature","properties":{"idx":660,"road":"","cls":"tertiary","shops":2,"st_km":0.45,"mesh":"52397297"},"geometry":{"type":"LineString","coordinates":[[139.3449,35.33102],[139.34537,35.32885]]}},{"type":"Feature","properties":{"idx":1136,"road":"","cls":"tertiary","shops":6,"st_km":0.6,"mesh":"52397297"},"geometry":{"type":"LineString","coordinates":[[139.34479,35.331],[139.34456,35.33209]]}},{"type":"Feature","properties":{"idx":202,"road":"","cls":"tertiary","shops":0,"st_km":0.97,"mesh":"52397264"},"geometry":{"type":"LineString","coordinates":[[139.30391,35.30735],[139.30393,35.30726]]}},{"type":"Feature","properties":{"idx":501,"road":"秦野二宮線","cls":"primary","shops":0,"st_km":0.66,"mesh":"52397260"},"geometry":{"type":"LineString","coordinates":[[139.25486,35.30573],[139.25538,35.30527],[139.25706,35.30338]]}},{"type":"Feature","properties":{"idx":102,"road":"","cls":"tertiary","shops":0,"st_km":2.0,"mesh":"52397270"},"geometry":{"type":"LineString","coordinates":[[139.25829,35.3215],[139.258,35.32128],[139.25778,35.32102],[139.2575,35.32056],[139.25705,35.31955],[139.25705,35.31933],[139.25722,35.31849],[139.25733,35.31737],[139.25751,35.31685],[139.25757,35.31651],[139.25754,35.31638],[139.25739,35.31617],[139.25696,35.31596],[139.2568,35.3158],[139.25677,35.31561],[139.25689,35.31528],[139.25688,35.31514],[139.25649,35.31475],[139.25638,35.31457],[139.25632,35.31411],[139.25621,35.31386],[139.25621,35.3137],[139.25633,35.31355],[139.2573,35.31318],[139.25749,35.31302],[139.25774,35.31265]]}},{"type":"Feature","properties":{"idx":274,"road":"相模原大磯線","cls":"primary","shops":1,"st_km":2.54,"mesh":"52397272"},"geometry":{"type":"LineString","coordinates":[[139.27803,35.31269],[139.27778,35.31465]]}},{"type":"Feature","properties":{"idx":158,"road":"","cls":"tertiary","shops":0,"st_km":1.57,"mesh":"52397263"},"geometry":{"type":"LineString","coordinates":[[139.29678,35.30767],[139.29684,35.30696]]}},{"type":"Feature","properties":{"idx":157,"road":"","cls":"tertiary","shops":0,"st_km":1.58,"mesh":"52397263"},"geometry":{"type":"LineString","coordinates":[[139.29684,35.30696],[139.29684,35.3069]]}},{"type":"Feature","properties":{"idx":195,"road":"秦野二宮線","cls":"primary","shops":0,"st_km":1.24,"mesh":"52397270"},"geometry":{"type":"LineString","coordinates":[[139.25017,35.30856],[139.25086,35.30863]]}},{"type":"Feature","properties":{"idx":290,"road":"秦野二宮線","cls":"primary","shops":1,"st_km":1.25,"mesh":"52397270"},"geometry":{"type":"LineString","coordinates":[[139.24988,35.3085],[139.25017,35.30856]]}},{"type":"Feature","properties":{"idx":1128,"road":"","cls":"tertiary","shops":0,"st_km":1.38,"mesh":"52397285"},"geometry":{"type":"LineString","coordinates":[[139.32393,35.32047],[139.32432,35.31994]]}},{"type":"Feature","properties":{"idx":27,"road":"","cls":"tertiary","shops":0,"st_km":2.89,"mesh":"52397293"},"geometry":{"type":"LineString","coordinates":[[139.28923,35.3287],[139.28927,35.32861],[139.28887,35.32819],[139.28876,35.32801],[139.28879,35.32793],[139.28913,35.32775]]}},{"type":"Feature","properties":{"idx":27,"road":"","cls":"tertiary","shops":0,"st_km":2.92,"mesh":"52397293"},"geometry":{"type":"LineString","coordinates":[[139.28908,35.32884],[139.28923,35.3287]]}},{"type":"Feature","properties":{"idx":26,"road":"","cls":"tertiary","shops":0,"st_km":3.02,"mesh":"52397293"},"geometry":{"type":"LineString","coordinates":[[139.28712,35.32885],[139.28737,35.32862],[139.2876,35.32864],[139.2877,35.32874],[139.2876,35.32897],[139.28778,35.32904],[139.28781,35.32922],[139.28805,35.3292],[139.28807,35.32899],[139.28831,35.32891],[139.28857,35.3286],[139.28874,35.32871],[139.28886,35.32895],[139.28899,35.32894],[139.28908,35.32884]]}},{"type":"Feature","properties":{"idx":533,"road":"公所大磯線","cls":"secondary","shops":0,"st_km":2.14,"mesh":"52397294"},"geometry":{"type":"LineString","coordinates":[[139.31005,35.33254],[139.30978,35.33123],[139.30974,35.32923],[139.3098,35.32911],[139.30997,35.32898],[139.31044,35.3288]]}},{"type":"Feature","properties":{"idx":124,"road":"","cls":"tertiary","shops":0,"st_km":1.18,"mesh":"52397276"},"geometry":{"type":"LineString","coordinates":[[139.32565,35.3144],[139.32602,35.31389]]}},{"type":"Feature","properties":{"idx":264,"road":"","cls":"tertiary_link","shops":1,"st_km":0.61,"mesh":"52397297"},"geometry":{"type":"LineString","coordinates":[[139.34985,35.33284],[139.34996,35.33289],[139.35002,35.33297]]}},{"type":"Feature","properties":{"idx":218,"road":"","cls":"tertiary_link","shops":1,"st_km":0.87,"mesh":"52397298"},"geometry":{"type":"LineString","coordinates":[[139.35572,35.33293],[139.35588,35.33301]]}},{"type":"Feature","properties":{"idx":220,"road":"","cls":"tertiary_link","shops":1,"st_km":0.86,"mesh":"52397298"},"geometry":{"type":"LineString","coordinates":[[139.35556,35.33314],[139.35549,35.33296]]}},{"type":"Feature","properties":{"idx":351,"road":"","cls":"tertiary","shops":1,"st_km":0.87,"mesh":"52397298"},"geometry":{"type":"LineString","coordinates":[[139.35556,35.33314],[139.35572,35.33293]]}},{"type":"Feature","properties":{"idx":219,"road":"","cls":"tertiary_link","shops":1,"st_km":0.87,"mesh":"52397298"},"geometry":{"type":"LineString","coordinates":[[139.35579,35.33287],[139.35582,35.33299]]}},{"type":"Feature","properties":{"idx":352,"road":"","cls":"tertiary","shops":1,"st_km":0.86,"mesh":"52397298"},"geometry":{"type":"LineString","coordinates":[[139.35579,35.33287],[139.35572,35.33293]]}},{"type":"Feature","properties":{"idx":196,"road":"","cls":"pedestrian","shops":4,"st_km":1.04,"mesh":"52397284"},"geometry":{"type":"LineString","coordinates":[[139.30924,35.32015],[139.30891,35.32018]]}},{"type":"Feature","properties":{"idx":144,"road":"","cls":"tertiary","shops":0,"st_km":2.61,"mesh":"52397272"},"geometry":{"type":"LineString","coordinates":[[139.27774,35.31464],[139.27778,35.31465]]}},{"type":"Feature","properties":{"idx":144,"road":"","cls":"tertiary","shops":0,"st_km":2.6,"mesh":"52397272"},"geometry":{"type":"LineString","coordinates":[[139.27767,35.31461],[139.27774,35.31464]]}},{"type":"Feature","properties":{"idx":480,"road":"","cls":"tertiary","shops":0,"st_km":2.1,"mesh":"52397294"},"geometry":{"type":"LineString","coordinates":[[139.3088,35.3299],[139.30907,35.3299],[139.30968,35.33017],[139.31056,35.33024]]}},{"type":"Feature","properties":{"idx":265,"road":"平塚港平塚停車場線","cls":"secondary","shops":0,"st_km":1.18,"mesh":"52397288"},"geometry":{"type":"LineString","coordinates":[[139.36059,35.32313],[139.36087,35.32283]]}},{"type":"Feature","properties":{"idx":228,"road":"平塚港平塚停車場線","cls":"secondary","shops":0,"st_km":1.39,"mesh":"52397288"},"geometry":{"type":"LineString","coordinates":[[139.36087,35.32283],[139.36229,35.32149],[139.36308,35.32101],[139.36425,35.3204]]}},{"type":"Feature","properties":{"idx":296,"road":"","cls":"tertiary","shops":0,"st_km":1.56,"mesh":"52397289"},"geometry":{"type":"LineString","coordinates":[[139.36558,35.32492],[139.36571,35.32452],[139.36578,35.32378]]}},{"type":"Feature","properties":{"idx":439,"road":"","cls":"tertiary","shops":0,"st_km":1.14,"mesh":"52397287"},"geometry":{"type":"LineString","coordinates":[[139.34551,35.31792],[139.34416,35.31754]]}}]}