{"type":"FeatureCollection","features":[{"type":"Feature","properties":{"idx":83,"road":"横須賀三崎線","cls":"primary","shops":0,"st_km":2.03,"mesh":"52395591"},"geometry":{"type":"LineString","coordinates":[[139.64115,35.16274],[139.64113,35.16253],[139.64125,35.16188],[139.64117,35.16157],[139.64102,35.16135],[139.63969,35.16013],[139.63903,35.15935]]}},{"type":"Feature","properties":{"idx":305,"road":"油壷線","cls":"secondary","shops":0,"st_km":2.25,"mesh":"52395590"},"geometry":{"type":"LineString","coordinates":[[139.6223,35.16038],[139.6235,35.16028],[139.62439,35.16014],[139.62771,35.15928],[139.63032,35.15554],[139.63038,35.15495],[139.63041,35.15332],[139.63056,35.15311]]}},{"type":"Feature","properties":{"idx":96,"road":NaN,"cls":"tertiary","shops":1,"st_km":4.05,"mesh":"52395570"},"geometry":{"type":"LineString","coordinates":[[139.62537,35.14182],[139.62547,35.14206],[139.62547,35.14224],[139.6254,35.1424],[139.62518,35.14261]]}},{"type":"Feature","properties":{"idx":64,"road":NaN,"cls":"tertiary","shops":0,"st_km":3.9,"mesh":"52395570"},"geometry":{"type":"LineString","coordinates":[[139.63548,35.14244],[139.63543,35.1428],[139.63514,35.14297],[139.63501,35.14311],[139.63477,35.14379]]}},{"type":"Feature","properties":{"idx":72,"road":"上宮田金田三崎港線","cls":"secondary","shops":0,"st_km":3.95,"mesh":"52395570"},"geometry":{"type":"LineString","coordinates":[[139.63684,35.14271],[139.6357,35.14253]]}},{"type":"Feature","properties":{"idx":9,"road":"上宮田金田三崎港線","cls":"secondary","shops":0,"st_km":3.94,"mesh":"52395571"},"geometry":{"type":"LineString","coordinates":[[139.64073,35.14312],[139.64005,35.14313],[139.63815,35.14289]]}},{"type":"Feature","properties":{"idx":23,"road":"上宮田金田三崎港線","cls":"secondary","shops":0,"st_km":4.29,"mesh":"52395561"},"geometry":{"type":"LineString","coordinates":[[139.64808,35.14182],[139.64766,35.14146],[139.64715,35.14123],[139.6468,35.14117],[139.64559,35.1411]]}},{"type":"Feature","properties":{"idx":21,"road":NaN,"cls":"tertiary","shops":0,"st_km":3.06,"mesh":"52395581"},"geometry":{"type":"LineString","coordinates":[[139.64583,35.15321],[139.64593,35.15283],[139.64621,35.15252],[139.64621,35.15217]]}},{"type":"Feature","properties":{"idx":134,"road":NaN,"cls":"tertiary","shops":0,"st_km":4.59,"mesh":"52395573"},"geometry":{"type":"LineString","coordinates":[[139.67319,35.14988],[139.67301,35.14992],[139.6725,35.14988],[139.67175,35.15003],[139.67158,35.15013],[139.67141,35.15039]]}},{"type":"Feature","properties":{"idx":23,"road":NaN,"cls":"tertiary","shops":0,"st_km":2.62,"mesh":"52395581"},"geometry":{"type":"LineString","coordinates":[[139.6454,35.1567],[139.64592,35.15664],[139.64626,35.15644],[139.64646,35.15639],[139.64696,35.15648],[139.64721,35.1566],[139.64794,35.15736],[139.6481,35.15776],[139.64816,35.15836],[139.64822,35.15844],[139.64845,35.15854],[139.64925,35.15848],[139.64943,35.15851],[139.64982,35.15869],[139.64999,35.15869],[139.6502,35.15853],[139.65051,35.15792],[139.65081,35.15773]]}},{"type":"Feature","properties":{"idx":65,"road":NaN,"cls":"tertiary","shops":0,"st_km":3.66,"mesh":"52395570"},"geometry":{"type":"LineString","coordinates":[[139.62615,35.14475],[139.62607,35.14517],[139.62613,35.14533],[139.62681,35.14572],[139.62718,35.14576],[139.62805,35.14602]]}},{"type":"Feature","properties":{"idx":8,"road":NaN,"cls":"tertiary","shops":0,"st_km":3.77,"mesh":"52395571"},"geometry":{"type":"LineString","coordinates":[[139.63843,35.14507],[139.63936,35.14464],[139.63984,35.14456],[139.64,35.14455],[139.64064,35.14471]]}},{"type":"Feature","properties":{"idx":23,"road":NaN,"cls":"tertiary","shops":0,"st_km":2.5,"mesh":"52395581"},"geometry":{"type":"LineString","coordinates":[[139.64204,35.15765],[139.64233,35.15758],[139.64294,35.157],[139.6438,35.15653]]}},{"type":"Feature","properties":{"idx":4,"road":NaN,"cls":"tertiary","shops":0,"st_km":3.19,"mesh":"52395582"},"geometry":{"type":"LineString","coordinates":[[139.65081,35.15773],[139.65115,35.15759],[139.65142,35.15755],[139.65199,35.15769],[139.65221,35.15763],[139.65232,35.15751],[139.65237,35.1569],[139.65245,35.15674],[139.65262,35.15663],[139.6539,35.15619],[139.65443,35.15591],[139.65463,35.15566],[139.65465,35.15541],[139.65472,35.15527],[139.6549,35.15508],[139.65512,35.15498],[139.6554,35.15496],[139.65566,35.155],[139.65589,35.15512],[139.65636,35.15548],[139.65709,35.15575],[139.65725,35.15569],[139.65755,35.15527],[139.65773,35.15519],[139.6587,35.1552],[139.65927,35.15515]]}},{"type":"Feature","properties":{"idx":38,"road":NaN,"cls":"tertiary","shops":0,"st_km":4.44,"mesh":"52395560"},"geometry":{"type":"LineString","coordinates":[[139.62415,35.13936],[139.62454,35.13884],[139.62464,35.13859],[139.62475,35.13851],[139.62491,35.1385],[139.62506,35.1387],[139.62518,35.13872],[139.62605,35.13854],[139.62682,35.13826]]}},{"type":"Feature","properties":{"idx":13,"road":NaN,"cls":"tertiary","shops":0,"st_km":3.72,"mesh":"52395583"},"geometry":{"type":"LineString","coordinates":[[139.66015,35.15496],[139.6606,35.15488],[139.66138,35.15489],[139.66204,35.1547],[139.66234,35.1547],[139.6627,35.15485],[139.66305,35.15512],[139.66336,35.15516],[139.66523,35.15445],[139.6656,35.15439]]}},{"type":"Feature","properties":{"idx":62,"road":NaN,"cls":"tertiary","shops":0,"st_km":2.21,"mesh":"52395591"},"geometry":{"type":"LineString","coordinates":[[139.64125,35.16095],[139.64097,35.15982],[139.64065,35.15933],[139.64025,35.15893],[139.64021,35.15882],[139.64024,35.15869],[139.64032,35.15862],[139.64095,35.15828],[139.64104,35.15812],[139.64112,35.15783],[139.64129,35.15767]]}},{"type":"Feature","properties":{"idx":279,"road":NaN,"cls":"tertiary","shops":0,"st_km":2.17,"mesh":"52395590"},"geometry":{"type":"LineString","coordinates":[[139.63646,35.15894],[139.63626,35.1587]]}},{"type":"Feature","properties":{"idx":63,"road":NaN,"cls":"tertiary","shops":4,"st_km":2.99,"mesh":"52395581"},"geometry":{"type":"LineString","coordinates":[[139.64583,35.15321],[139.64583,35.15328]]}},{"type":"Feature","properties":{"idx":135,"road":NaN,"cls":"tertiary","shops":2,"st_km":3.31,"mesh":"52395570"},"geometry":{"type":"LineString","coordinates":[[139.62908,35.14853],[139.62959,35.14855]]}},{"type":"Feature","properties":{"idx":85,"road":NaN,"cls":"tertiary","shops":0,"st_km":2.4,"mesh":"52395580"},"geometry":{"type":"LineString","coordinates":[[139.63486,35.15707],[139.63427,35.15668],[139.63403,35.15659],[139.63365,35.15661],[139.63328,35.15681]]}},{"type":"Feature","properties":{"idx":75,"road":NaN,"cls":"tertiary","shops":0,"st_km":2.99,"mesh":"52395580"},"geometry":{"type":"LineString","coordinates":[[139.63465,35.15135],[139.63426,35.15125]]}},{"type":"Feature","properties":{"idx":23,"road":NaN,"cls":"tertiary","shops":0,"st_km":2.61,"mesh":"52395581"},"geometry":{"type":"LineString","coordinates":[[139.6438,35.15653],[139.64317,35.15651],[139.64296,35.15642],[139.64282,35.15627],[139.64272,35.15584],[139.64259,35.15564],[139.64232,35.15549],[139.64165,35.1553]]}},{"type":"Feature","properties":{"idx":22,"road":NaN,"cls":"tertiary","shops":0,"st_km":2.68,"mesh":"52395581"},"geometry":{"type":"LineString","coordinates":[[139.64609,35.15579],[139.64598,35.15605],[139.64593,35.15643],[139.64583,35.15651],[139.64555,35.15656],[139.6454,35.1567]]}},{"type":"Feature","properties":{"idx":21,"road":NaN,"cls":"tertiary","shops":0,"st_km":2.89,"mesh":"52395581"},"geometry":{"type":"LineString","coordinates":[[139.64165,35.1553],[139.64098,35.15491],[139.64073,35.15465],[139.64051,35.15423],[139.64034,35.15401],[139.63972,35.15367],[139.63937,35.15285],[139.63921,35.15269],[139.63784,35.15203],[139.63692,35.15184],[139.6357,35.15147],[139.63465,35.15135]]}},{"type":"Feature","properties":{"idx":21,"road":NaN,"cls":"tertiary","shops":0,"st_km":4.8,"mesh":"52395574"},"geometry":{"type":"LineString","coordinates":[[139.67771,35.14815],[139.67747,35.14829],[139.67712,35.14866],[139.67703,35.14876],[139.67699,35.14907],[139.67671,35.14929],[139.67638,35.14936],[139.67582,35.14916],[139.67554,35.14917],[139.6749,35.14928],[139.67319,35.14988]]}},{"type":"Feature","properties":{"idx":169,"road":NaN,"cls":"tertiary","shops":3,"st_km":3.32,"mesh":"52395570"},"geometry":{"type":"LineString","coordinates":[[139.62858,35.14851],[139.62908,35.14853]]}},{"type":"Feature","properties":{"idx":21,"road":NaN,"cls":"tertiary","shops":0,"st_km":5.0,"mesh":"52395574"},"geometry":{"type":"LineString","coordinates":[[139.67774,35.14798],[139.6777,35.14788]]}},{"type":"Feature","properties":{"idx":284,"road":NaN,"cls":"tertiary","shops":0,"st_km":2.12,"mesh":"52395590"},"geometry":{"type":"LineString","coordinates":[[139.63655,35.1596],[139.63655,35.15917],[139.63646,35.15894]]}},{"type":"Feature","properties":{"idx":4,"road":NaN,"cls":"tertiary","shops":0,"st_km":3.52,"mesh":"52395582"},"geometry":{"type":"LineString","coordinates":[[139.65927,35.15515],[139.66015,35.15496]]}},{"type":"Feature","properties":{"idx":101,"road":NaN,"cls":"tertiary","shops":1,"st_km":3.38,"mesh":"52395570"},"geometry":{"type":"LineString","coordinates":[[139.62864,35.1474],[139.62858,35.14851]]}},{"type":"Feature","properties":{"idx":87,"road":NaN,"cls":"tertiary","shops":0,"st_km":2.32,"mesh":"52395580"},"geometry":{"type":"LineString","coordinates":[[139.63486,35.15707],[139.63567,35.1576],[139.63581,35.15781]]}},{"type":"Feature","properties":{"idx":21,"road":NaN,"cls":"tertiary","shops":0,"st_km":4.98,"mesh":"52395574"},"geometry":{"type":"LineString","coordinates":[[139.67771,35.14815],[139.67774,35.14798]]}},{"type":"Feature","properties":{"idx":68,"road":NaN,"cls":"tertiary","shops":0,"st_km":3.3,"mesh":"52395570"},"geometry":{"type":"LineString","coordinates":[[139.63069,35.14881],[139.63012,35.1486],[139.62959,35.14855]]}},{"type":"Feature","properties":{"idx":66,"road":NaN,"cls":"tertiary","shops":0,"st_km":3.58,"mesh":"52395570"},"geometry":{"type":"LineString","coordinates":[[139.62805,35.14602],[139.62848,35.14638]]}},{"type":"Feature","properties":{"idx":21,"road":NaN,"cls":"tertiary","shops":0,"st_km":3.14,"mesh":"52395581"},"geometry":{"type":"LineString","coordinates":[[139.64621,35.15217],[139.64612,35.15208],[139.64614,35.15181],[139.64603,35.15156]]}},{"type":"Feature","properties":{"idx":68,"road":NaN,"cls":"tertiary","shops":0,"st_km":3.23,"mesh":"52395570"},"geometry":{"type":"LineString","coordinates":[[139.62819,35.15004],[139.62852,35.14975],[139.62884,35.14932],[139.62902,35.1489],[139.62908,35.14853]]}},{"type":"Feature","properties":{"idx":4,"road":NaN,"cls":"tertiary","shops":0,"st_km":3.07,"mesh":"52395582"},"geometry":{"type":"LineString","coordinates":[[139.65595,35.15788],[139.65556,35.15785],[139.65541,35.15775],[139.6553,35.15717],[139.65512,35.15704],[139.65483,35.15708],[139.6534,35.15758]]}},{"type":"Feature","properties":{"idx":66,"road":NaN,"cls":"tertiary","shops":0,"st_km":3.5,"mesh":"52395570"},"geometry":{"type":"LineString","coordinates":[[139.62864,35.1474],[139.62867,35.1468],[139.62862,35.14661],[139.62848,35.14638]]}},{"type":"Feature","properties":{"idx":65,"road":NaN,"cls":"tertiary","shops":0,"st_km":3.88,"mesh":"52395570"},"geometry":{"type":"LineString","coordinates":[[139.62665,35.14409],[139.62582,35.14326]]}},{"type":"Feature","properties":{"idx":102,"road":NaN,"cls":"tertiary","shops":1,"st_km":3.28,"mesh":"52395570"},"geometry":{"type":"LineString","coordinates":[[139.62817,35.14887],[139.62757,35.14913]]}},{"type":"Feature","properties":{"idx":68,"road":NaN,"cls":"tertiary","shops":0,"st_km":3.3,"mesh":"52395570"},"geometry":{"type":"LineString","coordinates":[[139.62858,35.14851],[139.62849,35.14872],[139.62817,35.14887]]}},{"type":"Feature","properties":{"idx":13,"road":NaN,"cls":"tertiary","shops":0,"st_km":4.49,"mesh":"52395583"},"geometry":{"type":"LineString","coordinates":[[139.67141,35.15039],[139.67123,35.15085]]}},{"type":"Feature","properties":{"idx":74,"road":NaN,"cls":"tertiary","shops":0,"st_km":3.01,"mesh":"52395580"},"geometry":{"type":"LineString","coordinates":[[139.63426,35.15125],[139.63325,35.15103],[139.63275,35.15079]]}},{"type":"Feature","properties":{"idx":65,"road":NaN,"cls":"tertiary","shops":0,"st_km":3.85,"mesh":"52395570"},"geometry":{"type":"LineString","coordinates":[[139.62574,35.14408],[139.6258,35.14411]]}},{"type":"Feature","properties":{"idx":13,"road":NaN,"cls":"tertiary","shops":0,"st_km":4.28,"mesh":"52395583"},"geometry":{"type":"LineString","coordinates":[[139.67123,35.15085],[139.67154,35.15216],[139.67055,35.15277],[139.66924,35.15275],[139.66885,35.15289]]}},{"type":"Feature","properties":{"idx":68,"road":NaN,"cls":"tertiary","shops":0,"st_km":3.24,"mesh":"52395570"},"geometry":{"type":"LineString","coordinates":[[139.63069,35.14881],[139.63131,35.14907],[139.63162,35.14929]]}},{"type":"Feature","properties":{"idx":85,"road":NaN,"cls":"tertiary","shops":0,"st_km":2.38,"mesh":"52395580"},"geometry":{"type":"LineString","coordinates":[[139.6319,35.15694],[139.63143,35.15683],[139.63082,35.15706]]}},{"type":"Feature","properties":{"idx":69,"road":NaN,"cls":"tertiary","shops":0,"st_km":3.17,"mesh":"52395570"},"geometry":{"type":"LineString","coordinates":[[139.63188,35.14983],[139.63177,35.14955]]}},{"type":"Feature","properties":{"idx":87,"road":NaN,"cls":"tertiary","shops":0,"st_km":2.32,"mesh":"52395580"},"geometry":{"type":"LineString","coordinates":[[139.63082,35.15706],[139.63011,35.15743],[139.62996,35.15741],[139.62926,35.15705]]}},{"type":"Feature","properties":{"idx":8,"road":NaN,"cls":"tertiary","shops":0,"st_km":3.9,"mesh":"52395571"},"geometry":{"type":"LineString","coordinates":[[139.64108,35.1443],[139.64122,35.14386],[139.64124,35.14321],[139.6413,35.14292]]}},{"type":"Feature","properties":{"idx":86,"road":NaN,"cls":"tertiary","shops":0,"st_km":2.34,"mesh":"52395580"},"geometry":{"type":"LineString","coordinates":[[139.6319,35.15694],[139.63235,35.15709],[139.63263,35.15711],[139.63284,35.15705],[139.63328,35.15681]]}},{"type":"Feature","properties":{"idx":8,"road":NaN,"cls":"tertiary","shops":0,"st_km":3.8,"mesh":"52395571"},"geometry":{"type":"LineString","coordinates":[[139.64064,35.14471],[139.64085,35.14463],[139.64108,35.1443]]}},{"type":"Feature","properties":{"idx":74,"road":NaN,"cls":"tertiary","shops":0,"st_km":3.08,"mesh":"52395580"},"geometry":{"type":"LineString","coordinates":[[139.63275,35.15079],[139.63219,35.15061],[139.63207,35.15052],[139.63188,35.14983]]}},{"type":"Feature","properties":{"idx":23,"road":NaN,"cls":"tertiary","shops":0,"st_km":2.6,"mesh":"52395581"},"geometry":{"type":"LineString","coordinates":[[139.6438,35.15653],[139.64413,35.15653],[139.64482,35.1567],[139.6454,35.1567]]}},{"type":"Feature","properties":{"idx":72,"road":"上宮田金田三崎港線","cls":"secondary","shops":0,"st_km":3.95,"mesh":"52395570"},"geometry":{"type":"LineString","coordinates":[[139.63815,35.14289],[139.63684,35.14271]]}},{"type":"Feature","properties":{"idx":9,"road":"上宮田金田三崎港線","cls":"secondary","shops":0,"st_km":4.09,"mesh":"52395571"},"geometry":{"type":"LineString","coordinates":[[139.64329,35.1411],[139.64284,35.14138],[139.64234,35.14209],[139.6413,35.14292]]}},{"type":"Feature","properties":{"idx":44,"road":"上宮田金田三崎港線","cls":"secondary","shops":0,"st_km":4.13,"mesh":"52395560"},"geometry":{"type":"LineString","coordinates":[[139.63063,35.14074],[139.62955,35.14087],[139.62863,35.14122],[139.62816,35.14117],[139.62739,35.14142],[139.62706,35.14149],[139.62656,35.14149],[139.62583,35.14177],[139.62537,35.14182]]}},{"type":"Feature","properties":{"idx":66,"road":NaN,"cls":"tertiary","shops":0,"st_km":3.59,"mesh":"52395570"},"geometry":{"type":"LineString","coordinates":[[139.62915,35.14742],[139.62916,35.14671],[139.62897,35.14623],[139.62864,35.14588],[139.62762,35.14505]]}},{"type":"Feature","properties":{"idx":14,"road":"上宮田金田三崎港線","cls":"secondary","shops":0,"st_km":4.44,"mesh":"52395572"},"geometry":{"type":"LineString","coordinates":[[139.65887,35.14448],[139.65678,35.14265]]}},{"type":"Feature","properties":{"idx":22,"road":"上宮田金田三崎港線","cls":"secondary","shops":1,"st_km":4.28,"mesh":"52395572"},"geometry":{"type":"LineString","coordinates":[[139.65244,35.14186],[139.65215,35.14221],[139.65182,35.14238],[139.65161,35.14243],[139.64988,35.14241],[139.64899,35.14225]]}},{"type":"Feature","properties":{"idx":15,"road":"上宮田金田三崎港線","cls":"secondary","shops":0,"st_km":4.02,"mesh":"52395583"},"geometry":{"type":"LineString","coordinates":[[139.67053,35.15517],[139.67026,35.15494],[139.66955,35.15454],[139.66934,35.15434],[139.66887,35.1537]]}},{"type":"Feature","properties":{"idx":151,"road":"上宮田金田三崎港線","cls":"secondary","shops":0,"st_km":4.58,"mesh":"52395573"},"geometry":{"type":"LineString","coordinates":[[139.66936,35.14462],[139.66819,35.14578],[139.66752,35.14612],[139.66689,35.14666],[139.6664,35.14681],[139.66611,35.14681],[139.66557,35.14669],[139.66511,35.14645],[139.66483,35.14608],[139.66479,35.14588],[139.66483,35.14551],[139.66477,35.14537],[139.66465,35.14525],[139.66407,35.14498],[139.66379,35.14458],[139.66355,35.14448],[139.66334,35.1445],[139.66294,35.14468],[139.66153,35.14541],[139.66039,35.14559]]}},{"type":"Feature","properties":{"idx":13,"road":NaN,"cls":"tertiary","shops":0,"st_km":3.66,"mesh":"52395572"},"geometry":{"type":"LineString","coordinates":[[139.64348,35.15064],[139.64445,35.15087],[139.64518,35.15094],[139.64534,35.15103],[139.64568,35.15143],[139.64587,35.15153],[139.6461,35.15156],[139.64634,35.15149],[139.64645,35.15139],[139.64652,35.1512],[139.64647,35.15079],[139.64667,35.15063],[139.6476,35.15043],[139.64812,35.15047],[139.6488,35.15031],[139.64938,35.14958],[139.64962,35.14949],[139.65032,35.14943],[139.65113,35.14881],[139.65135,35.14853],[139.6514,35.14837],[139.6515,35.14708],[139.65159,35.14682],[139.65155,35.14644],[139.65159,35.14636],[139.65174,35.14621],[139.65201,35.14576],[139.65255,35.1452],[139.65318,35.14486],[139.65355,35.14448],[139.65373,35.14417],[139.65434,35.1438],[139.65493,35.14355],[139.6551,35.1434],[139.65576,35.14319],[139.65636,35.14324],[139.657,35.14335]]}},{"type":"Feature","properties":{"idx":65,"road":NaN,"cls":"tertiary","shops":0,"st_km":3.82,"mesh":"52395570"},"geometry":{"type":"LineString","coordinates":[[139.62584,35.14414],[139.6262,35.14445]]}},{"type":"Feature","properties":{"idx":65,"road":NaN,"cls":"tertiary","shops":0,"st_km":3.88,"mesh":"52395570"},"geometry":{"type":"LineString","coordinates":[[139.62455,35.14375],[139.62574,35.14408]]}},{"type":"Feature","properties":{"idx":13,"road":"上宮田金田三崎港線","cls":"secondary","shops":0,"st_km":4.52,"mesh":"52395562"},"geometry":{"type":"LineString","coordinates":[[139.65678,35.14265],[139.65572,35.14172],[139.65546,35.14158],[139.65519,35.1415],[139.65328,35.14141],[139.6528,35.14155],[139.65244,35.14186]]}},{"type":"Feature","properties":{"idx":151,"road":"上宮田金田三崎港線","cls":"secondary","shops":0,"st_km":4.49,"mesh":"52395573"},"geometry":{"type":"LineString","coordinates":[[139.66885,35.15289],[139.66889,35.15259],[139.66879,35.15178],[139.66887,35.15052],[139.66865,35.14974],[139.66864,35.14928],[139.66872,35.14903],[139.66933,35.14793],[139.66976,35.14683]]}},{"type":"Feature","properties":{"idx":14,"road":"上宮田金田三崎港線","cls":"secondary","shops":0,"st_km":4.38,"mesh":"52395572"},"geometry":{"type":"LineString","coordinates":[[139.66039,35.14559],[139.65999,35.14544],[139.65887,35.14448]]}},{"type":"Feature","properties":{"idx":9,"road":"上宮田金田三崎港線","cls":"secondary","shops":0,"st_km":4.24,"mesh":"52395571"},"geometry":{"type":"LineString","coordinates":[[139.64899,35.14225],[139.64854,35.14212],[139.64808,35.14182]]}},{"type":"Feature","properties":{"idx":13,"road":NaN,"cls":"tertiary","shops":0,"st_km":4.38,"mesh":"52395572"},"geometry":{"type":"LineString","coordinates":[[139.657,35.14335],[139.65774,35.14375],[139.65798,35.14428],[139.65811,35.14441],[139.65913,35.14497],[139.65994,35.14556],[139.66021,35.14567],[139.66039,35.14559]]}},{"type":"Feature","properties":{"idx":143,"road":"横須賀三崎線","cls":"primary","shops":1,"st_km":2.87,"mesh":"52395580"},"geometry":{"type":"LineString","coordinates":[[139.63038,35.15283],[139.62988,35.15208]]}},{"type":"Feature","properties":{"idx":64,"road":NaN,"cls":"tertiary","shops":0,"st_km":3.98,"mesh":"52395570"},"geometry":{"type":"LineString","coordinates":[[139.62582,35.14326],[139.62518,35.14261]]}},{"type":"Feature","properties":{"idx":72,"road":"上宮田金田三崎港線","cls":"secondary","shops":0,"st_km":3.97,"mesh":"52395570"},"geometry":{"type":"LineString","coordinates":[[139.6357,35.14253],[139.63548,35.14244]]}},{"type":"Feature","properties":{"idx":149,"road":"上宮田金田三崎港線","cls":"secondary","shops":0,"st_km":5.01,"mesh":"52395573"},"geometry":{"type":"LineString","coordinates":[[139.66976,35.14683],[139.67082,35.14569],[139.67095,35.14539],[139.67095,35.14504],[139.67088,35.14484],[139.67071,35.14461],[139.67035,35.1444],[139.66984,35.14438],[139.6696,35.14446],[139.66936,35.14462]]}},{"type":"Feature","properties":{"idx":38,"road":NaN,"cls":"tertiary","shops":0,"st_km":4.49,"mesh":"52395560"},"geometry":{"type":"LineString","coordinates":[[139.62682,35.13826],[139.62806,35.13781]]}},{"type":"Feature","properties":{"idx":139,"road":"横須賀三崎線","cls":"primary","shops":1,"st_km":3.04,"mesh":"52395580"},"geometry":{"type":"LineString","coordinates":[[139.62975,35.15191],[139.62867,35.15092],[139.62847,35.15067],[139.62812,35.15007]]}},{"type":"Feature","properties":{"idx":90,"road":NaN,"cls":"tertiary","shops":0,"st_km":2.22,"mesh":"52395580"},"geometry":{"type":"LineString","coordinates":[[139.63626,35.1587],[139.63586,35.15819],[139.63581,35.15781]]}},{"type":"Feature","properties":{"idx":158,"road":"横須賀三崎線","cls":"primary","shops":1,"st_km":2.41,"mesh":"52395580"},"geometry":{"type":"LineString","coordinates":[[139.63838,35.15817],[139.63787,35.15761],[139.63721,35.15716],[139.63375,35.15561],[139.63301,35.1552]]}},{"type":"Feature","properties":{"idx":274,"road":NaN,"cls":"tertiary","shops":0,"st_km":2.22,"mesh":"52395590"},"geometry":{"type":"LineString","coordinates":[[139.63838,35.15817],[139.6375,35.15842],[139.63678,35.15843],[139.63626,35.1587]]}},{"type":"Feature","properties":{"idx":4,"road":NaN,"cls":"tertiary","shops":0,"st_km":2.8,"mesh":"52395582"},"geometry":{"type":"LineString","coordinates":[[139.6534,35.15758],[139.65321,35.15811],[139.65295,35.15826],[139.65231,35.15833],[139.65198,35.15822],[139.65136,35.1582],[139.65123,35.15814],[139.651,35.15789],[139.65088,35.15789]]}},{"type":"Feature","properties":{"idx":5,"road":NaN,"cls":"pedestrian","shops":0,"st_km":3.11,"mesh":"52395582"},"geometry":{"type":"LineString","coordinates":[[139.65603,35.1574],[139.656,35.15721],[139.65591,35.15715],[139.65591,35.15704],[139.65576,35.15685]]}},{"type":"Feature","properties":{"idx":15,"road":"上宮田金田三崎港線","cls":"secondary","shops":0,"st_km":3.51,"mesh":"52395583"},"geometry":{"type":"LineString","coordinates":[[139.66003,35.16307],[139.66054,35.16232],[139.66126,35.16172],[139.66142,35.16153],[139.66151,35.16134],[139.66159,35.1609],[139.66179,35.16057],[139.66258,35.15969],[139.66331,35.15916],[139.6643,35.15813],[139.66447,35.15807],[139.66471,35.15807],[139.66595,35.15825],[139.66627,35.15815],[139.66712,35.15765],[139.66745,35.15753],[139.66888,35.15736],[139.66928,35.15737],[139.67008,35.1575],[139.67039,35.15744],[139.67069,35.15728],[139.67099,35.1569],[139.6711,35.15649],[139.67105,35.15625],[139.67071,35.15548],[139.67053,35.15517]]}},{"type":"Feature","properties":{"idx":1059,"road":"上宮田金田三崎港線","cls":"secondary","shops":0,"st_km":2.86,"mesh":"52395592"},"geometry":{"type":"LineString","coordinates":[[139.65998,35.16315],[139.66003,35.16307]]}},{"type":"Feature","properties":{"idx":130,"road":NaN,"cls":"tertiary","shops":2,"st_km":3.76,"mesh":"52395570"},"geometry":{"type":"LineString","coordinates":[[139.62762,35.14505],[139.6268,35.14423]]}},{"type":"Feature","properties":{"idx":65,"road":NaN,"cls":"tertiary","shops":0,"st_km":3.84,"mesh":"52395570"},"geometry":{"type":"LineString","coordinates":[[139.6258,35.14411],[139.62584,35.14414]]}},{"type":"Feature","properties":{"idx":44,"road":"上宮田金田三崎港線","cls":"secondary","shops":0,"st_km":4.18,"mesh":"52395560"},"geometry":{"type":"LineString","coordinates":[[139.63211,35.14029],[139.63063,35.14074]]}},{"type":"Feature","properties":{"idx":44,"road":"上宮田金田三崎港線","cls":"secondary","shops":0,"st_km":4.13,"mesh":"52395560"},"geometry":{"type":"LineString","coordinates":[[139.63548,35.14244],[139.63502,35.14213],[139.63404,35.14099],[139.63349,35.14057],[139.63316,35.14039],[139.63291,35.14032],[139.63242,35.14026],[139.63211,35.14029]]}},{"type":"Feature","properties":{"idx":65,"road":NaN,"cls":"tertiary","shops":0,"st_km":3.82,"mesh":"52395570"},"geometry":{"type":"LineString","coordinates":[[139.6268,35.14423],[139.62665,35.14409]]}},{"type":"Feature","properties":{"idx":65,"road":NaN,"cls":"tertiary","shops":0,"st_km":3.79,"mesh":"52395570"},"geometry":{"type":"LineString","coordinates":[[139.6262,35.14445],[139.62615,35.14475]]}},{"type":"Feature","properties":{"idx":134,"road":NaN,"cls":"tertiary","shops":2,"st_km":3.38,"mesh":"52395570"},"geometry":{"type":"LineString","coordinates":[[139.62908,35.14853],[139.62915,35.14742]]}},{"type":"Feature","properties":{"idx":109,"road":NaN,"cls":"tertiary","shops":1,"st_km":3.16,"mesh":"52395580"},"geometry":{"type":"LineString","coordinates":[[139.62812,35.15007],[139.62819,35.15004]]}},{"type":"Feature","properties":{"idx":200,"road":"横須賀三崎線","cls":"primary","shops":2,"st_km":2.62,"mesh":"52395580"},"geometry":{"type":"LineString","coordinates":[[139.63219,35.15465],[139.63207,35.15457]]}},{"type":"Feature","properties":{"idx":127,"road":"横須賀三崎線","cls":"primary","shops":1,"st_km":3.26,"mesh":"52395570"},"geometry":{"type":"LineString","coordinates":[[139.62765,35.14926],[139.62762,35.14922]]}},{"type":"Feature","properties":{"idx":209,"road":"横須賀三崎線","cls":"primary","shops":3,"st_km":3.39,"mesh":"52395570"},"geometry":{"type":"LineString","coordinates":[[139.62747,35.14901],[139.62662,35.14835],[139.62514,35.14757]]}},{"type":"Feature","properties":{"idx":127,"road":"横須賀三崎線","cls":"primary","shops":1,"st_km":3.27,"mesh":"52395570"},"geometry":{"type":"LineString","coordinates":[[139.62762,35.14922],[139.62747,35.14901]]}},{"type":"Feature","properties":{"idx":129,"road":"横須賀三崎線","cls":"primary","shops":1,"st_km":3.18,"mesh":"52395570"},"geometry":{"type":"LineString","coordinates":[[139.62812,35.15007],[139.62794,35.14976]]}},{"type":"Feature","properties":{"idx":151,"road":"横須賀三崎線","cls":"primary","shops":1,"st_km":2.58,"mesh":"52395580"},"geometry":{"type":"LineString","coordinates":[[139.63301,35.1552],[139.63219,35.15465]]}},{"type":"Feature","properties":{"idx":128,"road":"横須賀三崎線","cls":"primary","shops":1,"st_km":3.22,"mesh":"52395570"},"geometry":{"type":"LineString","coordinates":[[139.62794,35.14976],[139.62765,35.14926]]}},{"type":"Feature","properties":{"idx":94,"road":"横須賀三崎線","cls":"primary","shops":0,"st_km":2.93,"mesh":"52395580"},"geometry":{"type":"LineString","coordinates":[[139.62988,35.15208],[139.62975,35.15191]]}},{"type":"Feature","properties":{"idx":241,"road":"横須賀三崎線","cls":"primary","shops":3,"st_km":2.81,"mesh":"52395580"},"geometry":{"type":"LineString","coordinates":[[139.63056,35.15311],[139.63038,35.15283]]}},{"type":"Feature","properties":{"idx":150,"road":"横須賀三崎線","cls":"primary","shops":1,"st_km":2.63,"mesh":"52395580"},"geometry":{"type":"LineString","coordinates":[[139.63207,35.15457],[139.63188,35.15444]]}},{"type":"Feature","properties":{"idx":245,"road":"横須賀三崎線","cls":"primary","shops":3,"st_km":2.71,"mesh":"52395580"},"geometry":{"type":"LineString","coordinates":[[139.63188,35.15444],[139.63134,35.15398],[139.63056,35.15311]]}},{"type":"Feature","properties":{"idx":68,"road":NaN,"cls":"tertiary","shops":0,"st_km":3.2,"mesh":"52395570"},"geometry":{"type":"LineString","coordinates":[[139.63176,35.14954],[139.63162,35.14929]]}},{"type":"Feature","properties":{"idx":65,"road":NaN,"cls":"tertiary","shops":0,"st_km":3.79,"mesh":"52395570"},"geometry":{"type":"LineString","coordinates":[[139.63478,35.14383],[139.63626,35.14418],[139.63688,35.14418],[139.63777,35.14435],[139.638,35.1445],[139.63848,35.14514]]}},{"type":"Feature","properties":{"idx":97,"road":NaN,"cls":"tertiary","shops":1,"st_km":3.82,"mesh":"52395570"},"geometry":{"type":"LineString","coordinates":[[139.63477,35.14379],[139.63478,35.14383]]}},{"type":"Feature","properties":{"idx":23,"road":"上宮田金田三崎港線","cls":"secondary","shops":0,"st_km":4.25,"mesh":"52395561"},"geometry":{"type":"LineString","coordinates":[[139.64559,35.1411],[139.64382,35.141],[139.64329,35.1411]]}},{"type":"Feature","properties":{"idx":14,"road":"上宮田金田三崎港線","cls":"secondary","shops":1,"st_km":3.96,"mesh":"52395571"},"geometry":{"type":"LineString","coordinates":[[139.6413,35.14292],[139.64073,35.14312]]}},{"type":"Feature","properties":{"idx":9,"road":NaN,"cls":"tertiary","shops":0,"st_km":3.26,"mesh":"52395571"},"geometry":{"type":"LineString","coordinates":[[139.64173,35.14908],[139.64213,35.14951],[139.64272,35.14987],[139.64311,35.15035],[139.64348,35.15064]]}},{"type":"Feature","properties":{"idx":9,"road":NaN,"cls":"tertiary","shops":0,"st_km":3.5,"mesh":"52395571"},"geometry":{"type":"LineString","coordinates":[[139.63848,35.14514],[139.63874,35.14542],[139.6395,35.1459],[139.63966,35.14615],[139.64028,35.14761],[139.64173,35.14908]]}},{"type":"Feature","properties":{"idx":13,"road":NaN,"cls":"tertiary","shops":0,"st_km":3.99,"mesh":"52395583"},"geometry":{"type":"LineString","coordinates":[[139.6656,35.15439],[139.66661,35.1544],[139.66746,35.15412],[139.66803,35.15385],[139.66831,35.15366],[139.66854,35.15342],[139.66871,35.15332]]}},{"type":"Feature","properties":{"idx":29,"road":"上宮田金田三崎港線","cls":"secondary","shops":2,"st_km":4.15,"mesh":"52395583"},"geometry":{"type":"LineString","coordinates":[[139.66871,35.15332],[139.66885,35.15289]]}},{"type":"Feature","properties":{"idx":22,"road":"上宮田金田三崎港線","cls":"secondary","shops":1,"st_km":4.1,"mesh":"52395583"},"geometry":{"type":"LineString","coordinates":[[139.66887,35.1537],[139.66871,35.15332]]}},{"type":"Feature","properties":{"idx":22,"road":NaN,"cls":"tertiary","shops":0,"st_km":2.84,"mesh":"52395581"},"geometry":{"type":"LineString","coordinates":[[139.64614,35.15402],[139.64623,35.15426],[139.64625,35.15451],[139.64609,35.15579]]}},{"type":"Feature","properties":{"idx":63,"road":NaN,"cls":"tertiary","shops":4,"st_km":2.95,"mesh":"52395581"},"geometry":{"type":"LineString","coordinates":[[139.64583,35.15328],[139.64592,35.15372],[139.64614,35.15402]]}},{"type":"Feature","properties":{"idx":24,"road":NaN,"cls":"tertiary","shops":0,"st_km":2.41,"mesh":"52395581"},"geometry":{"type":"LineString","coordinates":[[139.64129,35.15767],[139.64149,35.15761],[139.64204,35.15765]]}},{"type":"Feature","properties":{"idx":67,"road":NaN,"cls":"tertiary","shops":0,"st_km":2.01,"mesh":"52395591"},"geometry":{"type":"LineString","coordinates":[[139.64121,35.16167],[139.64129,35.16157],[139.6413,35.16131],[139.64125,35.16095]]}},{"type":"Feature","properties":{"idx":155,"road":"横須賀三崎線","cls":"primary","shops":2,"st_km":2.21,"mesh":"52395591"},"geometry":{"type":"LineString","coordinates":[[139.63903,35.15935],[139.63838,35.15817]]}},{"type":"Feature","properties":{"idx":92,"road":"横須賀三崎線","cls":"primary","shops":0,"st_km":1.8,"mesh":"52395591"},"geometry":{"type":"LineString","coordinates":[[139.64262,35.16448],[139.64205,35.16368],[139.64133,35.16302],[139.64115,35.16274]]}},{"type":"Feature","properties":{"idx":98,"road":"横須賀三崎線","cls":"primary","shops":0,"st_km":1.67,"mesh":"52395591"},"geometry":{"type":"LineString","coordinates":[[139.64251,35.1663],[139.64284,35.16589],[139.64297,35.16543],[139.64292,35.16499],[139.64262,35.16448]]}},{"type":"Feature","properties":{"idx":160,"road":"横須賀三崎線","cls":"primary","shops":1,"st_km":1.52,"mesh":"52395591"},"geometry":{"type":"LineString","coordinates":[[139.64187,35.16694],[139.64251,35.1663]]}},{"type":"Feature","properties":{"idx":71,"road":NaN,"cls":"tertiary","shops":0,"st_km":1.87,"mesh":"52395591"},"geometry":{"type":"LineString","coordinates":[[139.64148,35.16316],[139.64137,35.16318],[139.64124,35.16311],[139.64046,35.16231],[139.64022,35.16212],[139.63993,35.162],[139.63933,35.16189]]}},{"type":"Feature","properties":{"idx":69,"road":NaN,"cls":"tertiary","shops":0,"st_km":3.18,"mesh":"52395570"},"geometry":{"type":"LineString","coordinates":[[139.63177,35.14955],[139.63176,35.14954]]}}]}