{"type":"FeatureCollection","features":[{"type":"Feature","properties":{"idx":359,"road":"佐島港線","cls":"secondary","shops":0,"st_km":4.88,"mesh":"52396479"},"geometry":{"type":"LineString","coordinates":[[139.62196,35.22795],[139.62162,35.22765],[139.62114,35.22748],[139.62083,35.22748],[139.62041,35.22757]]}},{"type":"Feature","properties":{"idx":263,"road":"","cls":"tertiary","shops":0,"st_km":6.13,"mesh":"52396478"},"geometry":{"type":"LineString","coordinates":[[139.60471,35.22415],[139.60348,35.22477],[139.60339,35.22493],[139.60367,35.22568],[139.60389,35.22768],[139.60346,35.22883],[139.60344,35.22935],[139.60468,35.23209]]}},{"type":"Feature","properties":{"idx":106,"road":"逗子葉山横須賀線","cls":"secondary","shops":0,"st_km":5.88,"mesh":"52396497"},"geometry":{"type":"LineString","coordinates":[[139.59615,35.24276],[139.59651,35.24311]]}},{"type":"Feature","properties":{"idx":106,"road":"逗子葉山横須賀線","cls":"secondary","shops":0,"st_km":5.74,"mesh":"52396497"},"geometry":{"type":"LineString","coordinates":[[139.59651,35.24311],[139.5971,35.24382],[139.59735,35.2442],[139.59799,35.24592]]}},{"type":"Feature","properties":{"idx":106,"road":"逗子葉山横須賀線","cls":"secondary","shops":0,"st_km":5.58,"mesh":"52396497"},"geometry":{"type":"LineString","coordinates":[[139.59799,35.24592],[139.59809,35.24615]]}},{"type":"Feature","properties":{"idx":106,"road":"逗子葉山横須賀線","cls":"secondary","shops":0,"st_km":5.5,"mesh":"52396497"},"geometry":{"type":"LineString","coordinates":[[139.59809,35.24615],[139.59848,35.24674],[139.59888,35.24709],[139.59984,35.24754]]}},{"type":"Feature","properties":{"idx":116,"road":"","cls":"tertiary","shops":0,"st_km":2.64,"mesh":"52396439"},"geometry":{"type":"LineString","coordinates":[[139.61504,35.19531],[139.61581,35.19506],[139.61619,35.19508],[139.61638,35.19515],[139.61667,35.19537],[139.61712,35.19627],[139.61739,35.19654],[139.61769,35.19665],[139.61901,35.19687],[139.61906,35.19698],[139.61897,35.19935],[139.61905,35.19949],[139.62589,35.19967]]}},{"type":"Feature","properties":{"idx":143,"road":"","cls":"tertiary","shops":0,"st_km":1.99,"mesh":"52396439"},"geometry":{"type":"LineString","coordinates":[[139.61727,35.19199],[139.61786,35.19255],[139.61806,35.19259],[139.61858,35.19259],[139.62007,35.19296],[139.62063,35.19287],[139.62093,35.1929],[139.62144,35.1933],[139.62234,35.19383],[139.62326,35.19405],[139.62389,35.19459],[139.62404,35.19491],[139.62413,35.19551],[139.6242,35.1956],[139.62437,35.19559],[139.62487,35.19535],[139.62566,35.19513],[139.62581,35.19547],[139.62676,35.19661]]}},{"type":"Feature","properties":{"idx":59,"road":"","cls":"tertiary","shops":0,"st_km":1.25,"mesh":"52396409"},"geometry":{"type":"LineString","coordinates":[[139.62077,35.175],[139.62063,35.17311],[139.62051,35.17267]]}},{"type":"Feature","properties":{"idx":9,"road":"","cls":"tertiary","shops":0,"st_km":0.98,"mesh":"52396419"},"geometry":{"type":"LineString","coordinates":[[139.62288,35.17645],[139.62274,35.17629]]}},{"type":"Feature","properties":{"idx":9,"road":"","cls":"tertiary","shops":0,"st_km":0.92,"mesh":"52396419"},"geometry":{"type":"LineString","coordinates":[[139.62371,35.17751],[139.62288,35.17645]]}},{"type":"Feature","properties":{"idx":329,"road":"","cls":"tertiary","shops":2,"st_km":2.09,"mesh":"52396429"},"geometry":{"type":"LineString","coordinates":[[139.61727,35.19199],[139.61656,35.19107],[139.61621,35.1904]]}},{"type":"Feature","properties":{"idx":13,"road":"","cls":"tertiary","shops":1,"st_km":1.04,"mesh":"52396419"},"geometry":{"type":"LineString","coordinates":[[139.62274,35.17629],[139.62263,35.17601],[139.6225,35.17591],[139.62197,35.17563],[139.62163,35.17562]]}},{"type":"Feature","properties":{"idx":11,"road":"","cls":"tertiary","shops":0,"st_km":0.79,"mesh":"52396419"},"geometry":{"type":"LineString","coordinates":[[139.62371,35.17751],[139.62385,35.178],[139.62407,35.17835],[139.62423,35.17851],[139.6246,35.17873],[139.62475,35.17889],[139.62478,35.17932],[139.62513,35.1805]]}},{"type":"Feature","properties":{"idx":8,"road":"","cls":"tertiary","shops":0,"st_km":1.16,"mesh":"52396419"},"geometry":{"type":"LineString","coordinates":[[139.62163,35.17562],[139.62126,35.17549],[139.62086,35.17527],[139.62078,35.17516],[139.62077,35.175]]}},{"type":"Feature","properties":{"idx":44,"road":"","cls":"pedestrian","shops":2,"st_km":3.45,"mesh":"52396438"},"geometry":{"type":"LineString","coordinates":[[139.60168,35.19433],[139.60141,35.19452],[139.60119,35.19483],[139.60106,35.19508],[139.6011,35.1953]]}},{"type":"Feature","properties":{"idx":17,"road":"","cls":"tertiary","shops":0,"st_km":3.11,"mesh":"52396438"},"geometry":{"type":"LineString","coordinates":[[139.61167,35.19727],[139.61085,35.19744],[139.60951,35.19754],[139.60871,35.19772],[139.60756,35.19819],[139.60728,35.19838],[139.60687,35.19876],[139.60682,35.19889],[139.60641,35.19911]]}},{"type":"Feature","properties":{"idx":17,"road":"","cls":"tertiary","shops":0,"st_km":2.87,"mesh":"52396438"},"geometry":{"type":"LineString","coordinates":[[139.6128,35.19821],[139.61215,35.197]]}},{"type":"Feature","properties":{"idx":145,"road":"","cls":"tertiary","shops":2,"st_km":3.79,"mesh":"52396448"},"geometry":{"type":"LineString","coordinates":[[139.60917,35.20529],[139.60822,35.20622]]}},{"type":"Feature","properties":{"idx":110,"road":"","cls":"tertiary","shops":0,"st_km":2.94,"mesh":"52396439"},"geometry":{"type":"LineString","coordinates":[[139.6135,35.19934],[139.61322,35.19881]]}},{"type":"Feature","properties":{"idx":152,"road":"","cls":"tertiary","shops":0,"st_km":2.99,"mesh":"52396449"},"geometry":{"type":"LineString","coordinates":[[139.61772,35.20723],[139.61765,35.2069],[139.61765,35.20656],[139.61753,35.20617],[139.61747,35.20554],[139.61749,35.20532],[139.61764,35.20505],[139.61765,35.20488],[139.61704,35.20353],[139.61701,35.20335],[139.61708,35.20294],[139.61706,35.20263],[139.61638,35.20134],[139.61628,35.20109],[139.61617,35.20059],[139.61616,35.2],[139.61639,35.19857],[139.61637,35.1981],[139.61625,35.19766],[139.61504,35.19531]]}},{"type":"Feature","properties":{"idx":152,"road":"","cls":"tertiary","shops":0,"st_km":3.01,"mesh":"52396449"},"geometry":{"type":"LineString","coordinates":[[139.61434,35.20088],[139.6135,35.19934]]}},{"type":"Feature","properties":{"idx":110,"road":"","cls":"tertiary","shops":0,"st_km":2.92,"mesh":"52396439"},"geometry":{"type":"LineString","coordinates":[[139.61322,35.19881],[139.6128,35.19821]]}},{"type":"Feature","properties":{"idx":145,"road":"","cls":"tertiary","shops":0,"st_km":3.39,"mesh":"52396449"},"geometry":{"type":"LineString","coordinates":[[139.61543,35.20452],[139.61564,35.20528],[139.61566,35.2055]]}},{"type":"Feature","properties":{"idx":122,"road":"","cls":"tertiary","shops":0,"st_km":2.45,"mesh":"52396439"},"geometry":{"type":"LineString","coordinates":[[139.61407,35.19264],[139.6143,35.19294],[139.61463,35.19445],[139.61504,35.19531]]}},{"type":"Feature","properties":{"idx":150,"road":"","cls":"tertiary","shops":0,"st_km":3.13,"mesh":"52396449"},"geometry":{"type":"LineString","coordinates":[[139.61559,35.2031],[139.61558,35.20299],[139.61524,35.2023],[139.61505,35.20219],[139.61458,35.20132],[139.61447,35.20126],[139.61433,35.20101],[139.61434,35.20088]]}},{"type":"Feature","properties":{"idx":143,"road":"","cls":"tertiary","shops":0,"st_km":3.57,"mesh":"52396449"},"geometry":{"type":"LineString","coordinates":[[139.61566,35.2055],[139.61539,35.20685],[139.61572,35.20811]]}},{"type":"Feature","properties":{"idx":147,"road":"","cls":"tertiary","shops":0,"st_km":3.28,"mesh":"52396449"},"geometry":{"type":"LineString","coordinates":[[139.61543,35.20452],[139.61527,35.20397],[139.61526,35.20376],[139.61557,35.2032],[139.61559,35.2031]]}},{"type":"Feature","properties":{"idx":317,"road":"","cls":"tertiary","shops":0,"st_km":5.55,"mesh":"52396479"},"geometry":{"type":"LineString","coordinates":[[139.61403,35.22487],[139.61334,35.22546],[139.61308,35.22577],[139.6129,35.22626],[139.61289,35.227]]}},{"type":"Feature","properties":{"idx":264,"road":"","cls":"tertiary","shops":0,"st_km":5.41,"mesh":"52396478"},"geometry":{"type":"LineString","coordinates":[[139.6124,35.22861],[139.61114,35.23081]]}},{"type":"Feature","properties":{"idx":218,"road":"","cls":"tertiary","shops":1,"st_km":3.36,"mesh":"52396449"},"geometry":{"type":"LineString","coordinates":[[139.62231,35.20666],[139.62416,35.2075],[139.62523,35.20788],[139.62609,35.20808],[139.62716,35.20794]]}},{"type":"Feature","properties":{"idx":146,"road":"","cls":"tertiary","shops":0,"st_km":3.31,"mesh":"52396449"},"geometry":{"type":"LineString","coordinates":[[139.62218,35.20661],[139.62231,35.20666]]}},{"type":"Feature","properties":{"idx":37,"road":"","cls":"tertiary","shops":1,"st_km":3.74,"mesh":"52396459"},"geometry":{"type":"LineString","coordinates":[[139.6123,35.20896],[139.61502,35.20848],[139.61521,35.2084],[139.61665,35.20757],[139.61772,35.20723]]}},{"type":"Feature","properties":{"idx":144,"road":"","cls":"tertiary","shops":2,"st_km":3.85,"mesh":"52396448"},"geometry":{"type":"LineString","coordinates":[[139.61205,35.20765],[139.6123,35.20896]]}},{"type":"Feature","properties":{"idx":145,"road":"","cls":"tertiary","shops":2,"st_km":3.72,"mesh":"52396448"},"geometry":{"type":"LineString","coordinates":[[139.60583,35.20335],[139.60655,35.20357],[139.60679,35.20372],[139.60712,35.20423],[139.60742,35.20483],[139.60754,35.20488],[139.60874,35.20522],[139.6103,35.2054],[139.61069,35.20558],[139.61095,35.20578],[139.61159,35.20646],[139.61187,35.20701],[139.61205,35.20765]]}},{"type":"Feature","properties":{"idx":72,"road":"","cls":"tertiary","shops":0,"st_km":3.77,"mesh":"52396448"},"geometry":{"type":"LineString","coordinates":[[139.60522,35.20218],[139.60497,35.20221],[139.60477,35.20234],[139.60472,35.20253],[139.60481,35.20281],[139.60503,35.20307],[139.60514,35.20313],[139.60583,35.20335]]}},{"type":"Feature","properties":{"idx":16,"road":"","cls":"tertiary","shops":0,"st_km":3.38,"mesh":"52396438"},"geometry":{"type":"LineString","coordinates":[[139.60395,35.1978],[139.60347,35.1983],[139.60356,35.19853],[139.60429,35.19885],[139.60517,35.19903],[139.6056,35.19904],[139.60589,35.19897],[139.60615,35.19896],[139.60641,35.19911],[139.60656,35.19927],[139.60677,35.19965],[139.60689,35.20018],[139.60685,35.20034],[139.60665,35.20047],[139.60593,35.20064],[139.60577,35.20074],[139.60531,35.20207],[139.60522,35.20218]]}},{"type":"Feature","properties":{"idx":16,"road":"","cls":"tertiary","shops":0,"st_km":3.5,"mesh":"52396438"},"geometry":{"type":"LineString","coordinates":[[139.60145,35.19616],[139.60174,35.19655],[139.60206,35.19686],[139.60235,35.19701],[139.60292,35.19715],[139.60345,35.19736],[139.60387,35.19763],[139.60395,35.1978]]}},{"type":"Feature","properties":{"idx":321,"road":"","cls":"tertiary","shops":0,"st_km":4.61,"mesh":"52396479"},"geometry":{"type":"LineString","coordinates":[[139.62336,35.23257],[139.62266,35.23275],[139.62242,35.23276],[139.62208,35.23261],[139.62133,35.23207],[139.62117,35.23188],[139.62094,35.23078],[139.62077,35.23037],[139.62069,35.23031],[139.62024,35.2303],[139.61993,35.23023],[139.61951,35.2298]]}},{"type":"Feature","properties":{"idx":154,"road":"佐島港線","cls":"secondary","shops":0,"st_km":5.35,"mesh":"52396468"},"geometry":{"type":"LineString","coordinates":[[139.61818,35.22708],[139.61732,35.22684],[139.61696,35.22667],[139.61659,35.22637],[139.61619,35.22587],[139.61593,35.22563],[139.61556,35.22541],[139.61472,35.22528],[139.6144,35.22513],[139.61329,35.22427],[139.61312,35.22406],[139.61291,35.22362],[139.61278,35.22348],[139.61264,35.22336],[139.61233,35.22322],[139.61181,35.22316],[139.61117,35.22295],[139.61087,35.22295],[139.61048,35.22305],[139.60975,35.22345],[139.6093,35.22362],[139.6083,35.22374],[139.60746,35.22399],[139.60711,35.22404],[139.60672,35.22409],[139.60562,35.22406]]}},{"type":"Feature","properties":{"idx":359,"road":"佐島港線","cls":"secondary","shops":0,"st_km":4.94,"mesh":"52396479"},"geometry":{"type":"LineString","coordinates":[[139.62041,35.22757],[139.62024,35.22761]]}},{"type":"Feature","properties":{"idx":25,"road":"","cls":"pedestrian","shops":0,"st_km":2.57,"mesh":"52396438"},"geometry":{"type":"LineString","coordinates":[[139.61083,35.19345],[139.61083,35.19338],[139.61091,35.19332],[139.61133,35.19309],[139.61125,35.19266],[139.61105,35.1925],[139.61081,35.1922],[139.61034,35.19206]]}},{"type":"Feature","properties":{"idx":24,"road":"","cls":"pedestrian","shops":0,"st_km":2.73,"mesh":"52396438"},"geometry":{"type":"LineString","coordinates":[[139.61191,35.19594],[139.61163,35.19553],[139.61154,35.19497],[139.61129,35.19441]]}},{"type":"Feature","properties":{"idx":265,"road":"","cls":"tertiary","shops":0,"st_km":5.34,"mesh":"52396478"},"geometry":{"type":"LineString","coordinates":[[139.61037,35.23233],[139.61052,35.23227],[139.611,35.23225]]}},{"type":"Feature","properties":{"idx":785,"road":"","cls":"tertiary","shops":1,"st_km":5.06,"mesh":"52396489"},"geometry":{"type":"LineString","coordinates":[[139.6136,35.23451],[139.61343,35.23433],[139.6127,35.2332]]}},{"type":"Feature","properties":{"idx":24,"road":"","cls":"tertiary","shops":1,"st_km":3.52,"mesh":"52396438"},"geometry":{"type":"LineString","coordinates":[[139.60125,35.19573],[139.60132,35.19596],[139.60145,35.19616]]}},{"type":"Feature","properties":{"idx":22,"road":"","cls":"pedestrian","shops":0,"st_km":3.38,"mesh":"52396438"},"geometry":{"type":"LineString","coordinates":[[139.6017,35.19395],[139.60172,35.19427],[139.60168,35.19433]]}},{"type":"Feature","properties":{"idx":22,"road":"","cls":"pedestrian","shops":0,"st_km":3.55,"mesh":"52396438"},"geometry":{"type":"LineString","coordinates":[[139.59978,35.19534],[139.59987,35.1954],[139.60088,35.19539],[139.6011,35.1953]]}},{"type":"Feature","properties":{"idx":33,"road":"","cls":"pedestrian","shops":0,"st_km":3.96,"mesh":"52396459"},"geometry":{"type":"LineString","coordinates":[[139.61364,35.2098],[139.61246,35.20971]]}},{"type":"Feature","properties":{"idx":33,"road":"","cls":"pedestrian","shops":0,"st_km":3.74,"mesh":"52396459"},"geometry":{"type":"LineString","coordinates":[[139.61265,35.20983],[139.61417,35.20978],[139.61549,35.20937],[139.61706,35.20807],[139.61873,35.20771],[139.61788,35.2078]]}},{"type":"Feature","properties":{"idx":358,"road":"佐島港線","cls":"secondary","shops":0,"st_km":5.09,"mesh":"52396479"},"geometry":{"type":"LineString","coordinates":[[139.61897,35.22732],[139.61818,35.22708]]}},{"type":"Feature","properties":{"idx":358,"road":"佐島港線","cls":"secondary","shops":0,"st_km":5.0,"mesh":"52396479"},"geometry":{"type":"LineString","coordinates":[[139.62024,35.22761],[139.61971,35.22756],[139.61897,35.22732]]}},{"type":"Feature","properties":{"idx":265,"road":"","cls":"tertiary","shops":0,"st_km":5.3,"mesh":"52396478"},"geometry":{"type":"LineString","coordinates":[[139.61114,35.23081],[139.61096,35.23132],[139.61097,35.23221],[139.61105,35.23226],[139.61165,35.23228],[139.61206,35.23242],[139.61229,35.23257],[139.6127,35.2332]]}},{"type":"Feature","properties":{"idx":36,"road":"","cls":"pedestrian","shops":1,"st_km":2.78,"mesh":"52396438"},"geometry":{"type":"LineString","coordinates":[[139.61209,35.19629],[139.61196,35.19603]]}},{"type":"Feature","properties":{"idx":36,"road":"","cls":"pedestrian","shops":1,"st_km":2.78,"mesh":"52396438"},"geometry":{"type":"LineString","coordinates":[[139.61195,35.19594],[139.61199,35.19601],[139.61189,35.19602],[139.61188,35.19597],[139.61195,35.19594]]}},{"type":"Feature","properties":{"idx":37,"road":"","cls":"pedestrian","shops":1,"st_km":2.7,"mesh":"52396438"},"geometry":{"type":"LineString","coordinates":[[139.61125,35.19431],[139.6112,35.19439],[139.61129,35.19441],[139.61133,35.19435],[139.61125,35.19431]]}},{"type":"Feature","properties":{"idx":25,"road":"","cls":"pedestrian","shops":0,"st_km":2.69,"mesh":"52396438"},"geometry":{"type":"LineString","coordinates":[[139.61123,35.19431],[139.61096,35.19398],[139.61083,35.19355]]}},{"type":"Feature","properties":{"idx":25,"road":"","cls":"pedestrian","shops":0,"st_km":2.6,"mesh":"52396438"},"geometry":{"type":"LineString","coordinates":[[139.61019,35.19202],[139.61028,35.19199],[139.61034,35.19206],[139.61023,35.19211],[139.61019,35.19202]]}},{"type":"Feature","properties":{"idx":37,"road":"","cls":"pedestrian","shops":1,"st_km":2.66,"mesh":"52396438"},"geometry":{"type":"LineString","coordinates":[[139.61079,35.19346],[139.61081,35.19354],[139.61089,35.19351],[139.61087,35.19346],[139.61079,35.19346]]}},{"type":"Feature","properties":{"idx":544,"road":"","cls":"tertiary","shops":0,"st_km":3.83,"mesh":"52396489"},"geometry":{"type":"LineString","coordinates":[[139.63316,35.24749],[139.63316,35.24724],[139.63303,35.24677],[139.63284,35.24647],[139.63247,35.24602],[139.63232,35.24592],[139.63206,35.24586],[139.63182,35.24573],[139.63156,35.2453],[139.63144,35.24519],[139.63077,35.24499],[139.63038,35.24464],[139.62956,35.24413],[139.62929,35.2437],[139.6287,35.24317],[139.62832,35.24264],[139.6282,35.24255],[139.62784,35.24245],[139.62769,35.24235],[139.62715,35.2414],[139.62627,35.24032],[139.62569,35.2394],[139.62534,35.2391],[139.62483,35.23888],[139.62329,35.23863],[139.62262,35.23841],[139.62217,35.2382],[139.62175,35.23794],[139.62134,35.2376],[139.61912,35.23542],[139.61856,35.23512],[139.61772,35.23499],[139.61512,35.23505],[139.61469,35.23502],[139.61417,35.23487],[139.6136,35.23451]]}},{"type":"Feature","properties":{"idx":317,"road":"","cls":"tertiary","shops":0,"st_km":5.46,"mesh":"52396479"},"geometry":{"type":"LineString","coordinates":[[139.61289,35.227],[139.61288,35.22753],[139.61282,35.22784],[139.6124,35.22861]]}},{"type":"Feature","properties":{"idx":153,"road":"佐島港線","cls":"secondary","shops":0,"st_km":5.7,"mesh":"52396468"},"geometry":{"type":"LineString","coordinates":[[139.60562,35.22406],[139.60471,35.22415]]}},{"type":"Feature","properties":{"idx":291,"road":"","cls":"tertiary","shops":2,"st_km":3.38,"mesh":"52396449"},"geometry":{"type":"LineString","coordinates":[[139.61772,35.20723],[139.61896,35.20685],[139.61998,35.20659],[139.6214,35.20649],[139.62218,35.20661]]}},{"type":"Feature","properties":{"idx":115,"road":"","cls":"tertiary","shops":0,"st_km":2.7,"mesh":"52396439"},"geometry":{"type":"LineString","coordinates":[[139.61167,35.19727],[139.61215,35.197],[139.613,35.19611],[139.61353,35.19585],[139.61504,35.19531]]}},{"type":"Feature","properties":{"idx":61,"road":"","cls":"tertiary","shops":0,"st_km":1.21,"mesh":"52396409"},"geometry":{"type":"LineString","coordinates":[[139.62317,35.17184],[139.62313,35.17139],[139.62322,35.17063]]}},{"type":"Feature","properties":{"idx":33,"road":"","cls":"pedestrian","shops":1,"st_km":3.5,"mesh":"52396438"},"geometry":{"type":"LineString","coordinates":[[139.6011,35.1953],[139.60123,35.1957]]}}]}