{"type":"FeatureCollection","features":[{"type":"Feature","properties":{"idx":646,"road":"真鶴半島公園線","cls":"secondary","shops":2,"st_km":1.26,"mesh":"52395181"},"geometry":{"type":"LineString","coordinates":[[139.13278,35.15651],[139.13426,35.15587],[139.1347,35.15577],[139.13496,35.15583],[139.1359,35.15622],[139.13818,35.15625],[139.13836,35.15619],[139.13884,35.15587],[139.13954,35.15507],[139.13976,35.155],[139.14044,35.15498],[139.1406,35.15502],[139.14082,35.15531],[139.14096,35.15542],[139.14111,35.15547],[139.14124,35.15546],[139.14138,35.15533],[139.14165,35.15483],[139.14193,35.15414],[139.14189,35.15389],[139.14121,35.15278],[139.14115,35.15262],[139.14115,35.15247],[139.14121,35.1523],[139.14144,35.15207],[139.14198,35.15184],[139.14363,35.15151],[139.14499,35.15093],[139.14515,35.15081],[139.14533,35.15049],[139.14555,35.15038],[139.14701,35.15023],[139.14809,35.14999],[139.14888,35.14795],[139.14951,35.14706],[139.14993,35.14683],[139.15042,35.14669],[139.1516,35.14659],[139.15223,35.14641],[139.15272,35.14651],[139.15276,35.14648],[139.15273,35.14636],[139.15235,35.14625],[139.15237,35.14607],[139.15256,35.14602],[139.15282,35.14608],[139.15319,35.1464],[139.15325,35.14658],[139.15324,35.14687],[139.15338,35.14701],[139.1537,35.14706],[139.15381,35.14702],[139.15408,35.14679],[139.15425,35.14672],[139.1545,35.14676],[139.15478,35.14699],[139.15489,35.14702],[139.1552,35.14702],[139.15548,35.14695],[139.15555,35.14685],[139.15552,35.14675],[139.15518,35.14657]]}},{"type":"Feature","properties":{"idx":237,"road":NaN,"cls":"tertiary","shops":0,"st_km":0.4,"mesh":"52395180"},"geometry":{"type":"LineString","coordinates":[[139.12839,35.1551],[139.12828,35.15533]]}},{"type":"Feature","properties":{"idx":237,"road":NaN,"cls":"tertiary","shops":0,"st_km":0.4,"mesh":"52395180"},"geometry":{"type":"LineString","coordinates":[[139.12828,35.15533],[139.12824,35.15541]]}},{"type":"Feature","properties":{"idx":236,"road":NaN,"cls":"tertiary","shops":0,"st_km":0.41,"mesh":"52395180"},"geometry":{"type":"LineString","coordinates":[[139.12848,35.15497],[139.12839,35.1551]]}},{"type":"Feature","properties":{"idx":247,"road":NaN,"cls":"tertiary","shops":0,"st_km":0.9,"mesh":"52395190"},"geometry":{"type":"LineString","coordinates":[[139.1293,35.16106],[139.12893,35.16129],[139.1287,35.1615],[139.12855,35.16155],[139.12804,35.1615],[139.1278,35.16153],[139.12764,35.16148],[139.12736,35.16128],[139.12726,35.16127],[139.12683,35.16132],[139.12663,35.1614],[139.12652,35.16156],[139.12648,35.16179],[139.12624,35.16218],[139.12597,35.16246],[139.12544,35.16281],[139.1253,35.16298],[139.12532,35.16336],[139.1254,35.16346],[139.12576,35.16368],[139.12586,35.16381],[139.12581,35.16401],[139.12564,35.16426],[139.12525,35.16466],[139.12437,35.16509],[139.12373,35.16516],[139.12336,35.16543]]}},{"type":"Feature","properties":{"idx":224,"road":NaN,"cls":"tertiary","shops":0,"st_km":0.68,"mesh":"52395191"},"geometry":{"type":"LineString","coordinates":[[139.14093,35.15951],[139.14018,35.15975],[139.13991,35.15974],[139.13968,35.15966],[139.13922,35.1593],[139.13902,35.1592],[139.13805,35.15907],[139.13761,35.15891],[139.13732,35.1587],[139.1372,35.15867]]}},{"type":"Feature","properties":{"idx":189,"road":NaN,"cls":"tertiary","shops":0,"st_km":0.88,"mesh":"52395191"},"geometry":{"type":"LineString","coordinates":[[139.13981,35.16123],[139.14054,35.16042],[139.14096,35.16026],[139.1413,35.16027],[139.14146,35.1602],[139.14149,35.16002],[139.14143,35.15967],[139.14116,35.15951],[139.14093,35.15951]]}},{"type":"Feature","properties":{"idx":547,"road":NaN,"cls":"tertiary","shops":1,"st_km":0.45,"mesh":"52395190"},"geometry":{"type":"LineString","coordinates":[[139.13049,35.16069],[139.13056,35.16065]]}},{"type":"Feature","properties":{"idx":397,"road":NaN,"cls":"tertiary","shops":1,"st_km":0.29,"mesh":"52395180"},"geometry":{"type":"LineString","coordinates":[[139.13344,35.15686],[139.13377,35.15724],[139.13443,35.15745],[139.1348,35.15765],[139.13518,35.1583],[139.13525,35.15835],[139.13621,35.15863],[139.13688,35.15862],[139.1372,35.15867]]}},{"type":"Feature","properties":{"idx":378,"road":NaN,"cls":"tertiary","shops":0,"st_km":0.41,"mesh":"52395190"},"geometry":{"type":"LineString","coordinates":[[139.13157,35.16023],[139.13056,35.16065]]}},{"type":"Feature","properties":{"idx":351,"road":NaN,"cls":"tertiary","shops":0,"st_km":0.49,"mesh":"52395190"},"geometry":{"type":"LineString","coordinates":[[139.13049,35.16069],[139.13017,35.1608],[139.12954,35.16091],[139.1293,35.16106]]}},{"type":"Feature","properties":{"idx":316,"road":"小田原湯河原線","cls":"secondary","shops":0,"st_km":0.74,"mesh":"52395190"},"geometry":{"type":"LineString","coordinates":[[139.1313,35.17328],[139.13118,35.17311],[139.13124,35.17287],[139.13167,35.17253],[139.1323,35.17194],[139.13305,35.1714],[139.13334,35.17107],[139.13379,35.17021],[139.13407,35.16944],[139.13481,35.1688],[139.13511,35.16847],[139.13586,35.16796],[139.136,35.16767],[139.1364,35.16719],[139.13641,35.16697],[139.1361,35.16667],[139.136,35.16625],[139.1359,35.1661],[139.13565,35.16599],[139.13495,35.16597],[139.13478,35.16587],[139.13471,35.16571],[139.13475,35.16553],[139.13518,35.16501],[139.1353,35.16433],[139.13565,35.16388],[139.13622,35.16349],[139.13623,35.16212],[139.13614,35.16193],[139.13593,35.16187],[139.13569,35.16187],[139.13476,35.16232],[139.1345,35.16222],[139.1342,35.16197],[139.13392,35.16162],[139.13376,35.16153],[139.13353,35.16154],[139.13326,35.16176],[139.13309,35.16181],[139.13293,35.16178],[139.13257,35.16151],[139.13234,35.16128],[139.13137,35.15996],[139.13132,35.15981],[139.13138,35.15943],[139.13149,35.15919],[139.13196,35.15884],[139.13221,35.15848],[139.13268,35.15827],[139.1328,35.15816],[139.13283,35.15793],[139.13271,35.1577],[139.13206,35.15706],[139.13064,35.15611],[139.12998,35.15583],[139.12824,35.15541]]}},{"type":"Feature","properties":{"idx":21,"road":"真鶴半島公園線","cls":"secondary","shops":0,"st_km":2.16,"mesh":"52395172"},"geometry":{"type":"LineString","coordinates":[[139.15032,35.14492],[139.15055,35.14475],[139.15062,35.1446],[139.1506,35.14451],[139.15032,35.14492]]}},{"type":"Feature","properties":{"idx":361,"road":"真鶴半島公園線","cls":"secondary","shops":0,"st_km":1.1,"mesh":"52395181"},"geometry":{"type":"LineString","coordinates":[[139.15032,35.14492],[139.14994,35.14574],[139.14974,35.14592],[139.14925,35.14608],[139.14835,35.14614],[139.14791,35.14634],[139.14781,35.14656],[139.14778,35.14736],[139.14755,35.14799],[139.14736,35.14818],[139.14704,35.14831],[139.14605,35.14836],[139.14592,35.14832],[139.14568,35.14811],[139.14504,35.148],[139.14482,35.14808],[139.14425,35.14845],[139.14399,35.14857],[139.1427,35.14867],[139.14176,35.14945],[139.14144,35.14986],[139.14127,35.14998],[139.14064,35.15018],[139.14028,35.15054],[139.14001,35.15062],[139.13937,35.15057],[139.13902,35.15072],[139.13893,35.15081],[139.13866,35.15145],[139.13806,35.15163],[139.13781,35.15191],[139.13768,35.15223],[139.13773,35.15283],[139.13778,35.15295],[139.13829,35.15351],[139.13848,35.15399],[139.13853,35.15519],[139.13851,35.1553],[139.13774,35.15598],[139.13743,35.15602],[139.13666,35.15572],[139.13624,35.15569],[139.13563,35.15554],[139.1347,35.15577]]}},{"type":"Feature","properties":{"idx":31,"road":"真鶴半島公園線","cls":"secondary","shops":1,"st_km":2.23,"mesh":"52395172"},"geometry":{"type":"LineString","coordinates":[[139.15306,35.1454],[139.1526,35.14506],[139.15203,35.14486],[139.15129,35.14435],[139.15096,35.14432],[139.1506,35.14451]]}},{"type":"Feature","properties":{"idx":20,"road":"真鶴半島公園線","cls":"secondary","shops":0,"st_km":2.28,"mesh":"52395172"},"geometry":{"type":"LineString","coordinates":[[139.15396,35.14579],[139.15358,35.14569],[139.15306,35.1454],[139.15312,35.14549],[139.15361,35.14579],[139.15396,35.14579]]}},{"type":"Feature","properties":{"idx":20,"road":"真鶴半島公園線","cls":"secondary","shops":0,"st_km":2.38,"mesh":"52395172"},"geometry":{"type":"LineString","coordinates":[[139.15504,35.14633],[139.15507,35.1465],[139.15518,35.14657],[139.15504,35.14633]]}},{"type":"Feature","properties":{"idx":20,"road":"真鶴半島公園線","cls":"secondary","shops":0,"st_km":2.36,"mesh":"52395172"},"geometry":{"type":"LineString","coordinates":[[139.15504,35.14633],[139.1549,35.14618],[139.15458,35.14596],[139.15429,35.14584],[139.15396,35.14579]]}},{"type":"Feature","properties":{"idx":239,"road":NaN,"cls":"tertiary","shops":0,"st_km":0.4,"mesh":"52395180"},"geometry":{"type":"LineString","coordinates":[[139.1296,35.15537],[139.12941,35.1548],[139.12943,35.15442],[139.1302,35.15361],[139.13036,35.15329],[139.13074,35.15308],[139.13122,35.15294],[139.13124,35.15285],[139.13111,35.15278]]}},{"type":"Feature","properties":{"idx":657,"road":NaN,"cls":"tertiary","shops":2,"st_km":0.08,"mesh":"52395180"},"geometry":{"type":"LineString","coordinates":[[139.13278,35.15651],[139.13312,35.15665],[139.13344,35.15686]]}},{"type":"Feature","properties":{"idx":230,"road":NaN,"cls":"tertiary","shops":0,"st_km":0.43,"mesh":"52395180"},"geometry":{"type":"LineString","coordinates":[[139.12955,35.15428],[139.12945,35.15422],[139.12915,35.15465],[139.12905,35.15465],[139.12899,35.15459],[139.12899,35.15449],[139.1293,35.15407],[139.12947,35.15373],[139.12985,35.15349],[139.13008,35.15308],[139.13027,35.15292],[139.13044,35.15269],[139.13081,35.15254],[139.13098,35.15256]]}},{"type":"Feature","properties":{"idx":197,"road":"小田原湯河原線","cls":"secondary","shops":0,"st_km":0.74,"mesh":"52395180"},"geometry":{"type":"LineString","coordinates":[[139.12824,35.15541],[139.12736,35.15524],[139.12718,35.15511],[139.12707,35.15476],[139.12598,35.1529],[139.12595,35.15276],[139.12598,35.15266],[139.12633,35.15238],[139.12648,35.15211],[139.1268,35.15174],[139.12683,35.15162],[139.1268,35.15154],[139.12667,35.15144],[139.1265,35.15144],[139.12583,35.15176],[139.12567,35.15179],[139.12542,35.15178],[139.12529,35.15169],[139.12516,35.15125],[139.12524,35.15108],[139.12527,35.15075],[139.12547,35.15019]]}}]}