{"type":"FeatureCollection","features":[{"type":"Feature","properties":{"idx":459,"road":"","cls":"pedestrian","shops":13,"st_km":0.05,"mesh":"52397003"},"geometry":{"type":"LineString","coordinates":[[139.04809,35.25066],[139.04812,35.25049],[139.04822,35.25045],[139.04831,35.25007],[139.04837,35.25002]]}},{"type":"Feature","properties":{"idx":10,"road":"矢倉沢山北線","cls":"secondary","shops":0,"st_km":4.18,"mesh":"52397094"},"geometry":{"type":"LineString","coordinates":[[139.0566,35.32841],[139.05568,35.329],[139.05543,35.32925],[139.0553,35.32945]]}},{"type":"Feature","properties":{"idx":249,"road":"仙石原強羅停車場線","cls":"secondary","shops":8,"st_km":0.06,"mesh":"52397003"},"geometry":{"type":"LineString","coordinates":[[139.04875,35.25009],[139.04846,35.25107],[139.0484,35.25115],[139.0483,35.2512],[139.04795,35.25114]]}},{"type":"Feature","properties":{"idx":161,"road":"小田原山北線","cls":"primary","shops":0,"st_km":0.19,"mesh":"52397088"},"geometry":{"type":"LineString","coordinates":[[139.1044,35.3215],[139.10336,35.32001]]}},{"type":"Feature","properties":{"idx":219,"road":"関本小涌谷線","cls":"secondary","shops":1,"st_km":0.19,"mesh":"52397088"},"geometry":{"type":"LineString","coordinates":[[139.10254,35.31884],[139.10143,35.31739]]}},{"type":"Feature","properties":{"idx":253,"road":"小田原山北線","cls":"primary","shops":0,"st_km":0.68,"mesh":"52397098"},"geometry":{"type":"LineString","coordinates":[[139.10245,35.32212],[139.10289,35.32283],[139.10314,35.32429],[139.10327,35.32452],[139.10366,35.32484],[139.10396,35.32497],[139.10629,35.32518],[139.10666,35.32529],[139.10688,35.32548],[139.10722,35.32604],[139.10729,35.32629],[139.10691,35.3271],[139.10688,35.32768]]}},{"type":"Feature","properties":{"idx":254,"road":"","cls":"tertiary","shops":0,"st_km":1.3,"mesh":"52397099"},"geometry":{"type":"LineString","coordinates":[[139.10381,35.34667],[139.10553,35.34418],[139.10568,35.34382],[139.10576,35.34318],[139.10588,35.3427],[139.10619,35.34185],[139.10654,35.3413],[139.10762,35.34019],[139.10922,35.33843],[139.11036,35.33754],[139.11094,35.3369],[139.11136,35.33629],[139.11173,35.33528],[139.11233,35.33415],[139.11344,35.33278],[139.11392,35.33211],[139.11559,35.3304],[139.11638,35.32933],[139.12139,35.31954],[139.12419,35.31592],[139.12608,35.31307],[139.12659,35.31217],[139.1288,35.30756]]}},{"type":"Feature","properties":{"idx":94,"road":"","cls":"tertiary","shops":0,"st_km":3.6,"mesh":"52397020"},"geometry":{"type":"LineString","coordinates":[[139.00581,35.2675],[139.00622,35.2678],[139.00666,35.26847],[139.0068,35.2686],[139.00765,35.26901]]}},{"type":"Feature","properties":{"idx":290,"road":"","cls":"tertiary","shops":0,"st_km":0.57,"mesh":"52397079"},"geometry":{"type":"LineString","coordinates":[[139.11092,35.31327],[139.11427,35.3133]]}},{"type":"Feature","properties":{"idx":172,"road":"","cls":"tertiary","shops":0,"st_km":0.94,"mesh":"52397069"},"geometry":{"type":"LineString","coordinates":[[139.1235,35.30662],[139.12283,35.3065],[139.12177,35.30645],[139.12096,35.30651],[139.12007,35.3067],[139.11902,35.30711],[139.11638,35.30855],[139.11586,35.30875],[139.11525,35.30887]]}},{"type":"Feature","properties":{"idx":123,"road":"","cls":"tertiary","shops":0,"st_km":0.17,"mesh":"52397088"},"geometry":{"type":"LineString","coordinates":[[139.1083,35.31706],[139.10778,35.31648]]}},{"type":"Feature","properties":{"idx":77,"road":"","cls":"tertiary","shops":0,"st_km":1.62,"mesh":"52397019"},"geometry":{"type":"LineString","coordinates":[[139.12092,35.25947],[139.1213,35.25986],[139.1216,35.25999],[139.12215,35.25998],[139.12313,35.26011],[139.12356,35.2601],[139.1246,35.26035],[139.12507,35.26032],[139.12572,35.26016],[139.12601,35.25995],[139.12636,35.25979],[139.12677,35.25976],[139.12758,35.2598]]}},{"type":"Feature","properties":{"idx":21,"road":"","cls":"tertiary","shops":0,"st_km":2.71,"mesh":"52397029"},"geometry":{"type":"LineString","coordinates":[[139.12074,35.27438],[139.11977,35.27415],[139.11959,35.27404],[139.11907,35.27355],[139.11897,35.27351],[139.11799,35.2734],[139.11643,35.2731],[139.11625,35.27299],[139.11586,35.27261],[139.11567,35.27255],[139.11519,35.27274],[139.11498,35.27276],[139.11344,35.27272],[139.11272,35.27295],[139.11216,35.27286],[139.11148,35.27284],[139.11111,35.273],[139.11098,35.27324]]}},{"type":"Feature","properties":{"idx":118,"road":"湯河原箱根仙石原線; 大川橋","cls":"primary","shops":0,"st_km":3.48,"mesh":"52397020"},"geometry":{"type":"LineString","coordinates":[[139.01091,35.27008],[139.01071,35.27027]]}},{"type":"Feature","properties":{"idx":82,"road":"","cls":"tertiary","shops":1,"st_km":2.92,"mesh":"52397010"},"geometry":{"type":"LineString","coordinates":[[139.01059,35.26396],[139.01072,35.2627],[139.01159,35.26255],[139.01177,35.26241],[139.01182,35.26229]]}},{"type":"Feature","properties":{"idx":55,"road":"","cls":"tertiary","shops":0,"st_km":2.81,"mesh":"52397010"},"geometry":{"type":"LineString","coordinates":[[139.01182,35.26229],[139.01174,35.26219],[139.01159,35.26216],[139.01087,35.26223],[139.01071,35.26214],[139.0107,35.26207],[139.01076,35.26197],[139.01175,35.26172],[139.01196,35.26174],[139.01284,35.26202],[139.01292,35.26199],[139.01301,35.26185]]}},{"type":"Feature","properties":{"idx":51,"road":"","cls":"tertiary","shops":0,"st_km":3.42,"mesh":"52397010"},"geometry":{"type":"LineString","coordinates":[[139.00286,35.26016],[139.00251,35.26175]]}},{"type":"Feature","properties":{"idx":259,"road":"","cls":"tertiary","shops":2,"st_km":0.41,"mesh":"52397004"},"geometry":{"type":"LineString","coordinates":[[139.04996,35.25384],[139.05018,35.25406]]}},{"type":"Feature","properties":{"idx":49,"road":"","cls":"tertiary","shops":1,"st_km":0.36,"mesh":"52397003"},"geometry":{"type":"LineString","coordinates":[[139.04996,35.25384],[139.04959,35.2534]]}},{"type":"Feature","properties":{"idx":241,"road":"","cls":"tertiary","shops":0,"st_km":1.0,"mesh":"52397013"},"geometry":{"type":"LineString","coordinates":[[139.04973,35.25969],[139.04963,35.25954]]}},{"type":"Feature","properties":{"idx":141,"road":"","cls":"tertiary","shops":1,"st_km":3.56,"mesh":"52397020"},"geometry":{"type":"LineString","coordinates":[[139.00838,35.26934],[139.0086,35.26944]]}},{"type":"Feature","properties":{"idx":55,"road":"はこね金太郎ライン","cls":"secondary","shops":0,"st_km":4.89,"mesh":"52397030"},"geometry":{"type":"LineString","coordinates":[[139.00147,35.2804],[139.00134,35.28033],[139.00126,35.28021],[139.00129,35.27985],[139.00124,35.27975],[139.00112,35.27969],[139.00084,35.27967],[139.00073,35.27961],[139.00064,35.2793],[139.00055,35.27921],[139.00042,35.27917],[139.00028,35.27923],[139.00023,35.27931],[139.00024,35.27941],[139.00045,35.27965],[139.00064,35.28007],[139.00053,35.28048],[139.00065,35.28078],[139.00066,35.28139],[139.00083,35.28179]]}},{"type":"Feature","properties":{"idx":36,"road":"はこね金太郎ライン","cls":"secondary","shops":0,"st_km":4.71,"mesh":"52397040"},"geometry":{"type":"LineString","coordinates":[[139.0091,35.28349],[139.01273,35.28392]]}},{"type":"Feature","properties":{"idx":94,"road":"","cls":"tertiary","shops":0,"st_km":3.48,"mesh":"52397020"},"geometry":{"type":"LineString","coordinates":[[139.00765,35.26901],[139.00826,35.26817],[139.00899,35.26736]]}},{"type":"Feature","properties":{"idx":54,"road":"","cls":"tertiary","shops":0,"st_km":3.0,"mesh":"52397010"},"geometry":{"type":"LineString","coordinates":[[139.01094,35.26502],[139.01171,35.26412]]}},{"type":"Feature","properties":{"idx":52,"road":"","cls":"tertiary","shops":0,"st_km":3.21,"mesh":"52397010"},"geometry":{"type":"LineString","coordinates":[[139.00899,35.26736],[139.01094,35.26502]]}},{"type":"Feature","properties":{"idx":51,"road":"","cls":"tertiary","shops":0,"st_km":3.55,"mesh":"52397010"},"geometry":{"type":"LineString","coordinates":[[139.00233,35.26283],[139.00323,35.26404],[139.0034,35.26417]]}},{"type":"Feature","properties":{"idx":23,"road":"","cls":"tertiary","shops":0,"st_km":0.77,"mesh":"52397003"},"geometry":{"type":"LineString","coordinates":[[139.04963,35.25954],[139.04937,35.25925],[139.04952,35.25894],[139.04951,35.2588],[139.04942,35.25872],[139.04906,35.25862],[139.04898,35.25848],[139.049,35.25815],[139.0477,35.25776],[139.04765,35.25768],[139.04779,35.2576],[139.04863,35.25784],[139.04872,35.25778],[139.04871,35.25771],[139.04782,35.25732],[139.04769,35.25733],[139.04743,35.25745],[139.04732,35.25742],[139.04734,35.25735],[139.0476,35.25709],[139.04789,35.25662],[139.04779,35.25648]]}},{"type":"Feature","properties":{"idx":51,"road":"","cls":"tertiary","shops":0,"st_km":3.51,"mesh":"52397010"},"geometry":{"type":"LineString","coordinates":[[139.0025,35.26182],[139.00232,35.26276]]}},{"type":"Feature","properties":{"idx":50,"road":"","cls":"tertiary","shops":0,"st_km":3.69,"mesh":"52397010"},"geometry":{"type":"LineString","coordinates":[[138.99995,35.26427],[139.00093,35.26424],[139.00119,35.26419],[139.00159,35.26403],[139.00278,35.2634]]}},{"type":"Feature","properties":{"idx":104,"road":"関本小涌谷線","cls":"secondary","shops":0,"st_km":0.78,"mesh":"52397004"},"geometry":{"type":"LineString","coordinates":[[139.05214,35.25801],[139.05213,35.25751],[139.05135,35.25746],[139.05112,35.25733],[139.05108,35.25721],[139.0511,35.25708],[139.05132,35.25688],[139.05135,35.25673],[139.05101,35.2564],[139.05096,35.25625],[139.05096,35.25599]]}},{"type":"Feature","properties":{"idx":120,"road":"関本小涌谷線","cls":"secondary","shops":0,"st_km":0.62,"mesh":"52397004"},"geometry":{"type":"LineString","coordinates":[[139.05096,35.25599],[139.05112,35.25598],[139.05146,35.25583],[139.0509,35.25533],[139.05079,35.255]]}},{"type":"Feature","properties":{"idx":198,"road":"関本小涌谷線","cls":"secondary","shops":1,"st_km":0.51,"mesh":"52397004"},"geometry":{"type":"LineString","coordinates":[[139.05135,35.25329],[139.05162,35.25418],[139.05113,35.25474],[139.05079,35.255]]}},{"type":"Feature","properties":{"idx":235,"road":"湯河原箱根仙石原線","cls":"primary","shops":2,"st_km":3.56,"mesh":"52397020"},"geometry":{"type":"LineString","coordinates":[[139.01071,35.27027],[139.01027,35.27076],[139.01021,35.27094],[139.01018,35.27141]]}},{"type":"Feature","properties":{"idx":51,"road":"","cls":"tertiary","shops":0,"st_km":3.48,"mesh":"52397010"},"geometry":{"type":"LineString","coordinates":[[139.00251,35.26175],[139.0025,35.26182]]}},{"type":"Feature","properties":{"idx":102,"road":"","cls":"tertiary","shops":2,"st_km":3.55,"mesh":"52397010"},"geometry":{"type":"LineString","coordinates":[[139.00232,35.26276],[139.00233,35.26283]]}},{"type":"Feature","properties":{"idx":51,"road":"","cls":"tertiary","shops":0,"st_km":3.54,"mesh":"52397010"},"geometry":{"type":"LineString","coordinates":[[139.00349,35.26426],[139.0034,35.26417]]}},{"type":"Feature","properties":{"idx":96,"road":"湯河原箱根仙石原線","cls":"primary","shops":1,"st_km":3.42,"mesh":"52397010"},"geometry":{"type":"LineString","coordinates":[[139.00179,35.25957],[139.00186,35.25962]]}},{"type":"Feature","properties":{"idx":66,"road":"湯河原箱根仙石原線","cls":"primary","shops":0,"st_km":3.19,"mesh":"52397010"},"geometry":{"type":"LineString","coordinates":[[139.00186,35.25962],[139.00422,35.26093],[139.00653,35.2628],[139.00701,35.26309],[139.00743,35.26319],[139.00857,35.26331],[139.00942,35.26371],[139.01038,35.26393],[139.0121,35.26417],[139.01336,35.26414],[139.01372,35.26417],[139.0139,35.26426]]}},{"type":"Feature","properties":{"idx":370,"road":"小田原山北線","cls":"primary","shops":0,"st_km":0.32,"mesh":"52397069"},"geometry":{"type":"LineString","coordinates":[[139.12457,35.30405],[139.12489,35.30333]]}},{"type":"Feature","properties":{"idx":351,"road":"小田原山北線","cls":"primary","shops":0,"st_km":0.24,"mesh":"52397078"},"geometry":{"type":"LineString","coordinates":[[139.11143,35.31627],[139.1116,35.31624]]}},{"type":"Feature","properties":{"idx":391,"road":"小田原山北線","cls":"primary","shops":0,"st_km":0.26,"mesh":"52397069"},"geometry":{"type":"LineString","coordinates":[[139.12493,35.30324],[139.12498,35.30312]]}},{"type":"Feature","properties":{"idx":8,"road":"御殿場大井線","cls":"primary","shops":0,"st_km":5.18,"mesh":"52397083"},"geometry":{"type":"LineString","coordinates":[[139.0375,35.31989],[139.03828,35.31991]]}},{"type":"Feature","properties":{"idx":98,"road":"御殿場大井線","cls":"primary","shops":0,"st_km":0.65,"mesh":"52397088"},"geometry":{"type":"LineString","coordinates":[[139.11089,35.32405],[139.10787,35.32308]]}},{"type":"Feature","properties":{"idx":6,"road":"御殿場大井線","cls":"primary","shops":0,"st_km":5.18,"mesh":"52397082"},"geometry":{"type":"LineString","coordinates":[[139.03583,35.31923],[139.03705,35.31976],[139.0375,35.31989]]}},{"type":"Feature","properties":{"idx":10,"road":"矢倉沢山北線","cls":"secondary","shops":0,"st_km":4.16,"mesh":"52397094"},"geometry":{"type":"LineString","coordinates":[[139.05497,35.32952],[139.05516,35.32937]]}},{"type":"Feature","properties":{"idx":10,"road":"矢倉沢山北線","cls":"secondary","shops":0,"st_km":4.16,"mesh":"52397094"},"geometry":{"type":"LineString","coordinates":[[139.0546,35.32982],[139.05497,35.32952]]}},{"type":"Feature","properties":{"idx":10,"road":"矢倉沢山北線","cls":"secondary","shops":0,"st_km":4.14,"mesh":"52397094"},"geometry":{"type":"LineString","coordinates":[[139.0553,35.32945],[139.05518,35.32968]]}},{"type":"Feature","properties":{"idx":10,"road":"矢倉沢山北線","cls":"secondary","shops":0,"st_km":4.17,"mesh":"52397094"},"geometry":{"type":"LineString","coordinates":[[139.05516,35.32937],[139.05533,35.32923],[139.05543,35.32925]]}},{"type":"Feature","properties":{"idx":10,"road":"矢倉沢山北線","cls":"secondary","shops":0,"st_km":4.11,"mesh":"52397094"},"geometry":{"type":"LineString","coordinates":[[139.0553,35.33021],[139.05524,35.33026],[139.05509,35.33022],[139.0546,35.32982]]}},{"type":"Feature","properties":{"idx":3,"road":"","cls":"tertiary","shops":0,"st_km":1.72,"mesh":"52397058"},"geometry":{"type":"LineString","coordinates":[[139.10896,35.29525],[139.10899,35.29601],[139.10895,35.29612],[139.10882,35.29623],[139.10828,35.29637],[139.10794,35.29651]]}},{"type":"Feature","properties":{"idx":2,"road":"","cls":"tertiary","shops":0,"st_km":2.37,"mesh":"52397058"},"geometry":{"type":"LineString","coordinates":[[139.1026,35.29243],[139.10254,35.29252],[139.10274,35.29329],[139.10265,35.29352],[139.1024,35.29381]]}},{"type":"Feature","properties":{"idx":2,"road":"","cls":"tertiary","shops":0,"st_km":2.2,"mesh":"52397058"},"geometry":{"type":"LineString","coordinates":[[139.10455,35.29422],[139.10438,35.29425],[139.10422,35.29414],[139.1042,35.29374],[139.10434,35.29363]]}},{"type":"Feature","properties":{"idx":5,"road":"","cls":"tertiary","shops":0,"st_km":3.24,"mesh":"52397095"},"geometry":{"type":"LineString","coordinates":[[139.07033,35.33368],[139.0705,35.33321],[139.07093,35.33239],[139.07094,35.33195],[139.07117,35.33143]]}},{"type":"Feature","properties":{"idx":142,"road":"","cls":"tertiary","shops":0,"st_km":1.12,"mesh":"52397098"},"geometry":{"type":"LineString","coordinates":[[139.10654,35.32783],[139.1051,35.3288],[139.1045,35.32948],[139.10429,35.32978],[139.104,35.33089]]}},{"type":"Feature","properties":{"idx":32,"road":"","cls":"tertiary","shops":0,"st_km":1.3,"mesh":"52397059"},"geometry":{"type":"LineString","coordinates":[[139.11382,35.29446],[139.11505,35.29489],[139.11517,35.29497],[139.11531,35.29523],[139.1153,35.29556]]}},{"type":"Feature","properties":{"idx":204,"road":"","cls":"tertiary","shops":0,"st_km":2.22,"mesh":"52397048"},"geometry":{"type":"LineString","coordinates":[[139.10553,35.29208],[139.10554,35.29186],[139.10543,35.29166],[139.10527,35.29157],[139.10484,35.29151]]}},{"type":"Feature","properties":{"idx":37,"road":"","cls":"tertiary","shops":0,"st_km":1.05,"mesh":"52397077"},"geometry":{"type":"LineString","coordinates":[[139.09757,35.31134],[139.09651,35.3115],[139.09633,35.31162],[139.09618,35.31179]]}},{"type":"Feature","properties":{"idx":111,"road":"","cls":"tertiary","shops":0,"st_km":1.1,"mesh":"52397087"},"geometry":{"type":"LineString","coordinates":[[139.09131,35.31854],[139.09129,35.31797],[139.09142,35.31777],[139.09202,35.31733],[139.09213,35.31717],[139.09229,35.31672],[139.09244,35.31652]]}},{"type":"Feature","properties":{"idx":2,"road":"","cls":"tertiary","shops":0,"st_km":2.51,"mesh":"52397058"},"geometry":{"type":"LineString","coordinates":[[139.10187,35.29271],[139.10137,35.29269],[139.10118,35.29273],[139.10105,35.29285],[139.10104,35.29317],[139.10095,35.29329],[139.10068,35.29337],[139.10022,35.29331],[139.09999,35.29342],[139.09989,35.29351]]}},{"type":"Feature","properties":{"idx":2,"road":"","cls":"tertiary","shops":0,"st_km":2.34,"mesh":"52397058"},"geometry":{"type":"LineString","coordinates":[[139.1041,35.2923],[139.10386,35.29244],[139.10355,35.29251],[139.10332,35.29251],[139.10271,35.29239],[139.1026,35.29243]]}},{"type":"Feature","properties":{"idx":3,"road":"","cls":"tertiary","shops":0,"st_km":1.88,"mesh":"52397058"},"geometry":{"type":"LineString","coordinates":[[139.10794,35.29651],[139.10757,35.2967],[139.1073,35.29677],[139.10692,35.29677],[139.10664,35.29668],[139.10654,35.29653],[139.10656,35.29641],[139.10664,35.29632],[139.10693,35.29623],[139.10712,35.29611]]}},{"type":"Feature","properties":{"idx":33,"road":"","cls":"tertiary","shops":0,"st_km":1.21,"mesh":"52397077"},"geometry":{"type":"LineString","coordinates":[[139.09313,35.31328],[139.09271,35.3134],[139.09198,35.31346],[139.09168,35.31357],[139.09148,35.31375]]}},{"type":"Feature","properties":{"idx":73,"road":"","cls":"tertiary","shops":0,"st_km":1.38,"mesh":"52397068"},"geometry":{"type":"LineString","coordinates":[[139.11364,35.30038],[139.11343,35.30049],[139.113,35.30056],[139.11257,35.30061],[139.11156,35.3006],[139.11055,35.3008],[139.10969,35.30081],[139.10949,35.30085]]}},{"type":"Feature","properties":{"idx":139,"road":"","cls":"tertiary","shops":0,"st_km":1.15,"mesh":"52397098"},"geometry":{"type":"LineString","coordinates":[[139.10544,35.3283],[139.10489,35.32864],[139.10448,35.32884],[139.10438,35.32892],[139.10412,35.32937],[139.10341,35.32987],[139.10236,35.32987]]}},{"type":"Feature","properties":{"idx":234,"road":"","cls":"tertiary","shops":0,"st_km":0.43,"mesh":"52397078"},"geometry":{"type":"LineString","coordinates":[[139.10756,35.31607],[139.10703,35.31549],[139.10585,35.31399],[139.10542,35.31356],[139.10524,35.31343]]}},{"type":"Feature","properties":{"idx":3,"road":"","cls":"tertiary","shops":0,"st_km":1.88,"mesh":"52397058"},"geometry":{"type":"LineString","coordinates":[[139.10712,35.29611],[139.10727,35.29592],[139.10731,35.29579],[139.10728,35.29559],[139.10722,35.29549],[139.10687,35.29517]]}},{"type":"Feature","properties":{"idx":33,"road":"","cls":"tertiary","shops":0,"st_km":1.24,"mesh":"52397077"},"geometry":{"type":"LineString","coordinates":[[139.09244,35.31652],[139.09081,35.31574],[139.09032,35.31532],[139.08985,35.31499],[139.0891,35.31466]]}},{"type":"Feature","properties":{"idx":78,"road":"","cls":"tertiary","shops":0,"st_km":1.31,"mesh":"52397068"},"geometry":{"type":"LineString","coordinates":[[139.10219,35.30562],[139.1006,35.30734],[139.10017,35.30765],[139.09929,35.30794],[139.09882,35.30817],[139.09861,35.30835],[139.09836,35.30874],[139.0983,35.30941]]}},{"type":"Feature","properties":{"idx":19,"road":"","cls":"tertiary","shops":0,"st_km":2.3,"mesh":"52397076"},"geometry":{"type":"LineString","coordinates":[[139.07954,35.31044],[139.07976,35.31075],[139.08024,35.31112],[139.08028,35.31134],[139.08066,35.31169],[139.08081,35.31212]]}},{"type":"Feature","properties":{"idx":8,"road":"","cls":"tertiary","shops":0,"st_km":1.68,"mesh":"52397049"},"geometry":{"type":"LineString","coordinates":[[139.1189,35.28411],[139.11834,35.28409],[139.11814,35.28413],[139.11785,35.28431],[139.11776,35.28444],[139.11771,35.28465],[139.11786,35.28538],[139.11779,35.28566],[139.11769,35.2858],[139.11688,35.28638]]}},{"type":"Feature","properties":{"idx":749,"road":"","cls":"tertiary","shops":1,"st_km":0.05,"mesh":"52397079"},"geometry":{"type":"LineString","coordinates":[[139.11543,35.3138],[139.11668,35.31448],[139.12182,35.3175]]}},{"type":"Feature","properties":{"idx":25,"road":"","cls":"tertiary","shops":0,"st_km":1.59,"mesh":"52397076"},"geometry":{"type":"LineString","coordinates":[[139.0891,35.31466],[139.08806,35.31437],[139.08652,35.31418],[139.08615,35.31427],[139.08578,35.31444],[139.08568,35.31443],[139.08542,35.31419]]}},{"type":"Feature","properties":{"idx":29,"road":"","cls":"tertiary","shops":0,"st_km":1.46,"mesh":"52397059"},"geometry":{"type":"LineString","coordinates":[[139.1153,35.29556],[139.11433,35.29531],[139.1137,35.29524],[139.11311,35.29511],[139.1126,35.29513],[139.11207,35.29508],[139.11138,35.29485],[139.11125,35.2948],[139.11083,35.29429],[139.11026,35.29387]]}},{"type":"Feature","properties":{"idx":2,"road":"","cls":"tertiary","shops":0,"st_km":2.16,"mesh":"52397058"},"geometry":{"type":"LineString","coordinates":[[139.10434,35.29363],[139.1048,35.2936],[139.10526,35.29317],[139.10529,35.29301],[139.10527,35.2929],[139.10508,35.29269],[139.10505,35.29251],[139.10546,35.29219],[139.10553,35.29208]]}},{"type":"Feature","properties":{"idx":45,"road":"","cls":"tertiary","shops":0,"st_km":0.82,"mesh":"52397059"},"geometry":{"type":"LineString","coordinates":[[139.11622,35.29583],[139.11697,35.29608],[139.11723,35.29629],[139.11782,35.29659],[139.11949,35.29758],[139.12051,35.29796],[139.12216,35.29875]]}},{"type":"Feature","properties":{"idx":7,"road":"はこね金太郎ライン","cls":"secondary","shops":0,"st_km":4.68,"mesh":"52397041"},"geometry":{"type":"LineString","coordinates":[[139.01605,35.28566],[139.01602,35.28551],[139.01592,35.28543],[139.01528,35.28519],[139.01472,35.28509],[139.01455,35.28502],[139.01415,35.28467],[139.01372,35.28454],[139.01351,35.28418],[139.01329,35.28399],[139.01273,35.28392]]}},{"type":"Feature","properties":{"idx":21,"road":"","cls":"tertiary","shops":0,"st_km":1.98,"mesh":"52397076"},"geometry":{"type":"LineString","coordinates":[[139.08081,35.31212],[139.08109,35.3123],[139.08244,35.3128],[139.08377,35.3131],[139.08423,35.31325],[139.08449,35.31347],[139.08504,35.31377],[139.08542,35.31419]]}},{"type":"Feature","properties":{"idx":285,"road":"","cls":"tertiary","shops":0,"st_km":0.23,"mesh":"52397078"},"geometry":{"type":"LineString","coordinates":[[139.10778,35.31648],[139.10756,35.31607]]}},{"type":"Feature","properties":{"idx":109,"road":"","cls":"tertiary","shops":0,"st_km":1.13,"mesh":"52397087"},"geometry":{"type":"LineString","coordinates":[[139.09136,35.31895],[139.09131,35.31854]]}},{"type":"Feature","properties":{"idx":740,"road":"","cls":"tertiary","shops":0,"st_km":0.38,"mesh":"52397089"},"geometry":{"type":"LineString","coordinates":[[139.12182,35.3175],[139.12197,35.31757]]}},{"type":"Feature","properties":{"idx":155,"road":"","cls":"tertiary","shops":0,"st_km":1.0,"mesh":"52397098"},"geometry":{"type":"LineString","coordinates":[[139.10654,35.32783],[139.10688,35.32768]]}},{"type":"Feature","properties":{"idx":123,"road":"","cls":"tertiary","shops":0,"st_km":1.33,"mesh":"52397098"},"geometry":{"type":"LineString","coordinates":[[139.104,35.33089],[139.10395,35.33117]]}},{"type":"Feature","properties":{"idx":90,"road":"","cls":"tertiary","shops":0,"st_km":1.41,"mesh":"52397087"},"geometry":{"type":"LineString","coordinates":[[139.08825,35.32186],[139.08882,35.32116]]}},{"type":"Feature","properties":{"idx":627,"road":"","cls":"tertiary","shops":0,"st_km":0.56,"mesh":"52397089"},"geometry":{"type":"LineString","coordinates":[[139.11533,35.32044],[139.11533,35.32029]]}},{"type":"Feature","properties":{"idx":239,"road":"","cls":"tertiary","shops":0,"st_km":0.84,"mesh":"52397079"},"geometry":{"type":"LineString","coordinates":[[139.11525,35.30887],[139.11457,35.30891]]}},{"type":"Feature","properties":{"idx":104,"road":"","cls":"tertiary","shops":0,"st_km":1.19,"mesh":"52397087"},"geometry":{"type":"LineString","coordinates":[[139.09045,35.31986],[139.09093,35.31975]]}},{"type":"Feature","properties":{"idx":65,"road":"","cls":"tertiary","shops":0,"st_km":1.86,"mesh":"52397096"},"geometry":{"type":"LineString","coordinates":[[139.08543,35.32659],[139.08539,35.32662]]}},{"type":"Feature","properties":{"idx":5,"road":"","cls":"tertiary","shops":0,"st_km":3.07,"mesh":"52397095"},"geometry":{"type":"LineString","coordinates":[[139.071,35.32589],[139.07099,35.32604],[139.07108,35.32619]]}},{"type":"Feature","properties":{"idx":4,"road":"","cls":"tertiary","shops":0,"st_km":3.49,"mesh":"52397095"},"geometry":{"type":"LineString","coordinates":[[139.06782,35.33054],[139.06785,35.33015]]}},{"type":"Feature","properties":{"idx":38,"road":"","cls":"tertiary","shops":0,"st_km":1.03,"mesh":"52397077"},"geometry":{"type":"LineString","coordinates":[[139.09555,35.31261],[139.0954,35.31274]]}},{"type":"Feature","properties":{"idx":98,"road":"","cls":"tertiary","shops":0,"st_km":1.28,"mesh":"52397087"},"geometry":{"type":"LineString","coordinates":[[139.09057,35.32437],[139.09078,35.32436],[139.09177,35.32411]]}},{"type":"Feature","properties":{"idx":484,"road":"","cls":"tertiary","shops":0,"st_km":1.78,"mesh":"52397097"},"geometry":{"type":"LineString","coordinates":[[139.09415,35.33307],[139.09459,35.33323],[139.09501,35.33353]]}},{"type":"Feature","properties":{"idx":5,"road":"","cls":"tertiary","shops":0,"st_km":3.02,"mesh":"52397095"},"geometry":{"type":"LineString","coordinates":[[139.07239,35.32861],[139.07272,35.32854]]}},{"type":"Feature","properties":{"idx":4,"road":"","cls":"tertiary","shops":0,"st_km":3.51,"mesh":"52397095"},"geometry":{"type":"LineString","coordinates":[[139.06782,35.33064],[139.06782,35.33054]]}},{"type":"Feature","properties":{"idx":507,"road":"","cls":"tertiary","shops":0,"st_km":0.76,"mesh":"52397089"},"geometry":{"type":"LineString","coordinates":[[139.11533,35.32241],[139.11532,35.32273]]}},{"type":"Feature","properties":{"idx":608,"road":"","cls":"tertiary","shops":0,"st_km":0.59,"mesh":"52397089"},"geometry":{"type":"LineString","coordinates":[[139.11533,35.32044],[139.11535,35.321]]}},{"type":"Feature","properties":{"idx":38,"road":"","cls":"tertiary","shops":0,"st_km":1.04,"mesh":"52397077"},"geometry":{"type":"LineString","coordinates":[[139.09555,35.31261],[139.09618,35.31179]]}},{"type":"Feature","properties":{"idx":117,"road":"","cls":"tertiary","shops":0,"st_km":1.03,"mesh":"52397087"},"geometry":{"type":"LineString","coordinates":[[139.09336,35.32291],[139.09365,35.32321]]}},{"type":"Feature","properties":{"idx":115,"road":"","cls":"tertiary","shops":0,"st_km":1.37,"mesh":"52397098"},"geometry":{"type":"LineString","coordinates":[[139.10747,35.32802],[139.10927,35.32932],[139.10999,35.32974],[139.11062,35.32999],[139.11375,35.33101],[139.11465,35.33138]]}},{"type":"Feature","properties":{"idx":143,"road":"","cls":"tertiary","shops":0,"st_km":1.67,"mesh":"52397039"},"geometry":{"type":"LineString","coordinates":[[139.11935,35.28112],[139.11924,35.28174],[139.11897,35.28246],[139.11896,35.2827],[139.11904,35.28282],[139.11922,35.28292],[139.11955,35.28292],[139.11975,35.2828],[139.11996,35.28247],[139.12015,35.2823],[139.12045,35.28223],[139.12064,35.2823],[139.12081,35.28247],[139.12083,35.28272],[139.1205,35.28363]]}},{"type":"Feature","properties":{"idx":15,"road":"はこね金太郎ライン","cls":"secondary","shops":0,"st_km":5.05,"mesh":"52397072"},"geometry":{"type":"LineString","coordinates":[[139.03124,35.31292],[139.0311,35.31277],[139.0312,35.31254],[139.03157,35.31244],[139.03167,35.31233],[139.03134,35.31164],[139.03133,35.31148],[139.03142,35.31141],[139.03154,35.3114],[139.03201,35.31157],[139.0322,35.31159],[139.03275,35.31112]]}},{"type":"Feature","properties":{"idx":39,"road":"","cls":"tertiary","shops":0,"st_km":0.99,"mesh":"52397077"},"geometry":{"type":"LineString","coordinates":[[139.09244,35.31652],[139.0928,35.31633],[139.09334,35.3162],[139.09351,35.31607],[139.09354,35.31598],[139.09353,35.31583],[139.0932,35.31524],[139.09308,35.31478]]}},{"type":"Feature","properties":{"idx":202,"road":"","cls":"tertiary","shops":0,"st_km":0.59,"mesh":"52397078"},"geometry":{"type":"LineString","coordinates":[[139.1057,35.31327],[139.10542,35.31356]]}},{"type":"Feature","properties":{"idx":340,"road":"","cls":"tertiary","shops":0,"st_km":0.44,"mesh":"52397079"},"geometry":{"type":"LineString","coordinates":[[139.11427,35.3133],[139.11474,35.31353]]}},{"type":"Feature","properties":{"idx":34,"road":"","cls":"tertiary","shops":0,"st_km":1.2,"mesh":"52397059"},"geometry":{"type":"LineString","coordinates":[[139.1153,35.29556],[139.11528,35.29602],[139.11534,35.29626]]}},{"type":"Feature","properties":{"idx":202,"road":"","cls":"tertiary","shops":0,"st_km":0.6,"mesh":"52397078"},"geometry":{"type":"LineString","coordinates":[[139.10515,35.31361],[139.10542,35.31356]]}},{"type":"Feature","properties":{"idx":7,"road":"","cls":"tertiary","shops":0,"st_km":1.84,"mesh":"52397049"},"geometry":{"type":"LineString","coordinates":[[139.11444,35.28751],[139.1142,35.28756],[139.11345,35.2875]]}},{"type":"Feature","properties":{"idx":5,"road":"","cls":"tertiary","shops":0,"st_km":3.29,"mesh":"52397095"},"geometry":{"type":"LineString","coordinates":[[139.07239,35.32861],[139.07106,35.32909],[139.07073,35.32915],[139.06899,35.32904],[139.06855,35.32906],[139.06814,35.32926],[139.06803,35.32938],[139.06793,35.32957],[139.06785,35.33015]]}},{"type":"Feature","properties":{"idx":200,"road":"","cls":"tertiary","shops":0,"st_km":0.61,"mesh":"52397078"},"geometry":{"type":"LineString","coordinates":[[139.10524,35.31343],[139.10515,35.31361]]}},{"type":"Feature","properties":{"idx":35,"road":"","cls":"tertiary","shops":0,"st_km":1.15,"mesh":"52397077"},"geometry":{"type":"LineString","coordinates":[[139.0983,35.30941],[139.09818,35.31008]]}},{"type":"Feature","properties":{"idx":168,"road":"","cls":"tertiary","shops":0,"st_km":0.81,"mesh":"52397078"},"geometry":{"type":"LineString","coordinates":[[139.10682,35.31085],[139.10623,35.31078]]}},{"type":"Feature","properties":{"idx":3,"road":"","cls":"tertiary","shops":0,"st_km":1.76,"mesh":"52397058"},"geometry":{"type":"LineString","coordinates":[[139.10879,35.29494],[139.10896,35.29525]]}},{"type":"Feature","properties":{"idx":32,"road":"","cls":"tertiary","shops":0,"st_km":1.25,"mesh":"52397077"},"geometry":{"type":"LineString","coordinates":[[139.09141,35.31408],[139.09148,35.31375]]}},{"type":"Feature","properties":{"idx":7,"road":"","cls":"tertiary","shops":0,"st_km":1.91,"mesh":"52397049"},"geometry":{"type":"LineString","coordinates":[[139.11288,35.28756],[139.11271,35.28772],[139.11265,35.28786]]}},{"type":"Feature","properties":{"idx":133,"road":"","cls":"tertiary","shops":0,"st_km":1.21,"mesh":"52397098"},"geometry":{"type":"LineString","coordinates":[[139.10236,35.32987],[139.10225,35.32989]]}},{"type":"Feature","properties":{"idx":35,"road":"","cls":"tertiary","shops":0,"st_km":1.16,"mesh":"52397059"},"geometry":{"type":"LineString","coordinates":[[139.11534,35.29626],[139.11565,35.29648]]}},{"type":"Feature","properties":{"idx":34,"road":"","cls":"tertiary","shops":0,"st_km":1.16,"mesh":"52397077"},"geometry":{"type":"LineString","coordinates":[[139.09308,35.31478],[139.09295,35.31462],[139.0927,35.31451],[139.09205,35.31452],[139.09168,35.31444],[139.09155,35.31435],[139.09141,35.31408]]}},{"type":"Feature","properties":{"idx":825,"road":"","cls":"tertiary","shops":0,"st_km":0.27,"mesh":"52397089"},"geometry":{"type":"LineString","coordinates":[[139.11701,35.31696],[139.11593,35.31882]]}},{"type":"Feature","properties":{"idx":64,"road":"","cls":"tertiary","shops":0,"st_km":1.59,"mesh":"52397068"},"geometry":{"type":"LineString","coordinates":[[139.10949,35.30085],[139.10932,35.30099],[139.10906,35.30147],[139.10872,35.30186],[139.10871,35.30246],[139.10858,35.30283],[139.1085,35.30293],[139.10686,35.30364],[139.10667,35.30368],[139.10582,35.30352],[139.10539,35.30368],[139.10494,35.30398],[139.10477,35.304],[139.10452,35.30398],[139.10368,35.30362],[139.10328,35.30361],[139.10302,35.3037],[139.10239,35.30416],[139.10225,35.30431],[139.10218,35.30461],[139.10222,35.30478]]}},{"type":"Feature","properties":{"idx":14,"road":"はこね金太郎ライン","cls":"secondary","shops":0,"st_km":5.36,"mesh":"52397072"},"geometry":{"type":"LineString","coordinates":[[139.03275,35.31112],[139.03281,35.3107],[139.03389,35.31],[139.034,35.30988],[139.03397,35.30971],[139.03321,35.30886],[139.03323,35.30874],[139.03346,35.30854],[139.03349,35.30821],[139.03356,35.3081],[139.03387,35.30785],[139.03389,35.30777],[139.0337,35.30736],[139.03363,35.30705],[139.03344,35.30687],[139.03296,35.30658],[139.03287,35.30644],[139.03289,35.30626],[139.03316,35.30608]]}},{"type":"Feature","properties":{"idx":18,"road":"","cls":"tertiary","shops":0,"st_km":2.42,"mesh":"52397076"},"geometry":{"type":"LineString","coordinates":[[139.07918,35.30947],[139.07941,35.30973],[139.0795,35.30996],[139.07954,35.31044]]}},{"type":"Feature","properties":{"idx":7,"road":"","cls":"tertiary","shops":0,"st_km":1.9,"mesh":"52397049"},"geometry":{"type":"LineString","coordinates":[[139.11345,35.2875],[139.11309,35.2875],[139.11288,35.28756]]}},{"type":"Feature","properties":{"idx":29,"road":"","cls":"tertiary","shops":0,"st_km":1.43,"mesh":"52397059"},"geometry":{"type":"LineString","coordinates":[[139.11347,35.29399],[139.11363,35.29429],[139.11382,35.29446]]}},{"type":"Feature","properties":{"idx":34,"road":"","cls":"tertiary","shops":0,"st_km":1.18,"mesh":"52397059"},"geometry":{"type":"LineString","coordinates":[[139.1153,35.29556],[139.11622,35.29583]]}},{"type":"Feature","properties":{"idx":557,"road":"","cls":"tertiary","shops":0,"st_km":0.69,"mesh":"52397089"},"geometry":{"type":"LineString","coordinates":[[139.11535,35.321],[139.11533,35.32241]]}},{"type":"Feature","properties":{"idx":268,"road":"","cls":"tertiary","shops":0,"st_km":0.36,"mesh":"52397078"},"geometry":{"type":"LineString","coordinates":[[139.10251,35.31635],[139.10314,35.31542]]}},{"type":"Feature","properties":{"idx":492,"road":"","cls":"tertiary","shops":0,"st_km":0.07,"mesh":"52397079"},"geometry":{"type":"LineString","coordinates":[[139.11799,35.31525],[139.11701,35.31696]]}},{"type":"Feature","properties":{"idx":28,"road":"","cls":"tertiary","shops":0,"st_km":1.47,"mesh":"52397059"},"geometry":{"type":"LineString","coordinates":[[139.11365,35.2934],[139.11352,35.29365],[139.11347,35.29399]]}},{"type":"Feature","properties":{"idx":463,"road":"","cls":"tertiary","shops":0,"st_km":1.88,"mesh":"52397097"},"geometry":{"type":"LineString","coordinates":[[139.08887,35.33208],[139.08939,35.33209],[139.09071,35.33233],[139.09196,35.33286],[139.09225,35.33293],[139.0937,35.33296],[139.09415,35.33307]]}},{"type":"Feature","properties":{"idx":683,"road":"","cls":"tertiary","shops":0,"st_km":0.46,"mesh":"52397089"},"geometry":{"type":"LineString","coordinates":[[139.11593,35.31882],[139.11533,35.32029]]}},{"type":"Feature","properties":{"idx":7,"road":"","cls":"tertiary","shops":0,"st_km":1.71,"mesh":"52397049"},"geometry":{"type":"LineString","coordinates":[[139.11688,35.28638],[139.11611,35.28684]]}},{"type":"Feature","properties":{"idx":28,"road":"","cls":"tertiary","shops":0,"st_km":1.49,"mesh":"52397059"},"geometry":{"type":"LineString","coordinates":[[139.11417,35.29254],[139.11365,35.2934]]}},{"type":"Feature","properties":{"idx":41,"road":"","cls":"tertiary","shops":0,"st_km":0.94,"mesh":"52397059"},"geometry":{"type":"LineString","coordinates":[[139.11743,35.29736],[139.11753,35.29749],[139.11754,35.29767]]}},{"type":"Feature","properties":{"idx":120,"road":"","cls":"tertiary","shops":0,"st_km":1.36,"mesh":"52397098"},"geometry":{"type":"LineString","coordinates":[[139.10395,35.33117],[139.10387,35.33149]]}},{"type":"Feature","properties":{"idx":466,"road":"","cls":"tertiary","shops":0,"st_km":0.9,"mesh":"52397089"},"geometry":{"type":"LineString","coordinates":[[139.12039,35.32511],[139.12005,35.32499],[139.1189,35.32441],[139.11814,35.32416],[139.11548,35.32383],[139.11242,35.3237]]}},{"type":"Feature","properties":{"idx":35,"road":"","cls":"tertiary","shops":0,"st_km":1.14,"mesh":"52397059"},"geometry":{"type":"LineString","coordinates":[[139.11491,35.29822],[139.11454,35.29857]]}},{"type":"Feature","properties":{"idx":7,"road":"はこね金太郎ライン","cls":"secondary","shops":0,"st_km":5.49,"mesh":"52397083"},"geometry":{"type":"LineString","coordinates":[[139.03124,35.31292],[139.03153,35.31311],[139.03159,35.31322],[139.03162,35.31361],[139.03171,35.31376],[139.03259,35.31437],[139.03293,35.31483],[139.03328,35.31493],[139.03397,35.3148],[139.03457,35.31498],[139.03618,35.31501],[139.03663,35.31509],[139.03701,35.31524],[139.03732,35.31543],[139.03843,35.31633],[139.03978,35.31724],[139.03986,35.31741],[139.03988,35.31784],[139.04002,35.31802],[139.04039,35.31812],[139.04108,35.31805],[139.04135,35.31813],[139.04166,35.31836],[139.04241,35.31925],[139.0433,35.31963],[139.04355,35.31967],[139.04385,35.31965],[139.04417,35.31975],[139.04431,35.3199],[139.04512,35.32127],[139.04506,35.32144],[139.0449,35.32153],[139.04442,35.3215],[139.04422,35.3216],[139.04413,35.32177]]}},{"type":"Feature","properties":{"idx":7,"road":"はこね金太郎ライン","cls":"secondary","shops":0,"st_km":5.14,"mesh":"52397041"},"geometry":{"type":"LineString","coordinates":[[139.01692,35.29193],[139.01657,35.29198],[139.01561,35.2923],[139.0154,35.29223],[139.01514,35.29188],[139.01491,35.2918],[139.0147,35.29186],[139.01426,35.29215],[139.01415,35.29218],[139.01398,35.29215],[139.01392,35.29204],[139.01394,35.29196],[139.01418,35.29144],[139.01439,35.29133],[139.01485,35.29134],[139.01497,35.29124],[139.01498,35.2911],[139.01473,35.29068],[139.01469,35.29041],[139.01479,35.29025],[139.01505,35.29015],[139.01513,35.29007],[139.01523,35.2899],[139.01542,35.28969],[139.01545,35.28954],[139.01533,35.28943],[139.0152,35.28941],[139.01481,35.28949],[139.01419,35.28936],[139.01401,35.28926],[139.01379,35.28896],[139.01288,35.28888],[139.01277,35.28883],[139.0127,35.28876],[139.01272,35.28862],[139.01295,35.28835],[139.01295,35.2882],[139.01248,35.28767],[139.01246,35.2876],[139.01257,35.28745],[139.01313,35.28726],[139.01328,35.2873],[139.0136,35.28752],[139.01369,35.28755],[139.01383,35.28751],[139.01391,35.28734],[139.01384,35.28708],[139.01385,35.28691],[139.01399,35.28663],[139.01416,35.28658],[139.01471,35.28676],[139.01484,35.28668],[139.01485,35.28651],[139.0147,35.28603],[139.01474,35.28586],[139.01528,35.28576],[139.01584,35.28582],[139.01597,35.28577],[139.01605,35.28566]]}},{"type":"Feature","properties":{"idx":36,"road":"","cls":"tertiary","shops":0,"st_km":1.09,"mesh":"52397059"},"geometry":{"type":"LineString","coordinates":[[139.11609,35.298],[139.11541,35.29805],[139.11491,35.29822]]}},{"type":"Feature","properties":{"idx":37,"road":"","cls":"tertiary","shops":0,"st_km":1.05,"mesh":"52397059"},"geometry":{"type":"LineString","coordinates":[[139.11565,35.29648],[139.11686,35.29704],[139.11743,35.29736]]}},{"type":"Feature","properties":{"idx":488,"road":"","cls":"tertiary","shops":0,"st_km":0.8,"mesh":"52397089"},"geometry":{"type":"LineString","coordinates":[[139.11532,35.32273],[139.11528,35.32301],[139.11473,35.3238]]}},{"type":"Feature","properties":{"idx":52,"road":"","cls":"tertiary","shops":1,"st_km":1.14,"mesh":"52397077"},"geometry":{"type":"LineString","coordinates":[[139.09423,35.31239],[139.09396,35.31257],[139.09313,35.31328]]}},{"type":"Feature","properties":{"idx":109,"road":"","cls":"tertiary","shops":0,"st_km":1.12,"mesh":"52397087"},"geometry":{"type":"LineString","coordinates":[[139.09365,35.32321],[139.09282,35.32374],[139.09177,35.32411]]}},{"type":"Feature","properties":{"idx":96,"road":"","cls":"tertiary","shops":0,"st_km":1.3,"mesh":"52397087"},"geometry":{"type":"LineString","coordinates":[[139.08882,35.32116],[139.08925,35.3206],[139.08959,35.32028],[139.08992,35.32007],[139.09045,35.31986]]}},{"type":"Feature","properties":{"idx":8,"road":"","cls":"tertiary","shops":0,"st_km":1.61,"mesh":"52397049"},"geometry":{"type":"LineString","coordinates":[[139.11981,35.28413],[139.1194,35.28415],[139.1189,35.28411]]}},{"type":"Feature","properties":{"idx":7,"road":"","cls":"tertiary","shops":0,"st_km":1.87,"mesh":"52397049"},"geometry":{"type":"LineString","coordinates":[[139.11265,35.28786],[139.11264,35.288],[139.11273,35.28817],[139.11301,35.28837],[139.11335,35.28851]]}},{"type":"Feature","properties":{"idx":34,"road":"","cls":"tertiary","shops":0,"st_km":1.17,"mesh":"52397059"},"geometry":{"type":"LineString","coordinates":[[139.11447,35.2987],[139.11375,35.30024],[139.11364,35.30038]]}},{"type":"Feature","properties":{"idx":66,"road":"","cls":"tertiary","shops":0,"st_km":1.53,"mesh":"52397068"},"geometry":{"type":"LineString","coordinates":[[139.10222,35.30478],[139.10234,35.30506],[139.10235,35.30524],[139.10228,35.30551],[139.10219,35.30562]]}},{"type":"Feature","properties":{"idx":18,"road":"","cls":"tertiary","shops":0,"st_km":2.54,"mesh":"52397076"},"geometry":{"type":"LineString","coordinates":[[139.07918,35.30947],[139.07882,35.30939],[139.07849,35.30948],[139.07824,35.30981],[139.07814,35.31013],[139.07787,35.31028],[139.07753,35.31025],[139.07705,35.30999],[139.07684,35.30994],[139.07638,35.30993],[139.07603,35.31002]]}},{"type":"Feature","properties":{"idx":2,"road":"","cls":"tertiary","shops":0,"st_km":1.9,"mesh":"52397058"},"geometry":{"type":"LineString","coordinates":[[139.10892,35.29259],[139.10874,35.29261],[139.10855,35.29271]]}},{"type":"Feature","properties":{"idx":2,"road":"","cls":"tertiary","shops":0,"st_km":2.29,"mesh":"52397058"},"geometry":{"type":"LineString","coordinates":[[139.10484,35.29151],[139.10459,35.2916],[139.1041,35.2923]]}},{"type":"Feature","properties":{"idx":109,"road":"","cls":"tertiary","shops":0,"st_km":1.12,"mesh":"52397087"},"geometry":{"type":"LineString","coordinates":[[139.09093,35.31975],[139.0911,35.31971],[139.09132,35.31952],[139.09138,35.31923],[139.09136,35.31895]]}},{"type":"Feature","properties":{"idx":8,"road":"","cls":"tertiary","shops":0,"st_km":1.57,"mesh":"52397049"},"geometry":{"type":"LineString","coordinates":[[139.11537,35.2896],[139.11535,35.28989],[139.11523,35.29013],[139.1148,35.29057],[139.1146,35.29083],[139.11446,35.29112]]}},{"type":"Feature","properties":{"idx":175,"road":"","cls":"tertiary","shops":0,"st_km":0.76,"mesh":"52397078"},"geometry":{"type":"LineString","coordinates":[[139.10682,35.31085],[139.10727,35.31098],[139.10749,35.31111],[139.10773,35.31144]]}},{"type":"Feature","properties":{"idx":8,"road":"","cls":"tertiary","shops":0,"st_km":1.55,"mesh":"52397049"},"geometry":{"type":"LineString","coordinates":[[139.1205,35.28363],[139.12019,35.28397],[139.11981,35.28413]]}},{"type":"Feature","properties":{"idx":5,"road":"","cls":"tertiary","shops":0,"st_km":2.94,"mesh":"52397095"},"geometry":{"type":"LineString","coordinates":[[139.07272,35.32854],[139.07307,35.32851],[139.07377,35.32854],[139.07393,35.3284],[139.07394,35.32822],[139.07391,35.32814],[139.07314,35.32753],[139.07239,35.32663],[139.07108,35.32619]]}},{"type":"Feature","properties":{"idx":7,"road":"","cls":"tertiary","shops":0,"st_km":1.75,"mesh":"52397049"},"geometry":{"type":"LineString","coordinates":[[139.11335,35.28851],[139.11464,35.28896]]}},{"type":"Feature","properties":{"idx":152,"road":"","cls":"tertiary","shops":0,"st_km":1.03,"mesh":"52397098"},"geometry":{"type":"LineString","coordinates":[[139.10654,35.32783],[139.10632,35.32789],[139.10581,35.32824],[139.10544,35.3283]]}},{"type":"Feature","properties":{"idx":3,"road":"","cls":"tertiary","shops":0,"st_km":1.83,"mesh":"52397058"},"geometry":{"type":"LineString","coordinates":[[139.10798,35.29405],[139.10841,35.29445],[139.10879,35.29494]]}},{"type":"Feature","properties":{"idx":40,"road":"","cls":"tertiary","shops":0,"st_km":0.97,"mesh":"52397059"},"geometry":{"type":"LineString","coordinates":[[139.11754,35.29767],[139.11747,35.29781],[139.11723,35.29795],[139.11609,35.298]]}},{"type":"Feature","properties":{"idx":87,"road":"","cls":"tertiary","shops":0,"st_km":1.47,"mesh":"52397087"},"geometry":{"type":"LineString","coordinates":[[139.09057,35.32437],[139.09022,35.32444],[139.08968,35.32466],[139.08876,35.32516],[139.08832,35.32537],[139.0878,35.32554]]}},{"type":"Feature","properties":{"idx":8,"road":"","cls":"tertiary","shops":0,"st_km":1.64,"mesh":"52397049"},"geometry":{"type":"LineString","coordinates":[[139.11464,35.28896],[139.11509,35.28918],[139.11524,35.28933],[139.11537,35.2896]]}},{"type":"Feature","properties":{"idx":27,"road":"","cls":"tertiary","shops":0,"st_km":1.53,"mesh":"52397059"},"geometry":{"type":"LineString","coordinates":[[139.11446,35.29112],[139.11435,35.29149],[139.1143,35.29217],[139.11417,35.29254]]}},{"type":"Feature","properties":{"idx":2,"road":"","cls":"tertiary","shops":0,"st_km":2.41,"mesh":"52397058"},"geometry":{"type":"LineString","coordinates":[[139.1024,35.29381],[139.10217,35.29399],[139.10189,35.2939],[139.10188,35.29377],[139.10212,35.29326]]}},{"type":"Feature","properties":{"idx":268,"road":"","cls":"tertiary","shops":0,"st_km":0.42,"mesh":"52397069"},"geometry":{"type":"LineString","coordinates":[[139.12185,35.30018],[139.12248,35.3004],[139.12258,35.3004],[139.12274,35.30032]]}},{"type":"Feature","properties":{"idx":69,"road":"","cls":"tertiary","shops":0,"st_km":1.74,"mesh":"52397096"},"geometry":{"type":"LineString","coordinates":[[139.0878,35.32554],[139.08736,35.32567],[139.08693,35.32574],[139.08646,35.3259],[139.08582,35.32625],[139.08543,35.32659]]}},{"type":"Feature","properties":{"idx":7,"road":"","cls":"tertiary","shops":0,"st_km":1.78,"mesh":"52397049"},"geometry":{"type":"LineString","coordinates":[[139.11611,35.28684],[139.11444,35.28751]]}},{"type":"Feature","properties":{"idx":3,"road":"","cls":"tertiary","shops":0,"st_km":1.78,"mesh":"52397058"},"geometry":{"type":"LineString","coordinates":[[139.11026,35.29387],[139.10999,35.29359],[139.10956,35.29285],[139.10934,35.29266]]}},{"type":"Feature","properties":{"idx":115,"road":"","cls":"tertiary","shops":0,"st_km":0.31,"mesh":"52397088"},"geometry":{"type":"LineString","coordinates":[[139.10116,35.31694],[139.10143,35.31691],[139.10234,35.31648],[139.10251,35.31635]]}},{"type":"Feature","properties":{"idx":188,"road":"","cls":"tertiary","shops":0,"st_km":0.68,"mesh":"52397078"},"geometry":{"type":"LineString","coordinates":[[139.10773,35.31144],[139.10671,35.31189],[139.10641,35.31211],[139.10626,35.31228],[139.1057,35.31327]]}},{"type":"Feature","properties":{"idx":234,"road":"","cls":"tertiary","shops":0,"st_km":0.5,"mesh":"52397078"},"geometry":{"type":"LineString","coordinates":[[139.10314,35.31542],[139.10515,35.31361]]}},{"type":"Feature","properties":{"idx":107,"road":"","cls":"tertiary","shops":0,"st_km":0.38,"mesh":"52397088"},"geometry":{"type":"LineString","coordinates":[[139.10245,35.32212],[139.10097,35.32105],[139.10079,35.321],[139.10038,35.32098],[139.09988,35.32116],[139.09947,35.32153],[139.09814,35.32241]]}},{"type":"Feature","properties":{"idx":2,"road":"","cls":"tertiary","shops":0,"st_km":1.91,"mesh":"52397058"},"geometry":{"type":"LineString","coordinates":[[139.10855,35.29271],[139.10819,35.29316],[139.10789,35.29382],[139.10798,35.29405]]}},{"type":"Feature","properties":{"idx":61,"road":"","cls":"tertiary","shops":0,"st_km":2.04,"mesh":"52397096"},"geometry":{"type":"LineString","coordinates":[[139.08539,35.32662],[139.08498,35.32716],[139.08479,35.32747],[139.08474,35.32765],[139.08391,35.32875],[139.0836,35.32903],[139.08279,35.3296]]}},{"type":"Feature","properties":{"idx":40,"road":"","cls":"tertiary","shops":0,"st_km":0.96,"mesh":"52397059"},"geometry":{"type":"LineString","coordinates":[[139.11609,35.298],[139.11623,35.29823],[139.1164,35.29836],[139.1172,35.29855],[139.11764,35.29875]]}},{"type":"Feature","properties":{"idx":2,"road":"","cls":"tertiary","shops":0,"st_km":2.05,"mesh":"52397058"},"geometry":{"type":"LineString","coordinates":[[139.10687,35.29517],[139.10655,35.29488],[139.10507,35.29426],[139.10488,35.29421],[139.10455,35.29422]]}},{"type":"Feature","properties":{"idx":296,"road":"","cls":"tertiary","shops":0,"st_km":0.31,"mesh":"52397069"},"geometry":{"type":"LineString","coordinates":[[139.12581,35.30168],[139.12545,35.30147],[139.12504,35.30132],[139.12457,35.30098],[139.12393,35.3009],[139.12274,35.30032],[139.1222,35.29975],[139.12215,35.2995],[139.12216,35.29875]]}},{"type":"Feature","properties":{"idx":2,"road":"","cls":"tertiary","shops":0,"st_km":2.43,"mesh":"52397058"},"geometry":{"type":"LineString","coordinates":[[139.10212,35.29326],[139.10201,35.29279],[139.10187,35.29271]]}},{"type":"Feature","properties":{"idx":645,"road":"","cls":"tertiary","shops":0,"st_km":0.53,"mesh":"52397089"},"geometry":{"type":"LineString","coordinates":[[139.12197,35.31757],[139.12326,35.31815],[139.12468,35.31871]]}},{"type":"Feature","properties":{"idx":37,"road":"","cls":"tertiary","shops":0,"st_km":1.06,"mesh":"52397077"},"geometry":{"type":"LineString","coordinates":[[139.09818,35.31008],[139.09792,35.31093],[139.09781,35.31113],[139.09757,35.31134]]}},{"type":"Feature","properties":{"idx":130,"road":"関本小涌谷線","cls":"secondary","shops":0,"st_km":0.3,"mesh":"52397088"},"geometry":{"type":"LineString","coordinates":[[139.10143,35.31739],[139.1012,35.317]]}},{"type":"Feature","properties":{"idx":29,"road":"関本小涌谷線","cls":"secondary","shops":0,"st_km":1.65,"mesh":"52397077"},"geometry":{"type":"LineString","coordinates":[[139.09399,35.31229],[139.0914,35.31164],[139.09134,35.31158],[139.09133,35.31108],[139.09109,35.31089],[139.09069,35.31072],[139.09058,35.31073],[139.0905,35.31079],[139.0902,35.31138],[139.09002,35.31145],[139.08986,35.31141],[139.08973,35.31126],[139.08978,35.31076],[139.08975,35.31063],[139.08948,35.31019],[139.08935,35.31005],[139.08918,35.30998],[139.0889,35.31001],[139.0882,35.3102],[139.08743,35.3102],[139.0871,35.31013],[139.08608,35.30938],[139.08561,35.30882],[139.08546,35.3085],[139.08525,35.30827],[139.08443,35.30765],[139.08402,35.30756],[139.08336,35.30723]]}},{"type":"Feature","properties":{"idx":10,"road":"矢倉沢山北線","cls":"secondary","shops":0,"st_km":4.04,"mesh":"52397094"},"geometry":{"type":"LineString","coordinates":[[139.05518,35.32968],[139.05514,35.3299],[139.05521,35.33012],[139.0553,35.33021],[139.05562,35.33035],[139.05652,35.33061],[139.05687,35.33077]]}},{"type":"Feature","properties":{"idx":387,"road":"小田原山北線","cls":"primary","shops":0,"st_km":0.27,"mesh":"52397069"},"geometry":{"type":"LineString","coordinates":[[139.12489,35.30333],[139.12493,35.30324]]}},{"type":"Feature","properties":{"idx":449,"road":"小田原山北線","cls":"primary","shops":0,"st_km":0.38,"mesh":"52397079"},"geometry":{"type":"LineString","coordinates":[[139.1116,35.31624],[139.11337,35.31572],[139.11403,35.31541],[139.11464,35.315],[139.11503,35.3147],[139.11542,35.31431],[139.1182,35.31139],[139.11877,35.311],[139.12012,35.31047],[139.12074,35.31013],[139.12117,35.30975],[139.12207,35.30876]]}},{"type":"Feature","properties":{"idx":245,"road":"小田原山北線","cls":"primary","shops":1,"st_km":0.11,"mesh":"52397088"},"geometry":{"type":"LineString","coordinates":[[139.1059,35.31767],[139.11143,35.31627]]}},{"type":"Feature","properties":{"idx":8,"road":"御殿場大井線","cls":"primary","shops":0,"st_km":4.93,"mesh":"52397083"},"geometry":{"type":"LineString","coordinates":[[139.03828,35.31991],[139.03939,35.32006],[139.03961,35.32001],[139.04005,35.31977],[139.0402,35.31974],[139.04104,35.31971],[139.04122,35.31975],[139.04203,35.32031],[139.043,35.3212],[139.04364,35.32158],[139.04413,35.32177],[139.04433,35.32179],[139.04494,35.32173],[139.04525,35.32179],[139.04607,35.32214],[139.04644,35.32237],[139.04706,35.32285],[139.04778,35.32299],[139.04859,35.32331],[139.04874,35.32333],[139.0494,35.32319],[139.04974,35.32324],[139.04986,35.32335],[139.04989,35.32346],[139.04983,35.32374],[139.04972,35.32396],[139.04972,35.32417],[139.04986,35.3244],[139.04998,35.32448],[139.05014,35.32453],[139.05037,35.32451],[139.05054,35.32439],[139.0506,35.32423],[139.05056,35.32407],[139.05039,35.32379],[139.05035,35.32363],[139.05037,35.32349],[139.05054,35.32334],[139.05086,35.32331],[139.05098,35.32336],[139.05111,35.32354],[139.05112,35.32408],[139.05118,35.32419],[139.05134,35.32429],[139.05189,35.32434],[139.05216,35.32444],[139.05248,35.32507]]}},{"type":"Feature","properties":{"idx":112,"road":"御殿場大井線","cls":"primary","shops":0,"st_km":0.57,"mesh":"52397088"},"geometry":{"type":"LineString","coordinates":[[139.10787,35.32308],[139.10747,35.32295]]}},{"type":"Feature","properties":{"idx":218,"road":"","cls":"tertiary","shops":0,"st_km":1.63,"mesh":"52397099"},"geometry":{"type":"LineString","coordinates":[[139.12103,35.33375],[139.12036,35.33353],[139.11964,35.33312],[139.11851,35.33306]]}},{"type":"Feature","properties":{"idx":846,"road":"","cls":"tertiary","shops":1,"st_km":0.68,"mesh":"52397089"},"geometry":{"type":"LineString","coordinates":[[139.12468,35.31871],[139.12491,35.3188]]}},{"type":"Feature","properties":{"idx":483,"road":"御殿場大井線","cls":"primary","shops":1,"st_km":1.28,"mesh":"52397099"},"geometry":{"type":"LineString","coordinates":[[139.12229,35.3285],[139.11726,35.32628]]}},{"type":"Feature","properties":{"idx":127,"road":"","cls":"tertiary","shops":0,"st_km":1.93,"mesh":"52397039"},"geometry":{"type":"LineString","coordinates":[[139.11935,35.28112],[139.11948,35.27876],[139.1194,35.27822]]}},{"type":"Feature","properties":{"idx":202,"road":"","cls":"tertiary","shops":0,"st_km":1.78,"mesh":"52397099"},"geometry":{"type":"LineString","coordinates":[[139.11465,35.33138],[139.11835,35.33306],[139.1189,35.33336],[139.11958,35.33382],[139.12063,35.33487]]}},{"type":"Feature","properties":{"idx":206,"road":"","cls":"tertiary","shops":0,"st_km":1.74,"mesh":"52397099"},"geometry":{"type":"LineString","coordinates":[[139.11844,35.33311],[139.11851,35.33306]]}},{"type":"Feature","properties":{"idx":88,"road":"","cls":"tertiary","shops":0,"st_km":0.52,"mesh":"52397088"},"geometry":{"type":"LineString","coordinates":[[139.11362,35.31844],[139.11347,35.31909],[139.11332,35.3193],[139.11225,35.32021],[139.11118,35.32145],[139.11061,35.32204],[139.10973,35.32282],[139.10946,35.32314],[139.10878,35.32375],[139.10814,35.32439],[139.10795,35.32477],[139.10793,35.32539],[139.10729,35.32629]]}},{"type":"Feature","properties":{"idx":107,"road":"","cls":"tertiary","shops":0,"st_km":1.56,"mesh":"52397098"},"geometry":{"type":"LineString","coordinates":[[139.10669,35.32991],[139.10526,35.32982],[139.10524,35.33011],[139.10458,35.33102],[139.10448,35.33283],[139.10809,35.33306],[139.10837,35.33001],[139.10669,35.32991]]}},{"type":"Feature","properties":{"idx":92,"road":"","cls":"tertiary","shops":0,"st_km":0.54,"mesh":"52397088"},"geometry":{"type":"LineString","coordinates":[[139.10747,35.32295],[139.10775,35.32266],[139.10829,35.32193]]}},{"type":"Feature","properties":{"idx":151,"road":"","cls":"tertiary","shops":0,"st_km":0.95,"mesh":"52397078"},"geometry":{"type":"LineString","coordinates":[[139.10524,35.31343],[139.10566,35.31236],[139.10591,35.31154],[139.10631,35.31058],[139.1065,35.30952],[139.10761,35.30935],[139.10879,35.30937],[139.11165,35.30904]]}},{"type":"Feature","properties":{"idx":132,"road":"","cls":"tertiary","shops":0,"st_km":0.87,"mesh":"52397087"},"geometry":{"type":"LineString","coordinates":[[139.09336,35.32291],[139.09405,35.32239],[139.09456,35.32187],[139.09572,35.3203]]}},{"type":"Feature","properties":{"idx":192,"road":"","cls":"tertiary","shops":0,"st_km":0.44,"mesh":"52397087"},"geometry":{"type":"LineString","coordinates":[[139.09686,35.31834],[139.09724,35.31872],[139.09833,35.31852],[139.09867,35.3183],[139.09951,35.31754],[139.10019,35.3171],[139.10063,35.31695],[139.10116,35.31694]]}},{"type":"Feature","properties":{"idx":326,"road":"","cls":"tertiary","shops":1,"st_km":0.51,"mesh":"52397078"},"geometry":{"type":"LineString","coordinates":[[139.10753,35.31603],[139.11135,35.3147],[139.11136,35.3146],[139.11092,35.31327],[139.11074,35.31313],[139.11076,35.31296],[139.11089,35.31283],[139.11146,35.31281],[139.11155,35.31275],[139.11172,35.3121],[139.11231,35.31137],[139.11228,35.31088],[139.11234,35.31007],[139.11196,35.30942],[139.11176,35.3093],[139.11165,35.30904]]}},{"type":"Feature","properties":{"idx":228,"road":"","cls":"tertiary","shops":0,"st_km":0.9,"mesh":"52397079"},"geometry":{"type":"LineString","coordinates":[[139.11165,35.30904],[139.11224,35.30897],[139.113,35.30904],[139.11457,35.30891]]}},{"type":"Feature","properties":{"idx":188,"road":"","cls":"tertiary","shops":2,"st_km":3.58,"mesh":"52397020"},"geometry":{"type":"LineString","coordinates":[[139.0086,35.26944],[139.00887,35.26962],[139.00917,35.26991],[139.00939,35.27026],[139.00966,35.27095],[139.01018,35.27141]]}},{"type":"Feature","properties":{"idx":94,"road":"","cls":"tertiary","shops":0,"st_km":3.57,"mesh":"52397020"},"geometry":{"type":"LineString","coordinates":[[139.00765,35.26901],[139.00838,35.26934]]}},{"type":"Feature","properties":{"idx":51,"road":"仙石原強羅停車場線","cls":"secondary","shops":1,"st_km":1.09,"mesh":"52397002"},"geometry":{"type":"LineString","coordinates":[[139.03047,35.2526],[139.03035,35.25278],[139.03034,35.25348],[139.03021,35.25371],[139.0298,35.25386],[139.02933,35.25389],[139.0291,35.25395],[139.02877,35.25419],[139.02839,35.25463],[139.02827,35.25471],[139.02814,35.25472],[139.02794,35.25465],[139.0279,35.25459],[139.02789,35.25437],[139.02817,35.25378],[139.02848,35.2534],[139.0285,35.25321],[139.02837,35.25312],[139.02824,35.25311],[139.02721,35.25338],[139.02707,35.25328],[139.02707,35.2532],[139.02713,35.25312],[139.02751,35.25293],[139.02752,35.25276],[139.02695,35.25248],[139.02652,35.25257],[139.02633,35.25255],[139.02584,35.25222],[139.02575,35.25221],[139.02565,35.25224],[139.02544,35.25254],[139.02523,35.25272],[139.02483,35.2529],[139.02411,35.25298],[139.02286,35.25288],[139.02223,35.25287],[139.02193,35.25292]]}},{"type":"Feature","properties":{"idx":350,"road":"湯河原箱根仙石原線","cls":"primary","shops":4,"st_km":3.66,"mesh":"52397020"},"geometry":{"type":"LineString","coordinates":[[139.01018,35.27141],[139.01026,35.27181],[139.01067,35.27222],[139.01167,35.27282]]}},{"type":"Feature","properties":{"idx":161,"road":"関本小涌谷線","cls":"secondary","shops":0,"st_km":0.3,"mesh":"52397004"},"geometry":{"type":"LineString","coordinates":[[139.04861,35.25007],[139.05017,35.25038],[139.05027,35.25036],[139.05046,35.25003],[139.05098,35.25011],[139.05102,35.25026],[139.05099,35.25056],[139.05078,35.25097],[139.05057,35.25118],[139.05057,35.25126],[139.05063,35.25128],[139.05089,35.25104],[139.05099,35.25082],[139.05118,35.2506],[139.05131,35.25027],[139.05153,35.25014],[139.05147,35.24993],[139.05115,35.24972],[139.05106,35.24961],[139.0511,35.24951],[139.05123,35.24947],[139.05135,35.24953],[139.05158,35.24989],[139.05183,35.25018],[139.05164,35.25052],[139.05149,35.25094],[139.05151,35.25113],[139.05168,35.25133],[139.0518,35.25137],[139.05188,35.25131],[139.05202,35.25101],[139.05204,35.25069],[139.05206,35.25066],[139.05221,35.25065]]}},{"type":"Feature","properties":{"idx":104,"road":"仙石原強羅停車場線","cls":"secondary","shops":0,"st_km":2.07,"mesh":"52397011"},"geometry":{"type":"LineString","coordinates":[[139.02191,35.25297],[139.02194,35.25313],[139.02225,35.25325],[139.0228,35.25369],[139.02291,35.25384],[139.02296,35.25411],[139.01947,35.25709],[139.0192,35.25717],[139.01874,35.25712],[139.01862,35.25715],[139.0185,35.25738],[139.01859,35.25776],[139.0191,35.25813],[139.01918,35.25828],[139.01913,35.25841],[139.01902,35.25852],[139.01863,35.25862],[139.01847,35.25871],[139.0178,35.25946],[139.01783,35.25989],[139.01737,35.26059],[139.01716,35.26128],[139.01712,35.26158],[139.01705,35.26172],[139.01614,35.26261],[139.01566,35.26286],[139.01544,35.26305],[139.01527,35.26309],[139.01474,35.26289],[139.01421,35.26283],[139.01402,35.26288],[139.01383,35.26307],[139.01355,35.26315],[139.01342,35.2633],[139.01344,35.26354],[139.01357,35.26387],[139.01397,35.26407],[139.0139,35.26426]]}},{"type":"Feature","properties":{"idx":415,"road":"湯河原箱根仙石原線","cls":"primary","shops":1,"st_km":3.11,"mesh":"52397021"},"geometry":{"type":"LineString","coordinates":[[139.01288,35.26701],[139.01272,35.26735]]}},{"type":"Feature","properties":{"idx":145,"road":"湯河原箱根仙石原線","cls":"primary","shops":1,"st_km":2.82,"mesh":"52397011"},"geometry":{"type":"LineString","coordinates":[[139.0139,35.26426],[139.0139,35.26451]]}},{"type":"Feature","properties":{"idx":142,"road":"湯河原箱根仙石原線","cls":"primary","shops":1,"st_km":2.96,"mesh":"52397011"},"geometry":{"type":"LineString","coordinates":[[139.0139,35.26451],[139.01344,35.2658],[139.01288,35.26701]]}},{"type":"Feature","properties":{"idx":180,"road":"湯河原箱根仙石原線","cls":"primary","shops":1,"st_km":3.29,"mesh":"52397020"},"geometry":{"type":"LineString","coordinates":[[139.01272,35.26735],[139.01235,35.26803],[139.01181,35.26921],[139.01091,35.27008]]}},{"type":"Feature","properties":{"idx":101,"road":"","cls":"tertiary","shops":2,"st_km":3.59,"mesh":"52397010"},"geometry":{"type":"LineString","coordinates":[[139.00581,35.2675],[139.00525,35.26708],[139.00434,35.26588],[139.00401,35.2652],[139.00367,35.26477],[139.00359,35.26442],[139.00349,35.26426]]}},{"type":"Feature","properties":{"idx":267,"road":"小田原山北線","cls":"primary","shops":1,"st_km":0.09,"mesh":"52397088"},"geometry":{"type":"LineString","coordinates":[[139.10303,35.31954],[139.10336,35.32001]]}},{"type":"Feature","properties":{"idx":263,"road":"小田原山北線","cls":"primary","shops":1,"st_km":0.11,"mesh":"52397088"},"geometry":{"type":"LineString","coordinates":[[139.10254,35.31884],[139.10361,35.31828],[139.10417,35.31809],[139.1059,35.31767]]}},{"type":"Feature","properties":{"idx":144,"road":"御殿場大井線","cls":"primary","shops":0,"st_km":0.31,"mesh":"52397088"},"geometry":{"type":"LineString","coordinates":[[139.1044,35.3215],[139.10245,35.32212]]}},{"type":"Feature","properties":{"idx":65,"road":"御殿場大井線","cls":"primary","shops":0,"st_km":2.55,"mesh":"52397096"},"geometry":{"type":"LineString","coordinates":[[139.10245,35.32212],[139.09811,35.32396],[139.0958,35.3247],[139.09315,35.32583],[139.09218,35.32615],[139.08808,35.32772],[139.08568,35.32883],[139.08536,35.329],[139.08398,35.33002],[139.08137,35.331],[139.08004,35.33121],[139.07943,35.33142],[139.07875,35.33157],[139.07524,35.33181],[139.07469,35.33179],[139.07327,35.3316],[139.07207,35.33138],[139.07117,35.33143],[139.07028,35.33115],[139.06932,35.33071],[139.06906,35.33063],[139.06818,35.33062],[139.06738,35.33067],[139.0671,35.33063],[139.06583,35.33035],[139.06422,35.32967],[139.06308,35.32941],[139.06286,35.3294],[139.0607,35.32961],[139.05868,35.32932],[139.05761,35.32905],[139.05726,35.3289],[139.05593,35.3279]]}},{"type":"Feature","properties":{"idx":8,"road":"御殿場大井線","cls":"primary","shops":0,"st_km":4.25,"mesh":"52397081"},"geometry":{"type":"LineString","coordinates":[[139.02475,35.31715],[139.02491,35.31717]]}},{"type":"Feature","properties":{"idx":6,"road":"御殿場大井線","cls":"primary","shops":0,"st_km":4.55,"mesh":"52397082"},"geometry":{"type":"LineString","coordinates":[[139.02491,35.31717],[139.02515,35.31736],[139.02554,35.31794],[139.0257,35.31809],[139.02605,35.31822],[139.0266,35.31828],[139.02677,35.31834],[139.02722,35.31866],[139.02736,35.31871],[139.02764,35.31872],[139.02823,35.31864],[139.02861,35.31853],[139.02958,35.31807],[139.03036,35.31789],[139.0309,35.31786],[139.03164,35.31795],[139.03271,35.31844],[139.03315,35.31857],[139.03358,35.31861]]}},{"type":"Feature","properties":{"idx":148,"road":"","cls":"tertiary","shops":0,"st_km":0.73,"mesh":"52397087"},"geometry":{"type":"LineString","coordinates":[[139.09572,35.3203],[139.09581,35.32016]]}},{"type":"Feature","properties":{"idx":160,"road":"","cls":"tertiary","shops":0,"st_km":0.64,"mesh":"52397087"},"geometry":{"type":"LineString","coordinates":[[139.09581,35.32016],[139.09616,35.31967],[139.09653,35.31927],[139.09703,35.31899],[139.09794,35.31866],[139.09793,35.31862]]}},{"type":"Feature","properties":{"idx":82,"road":"","cls":"tertiary","shops":0,"st_km":0.6,"mesh":"52397088"},"geometry":{"type":"LineString","coordinates":[[139.11207,35.32371],[139.11164,35.32378],[139.11062,35.32371],[139.10996,35.32333],[139.10946,35.32314],[139.10804,35.32317],[139.10717,35.32346],[139.10689,35.32346],[139.10676,35.3234]]}},{"type":"Feature","properties":{"idx":97,"road":"","cls":"tertiary","shops":0,"st_km":0.48,"mesh":"52397088"},"geometry":{"type":"LineString","coordinates":[[139.10662,35.32332],[139.10574,35.3226],[139.1057,35.32246]]}},{"type":"Feature","properties":{"idx":115,"road":"御殿場大井線","cls":"primary","shops":0,"st_km":0.54,"mesh":"52397088"},"geometry":{"type":"LineString","coordinates":[[139.10747,35.32295],[139.10722,35.32287]]}},{"type":"Feature","properties":{"idx":75,"road":"小田原山北線","cls":"tertiary","shops":0,"st_km":0.71,"mesh":"52397088"},"geometry":{"type":"LineString","coordinates":[[139.11242,35.3237],[139.11207,35.32371]]}},{"type":"Feature","properties":{"idx":91,"road":"小田原山北線","cls":"tertiary","shops":0,"st_km":0.55,"mesh":"52397088"},"geometry":{"type":"LineString","coordinates":[[139.10676,35.3234],[139.10662,35.32332]]}},{"type":"Feature","properties":{"idx":130,"road":"御殿場大井線","cls":"primary","shops":0,"st_km":0.41,"mesh":"52397088"},"geometry":{"type":"LineString","coordinates":[[139.10722,35.32287],[139.10526,35.32231],[139.10486,35.32207],[139.1044,35.3215]]}},{"type":"Feature","properties":{"idx":10,"road":"矢倉沢山北線","cls":"secondary","shops":0,"st_km":3.93,"mesh":"52397094"},"geometry":{"type":"LineString","coordinates":[[139.05687,35.33077],[139.0572,35.33097]]}},{"type":"Feature","properties":{"idx":11,"road":"矢倉沢山北線","cls":"secondary","shops":0,"st_km":3.7,"mesh":"52397094"},"geometry":{"type":"LineString","coordinates":[[139.0572,35.33097],[139.05752,35.33105],[139.05874,35.33108],[139.05923,35.33115],[139.06108,35.33174],[139.06303,35.33269],[139.06319,35.33287],[139.06329,35.33328]]}},{"type":"Feature","properties":{"idx":587,"road":"御殿場大井線","cls":"primary","shops":1,"st_km":1.07,"mesh":"52397099"},"geometry":{"type":"LineString","coordinates":[[139.12468,35.32954],[139.12452,35.32947]]}},{"type":"Feature","properties":{"idx":323,"road":"怒田開成小田原線","cls":"secondary","shops":0,"st_km":1.19,"mesh":"52397099"},"geometry":{"type":"LineString","coordinates":[[139.12459,35.33217],[139.12468,35.33208]]}},{"type":"Feature","properties":{"idx":125,"road":"","cls":"tertiary","shops":0,"st_km":1.96,"mesh":"52397039"},"geometry":{"type":"LineString","coordinates":[[139.11524,35.27527],[139.11542,35.27559],[139.11577,35.27597],[139.11762,35.27742],[139.11849,35.27795],[139.11891,35.27811],[139.12022,35.27839],[139.12069,35.2784],[139.12181,35.27854],[139.12218,35.27873],[139.12307,35.27872],[139.12749,35.27844]]}},{"type":"Feature","properties":{"idx":7,"road":"関本小涌谷線","cls":"secondary","shops":1,"st_km":2.78,"mesh":"52397066"},"geometry":{"type":"LineString","coordinates":[[139.07821,35.30483],[139.07825,35.30489],[139.07862,35.30513]]}},{"type":"Feature","properties":{"idx":5,"road":"関本小涌谷線","cls":"secondary","shops":0,"st_km":2.68,"mesh":"52397066"},"geometry":{"type":"LineString","coordinates":[[139.07933,35.3056],[139.07925,35.30552]]}},{"type":"Feature","properties":{"idx":7,"road":"関本小涌谷線","cls":"secondary","shops":1,"st_km":2.82,"mesh":"52397066"},"geometry":{"type":"LineString","coordinates":[[139.07821,35.30483],[139.07792,35.30463]]}},{"type":"Feature","properties":{"idx":5,"road":"関本小涌谷線","cls":"secondary","shops":0,"st_km":2.64,"mesh":"52397066"},"geometry":{"type":"LineString","coordinates":[[139.07933,35.3056],[139.07941,35.30571],[139.07986,35.30592]]}},{"type":"Feature","properties":{"idx":5,"road":"関本小涌谷線","cls":"secondary","shops":0,"st_km":2.74,"mesh":"52397066"},"geometry":{"type":"LineString","coordinates":[[139.07925,35.30552],[139.0791,35.30526],[139.07863,35.30502],[139.0784,35.30482],[139.07821,35.30483]]}},{"type":"Feature","properties":{"idx":5,"road":"関本小涌谷線","cls":"secondary","shops":0,"st_km":2.64,"mesh":"52397066"},"geometry":{"type":"LineString","coordinates":[[139.07986,35.30592],[139.07966,35.30574],[139.07933,35.3056]]}},{"type":"Feature","properties":{"idx":5,"road":"関本小涌谷線","cls":"secondary","shops":0,"st_km":2.31,"mesh":"52397066"},"geometry":{"type":"LineString","coordinates":[[139.08275,35.30675],[139.08311,35.30714],[139.08336,35.30723]]}},{"type":"Feature","properties":{"idx":5,"road":"関本小涌谷線","cls":"secondary","shops":0,"st_km":2.31,"mesh":"52397066"},"geometry":{"type":"LineString","coordinates":[[139.08336,35.30723],[139.08324,35.30708],[139.08275,35.30675]]}},{"type":"Feature","properties":{"idx":5,"road":"関本小涌谷線","cls":"secondary","shops":0,"st_km":2.48,"mesh":"52397066"},"geometry":{"type":"LineString","coordinates":[[139.08275,35.30675],[139.0824,35.3065],[139.08189,35.30635],[139.07986,35.30592]]}},{"type":"Feature","properties":{"idx":45,"road":"関本小涌谷線","cls":"secondary","shops":0,"st_km":0.95,"mesh":"52397077"},"geometry":{"type":"LineString","coordinates":[[139.09824,35.31405],[139.09791,35.31378],[139.09662,35.3134],[139.09597,35.31311],[139.0954,35.31274],[139.09473,35.31263],[139.09399,35.31229]]}},{"type":"Feature","properties":{"idx":483,"road":"","cls":"tertiary","shops":0,"st_km":0.86,"mesh":"52397089"},"geometry":{"type":"LineString","coordinates":[[139.12424,35.32065],[139.12388,35.32172],[139.12391,35.32199],[139.12401,35.32213],[139.12415,35.32213],[139.12422,35.32208],[139.12482,35.32091]]}},{"type":"Feature","properties":{"idx":9,"road":"御殿場大井線","cls":"primary","shops":0,"st_km":3.86,"mesh":"52397081"},"geometry":{"type":"LineString","coordinates":[[139.01793,35.32342],[139.018,35.32308],[139.01769,35.32296],[139.01759,35.32287],[139.01775,35.32223],[139.01776,35.32194],[139.01742,35.32184],[139.01733,35.3216],[139.01713,35.32136],[139.01716,35.32077],[139.01666,35.32057],[139.01643,35.32042],[139.01646,35.32025],[139.01679,35.31999],[139.01675,35.31981],[139.0169,35.31941],[139.01705,35.31936],[139.01722,35.31958],[139.01739,35.31964],[139.01789,35.31929],[139.01914,35.3191],[139.01922,35.31903],[139.0192,35.31893],[139.01905,35.31889],[139.01878,35.31897],[139.01867,35.31889],[139.01867,35.3188],[139.01924,35.31864],[139.01975,35.31829],[139.02066,35.31784],[139.02075,35.31769],[139.0207,35.31758],[139.02055,35.31754],[139.02006,35.31788],[139.01993,35.31789],[139.0199,35.31773],[139.02027,35.3174],[139.02078,35.31724],[139.02131,35.31734],[139.0214,35.3173],[139.02141,35.31718],[139.02113,35.31707],[139.02115,35.31696],[139.02121,35.31692],[139.0215,35.3169],[139.02165,35.31698],[139.02215,35.31746],[139.0225,35.31756],[139.02275,35.31755],[139.0228,35.3175],[139.02276,35.31741],[139.02244,35.31734],[139.0224,35.3173],[139.02227,35.31682],[139.02228,35.31664],[139.02235,35.31659],[139.02292,35.31693],[139.02338,35.31705],[139.02361,35.31705],[139.02422,35.31684],[139.02438,35.31687],[139.02442,35.31713],[139.02425,35.31767],[139.02428,35.31779],[139.0244,35.31779],[139.02461,35.31731],[139.02475,35.31715]]}},{"type":"Feature","properties":{"idx":6,"road":"御殿場大井線","cls":"primary","shops":0,"st_km":5.08,"mesh":"52397082"},"geometry":{"type":"LineString","coordinates":[[139.03374,35.31862],[139.03398,35.3185],[139.03407,35.31836],[139.03409,35.31784],[139.03419,35.31766],[139.03441,35.31755],[139.03469,35.31758],[139.03489,35.3178],[139.0351,35.31876],[139.03528,35.31893],[139.03583,35.31923]]}},{"type":"Feature","properties":{"idx":6,"road":"御殿場大井線","cls":"primary","shops":0,"st_km":4.95,"mesh":"52397082"},"geometry":{"type":"LineString","coordinates":[[139.03358,35.31861],[139.03374,35.31862]]}},{"type":"Feature","properties":{"idx":55,"road":"はこね金太郎ライン","cls":"secondary","shops":0,"st_km":4.71,"mesh":"52397030"},"geometry":{"type":"LineString","coordinates":[[139.00323,35.28303],[139.00367,35.28311],[139.00398,35.2831],[139.00531,35.28276],[139.00577,35.28274],[139.00588,35.28269],[139.00592,35.28252],[139.00551,35.2821],[139.00533,35.28173],[139.00534,35.28122],[139.00516,35.28092],[139.0052,35.28083],[139.00537,35.28076],[139.00552,35.28081],[139.00558,35.2809],[139.00555,35.28125],[139.00566,35.28163],[139.00584,35.28182],[139.0063,35.282],[139.00684,35.2824],[139.00784,35.28276],[139.00832,35.2831],[139.0086,35.2834],[139.0091,35.28349]]}},{"type":"Feature","properties":{"idx":54,"road":"はこね金太郎ライン","cls":"secondary","shops":0,"st_km":5.03,"mesh":"52397030"},"geometry":{"type":"LineString","coordinates":[[139.00307,35.28301],[139.00323,35.28303]]}},{"type":"Feature","properties":{"idx":54,"road":"はこね金太郎ライン","cls":"secondary","shops":0,"st_km":5.07,"mesh":"52397030"},"geometry":{"type":"LineString","coordinates":[[139.00091,35.28189],[139.00163,35.28265],[139.00184,35.2827],[139.0022,35.28261],[139.00237,35.28262],[139.0028,35.28292],[139.00307,35.28301]]}},{"type":"Feature","properties":{"idx":54,"road":"はこね金太郎ライン","cls":"secondary","shops":0,"st_km":5.05,"mesh":"52397030"},"geometry":{"type":"LineString","coordinates":[[139.00083,35.28179],[139.00091,35.28189]]}},{"type":"Feature","properties":{"idx":55,"road":"はこね金太郎ライン","cls":"secondary","shops":0,"st_km":4.77,"mesh":"52397030"},"geometry":{"type":"LineString","coordinates":[[139.00144,35.2779],[139.0015,35.27811],[139.00139,35.27839],[139.00135,35.27877],[139.00182,35.27927],[139.00197,35.2798]]}},{"type":"Feature","properties":{"idx":55,"road":"はこね金太郎ライン","cls":"secondary","shops":0,"st_km":4.89,"mesh":"52397030"},"geometry":{"type":"LineString","coordinates":[[139.00157,35.28041],[139.00147,35.2804]]}},{"type":"Feature","properties":{"idx":55,"road":"はこね金太郎ライン","cls":"secondary","shops":0,"st_km":4.83,"mesh":"52397030"},"geometry":{"type":"LineString","coordinates":[[139.00206,35.27988],[139.00256,35.28012],[139.00266,35.2802],[139.00267,35.28034],[139.00245,35.28045],[139.00157,35.28041]]}},{"type":"Feature","properties":{"idx":55,"road":"はこね金太郎ライン","cls":"secondary","shops":0,"st_km":4.81,"mesh":"52397030"},"geometry":{"type":"LineString","coordinates":[[139.00197,35.2798],[139.00206,35.27988]]}},{"type":"Feature","properties":{"idx":24,"road":"","cls":"tertiary","shops":0,"st_km":2.25,"mesh":"52397029"},"geometry":{"type":"LineString","coordinates":[[139.12089,35.27457],[139.12074,35.27438]]}},{"type":"Feature","properties":{"idx":23,"road":"","cls":"tertiary","shops":0,"st_km":2.43,"mesh":"52397029"},"geometry":{"type":"LineString","coordinates":[[139.11782,35.2748],[139.11784,35.27488]]}},{"type":"Feature","properties":{"idx":22,"road":"","cls":"tertiary","shops":0,"st_km":2.44,"mesh":"52397029"},"geometry":{"type":"LineString","coordinates":[[139.11781,35.2746],[139.11782,35.2748]]}},{"type":"Feature","properties":{"idx":106,"road":"","cls":"tertiary","shops":0,"st_km":2.52,"mesh":"52397039"},"geometry":{"type":"LineString","coordinates":[[139.11101,35.27336],[139.1117,35.27385],[139.11224,35.27439],[139.11272,35.27456],[139.11376,35.2748],[139.11524,35.27527],[139.11743,35.27501],[139.1186,35.27471],[139.12043,35.27455],[139.12089,35.27457]]}},{"type":"Feature","properties":{"idx":15,"road":"","cls":"tertiary","shops":0,"st_km":2.97,"mesh":"52397028"},"geometry":{"type":"LineString","coordinates":[[139.11098,35.27324],[139.11101,35.27336]]}},{"type":"Feature","properties":{"idx":25,"road":"","cls":"tertiary","shops":0,"st_km":0.64,"mesh":"52397003"},"geometry":{"type":"LineString","coordinates":[[139.04789,35.25662],[139.04798,35.25643]]}},{"type":"Feature","properties":{"idx":41,"road":"仙石原強羅停車場線","cls":"secondary","shops":0,"st_km":0.83,"mesh":"52397002"},"geometry":{"type":"LineString","coordinates":[[139.03057,35.2525],[139.03047,35.2526]]}},{"type":"Feature","properties":{"idx":26,"road":"仙石原強羅停車場線","cls":"secondary","shops":0,"st_km":0.49,"mesh":"52397003"},"geometry":{"type":"LineString","coordinates":[[139.04049,35.25265],[139.04029,35.25256],[139.03969,35.25277],[139.0395,35.25274]]}},{"type":"Feature","properties":{"idx":35,"road":"","cls":"tertiary","shops":0,"st_km":1.15,"mesh":"52397059"},"geometry":{"type":"LineString","coordinates":[[139.11452,35.29859],[139.11447,35.2987]]}},{"type":"Feature","properties":{"idx":35,"road":"","cls":"tertiary","shops":0,"st_km":1.15,"mesh":"52397059"},"geometry":{"type":"LineString","coordinates":[[139.11454,35.29857],[139.11452,35.29859]]}},{"type":"Feature","properties":{"idx":3,"road":"","cls":"tertiary","shops":0,"st_km":1.88,"mesh":"52397058"},"geometry":{"type":"LineString","coordinates":[[139.10914,35.29262],[139.10892,35.29259]]}},{"type":"Feature","properties":{"idx":3,"road":"","cls":"tertiary","shops":0,"st_km":1.86,"mesh":"52397058"},"geometry":{"type":"LineString","coordinates":[[139.10934,35.29266],[139.10914,35.29262]]}},{"type":"Feature","properties":{"idx":240,"road":"関本小涌谷線","cls":"secondary","shops":8,"st_km":0.09,"mesh":"52397003"},"geometry":{"type":"LineString","coordinates":[[139.04837,35.25002],[139.04861,35.25007]]}},{"type":"Feature","properties":{"idx":27,"road":"仙石原強羅停車場線","cls":"secondary","shops":0,"st_km":0.46,"mesh":"52397003"},"geometry":{"type":"LineString","coordinates":[[139.04446,35.25137],[139.04296,35.25283],[139.04229,35.25327],[139.04186,35.25346],[139.0409,35.25361],[139.04051,35.2536],[139.04042,35.25354],[139.04036,35.25341],[139.04051,35.25276],[139.04049,35.25265]]}},{"type":"Feature","properties":{"idx":36,"road":"仙石原強羅停車場線","cls":"secondary","shops":0,"st_km":0.85,"mesh":"52397002"},"geometry":{"type":"LineString","coordinates":[[139.03621,35.25152],[139.03567,35.25168],[139.0354,35.25184],[139.03414,35.25329],[139.03341,35.25407],[139.03316,35.25416],[139.03231,35.25383],[139.03215,35.25373],[139.03184,35.25316],[139.03136,35.25271],[139.03106,35.2525],[139.03079,35.25237],[139.03057,35.2525]]}},{"type":"Feature","properties":{"idx":61,"road":"仙石原強羅停車場線","cls":"secondary","shops":1,"st_km":0.02,"mesh":"52397003"},"geometry":{"type":"LineString","coordinates":[[139.04795,35.25114],[139.04802,35.25096],[139.04546,35.25003],[139.04487,35.25049],[139.04485,35.25055],[139.04496,35.25077],[139.04494,35.25083],[139.04446,35.25137]]}},{"type":"Feature","properties":{"idx":10,"road":"はこね金太郎ライン","cls":"secondary","shops":0,"st_km":5.32,"mesh":"52397051"},"geometry":{"type":"LineString","coordinates":[[139.0162,35.29348],[139.01609,35.29305]]}},{"type":"Feature","properties":{"idx":10,"road":"はこね金太郎ライン","cls":"secondary","shops":0,"st_km":5.38,"mesh":"52397051"},"geometry":{"type":"LineString","coordinates":[[139.01609,35.29305],[139.0161,35.29283],[139.0162,35.2926],[139.01646,35.29238],[139.01698,35.29214],[139.017,35.29204],[139.01692,35.29193]]}},{"type":"Feature","properties":{"idx":719,"road":"小田原山北線","cls":"primary","shops":6,"st_km":0.09,"mesh":"52397088"},"geometry":{"type":"LineString","coordinates":[[139.10303,35.31954],[139.10254,35.31884]]}},{"type":"Feature","properties":{"idx":5,"road":"関本小涌谷線","cls":"secondary","shops":0,"st_km":2.72,"mesh":"52397066"},"geometry":{"type":"LineString","coordinates":[[139.07862,35.30513],[139.07925,35.30552]]}},{"type":"Feature","properties":{"idx":255,"road":"関本小涌谷線","cls":"secondary","shops":0,"st_km":0.54,"mesh":"52397078"},"geometry":{"type":"LineString","coordinates":[[139.1012,35.317],[139.09958,35.3144],[139.09938,35.31428],[139.0989,35.3142],[139.09846,35.31419],[139.09834,35.31412]]}},{"type":"Feature","properties":{"idx":54,"road":"関本小涌谷線","cls":"secondary","shops":0,"st_km":0.74,"mesh":"52397077"},"geometry":{"type":"LineString","coordinates":[[139.09834,35.31412],[139.09824,35.31405]]}},{"type":"Feature","properties":{"idx":186,"road":"小田原山北線","cls":"primary","shops":0,"st_km":1.06,"mesh":"52397098"},"geometry":{"type":"LineString","coordinates":[[139.10686,35.32799],[139.10683,35.32844]]}},{"type":"Feature","properties":{"idx":191,"road":"小田原山北線","cls":"primary","shops":0,"st_km":1.02,"mesh":"52397098"},"geometry":{"type":"LineString","coordinates":[[139.10688,35.32768],[139.10686,35.32799]]}},{"type":"Feature","properties":{"idx":153,"road":"","cls":"tertiary","shops":0,"st_km":1.02,"mesh":"52397098"},"geometry":{"type":"LineString","coordinates":[[139.10688,35.32768],[139.10704,35.32771],[139.10733,35.32792]]}},{"type":"Feature","properties":{"idx":150,"road":"","cls":"tertiary","shops":0,"st_km":1.05,"mesh":"52397098"},"geometry":{"type":"LineString","coordinates":[[139.10733,35.32792],[139.10747,35.32802]]}},{"type":"Feature","properties":{"idx":91,"road":"御殿場大井線","cls":"primary","shops":0,"st_km":0.74,"mesh":"52397088"},"geometry":{"type":"LineString","coordinates":[[139.11161,35.32432],[139.11089,35.32405]]}},{"type":"Feature","properties":{"idx":389,"road":"御殿場大井線","cls":"primary","shops":0,"st_km":0.96,"mesh":"52397099"},"geometry":{"type":"LineString","coordinates":[[139.11719,35.32624],[139.11246,35.32466],[139.11187,35.32443]]}},{"type":"Feature","properties":{"idx":702,"road":"御殿場大井線","cls":"primary","shops":2,"st_km":1.15,"mesh":"52397099"},"geometry":{"type":"LineString","coordinates":[[139.11726,35.32628],[139.11719,35.32624]]}},{"type":"Feature","properties":{"idx":11,"road":"御殿場大井線","cls":"primary","shops":0,"st_km":4.48,"mesh":"52397094"},"geometry":{"type":"LineString","coordinates":[[139.05248,35.32507],[139.05366,35.32622],[139.05411,35.32661],[139.05593,35.3279]]}},{"type":"Feature","properties":{"idx":367,"road":"御殿場大井線","cls":"primary","shops":0,"st_km":1.16,"mesh":"52397099"},"geometry":{"type":"LineString","coordinates":[[139.12452,35.32947],[139.12229,35.3285]]}},{"type":"Feature","properties":{"idx":359,"road":"","cls":"tertiary","shops":0,"st_km":0.38,"mesh":"52397079"},"geometry":{"type":"LineString","coordinates":[[139.11474,35.31353],[139.11543,35.3138]]}},{"type":"Feature","properties":{"idx":411,"road":"小田原山北線","cls":"primary","shops":1,"st_km":0.64,"mesh":"52397069"},"geometry":{"type":"LineString","coordinates":[[139.12207,35.30876],[139.12284,35.3078],[139.1235,35.30662],[139.12457,35.30405]]}},{"type":"Feature","properties":{"idx":528,"road":"","cls":"pedestrian","shops":15,"st_km":0.04,"mesh":"52397003"},"geometry":{"type":"LineString","coordinates":[[139.04824,35.25054],[139.04822,35.25045],[139.04775,35.25038]]}},{"type":"Feature","properties":{"idx":127,"road":"仙石原強羅停車場線","cls":"secondary","shops":0,"st_km":1.46,"mesh":"52397001"},"geometry":{"type":"LineString","coordinates":[[139.02193,35.25292],[139.02191,35.25297]]}},{"type":"Feature","properties":{"idx":48,"road":"仙石原強羅停車場線","cls":"secondary","shops":0,"st_km":0.5,"mesh":"52397002"},"geometry":{"type":"LineString","coordinates":[[139.03656,35.25142],[139.03621,35.25152]]}},{"type":"Feature","properties":{"idx":26,"road":"仙石原強羅停車場線","cls":"secondary","shops":0,"st_km":0.49,"mesh":"52397003"},"geometry":{"type":"LineString","coordinates":[[139.0395,35.25274],[139.03932,35.25278],[139.0386,35.25267],[139.0382,35.25234],[139.03805,35.25214],[139.03766,35.25205],[139.03719,35.25183],[139.03704,35.25172],[139.03688,35.25148],[139.03679,35.25141],[139.03656,35.25142]]}},{"type":"Feature","properties":{"idx":89,"road":"御殿場大井線","cls":"primary","shops":0,"st_km":0.77,"mesh":"52397088"},"geometry":{"type":"LineString","coordinates":[[139.11187,35.32443],[139.11161,35.32432]]}}]}