{"type":"FeatureCollection","features":[{"type":"Feature","properties":{"idx":183,"road":NaN,"cls":"tertiary","shops":3,"st_km":4.34,"mesh":"52395479"},"geometry":{"type":"LineString","coordinates":[[139.6136,35.14285],[139.61476,35.14213],[139.61572,35.14191],[139.61674,35.14133],[139.61701,35.14127],[139.61729,35.14126],[139.61758,35.14131],[139.61775,35.1414]]}},{"type":"Feature","properties":{"idx":81,"road":NaN,"cls":"tertiary","shops":0,"st_km":2.32,"mesh":"52395499"},"geometry":{"type":"LineString","coordinates":[[139.62114,35.15905],[139.6215,35.15957],[139.62174,35.16032]]}},{"type":"Feature","properties":{"idx":95,"road":"城ヶ島大橋","cls":"tertiary","shops":1,"st_km":4.33,"mesh":"52395469"},"geometry":{"type":"LineString","coordinates":[[139.62375,35.14038],[139.62342,35.13959]]}},{"type":"Feature","properties":{"idx":92,"road":NaN,"cls":"tertiary","shops":0,"st_km":3.19,"mesh":"52395489"},"geometry":{"type":"LineString","coordinates":[[139.61464,35.15396],[139.61507,35.15383],[139.61582,35.15329],[139.61607,35.15316],[139.6167,35.15289],[139.61701,35.15285]]}},{"type":"Feature","properties":{"idx":92,"road":NaN,"cls":"tertiary","shops":0,"st_km":3.26,"mesh":"52395489"},"geometry":{"type":"LineString","coordinates":[[139.61098,35.15433],[139.61158,35.15471],[139.61213,35.15448],[139.61237,35.15432],[139.61293,35.15413],[139.61464,35.15396]]}},{"type":"Feature","properties":{"idx":75,"road":NaN,"cls":"tertiary","shops":0,"st_km":3.87,"mesh":"52395479"},"geometry":{"type":"LineString","coordinates":[[139.61758,35.14721],[139.6174,35.14707],[139.6163,35.14694],[139.61604,35.14683],[139.61582,35.14666],[139.61565,35.14643],[139.61483,35.14476]]}},{"type":"Feature","properties":{"idx":76,"road":"西海岸線","cls":"tertiary","shops":0,"st_km":3.6,"mesh":"52395479"},"geometry":{"type":"LineString","coordinates":[[139.61641,35.15122],[139.61567,35.15046],[139.61558,35.1502],[139.61561,35.14988],[139.61629,35.1486],[139.61656,35.14835],[139.61732,35.14788],[139.61752,35.14767],[139.61762,35.14742],[139.61758,35.14721]]}},{"type":"Feature","properties":{"idx":77,"road":NaN,"cls":"tertiary","shops":0,"st_km":3.41,"mesh":"52395479"},"geometry":{"type":"LineString","coordinates":[[139.62162,35.14909],[139.62205,35.14886]]}},{"type":"Feature","properties":{"idx":93,"road":NaN,"cls":"tertiary","shops":0,"st_km":3.18,"mesh":"52395489"},"geometry":{"type":"LineString","coordinates":[[139.61714,35.15282],[139.61742,35.1527]]}},{"type":"Feature","properties":{"idx":62,"road":NaN,"cls":"tertiary","shops":0,"st_km":5.07,"mesh":"52395469"},"geometry":{"type":"LineString","coordinates":[[139.62258,35.13288],[139.62229,35.13326],[139.62211,35.13339],[139.62151,35.13355],[139.62089,35.13357],[139.62073,35.13366],[139.62065,35.13404],[139.62066,35.13415],[139.62075,35.13426],[139.62126,35.13454]]}},{"type":"Feature","properties":{"idx":77,"road":NaN,"cls":"tertiary","shops":0,"st_km":3.45,"mesh":"52395479"},"geometry":{"type":"LineString","coordinates":[[139.62313,35.14833],[139.62347,35.14817]]}},{"type":"Feature","properties":{"idx":5,"road":NaN,"cls":"tertiary","shops":1,"st_km":4.53,"mesh":"52395478"},"geometry":{"type":"LineString","coordinates":[[139.61144,35.14598],[139.60817,35.1427],[139.60973,35.14167],[139.6101,35.14154],[139.61153,35.14294]]}},{"type":"Feature","properties":{"idx":64,"road":NaN,"cls":"tertiary","shops":0,"st_km":4.16,"mesh":"52395469"},"geometry":{"type":"LineString","coordinates":[[139.6243,35.14148],[139.62426,35.14142]]}},{"type":"Feature","properties":{"idx":64,"road":NaN,"cls":"tertiary","shops":0,"st_km":4.2,"mesh":"52395469"},"geometry":{"type":"LineString","coordinates":[[139.62423,35.14136],[139.62395,35.14084]]}},{"type":"Feature","properties":{"idx":77,"road":NaN,"cls":"tertiary","shops":0,"st_km":3.45,"mesh":"52395479"},"geometry":{"type":"LineString","coordinates":[[139.62412,35.14801],[139.62434,35.14798]]}},{"type":"Feature","properties":{"idx":77,"road":NaN,"cls":"tertiary","shops":0,"st_km":3.46,"mesh":"52395479"},"geometry":{"type":"LineString","coordinates":[[139.62514,35.14757],[139.6249,35.14776],[139.62434,35.14798]]}},{"type":"Feature","properties":{"idx":77,"road":NaN,"cls":"tertiary","shops":0,"st_km":3.44,"mesh":"52395479"},"geometry":{"type":"LineString","coordinates":[[139.62313,35.14833],[139.62261,35.14857]]}},{"type":"Feature","properties":{"idx":94,"road":"西海岸線","cls":"tertiary","shops":0,"st_km":3.07,"mesh":"52395489"},"geometry":{"type":"LineString","coordinates":[[139.61641,35.15122],[139.61675,35.15157],[139.61692,35.15181],[139.61733,35.15297],[139.61749,35.15321],[139.6179,35.1535],[139.61885,35.1538],[139.6192,35.1541],[139.61931,35.1543],[139.61972,35.15567]]}},{"type":"Feature","properties":{"idx":91,"road":NaN,"cls":"tertiary","shops":0,"st_km":3.28,"mesh":"52395489"},"geometry":{"type":"LineString","coordinates":[[139.61641,35.15122],[139.61626,35.15138],[139.61624,35.15162],[139.61701,35.15285]]}},{"type":"Feature","properties":{"idx":3,"road":NaN,"cls":"tertiary","shops":0,"st_km":4.26,"mesh":"52395478"},"geometry":{"type":"LineString","coordinates":[[139.61296,35.14442],[139.61194,35.14341],[139.61203,35.14334]]}},{"type":"Feature","properties":{"idx":91,"road":NaN,"cls":"tertiary","shops":0,"st_km":3.37,"mesh":"52395489"},"geometry":{"type":"LineString","coordinates":[[139.61783,35.15066],[139.61725,35.15089]]}},{"type":"Feature","properties":{"idx":74,"road":NaN,"cls":"tertiary","shops":0,"st_km":4.17,"mesh":"52395479"},"geometry":{"type":"LineString","coordinates":[[139.613,35.1439],[139.61355,35.14408],[139.61423,35.14411],[139.61466,35.14449],[139.61483,35.14476]]}},{"type":"Feature","properties":{"idx":75,"road":NaN,"cls":"tertiary","shops":0,"st_km":3.91,"mesh":"52395479"},"geometry":{"type":"LineString","coordinates":[[139.6244,35.14369],[139.62448,35.14372]]}},{"type":"Feature","properties":{"idx":103,"road":NaN,"cls":"tertiary","shops":0,"st_km":2.59,"mesh":"52395489"},"geometry":{"type":"LineString","coordinates":[[139.61972,35.15567],[139.6201,35.1562],[139.62026,35.15659],[139.62023,35.15797],[139.62028,35.15819],[139.62045,35.15844],[139.62114,35.15905]]}},{"type":"Feature","properties":{"idx":77,"road":NaN,"cls":"tertiary","shops":0,"st_km":3.46,"mesh":"52395479"},"geometry":{"type":"LineString","coordinates":[[139.62347,35.14817],[139.62412,35.14801]]}},{"type":"Feature","properties":{"idx":91,"road":NaN,"cls":"tertiary","shops":0,"st_km":3.37,"mesh":"52395489"},"geometry":{"type":"LineString","coordinates":[[139.61641,35.15122],[139.61725,35.15089]]}},{"type":"Feature","properties":{"idx":110,"road":NaN,"cls":"tertiary","shops":1,"st_km":4.38,"mesh":"52395479"},"geometry":{"type":"LineString","coordinates":[[139.61411,35.14194],[139.6146,35.14183],[139.61488,35.14209]]}},{"type":"Feature","properties":{"idx":112,"road":NaN,"cls":"tertiary","shops":1,"st_km":3.95,"mesh":"52395479"},"geometry":{"type":"LineString","coordinates":[[139.62359,35.14317],[139.6244,35.14369]]}},{"type":"Feature","properties":{"idx":78,"road":NaN,"cls":"tertiary","shops":0,"st_km":3.38,"mesh":"52395479"},"geometry":{"type":"LineString","coordinates":[[139.62162,35.14909],[139.62086,35.14956],[139.62059,35.14981],[139.62043,35.15009]]}},{"type":"Feature","properties":{"idx":92,"road":NaN,"cls":"tertiary","shops":0,"st_km":3.28,"mesh":"52395489"},"geometry":{"type":"LineString","coordinates":[[139.61976,35.15125],[139.62007,35.15086],[139.62043,35.15009]]}},{"type":"Feature","properties":{"idx":62,"road":NaN,"cls":"tertiary","shops":0,"st_km":5.02,"mesh":"52395469"},"geometry":{"type":"LineString","coordinates":[[139.62079,35.13574],[139.6201,35.13581],[139.6193,35.13576],[139.61731,35.13532],[139.61629,35.13501],[139.61462,35.13544],[139.6126,35.13632]]}},{"type":"Feature","properties":{"idx":74,"road":NaN,"cls":"tertiary","shops":0,"st_km":4.08,"mesh":"52395479"},"geometry":{"type":"LineString","coordinates":[[139.6216,35.14204],[139.62134,35.14243],[139.62058,35.14303],[139.62039,35.14324],[139.62018,35.14376]]}},{"type":"Feature","properties":{"idx":77,"road":NaN,"cls":"tertiary","shops":0,"st_km":3.41,"mesh":"52395479"},"geometry":{"type":"LineString","coordinates":[[139.62005,35.14862],[139.6187,35.15022],[139.61839,35.15044],[139.61783,35.15066]]}},{"type":"Feature","properties":{"idx":93,"road":NaN,"cls":"tertiary","shops":0,"st_km":3.18,"mesh":"52395489"},"geometry":{"type":"LineString","coordinates":[[139.61976,35.15125],[139.6189,35.15208],[139.61742,35.1527]]}},{"type":"Feature","properties":{"idx":63,"road":NaN,"cls":"tertiary","shops":0,"st_km":4.32,"mesh":"52395469"},"geometry":{"type":"LineString","coordinates":[[139.62305,35.14202],[139.6228,35.14162],[139.62269,35.14124],[139.62238,35.14068],[139.62243,35.14023],[139.62261,35.13997],[139.62277,35.13986],[139.62415,35.13936]]}},{"type":"Feature","properties":{"idx":74,"road":NaN,"cls":"tertiary","shops":0,"st_km":4.09,"mesh":"52395479"},"geometry":{"type":"LineString","coordinates":[[139.62518,35.14261],[139.62459,35.14192],[139.6243,35.14148]]}},{"type":"Feature","properties":{"idx":143,"road":"横須賀三崎線","cls":"primary","shops":1,"st_km":3.63,"mesh":"52395479"},"geometry":{"type":"LineString","coordinates":[[139.62482,35.14726],[139.6244,35.1468],[139.62388,35.1465],[139.6229,35.1462],[139.62225,35.14615]]}},{"type":"Feature","properties":{"idx":141,"road":"横須賀三崎線","cls":"primary","shops":1,"st_km":3.74,"mesh":"52395479"},"geometry":{"type":"LineString","coordinates":[[139.62194,35.14617],[139.62162,35.14616],[139.62134,35.14607],[139.62086,35.14576],[139.62058,35.14549]]}},{"type":"Feature","properties":{"idx":94,"road":"横須賀三崎線","cls":"primary","shops":0,"st_km":3.88,"mesh":"52395479"},"geometry":{"type":"LineString","coordinates":[[139.62055,35.14547],[139.62013,35.145],[139.61996,35.14431]]}},{"type":"Feature","properties":{"idx":79,"road":"横須賀三崎線","cls":"primary","shops":0,"st_km":4.49,"mesh":"52395469"},"geometry":{"type":"LineString","coordinates":[[139.61803,35.14104],[139.61802,35.14088],[139.61791,35.14072],[139.61756,35.14036],[139.61881,35.13953],[139.61903,35.13945],[139.6197,35.13952],[139.62088,35.14071]]}},{"type":"Feature","properties":{"idx":147,"road":NaN,"cls":"tertiary","shops":2,"st_km":4.39,"mesh":"52395479"},"geometry":{"type":"LineString","coordinates":[[139.61499,35.14207],[139.61478,35.14183],[139.61463,35.14176],[139.61411,35.14194]]}},{"type":"Feature","properties":{"idx":73,"road":NaN,"cls":"tertiary","shops":0,"st_km":4.39,"mesh":"52395479"},"geometry":{"type":"LineString","coordinates":[[139.61411,35.14194],[139.61153,35.14294]]}},{"type":"Feature","properties":{"idx":3,"road":NaN,"cls":"tertiary","shops":0,"st_km":4.52,"mesh":"52395478"},"geometry":{"type":"LineString","coordinates":[[139.61213,35.14269],[139.61078,35.14133],[139.61071,35.14131],[139.6101,35.14154]]}},{"type":"Feature","properties":{"idx":63,"road":NaN,"cls":"tertiary","shops":0,"st_km":4.4,"mesh":"52395469"},"geometry":{"type":"LineString","coordinates":[[139.61556,35.14136],[139.61471,35.14167],[139.6146,35.14183]]}},{"type":"Feature","properties":{"idx":84,"road":"上宮田金田三崎港線","cls":"secondary","shops":0,"st_km":4.01,"mesh":"52395479"},"geometry":{"type":"LineString","coordinates":[[139.62401,35.14279],[139.62395,35.14289]]}},{"type":"Feature","properties":{"idx":125,"road":"上宮田金田三崎港線","cls":"secondary","shops":1,"st_km":4.03,"mesh":"52395479"},"geometry":{"type":"LineString","coordinates":[[139.62395,35.14289],[139.62372,35.14311],[139.62359,35.14317],[139.62276,35.14308],[139.62223,35.14277],[139.6216,35.14204]]}},{"type":"Feature","properties":{"idx":3,"road":NaN,"cls":"tertiary","shops":0,"st_km":4.37,"mesh":"52395478"},"geometry":{"type":"LineString","coordinates":[[139.60966,35.14419],[139.61153,35.14294]]}},{"type":"Feature","properties":{"idx":3,"road":NaN,"cls":"tertiary","shops":0,"st_km":4.49,"mesh":"52395478"},"geometry":{"type":"LineString","coordinates":[[139.6088,35.14332],[139.61066,35.14207]]}},{"type":"Feature","properties":{"idx":64,"road":NaN,"cls":"tertiary","shops":0,"st_km":4.26,"mesh":"52395469"},"geometry":{"type":"LineString","coordinates":[[139.62395,35.14084],[139.62375,35.14038]]}},{"type":"Feature","properties":{"idx":77,"road":NaN,"cls":"tertiary","shops":0,"st_km":3.42,"mesh":"52395479"},"geometry":{"type":"LineString","coordinates":[[139.62205,35.14886],[139.62261,35.14857]]}},{"type":"Feature","properties":{"idx":13,"road":NaN,"cls":"pedestrian","shops":1,"st_km":5.18,"mesh":"52395459"},"geometry":{"type":"LineString","coordinates":[[139.62235,35.1331],[139.62257,35.13277],[139.62388,35.13188],[139.62407,35.13208],[139.6243,35.1319]]}},{"type":"Feature","properties":{"idx":13,"road":NaN,"cls":"pedestrian","shops":1,"st_km":5.31,"mesh":"52395459"},"geometry":{"type":"LineString","coordinates":[[139.6243,35.1319],[139.62378,35.13132],[139.62376,35.13118],[139.62383,35.13103],[139.62406,35.13096],[139.62533,35.13096]]}},{"type":"Feature","properties":{"idx":141,"road":"横須賀三崎線","cls":"primary","shops":1,"st_km":3.81,"mesh":"52395479"},"geometry":{"type":"LineString","coordinates":[[139.62058,35.14549],[139.62055,35.14547]]}},{"type":"Feature","properties":{"idx":87,"road":"油壷線","cls":"secondary","shops":0,"st_km":2.48,"mesh":"52395499"},"geometry":{"type":"LineString","coordinates":[[139.61531,35.16086],[139.61566,35.16082],[139.61623,35.16092],[139.61697,35.16082]]}},{"type":"Feature","properties":{"idx":91,"road":"油壷線","cls":"secondary","shops":0,"st_km":2.34,"mesh":"52395499"},"geometry":{"type":"LineString","coordinates":[[139.61703,35.16081],[139.61832,35.16081],[139.61866,35.16076],[139.61999,35.16023],[139.62027,35.16018],[139.62174,35.16032]]}},{"type":"Feature","properties":{"idx":3,"road":NaN,"cls":"tertiary","shops":0,"st_km":4.36,"mesh":"52395478"},"geometry":{"type":"LineString","coordinates":[[139.61153,35.14294],[139.6117,35.14316],[139.61203,35.14334]]}},{"type":"Feature","properties":{"idx":234,"road":"油壷線","cls":"secondary","shops":3,"st_km":2.23,"mesh":"52395499"},"geometry":{"type":"LineString","coordinates":[[139.62174,35.16032],[139.6223,35.16038]]}},{"type":"Feature","properties":{"idx":85,"road":"油壷線","cls":"secondary","shops":0,"st_km":2.56,"mesh":"52395499"},"geometry":{"type":"LineString","coordinates":[[139.61336,35.16146],[139.61531,35.16086]]}},{"type":"Feature","properties":{"idx":138,"road":"横須賀三崎線","cls":"primary","shops":1,"st_km":4.18,"mesh":"52395479"},"geometry":{"type":"LineString","coordinates":[[139.61848,35.14334],[139.61815,35.14321],[139.61804,35.14309],[139.61808,35.14212],[139.61802,35.14191]]}},{"type":"Feature","properties":{"idx":72,"road":"上宮田金田三崎港線","cls":"secondary","shops":0,"st_km":4.17,"mesh":"52395469"},"geometry":{"type":"LineString","coordinates":[[139.62427,35.14142],[139.62371,35.14147],[139.62349,35.14154],[139.62305,35.14202]]}},{"type":"Feature","properties":{"idx":93,"road":NaN,"cls":"tertiary","shops":0,"st_km":3.18,"mesh":"52395489"},"geometry":{"type":"LineString","coordinates":[[139.61701,35.15285],[139.61714,35.15282]]}},{"type":"Feature","properties":{"idx":62,"road":NaN,"cls":"tertiary","shops":0,"st_km":5.04,"mesh":"52395469"},"geometry":{"type":"LineString","coordinates":[[139.62166,35.13549],[139.62126,35.13454],[139.62113,35.13413],[139.62126,35.13388],[139.62159,35.13376],[139.62175,35.13379],[139.62194,35.1339],[139.62211,35.13419],[139.62226,35.13462],[139.62221,35.13493],[139.62191,35.13549]]}},{"type":"Feature","properties":{"idx":63,"road":NaN,"cls":"tertiary","shops":0,"st_km":4.84,"mesh":"52395469"},"geometry":{"type":"LineString","coordinates":[[139.62191,35.13549],[139.62162,35.13563],[139.62079,35.13574]]}},{"type":"Feature","properties":{"idx":57,"road":NaN,"cls":"tertiary","shops":0,"st_km":3.35,"mesh":"52395488"},"geometry":{"type":"LineString","coordinates":[[139.61056,35.15431],[139.61098,35.15433]]}},{"type":"Feature","properties":{"idx":176,"road":NaN,"cls":"secondary","shops":2,"st_km":2.44,"mesh":"52395499"},"geometry":{"type":"LineString","coordinates":[[139.61697,35.16082],[139.61703,35.16081]]}},{"type":"Feature","properties":{"idx":3,"road":NaN,"cls":"tertiary","shops":0,"st_km":4.31,"mesh":"52395478"},"geometry":{"type":"LineString","coordinates":[[139.61203,35.14334],[139.61221,35.1435],[139.61237,35.14353]]}},{"type":"Feature","properties":{"idx":3,"road":NaN,"cls":"tertiary","shops":0,"st_km":4.36,"mesh":"52395478"},"geometry":{"type":"LineString","coordinates":[[139.61203,35.14334],[139.61166,35.14298],[139.61153,35.14294]]}},{"type":"Feature","properties":{"idx":3,"road":NaN,"cls":"tertiary","shops":0,"st_km":4.34,"mesh":"52395478"},"geometry":{"type":"LineString","coordinates":[[139.6117,35.14316],[139.61194,35.14341]]}},{"type":"Feature","properties":{"idx":460,"road":"横須賀三崎線","cls":"primary","shops":8,"st_km":4.28,"mesh":"52395479"},"geometry":{"type":"LineString","coordinates":[[139.61802,35.14191],[139.61786,35.14163]]}},{"type":"Feature","properties":{"idx":476,"road":"横須賀三崎線","cls":"primary","shops":10,"st_km":4.31,"mesh":"52395469"},"geometry":{"type":"LineString","coordinates":[[139.61786,35.14163],[139.61775,35.1414]]}},{"type":"Feature","properties":{"idx":93,"road":"横須賀三崎線","cls":"primary","shops":0,"st_km":4.06,"mesh":"52395479"},"geometry":{"type":"LineString","coordinates":[[139.61924,35.14354],[139.61912,35.14348]]}},{"type":"Feature","properties":{"idx":147,"road":NaN,"cls":"tertiary","shops":2,"st_km":4.31,"mesh":"52395479"},"geometry":{"type":"LineString","coordinates":[[139.61259,35.14327],[139.61301,35.14319],[139.6136,35.14285]]}},{"type":"Feature","properties":{"idx":5,"road":NaN,"cls":"tertiary","shops":1,"st_km":4.31,"mesh":"52395478"},"geometry":{"type":"LineString","coordinates":[[139.61237,35.14353],[139.61244,35.14337],[139.61259,35.14327]]}},{"type":"Feature","properties":{"idx":74,"road":NaN,"cls":"tertiary","shops":0,"st_km":4.25,"mesh":"52395479"},"geometry":{"type":"LineString","coordinates":[[139.61256,35.14376],[139.613,35.1439]]}},{"type":"Feature","properties":{"idx":3,"road":NaN,"cls":"tertiary","shops":0,"st_km":4.28,"mesh":"52395478"},"geometry":{"type":"LineString","coordinates":[[139.61237,35.14353],[139.61241,35.14367],[139.61256,35.14376]]}},{"type":"Feature","properties":{"idx":75,"road":NaN,"cls":"tertiary","shops":0,"st_km":3.91,"mesh":"52395479"},"geometry":{"type":"LineString","coordinates":[[139.62448,35.14372],[139.62455,35.14375]]}},{"type":"Feature","properties":{"idx":72,"road":"上宮田金田三崎港線","cls":"secondary","shops":0,"st_km":4.14,"mesh":"52395469"},"geometry":{"type":"LineString","coordinates":[[139.62537,35.14182],[139.62475,35.14147],[139.62427,35.14142]]}},{"type":"Feature","properties":{"idx":64,"road":NaN,"cls":"tertiary","shops":0,"st_km":4.17,"mesh":"52395469"},"geometry":{"type":"LineString","coordinates":[[139.62426,35.14142],[139.62423,35.14136]]}},{"type":"Feature","properties":{"idx":74,"road":NaN,"cls":"tertiary","shops":0,"st_km":3.98,"mesh":"52395479"},"geometry":{"type":"LineString","coordinates":[[139.62018,35.14376],[139.61996,35.14431]]}},{"type":"Feature","properties":{"idx":93,"road":"横須賀三崎線","cls":"primary","shops":0,"st_km":4.0,"mesh":"52395479"},"geometry":{"type":"LineString","coordinates":[[139.61996,35.14431],[139.61944,35.14371],[139.61924,35.14354]]}},{"type":"Feature","properties":{"idx":139,"road":"横須賀三崎線","cls":"primary","shops":1,"st_km":4.08,"mesh":"52395479"},"geometry":{"type":"LineString","coordinates":[[139.61912,35.14348],[139.61848,35.14334]]}},{"type":"Feature","properties":{"idx":95,"road":"横須賀三崎線","cls":"primary","shops":0,"st_km":3.7,"mesh":"52395479"},"geometry":{"type":"LineString","coordinates":[[139.62225,35.14615],[139.62194,35.14617]]}},{"type":"Feature","properties":{"idx":77,"road":NaN,"cls":"tertiary","shops":0,"st_km":3.5,"mesh":"52395479"},"geometry":{"type":"LineString","coordinates":[[139.62015,35.1485],[139.62005,35.14862]]}},{"type":"Feature","properties":{"idx":144,"road":"横須賀三崎線","cls":"primary","shops":1,"st_km":3.5,"mesh":"52395479"},"geometry":{"type":"LineString","coordinates":[[139.62514,35.14757],[139.62482,35.14726]]}},{"type":"Feature","properties":{"idx":77,"road":NaN,"cls":"tertiary","shops":0,"st_km":3.51,"mesh":"52395479"},"geometry":{"type":"LineString","coordinates":[[139.62059,35.14828],[139.62048,35.14838]]}},{"type":"Feature","properties":{"idx":77,"road":NaN,"cls":"tertiary","shops":0,"st_km":3.51,"mesh":"52395479"},"geometry":{"type":"LineString","coordinates":[[139.62048,35.14838],[139.62015,35.1485]]}},{"type":"Feature","properties":{"idx":555,"road":"横須賀三崎線","cls":"primary","shops":12,"st_km":4.34,"mesh":"52395469"},"geometry":{"type":"LineString","coordinates":[[139.61775,35.1414],[139.61778,35.14129],[139.61803,35.14104]]}}]}