{"type":"FeatureCollection","features":[{"type":"Feature","properties":{"idx":61,"road":"小田原湯河原線","cls":"secondary","shops":0,"st_km":0.48,"mesh":"52396141"},"geometry":{"type":"LineString","coordinates":[[139.14142,35.20875],[139.14123,35.20868],[139.14115,35.20859],[139.14123,35.20817],[139.14122,35.20799],[139.14077,35.20584],[139.14049,35.20517],[139.14023,35.20473],[139.14014,35.20442],[139.14004,35.20432],[139.13986,35.20428]]}},{"type":"Feature","properties":{"idx":75,"road":"小田原湯河原線","cls":"secondary","shops":0,"st_km":0.21,"mesh":"52396141"},"geometry":{"type":"LineString","coordinates":[[139.13986,35.20428],[139.13962,35.20427]]}},{"type":"Feature","properties":{"idx":242,"road":NaN,"cls":"tertiary","shops":0,"st_km":0.14,"mesh":"52396191"},"geometry":{"type":"LineString","coordinates":[[139.14376,35.24584],[139.14363,35.24542],[139.14338,35.24512]]}},{"type":"Feature","properties":{"idx":635,"road":"一夜城下通り","cls":"tertiary","shops":1,"st_km":0.2,"mesh":"52396190"},"geometry":{"type":"LineString","coordinates":[[139.13114,35.24638],[139.13154,35.24584]]}},{"type":"Feature","properties":{"idx":422,"road":NaN,"cls":"secondary","shops":1,"st_km":0.1,"mesh":"52396181"},"geometry":{"type":"LineString","coordinates":[[139.14613,35.23707],[139.14585,35.23731],[139.14535,35.23806],[139.14531,35.23832],[139.14553,35.23886]]}},{"type":"Feature","properties":{"idx":240,"road":NaN,"cls":"tertiary","shops":0,"st_km":0.9,"mesh":"52396192"},"geometry":{"type":"LineString","coordinates":[[139.16164,35.25071],[139.1618,35.24905],[139.16208,35.2486]]}},{"type":"Feature","properties":{"idx":189,"road":NaN,"cls":"tertiary","shops":0,"st_km":1.19,"mesh":"52396192"},"geometry":{"type":"LineString","coordinates":[[139.15874,35.24544],[139.15854,35.24581]]}},{"type":"Feature","properties":{"idx":238,"road":"西海子小路","cls":"tertiary","shops":0,"st_km":0.71,"mesh":"52396192"},"geometry":{"type":"LineString","coordinates":[[139.15528,35.24524],[139.15063,35.24511]]}},{"type":"Feature","properties":{"idx":217,"road":"旧東海道","cls":"tertiary","shops":0,"st_km":0.25,"mesh":"52396191"},"geometry":{"type":"LineString","coordinates":[[139.14036,35.24696],[139.14082,35.24704],[139.14126,35.24733],[139.14177,35.24756],[139.14202,35.24759],[139.14615,35.24685],[139.14744,35.24646],[139.14765,35.24614]]}},{"type":"Feature","properties":{"idx":300,"road":"小田原停車場線","cls":"primary","shops":0,"st_km":0.69,"mesh":"52396192"},"geometry":{"type":"LineString","coordinates":[[139.15184,35.25009],[139.15056,35.24791]]}},{"type":"Feature","properties":{"idx":358,"road":"小田原停車場線","cls":"primary","shops":0,"st_km":0.5,"mesh":"52396192"},"geometry":{"type":"LineString","coordinates":[[139.15056,35.24791],[139.15004,35.24731],[139.14952,35.24655]]}},{"type":"Feature","properties":{"idx":361,"road":NaN,"cls":"tertiary","shops":1,"st_km":0.9,"mesh":"52396192"},"geometry":{"type":"LineString","coordinates":[[139.15533,35.24881],[139.1552,35.24765],[139.1552,35.24727]]}},{"type":"Feature","properties":{"idx":329,"road":"小田原かまぼこ通り","cls":"tertiary","shops":1,"st_km":1.01,"mesh":"52396192"},"geometry":{"type":"LineString","coordinates":[[139.15796,35.24707],[139.16076,35.248],[139.16251,35.2488]]}},{"type":"Feature","properties":{"idx":49,"road":"旧東海道／小田原かまぼこ通り","cls":"tertiary","shops":1,"st_km":0.97,"mesh":"52396193"},"geometry":{"type":"LineString","coordinates":[[139.16592,35.25196],[139.16264,35.24943],[139.1618,35.24905],[139.15984,35.24838],[139.15974,35.24838]]}},{"type":"Feature","properties":{"idx":53,"road":"小田原湯河原線","cls":"secondary","shops":0,"st_km":1.83,"mesh":"52396100"},"geometry":{"type":"LineString","coordinates":[[139.13142,35.17334],[139.1313,35.17328]]}},{"type":"Feature","properties":{"idx":114,"road":NaN,"cls":"tertiary_link","shops":0,"st_km":0.44,"mesh":"52396191"},"geometry":{"type":"LineString","coordinates":[[139.14113,35.24243],[139.14137,35.2426],[139.14167,35.243]]}},{"type":"Feature","properties":{"idx":171,"road":NaN,"cls":"tertiary_link","shops":1,"st_km":0.43,"mesh":"52396191"},"geometry":{"type":"LineString","coordinates":[[139.14183,35.24294],[139.14148,35.24249],[139.14131,35.24237]]}},{"type":"Feature","properties":{"idx":164,"road":"アネスト岩田 ターンパイク箱根","cls":"tertiary","shops":0,"st_km":0.55,"mesh":"52396191"},"geometry":{"type":"LineString","coordinates":[[139.13982,35.24236],[139.14065,35.24236]]}},{"type":"Feature","properties":{"idx":104,"road":NaN,"cls":"pedestrian","shops":0,"st_km":0.07,"mesh":"52396141"},"geometry":{"type":"LineString","coordinates":[[139.13855,35.20314],[139.13842,35.20321],[139.13835,35.20316]]}},{"type":"Feature","properties":{"idx":260,"road":NaN,"cls":"tertiary","shops":0,"st_km":0.07,"mesh":"52396191"},"geometry":{"type":"LineString","coordinates":[[139.14363,35.24542],[139.14712,35.24394],[139.14765,35.24394]]}},{"type":"Feature","properties":{"idx":3,"road":NaN,"cls":"tertiary","shops":0,"st_km":1.29,"mesh":"52396170"},"geometry":{"type":"LineString","coordinates":[[139.1282,35.22956],[139.12818,35.22987],[139.1281,35.23],[139.12767,35.23041],[139.12752,35.2312],[139.12728,35.23146]]}},{"type":"Feature","properties":{"idx":4,"road":NaN,"cls":"tertiary","shops":0,"st_km":1.08,"mesh":"52396170"},"geometry":{"type":"LineString","coordinates":[[139.12728,35.23146],[139.12693,35.2317],[139.12678,35.2319],[139.12675,35.2321],[139.12688,35.23261],[139.12687,35.23286],[139.12678,35.23303],[139.12655,35.23321]]}},{"type":"Feature","properties":{"idx":340,"road":NaN,"cls":"tertiary","shops":0,"st_km":0.42,"mesh":"52396190"},"geometry":{"type":"LineString","coordinates":[[139.13287,35.2489],[139.13299,35.24901],[139.1336,35.24896],[139.13373,35.24887],[139.13371,35.2486],[139.1334,35.24828],[139.13332,35.24808],[139.13333,35.24791],[139.13343,35.24785],[139.13405,35.24805],[139.13441,35.24828],[139.13452,35.2484],[139.13482,35.24899],[139.13497,35.24916]]}},{"type":"Feature","properties":{"idx":346,"road":NaN,"cls":"tertiary","shops":0,"st_km":0.41,"mesh":"52396190"},"geometry":{"type":"LineString","coordinates":[[139.13287,35.2489],[139.13264,35.24794]]}},{"type":"Feature","properties":{"idx":372,"road":"旧東海道","cls":"tertiary","shops":0,"st_km":0.33,"mesh":"52396190"},"geometry":{"type":"LineString","coordinates":[[139.13246,35.24714],[139.1327,35.24705],[139.1327,35.24692]]}},{"type":"Feature","properties":{"idx":374,"road":NaN,"cls":"tertiary","shops":0,"st_km":0.33,"mesh":"52396190"},"geometry":{"type":"LineString","coordinates":[[139.13246,35.24714],[139.13235,35.24737],[139.13234,35.24752],[139.13264,35.24794]]}},{"type":"Feature","properties":{"idx":3,"road":NaN,"cls":"tertiary","shops":0,"st_km":1.69,"mesh":"52396170"},"geometry":{"type":"LineString","coordinates":[[139.12644,35.22735],[139.12628,35.227],[139.12621,35.22655],[139.12605,35.22607],[139.12544,35.22531],[139.1254,35.2251],[139.12544,35.22488]]}},{"type":"Feature","properties":{"idx":3,"road":NaN,"cls":"tertiary","shops":0,"st_km":1.48,"mesh":"52396170"},"geometry":{"type":"LineString","coordinates":[[139.12644,35.22735],[139.12755,35.22884],[139.12807,35.22935],[139.1282,35.22956]]}},{"type":"Feature","properties":{"idx":4,"road":NaN,"cls":"tertiary","shops":0,"st_km":1.01,"mesh":"52396170"},"geometry":{"type":"LineString","coordinates":[[139.12655,35.23321],[139.1257,35.23234],[139.12541,35.23221],[139.12508,35.23221]]}},{"type":"Feature","properties":{"idx":3,"road":NaN,"cls":"tertiary","shops":0,"st_km":1.83,"mesh":"52396160"},"geometry":{"type":"LineString","coordinates":[[139.12544,35.22488],[139.12571,35.22463]]}},{"type":"Feature","properties":{"idx":199,"road":"安斎小路","cls":"tertiary","shops":0,"st_km":0.92,"mesh":"52396192"},"geometry":{"type":"LineString","coordinates":[[139.15528,35.24727],[139.15532,35.24437]]}},{"type":"Feature","properties":{"idx":3,"road":NaN,"cls":"tertiary","shops":0,"st_km":1.96,"mesh":"52396160"},"geometry":{"type":"LineString","coordinates":[[139.12571,35.22463],[139.12605,35.22456],[139.12631,35.2246],[139.12703,35.22496],[139.12765,35.22513],[139.12919,35.22528],[139.1296,35.22521],[139.12974,35.2251],[139.12986,35.22487],[139.12988,35.22429],[139.13,35.2241],[139.13021,35.22398],[139.1313,35.22369],[139.13175,35.22324],[139.13243,35.22273],[139.13251,35.22261],[139.13256,35.2224],[139.13241,35.22194]]}},{"type":"Feature","properties":{"idx":321,"road":NaN,"cls":"tertiary","shops":1,"st_km":0.27,"mesh":"52396191"},"geometry":{"type":"LineString","coordinates":[[139.14765,35.24394],[139.14778,35.24388]]}},{"type":"Feature","properties":{"idx":316,"road":NaN,"cls":"tertiary","shops":1,"st_km":0.28,"mesh":"52396191"},"geometry":{"type":"LineString","coordinates":[[139.14778,35.24388],[139.14792,35.24382]]}},{"type":"Feature","properties":{"idx":283,"road":NaN,"cls":"secondary","shops":0,"st_km":0.09,"mesh":"52396181"},"geometry":{"type":"LineString","coordinates":[[139.14571,35.2392],[139.14593,35.23924]]}},{"type":"Feature","properties":{"idx":291,"road":NaN,"cls":"secondary","shops":0,"st_km":0.07,"mesh":"52396181"},"geometry":{"type":"LineString","coordinates":[[139.14571,35.2392],[139.14553,35.23886]]}},{"type":"Feature","properties":{"idx":284,"road":"御厨小路","cls":"tertiary","shops":0,"st_km":0.51,"mesh":"52396192"},"geometry":{"type":"LineString","coordinates":[[139.15007,35.24211],[139.15053,35.24267],[139.15065,35.24321],[139.15068,35.24373],[139.15057,35.24673]]}},{"type":"Feature","properties":{"idx":189,"road":NaN,"cls":"tertiary","shops":0,"st_km":0.38,"mesh":"52396181"},"geometry":{"type":"LineString","coordinates":[[139.14735,35.24147],[139.14918,35.24027]]}},{"type":"Feature","properties":{"idx":293,"road":NaN,"cls":"secondary","shops":0,"st_km":0.06,"mesh":"52396181"},"geometry":{"type":"LineString","coordinates":[[139.14553,35.23886],[139.14544,35.23891],[139.14558,35.23922],[139.14571,35.2392]]}},{"type":"Feature","properties":{"idx":69,"road":NaN,"cls":"tertiary","shops":0,"st_km":0.75,"mesh":"52396140"},"geometry":{"type":"LineString","coordinates":[[139.13378,35.20314],[139.13327,35.20271],[139.13286,35.20256],[139.13131,35.20261],[139.13011,35.20247],[139.12996,35.20242],[139.12998,35.20226],[139.13007,35.20222],[139.13102,35.20213],[139.13169,35.2019],[139.1327,35.20165],[139.13281,35.20151]]}},{"type":"Feature","properties":{"idx":85,"road":NaN,"cls":"tertiary","shops":0,"st_km":0.43,"mesh":"52396140"},"geometry":{"type":"LineString","coordinates":[[139.13418,35.20348],[139.13378,35.20314]]}},{"type":"Feature","properties":{"idx":79,"road":NaN,"cls":"tertiary","shops":0,"st_km":0.53,"mesh":"52396140"},"geometry":{"type":"LineString","coordinates":[[139.13245,35.20715],[139.13316,35.20731],[139.13422,35.20721],[139.13439,35.20709],[139.13442,35.20702],[139.13438,35.20688],[139.13391,35.20613],[139.13397,35.20597],[139.13449,35.20551],[139.13451,35.20538],[139.13435,35.20525],[139.13375,35.20528],[139.13364,35.20513],[139.13368,35.20504],[139.13415,35.20468],[139.13444,35.204],[139.13439,35.20369],[139.13418,35.20348]]}},{"type":"Feature","properties":{"idx":36,"road":"小田原湯河原広域農道","cls":"tertiary","shops":0,"st_km":1.03,"mesh":"52396150"},"geometry":{"type":"LineString","coordinates":[[139.12866,35.20983],[139.12865,35.20969],[139.1288,35.20952],[139.1292,35.20942],[139.12957,35.2094],[139.12991,35.20944],[139.13151,35.21015],[139.13182,35.21013],[139.13202,35.21003],[139.13218,35.20988],[139.13221,35.20949],[139.13207,35.20911],[139.1319,35.20892],[139.1314,35.2087],[139.13032,35.20835],[139.13006,35.20817],[139.12999,35.20799]]}},{"type":"Feature","properties":{"idx":539,"road":"お堀端通り","cls":"tertiary","shops":2,"st_km":0.77,"mesh":"52396192"},"geometry":{"type":"LineString","coordinates":[[139.15755,35.24868],[139.15757,35.25005]]}},{"type":"Feature","properties":{"idx":525,"road":NaN,"cls":"tertiary","shops":2,"st_km":0.8,"mesh":"52396192"},"geometry":{"type":"LineString","coordinates":[[139.15131,35.25029],[139.15215,35.24967],[139.15326,35.24922],[139.15342,35.24917],[139.15388,35.24917],[139.15445,35.24906],[139.15523,35.2489],[139.15533,35.24881]]}},{"type":"Feature","properties":{"idx":256,"road":NaN,"cls":"tertiary","shops":0,"st_km":0.83,"mesh":"52396192"},"geometry":{"type":"LineString","coordinates":[[139.15533,35.24881],[139.15545,35.24872],[139.15561,35.24869],[139.15755,35.24868]]}},{"type":"Feature","properties":{"idx":65,"road":NaN,"cls":"tertiary","shops":0,"st_km":1.25,"mesh":"52396100"},"geometry":{"type":"LineString","coordinates":[[139.12233,35.16587],[139.1237,35.16596],[139.12519,35.16621],[139.1256,35.16622],[139.12629,35.1661],[139.12704,35.16591],[139.12739,35.16588],[139.12769,35.16597],[139.12793,35.16622],[139.12796,35.16651],[139.12779,35.1668],[139.12755,35.16692],[139.1269,35.16701],[139.12644,35.16715],[139.12356,35.16902],[139.12347,35.16916],[139.12338,35.1694],[139.12338,35.16966],[139.12362,35.17005],[139.12379,35.17018],[139.12494,35.1707],[139.12514,35.17087],[139.12522,35.17117],[139.12509,35.1717]]}},{"type":"Feature","properties":{"idx":108,"road":"小田原湯河原線","cls":"secondary","shops":0,"st_km":0.28,"mesh":"52396140"},"geometry":{"type":"LineString","coordinates":[[139.13962,35.20427],[139.13927,35.20421],[139.13805,35.20255],[139.13683,35.20219],[139.13657,35.20205],[139.13609,35.20168],[139.1358,35.20155],[139.13474,35.20137],[139.13436,35.20122],[139.13378,35.20117],[139.13359,35.20119],[139.13301,35.20146],[139.13252,35.20159],[139.13122,35.20177],[139.13104,35.20175],[139.13078,35.20166]]}},{"type":"Feature","properties":{"idx":132,"road":"小田原湯河原線","cls":"secondary","shops":0,"st_km":2.01,"mesh":"52396120"},"geometry":{"type":"LineString","coordinates":[[139.1312,35.18565],[139.13111,35.18541]]}},{"type":"Feature","properties":{"idx":78,"road":"小田原湯河原線","cls":"secondary","shops":0,"st_km":0.73,"mesh":"52396140"},"geometry":{"type":"LineString","coordinates":[[139.13078,35.20166],[139.13068,35.20156],[139.13066,35.20141]]}},{"type":"Feature","properties":{"idx":42,"road":"小田原湯河原線","cls":"secondary","shops":0,"st_km":1.22,"mesh":"52396130"},"geometry":{"type":"LineString","coordinates":[[139.13143,35.19664],[139.13164,35.19666],[139.13224,35.19715],[139.13285,35.19786],[139.13337,35.19805],[139.13363,35.19802],[139.13398,35.19784],[139.13429,35.19747],[139.1343,35.19724],[139.13409,35.19696],[139.13406,35.19664],[139.13414,35.19637],[139.13451,35.19595],[139.13454,35.19586],[139.13449,35.1956],[139.13434,35.19539],[139.13418,35.19527],[139.13406,35.19503],[139.13409,35.19433],[139.13383,35.19395],[139.13384,35.19349],[139.13377,35.19327],[139.13361,35.19313],[139.13338,35.19303],[139.1329,35.19302],[139.13268,35.19292],[139.13251,35.19269],[139.13237,35.19216],[139.13245,35.19188],[139.13283,35.19164],[139.13299,35.19115],[139.13336,35.19039],[139.13339,35.1902],[139.13323,35.18971],[139.13327,35.1895],[139.13373,35.18869],[139.13426,35.18823],[139.13433,35.18805],[139.13433,35.18786],[139.1342,35.18768],[139.13405,35.18758],[139.13311,35.18716],[139.13213,35.18648],[139.13198,35.18631],[139.13187,35.18607],[139.13172,35.18594],[139.13146,35.18584],[139.1312,35.18565]]}},{"type":"Feature","properties":{"idx":37,"road":"小田原湯河原線","cls":"secondary","shops":0,"st_km":2.35,"mesh":"52396110"},"geometry":{"type":"LineString","coordinates":[[139.13111,35.18541],[139.13124,35.18509],[139.13137,35.18495],[139.13151,35.18488],[139.13257,35.18462],[139.13278,35.18449],[139.13283,35.18437],[139.1328,35.18423],[139.13239,35.18382],[139.13231,35.18366],[139.13225,35.18296],[139.13244,35.18265],[139.13247,35.18252],[139.13242,35.18219],[139.1326,35.182],[139.13351,35.18191],[139.13383,35.18174],[139.13431,35.18103],[139.13467,35.18036],[139.13485,35.17931],[139.13512,35.17865],[139.13511,35.17795],[139.13598,35.17724],[139.13614,35.17696],[139.13612,35.1767],[139.1358,35.17624],[139.13536,35.17594],[139.1353,35.17581],[139.13526,35.17536],[139.13536,35.17524],[139.13626,35.17457],[139.13639,35.17437],[139.13639,35.17428],[139.13624,35.17403],[139.13552,35.17352],[139.13513,35.17287],[139.13494,35.17279],[139.1337,35.17257],[139.13345,35.17258],[139.13269,35.17275],[139.1317,35.17332],[139.13142,35.17334]]}},{"type":"Feature","properties":{"idx":169,"road":"御厨小路","cls":"tertiary","shops":0,"st_km":0.5,"mesh":"52396181"},"geometry":{"type":"LineString","coordinates":[[139.14959,35.24117],[139.14961,35.2412]]}},{"type":"Feature","properties":{"idx":264,"road":NaN,"cls":"tertiary","shops":1,"st_km":0.46,"mesh":"52396181"},"geometry":{"type":"LineString","coordinates":[[139.14918,35.24027],[139.14959,35.24117]]}},{"type":"Feature","properties":{"idx":209,"road":NaN,"cls":"tertiary","shops":0,"st_km":1.06,"mesh":"52396192"},"geometry":{"type":"LineString","coordinates":[[139.15854,35.24581],[139.15771,35.24765]]}},{"type":"Feature","properties":{"idx":58,"road":"小田原湯河原広域農道","cls":"tertiary","shops":0,"st_km":1.05,"mesh":"52396140"},"geometry":{"type":"LineString","coordinates":[[139.12987,35.20745],[139.12946,35.20676],[139.1294,35.20652],[139.12938,35.20615],[139.12929,35.20599],[139.12911,35.20587],[139.12866,35.20571],[139.12844,35.20554],[139.12834,35.20534],[139.12835,35.20501],[139.12827,35.20477],[139.12721,35.20384],[139.12703,35.20376],[139.12663,35.20368],[139.12563,35.20371],[139.12477,35.20363],[139.12252,35.20318],[139.12213,35.20302],[139.12195,35.20284]]}},{"type":"Feature","properties":{"idx":60,"road":"小田原湯河原広域農道","cls":"tertiary","shops":0,"st_km":0.97,"mesh":"52396140"},"geometry":{"type":"LineString","coordinates":[[139.12999,35.20799],[139.12997,35.20771],[139.12987,35.20745]]}},{"type":"Feature","properties":{"idx":163,"road":NaN,"cls":"tertiary_link","shops":1,"st_km":0.49,"mesh":"52396191"},"geometry":{"type":"LineString","coordinates":[[139.14093,35.24236],[139.14113,35.24243]]}},{"type":"Feature","properties":{"idx":350,"road":NaN,"cls":"tertiary","shops":0,"st_km":0.75,"mesh":"52396151"},"geometry":{"type":"LineString","coordinates":[[139.14136,35.20907],[139.14118,35.20888],[139.14115,35.20879]]}},{"type":"Feature","properties":{"idx":360,"road":NaN,"cls":"tertiary","shops":1,"st_km":0.9,"mesh":"52396192"},"geometry":{"type":"LineString","coordinates":[[139.15771,35.24765],[139.15754,35.24806],[139.15755,35.24868]]}},{"type":"Feature","properties":{"idx":119,"road":NaN,"cls":"tertiary_link","shops":0,"st_km":0.38,"mesh":"52396191"},"geometry":{"type":"LineString","coordinates":[[139.1419,35.24308],[139.14183,35.24294]]}},{"type":"Feature","properties":{"idx":119,"road":NaN,"cls":"tertiary_link","shops":0,"st_km":0.39,"mesh":"52396191"},"geometry":{"type":"LineString","coordinates":[[139.14167,35.243],[139.14175,35.24314]]}},{"type":"Feature","properties":{"idx":163,"road":NaN,"cls":"tertiary_link","shops":1,"st_km":0.49,"mesh":"52396191"},"geometry":{"type":"LineString","coordinates":[[139.14131,35.24237],[139.14093,35.24228]]}},{"type":"Feature","properties":{"idx":163,"road":"アネスト岩田 ターンパイク箱根","cls":"tertiary","shops":0,"st_km":0.55,"mesh":"52396191"},"geometry":{"type":"LineString","coordinates":[[139.14056,35.24228],[139.13982,35.24236]]}},{"type":"Feature","properties":{"idx":404,"road":"風祭橋","cls":"tertiary","shops":0,"st_km":0.25,"mesh":"52396190"},"geometry":{"type":"LineString","coordinates":[[139.13154,35.24584],[139.13194,35.24529]]}},{"type":"Feature","properties":{"idx":164,"road":"一夜城下通り","cls":"tertiary","shops":0,"st_km":0.55,"mesh":"52396191"},"geometry":{"type":"LineString","coordinates":[[139.13194,35.24529],[139.1322,35.24506],[139.13253,35.24493],[139.13601,35.24452],[139.14057,35.2436],[139.14636,35.24128]]}},{"type":"Feature","properties":{"idx":231,"road":NaN,"cls":"tertiary","shops":0,"st_km":0.19,"mesh":"52396191"},"geometry":{"type":"LineString","coordinates":[[139.14338,35.24512],[139.14287,35.24452]]}},{"type":"Feature","properties":{"idx":208,"road":NaN,"cls":"tertiary","shops":0,"st_km":0.3,"mesh":"52396191"},"geometry":{"type":"LineString","coordinates":[[139.14287,35.24452],[139.14252,35.24408],[139.1419,35.24308]]}},{"type":"Feature","properties":{"idx":43,"road":NaN,"cls":"tertiary","shops":0,"st_km":2.08,"mesh":"52396100"},"geometry":{"type":"LineString","coordinates":[[139.12505,35.17188],[139.12505,35.17222],[139.12523,35.17312],[139.12511,35.17344],[139.12484,35.17383],[139.12477,35.17404],[139.12477,35.17418],[139.12487,35.1744],[139.12517,35.17466],[139.12556,35.1749],[139.12565,35.17509],[139.12565,35.17534],[139.12559,35.17551],[139.12505,35.1762],[139.12458,35.17718]]}},{"type":"Feature","properties":{"idx":48,"road":NaN,"cls":"tertiary","shops":0,"st_km":1.78,"mesh":"52396100"},"geometry":{"type":"LineString","coordinates":[[139.12509,35.1717],[139.12505,35.17188]]}},{"type":"Feature","properties":{"idx":4,"road":"アネスト岩田 ターンパイク箱根","cls":"tertiary","shops":0,"st_km":0.96,"mesh":"52396170"},"geometry":{"type":"LineString","coordinates":[[139.13721,35.24248],[139.13416,35.24328],[139.13332,35.24343],[139.13232,35.24343],[139.13144,35.24335],[139.13073,35.24308],[139.12992,35.24253],[139.12969,35.24224],[139.12942,35.24108],[139.12919,35.24074],[139.12858,35.24007],[139.12822,35.23953],[139.12806,35.23919],[139.12782,35.23828],[139.12753,35.23758],[139.12719,35.23701],[139.1262,35.23567],[139.12611,35.23546],[139.12605,35.23512],[139.12607,35.23415],[139.12604,35.2339],[139.12589,35.23343],[139.12551,35.23285],[139.12429,35.2318],[139.12407,35.23159],[139.12383,35.23123],[139.12331,35.22921],[139.12307,35.2288],[139.12264,35.22841],[139.12226,35.2282],[139.12024,35.2274],[139.11823,35.2264],[139.1174,35.22585],[139.11617,35.22484],[139.1157,35.22426],[139.11505,35.22281],[139.11482,35.22247],[139.11457,35.22218],[139.1137,35.22137],[139.11352,35.22113],[139.11339,35.2208],[139.11339,35.22059]]}},{"type":"Feature","properties":{"idx":2,"road":NaN,"cls":"tertiary","shops":0,"st_km":2.2,"mesh":"52396160"},"geometry":{"type":"LineString","coordinates":[[139.13241,35.22194],[139.13235,35.22171],[139.13237,35.22148]]}},{"type":"Feature","properties":{"idx":53,"road":"小田原湯河原線","cls":"secondary","shops":0,"st_km":0.78,"mesh":"52396130"},"geometry":{"type":"LineString","coordinates":[[139.13066,35.20141],[139.13081,35.20123],[139.13159,35.20089],[139.13177,35.20067],[139.13181,35.20052],[139.13184,35.20012],[139.13181,35.20001],[139.13166,35.19984],[139.13105,35.19934],[139.13098,35.19922],[139.13101,35.19905],[139.1313,35.19862],[139.13146,35.19803],[139.13145,35.19779],[139.13112,35.19699],[139.13117,35.19678],[139.13133,35.19668]]}},{"type":"Feature","properties":{"idx":49,"road":"小田原湯河原線","cls":"secondary","shops":0,"st_km":0.93,"mesh":"52396130"},"geometry":{"type":"LineString","coordinates":[[139.13133,35.19668],[139.13143,35.19664]]}},{"type":"Feature","properties":{"idx":173,"road":"旧東海道","cls":"tertiary","shops":0,"st_km":0.49,"mesh":"52396191"},"geometry":{"type":"LineString","coordinates":[[139.14023,35.24692],[139.14036,35.24696]]}},{"type":"Feature","properties":{"idx":172,"road":"旧東海道","cls":"tertiary","shops":0,"st_km":0.5,"mesh":"52396191"},"geometry":{"type":"LineString","coordinates":[[139.14012,35.24683],[139.14023,35.24692]]}},{"type":"Feature","properties":{"idx":33,"road":NaN,"cls":"tertiary","shops":0,"st_km":2.42,"mesh":"52396110"},"geometry":{"type":"LineString","coordinates":[[139.12458,35.17744],[139.12478,35.17776],[139.12507,35.17792],[139.12624,35.17811],[139.1267,35.17806],[139.12695,35.1779],[139.12697,35.17777]]}},{"type":"Feature","properties":{"idx":2,"road":NaN,"cls":"tertiary","shops":0,"st_km":2.14,"mesh":"52396160"},"geometry":{"type":"LineString","coordinates":[[139.13237,35.22148],[139.13251,35.22113],[139.13246,35.22086]]}},{"type":"Feature","properties":{"idx":256,"road":"アネスト岩田 ターンパイク箱根","cls":"tertiary","shops":1,"st_km":0.51,"mesh":"52396191"},"geometry":{"type":"LineString","coordinates":[[139.14065,35.24236],[139.14093,35.24236]]}},{"type":"Feature","properties":{"idx":253,"road":"アネスト岩田 ターンパイク箱根","cls":"tertiary","shops":1,"st_km":0.52,"mesh":"52396191"},"geometry":{"type":"LineString","coordinates":[[139.14093,35.24228],[139.14056,35.24228]]}},{"type":"Feature","properties":{"idx":149,"road":"アネスト岩田 ターンパイク箱根","cls":"tertiary","shops":0,"st_km":0.65,"mesh":"52396191"},"geometry":{"type":"LineString","coordinates":[[139.13982,35.24236],[139.13788,35.2424]]}},{"type":"Feature","properties":{"idx":136,"road":"アネスト岩田 ターンパイク箱根","cls":"tertiary","shops":0,"st_km":0.76,"mesh":"52396191"},"geometry":{"type":"LineString","coordinates":[[139.13788,35.2424],[139.13721,35.24248]]}},{"type":"Feature","properties":{"idx":162,"road":"御厨小路","cls":"tertiary","shops":0,"st_km":0.55,"mesh":"52396181"},"geometry":{"type":"LineString","coordinates":[[139.14961,35.2412],[139.15007,35.24211]]}}]}