{"type":"FeatureCollection","features":[{"type":"Feature","properties":{"idx":189,"road":"神奈川県道732号湯本元箱根線","cls":"secondary","shops":0,"st_km":0.44,"mesh":"52396088"},"geometry":{"type":"LineString","coordinates":[[139.10883,35.23377],[139.1088,35.23372]]}},{"type":"Feature","properties":{"idx":116,"road":"湯河原箱根仙石原線","cls":"primary","shops":0,"st_km":4.5,"mesh":"52396041"},"geometry":{"type":"LineString","coordinates":[[139.03206,35.20547],[139.03193,35.20566],[139.03194,35.20581],[139.0321,35.20612],[139.0324,35.2064],[139.03239,35.20663],[139.03227,35.20674],[139.03182,35.20698],[139.03175,35.20709],[139.03167,35.2077],[139.03157,35.20789],[139.03138,35.20807],[139.03019,35.20864],[139.02989,35.20867],[139.02963,35.2086],[139.02914,35.20773],[139.0288,35.20739],[139.0267,35.20607],[139.02654,35.20602],[139.02635,35.20602],[139.02196,35.20775],[139.02186,35.20798],[139.02208,35.20845],[139.02208,35.20863],[139.02202,35.20869],[139.02083,35.20949],[139.01985,35.20989],[139.01939,35.21034],[139.01927,35.21051],[139.01922,35.21073],[139.01904,35.2119],[139.01897,35.21211],[139.01878,35.21231],[139.0183,35.21238],[139.01812,35.21236],[139.01793,35.21224],[139.01689,35.21069],[139.01678,35.2106],[139.01645,35.21047],[139.01605,35.21048],[139.01568,35.21066],[139.01558,35.21075],[139.01529,35.2113]]}},{"type":"Feature","properties":{"idx":251,"road":NaN,"cls":"pedestrian","shops":4,"st_km":1.45,"mesh":"52396091"},"geometry":{"type":"LineString","coordinates":[[139.0203,35.24414],[139.02033,35.24408],[139.02012,35.24408],[139.0199,35.24386]]}},{"type":"Feature","properties":{"idx":48,"road":"大涌谷湖尻線","cls":"secondary","shops":0,"st_km":2.57,"mesh":"52396090"},"geometry":{"type":"LineString","coordinates":[[139.00222,35.24072],[139.0034,35.23988],[139.00363,35.23985],[139.00378,35.23995],[139.00381,35.24008],[139.00366,35.24107],[139.00375,35.24122],[139.00393,35.24126],[139.00412,35.24118],[139.00454,35.24061],[139.00504,35.24017],[139.00526,35.24011],[139.00548,35.24023],[139.00551,35.2404],[139.00538,35.24129],[139.00539,35.24169],[139.00557,35.24179],[139.00624,35.24186],[139.00666,35.24208],[139.00724,35.2425],[139.00864,35.2438],[139.00909,35.24402],[139.00946,35.24438],[139.00955,35.2446],[139.00953,35.24492],[139.00919,35.24594],[139.00918,35.24616],[139.00923,35.24635],[139.00938,35.24655],[139.01028,35.2472],[139.01045,35.24738],[139.01092,35.2484],[139.01095,35.24877],[139.01065,35.24964],[139.0106,35.24995],[139.01066,35.25005],[139.01078,35.25013],[139.011,35.25009],[139.01154,35.24965]]}},{"type":"Feature","properties":{"idx":57,"road":"湯河原箱根仙石原線","cls":"primary","shops":0,"st_km":6.38,"mesh":"52396022"},"geometry":{"type":"LineString","coordinates":[[139.03053,35.18484],[139.03058,35.18498]]}},{"type":"Feature","properties":{"idx":57,"road":"湯河原箱根仙石原線","cls":"primary","shops":0,"st_km":6.41,"mesh":"52396022"},"geometry":{"type":"LineString","coordinates":[[139.03058,35.18498],[139.03076,35.18543]]}},{"type":"Feature","properties":{"idx":678,"road":"長尾芦川線","cls":"secondary","shops":0,"st_km":6.43,"mesh":"52396021"},"geometry":{"type":"LineString","coordinates":[[139.02391,35.18789],[139.02215,35.18813],[139.02133,35.18812]]}},{"type":"Feature","properties":{"idx":460,"road":"関本小涌谷線","cls":"secondary","shops":0,"st_km":0.33,"mesh":"52396094"},"geometry":{"type":"LineString","coordinates":[[139.04957,35.2407],[139.04968,35.24086],[139.04965,35.24101],[139.04928,35.24134],[139.04924,35.24154],[139.04983,35.24299],[139.05031,35.24468],[139.05084,35.24547],[139.05106,35.246],[139.05107,35.24608],[139.05097,35.24628],[139.0505,35.24653]]}},{"type":"Feature","properties":{"idx":191,"road":"三枚橋","cls":"secondary","shops":0,"st_km":0.43,"mesh":"52396088"},"geometry":{"type":"LineString","coordinates":[[139.1088,35.23372],[139.10862,35.23332]]}},{"type":"Feature","properties":{"idx":2925,"road":"神奈川県道732号湯本元箱根線","cls":"secondary","shops":3,"st_km":0.52,"mesh":"52396078"},"geometry":{"type":"LineString","coordinates":[[139.10862,35.23332],[139.10855,35.23305],[139.10869,35.23253],[139.10851,35.23225],[139.1077,35.23163],[139.10731,35.23117],[139.10652,35.23064],[139.10578,35.22984],[139.10423,35.22941],[139.10313,35.22923],[139.10252,35.22907],[139.10026,35.22878],[139.09917,35.22837],[139.09878,35.22816],[139.09857,35.22811],[139.09799,35.22808],[139.09774,35.22825],[139.09743,35.22829],[139.09687,35.22813],[139.09625,35.22819],[139.0953,35.22801],[139.09512,35.2279],[139.09506,35.22775],[139.09525,35.22682],[139.09523,35.22675],[139.09514,35.2267]]}},{"type":"Feature","properties":{"idx":114,"road":"大涌谷小涌谷線","cls":"secondary","shops":0,"st_km":0.4,"mesh":"52396093"},"geometry":{"type":"LineString","coordinates":[[139.03942,35.24394],[139.0396,35.24369]]}},{"type":"Feature","properties":{"idx":93,"road":"大湧谷小湧谷線","cls":"secondary","shops":0,"st_km":0.58,"mesh":"52396093"},"geometry":{"type":"LineString","coordinates":[[139.0396,35.24369],[139.03999,35.24322],[139.04021,35.24311],[139.04047,35.24314],[139.04071,35.24325],[139.04124,35.24376],[139.04161,35.24395],[139.04214,35.24396],[139.04238,35.24385],[139.04264,35.24366],[139.04374,35.24271],[139.04459,35.24139],[139.04455,35.24112],[139.04398,35.24014]]}},{"type":"Feature","properties":{"idx":11,"road":"湯本元箱根線","cls":"secondary","shops":0,"st_km":2.19,"mesh":"52396065"},"geometry":{"type":"LineString","coordinates":[[139.07296,35.21953],[139.07279,35.21949],[139.07262,35.21954],[139.07255,35.21974],[139.0726,35.22008],[139.07257,35.22019],[139.07244,35.2203],[139.07225,35.22029],[139.07209,35.22014],[139.07174,35.21952],[139.0709,35.21862],[139.07068,35.21844],[139.06969,35.21782]]}},{"type":"Feature","properties":{"idx":14,"road":"湯本元箱根線","cls":"secondary","shops":0,"st_km":3.52,"mesh":"52396054"},"geometry":{"type":"LineString","coordinates":[[139.0589,35.20925],[139.05877,35.20882],[139.0586,35.20879]]}},{"type":"Feature","properties":{"idx":27,"road":"神奈川県道732号湯本元箱根線","cls":"secondary","shops":0,"st_km":1.77,"mesh":"52396066"},"geometry":{"type":"LineString","coordinates":[[139.08331,35.22245],[139.08309,35.22238],[139.0826,35.2224],[139.08174,35.22211],[139.08112,35.22197],[139.08016,35.22188]]}},{"type":"Feature","properties":{"idx":28,"road":"神奈川県道732号湯本元箱根線","cls":"secondary","shops":0,"st_km":1.65,"mesh":"52396066"},"geometry":{"type":"LineString","coordinates":[[139.0834,35.22249],[139.08331,35.22245]]}},{"type":"Feature","properties":{"idx":16,"road":"神奈川県道732号湯本元箱根線","cls":"secondary","shops":1,"st_km":2.17,"mesh":"52396065"},"geometry":{"type":"LineString","coordinates":[[139.07325,35.21957],[139.07296,35.21953]]}},{"type":"Feature","properties":{"idx":14,"road":"神奈川県道732号湯本元箱根線","cls":"secondary","shops":0,"st_km":3.48,"mesh":"52396054"},"geometry":{"type":"LineString","coordinates":[[139.05903,35.20942],[139.0589,35.20925]]}},{"type":"Feature","properties":{"idx":3,"road":NaN,"cls":"tertiary","shops":0,"st_km":2.08,"mesh":"52396072"},"geometry":{"type":"LineString","coordinates":[[139.03584,35.22643],[139.03562,35.2276],[139.0344,35.22824],[139.0342,35.22835],[139.03415,35.22843]]}},{"type":"Feature","properties":{"idx":294,"road":NaN,"cls":"tertiary","shops":1,"st_km":4.46,"mesh":"52396042"},"geometry":{"type":"LineString","coordinates":[[139.03302,35.20391],[139.0322,35.20406],[139.03148,35.20427],[139.03123,35.20441],[139.03086,35.20482],[139.03062,35.20494],[139.03046,35.20497],[139.03001,35.20489]]}},{"type":"Feature","properties":{"idx":112,"road":NaN,"cls":"tertiary","shops":0,"st_km":2.1,"mesh":"52396073"},"geometry":{"type":"LineString","coordinates":[[139.04326,35.22498],[139.04313,35.22503],[139.04064,35.22499],[139.03941,35.22522],[139.03911,35.22517],[139.03877,35.225],[139.03855,35.22495],[139.03772,35.2249],[139.03673,35.22501],[139.03551,35.22548]]}},{"type":"Feature","properties":{"idx":43,"road":"姥子通り","cls":"tertiary","shops":0,"st_km":2.56,"mesh":"52396090"},"geometry":{"type":"LineString","coordinates":[[139.00551,35.24657],[139.00576,35.2466],[139.00603,35.24686],[139.00617,35.24693],[139.00648,35.24691],[139.00682,35.24679],[139.00753,35.24621],[139.00909,35.24402]]}},{"type":"Feature","properties":{"idx":56,"road":NaN,"cls":"tertiary","shops":1,"st_km":0.83,"mesh":"52396089"},"geometry":{"type":"LineString","coordinates":[[139.11561,35.23536],[139.11479,35.23475]]}},{"type":"Feature","properties":{"idx":46,"road":NaN,"cls":"tertiary","shops":0,"st_km":0.61,"mesh":"52396086"},"geometry":{"type":"LineString","coordinates":[[139.07632,35.23506],[139.07677,35.23491],[139.07756,35.23444],[139.07752,35.23435],[139.07736,35.23433],[139.07707,35.23418],[139.07702,35.2341],[139.07713,35.23399],[139.07743,35.23395],[139.07764,35.23387]]}},{"type":"Feature","properties":{"idx":143,"road":NaN,"cls":"tertiary","shops":0,"st_km":0.15,"mesh":"52396093"},"geometry":{"type":"LineString","coordinates":[[139.05106,35.24958],[139.05016,35.24902],[139.05013,35.24896],[139.0502,35.24869],[139.05016,35.24848],[139.04994,35.24825],[139.04984,35.24801],[139.04947,35.24772],[139.0494,35.24748],[139.0494,35.24719],[139.0492,35.24692],[139.0493,35.24681],[139.0498,35.24698],[139.05024,35.24704],[139.05064,35.24687],[139.05098,35.24684],[139.05126,35.24661],[139.05136,35.24641],[139.05136,35.24625]]}},{"type":"Feature","properties":{"idx":41,"road":"姥子通り","cls":"tertiary","shops":0,"st_km":2.88,"mesh":"52396090"},"geometry":{"type":"LineString","coordinates":[[139.00463,35.24661],[139.00381,35.24697]]}},{"type":"Feature","properties":{"idx":294,"road":NaN,"cls":"tertiary","shops":1,"st_km":4.45,"mesh":"52396042"},"geometry":{"type":"LineString","coordinates":[[139.03311,35.20363],[139.03309,35.20384],[139.03302,35.20391]]}},{"type":"Feature","properties":{"idx":3,"road":NaN,"cls":"tertiary","shops":0,"st_km":1.88,"mesh":"52396072"},"geometry":{"type":"LineString","coordinates":[[139.03514,35.22927],[139.03602,35.22963]]}},{"type":"Feature","properties":{"idx":41,"road":"姥子通り","cls":"tertiary","shops":0,"st_km":2.8,"mesh":"52396090"},"geometry":{"type":"LineString","coordinates":[[139.00551,35.24657],[139.00463,35.24661]]}},{"type":"Feature","properties":{"idx":61,"road":NaN,"cls":"tertiary","shops":1,"st_km":0.72,"mesh":"52396089"},"geometry":{"type":"LineString","coordinates":[[139.11606,35.23606],[139.11573,35.23555]]}},{"type":"Feature","properties":{"idx":75,"road":NaN,"cls":"tertiary","shops":0,"st_km":2.31,"mesh":"52396063"},"geometry":{"type":"LineString","coordinates":[[139.04447,35.22072],[139.044,35.22099],[139.04321,35.22119],[139.04292,35.2214],[139.04281,35.22222],[139.04265,35.22246]]}},{"type":"Feature","properties":{"idx":265,"road":NaN,"cls":"tertiary","shops":1,"st_km":0.37,"mesh":"52396085"},"geometry":{"type":"LineString","coordinates":[[139.07145,35.2385],[139.072,35.23791],[139.07214,35.23755],[139.07217,35.23719],[139.07241,35.23685],[139.07253,35.23656],[139.07255,35.23623],[139.07264,35.23601],[139.07344,35.23537],[139.07363,35.23526],[139.07402,35.23513],[139.07511,35.23502],[139.0754,35.23489],[139.07567,35.23464],[139.07572,35.23422]]}},{"type":"Feature","properties":{"idx":59,"road":NaN,"cls":"tertiary","shops":1,"st_km":0.77,"mesh":"52396089"},"geometry":{"type":"LineString","coordinates":[[139.11573,35.23555],[139.11561,35.23536]]}},{"type":"Feature","properties":{"idx":81,"road":NaN,"cls":"tertiary","shops":0,"st_km":2.06,"mesh":"52396063"},"geometry":{"type":"LineString","coordinates":[[139.04265,35.22246],[139.04199,35.22326],[139.042,35.22336],[139.04206,35.22343],[139.04226,35.22348],[139.04248,35.22339],[139.04264,35.22339],[139.04276,35.22349],[139.04274,35.22359],[139.04259,35.22385],[139.04238,35.22406],[139.04194,35.22423],[139.04179,35.22433],[139.04191,35.22442],[139.04282,35.22433],[139.04302,35.22439],[139.0432,35.22449],[139.04327,35.22459],[139.04332,35.22486],[139.04326,35.22498]]}},{"type":"Feature","properties":{"idx":72,"road":NaN,"cls":"tertiary","shops":0,"st_km":2.45,"mesh":"52396063"},"geometry":{"type":"LineString","coordinates":[[139.04911,35.21817],[139.04861,35.21875],[139.04835,35.21894],[139.04806,35.21902],[139.0477,35.21903],[139.04702,35.21888],[139.04672,35.21888],[139.04562,35.21922],[139.04484,35.21952],[139.04355,35.22029]]}},{"type":"Feature","properties":{"idx":10,"road":NaN,"cls":"tertiary","shops":0,"st_km":3.19,"mesh":"52396062"},"geometry":{"type":"LineString","coordinates":[[139.03584,35.22643],[139.03572,35.22627],[139.03482,35.22565],[139.03456,35.22528],[139.03438,35.22514],[139.03384,35.2249],[139.03373,35.22483],[139.03365,35.22469],[139.03364,35.22453],[139.03379,35.22405],[139.03399,35.22389],[139.03534,35.22345],[139.03558,35.22327],[139.03596,35.22267],[139.03599,35.22252],[139.03597,35.22229],[139.03573,35.22119],[139.03562,35.22091],[139.03519,35.22023],[139.03475,35.21993],[139.03419,35.21975],[139.03399,35.21974],[139.03338,35.22003],[139.03308,35.21999],[139.033,35.21994],[139.03247,35.21873],[139.03252,35.21773],[139.03235,35.21737],[139.0322,35.21725],[139.03167,35.21703],[139.03043,35.21686],[139.03025,35.21688],[139.03002,35.21699],[139.02981,35.21716],[139.02953,35.21757],[139.02944,35.21761],[139.02927,35.21762],[139.02854,35.21749],[139.02827,35.21736],[139.02794,35.21706],[139.0271,35.21653],[139.02689,35.21619],[139.02687,35.21605],[139.02687,35.21593],[139.02695,35.2158],[139.02719,35.21556],[139.02796,35.2152],[139.02816,35.21525],[139.02852,35.21565],[139.02867,35.2157],[139.02894,35.2157],[139.02987,35.21555],[139.03001,35.21546],[139.03008,35.21532],[139.03015,35.21446],[139.03022,35.21428],[139.03037,35.21414],[139.03198,35.21322],[139.03292,35.21282],[139.03331,35.21274]]}},{"type":"Feature","properties":{"idx":37,"road":NaN,"cls":"tertiary","shops":0,"st_km":3.6,"mesh":"52396052"},"geometry":{"type":"LineString","coordinates":[[139.03648,35.21157],[139.0337,35.21151]]}},{"type":"Feature","properties":{"idx":3,"road":NaN,"cls":"tertiary","shops":0,"st_km":1.89,"mesh":"52396072"},"geometry":{"type":"LineString","coordinates":[[139.03602,35.22963],[139.03625,35.22962],[139.03646,35.22937],[139.03642,35.22917],[139.03627,35.22901]]}},{"type":"Feature","properties":{"idx":3,"road":NaN,"cls":"tertiary","shops":0,"st_km":1.95,"mesh":"52396072"},"geometry":{"type":"LineString","coordinates":[[139.03415,35.22843],[139.03412,35.22867],[139.03421,35.22881],[139.03514,35.22927]]}},{"type":"Feature","properties":{"idx":40,"road":"姥子通り","cls":"tertiary","shops":0,"st_km":2.96,"mesh":"52396090"},"geometry":{"type":"LineString","coordinates":[[139.00381,35.24697],[139.00371,35.24705],[139.00343,35.2475],[139.0032,35.2477],[139.00246,35.24788]]}},{"type":"Feature","properties":{"idx":41,"road":NaN,"cls":"tertiary","shops":0,"st_km":0.75,"mesh":"52396086"},"geometry":{"type":"LineString","coordinates":[[139.07764,35.23387],[139.078,35.23376],[139.07904,35.23382],[139.07954,35.23402],[139.08014,35.23402],[139.08095,35.23419]]}},{"type":"Feature","properties":{"idx":116,"road":NaN,"cls":"tertiary","shops":0,"st_km":0.21,"mesh":"52396093"},"geometry":{"type":"LineString","coordinates":[[139.04146,35.24672],[139.04179,35.24697],[139.04289,35.2474],[139.04408,35.24771]]}},{"type":"Feature","properties":{"idx":3,"road":"湯河原パークウェイ","cls":"tertiary","shops":0,"st_km":4.42,"mesh":"52396002"},"geometry":{"type":"LineString","coordinates":[[139.02861,35.1672],[139.0289,35.16704],[139.02951,35.16695],[139.02992,35.16676]]}},{"type":"Feature","properties":{"idx":3,"road":"湯河原パークウェイ","cls":"tertiary","shops":0,"st_km":4.41,"mesh":"52396002"},"geometry":{"type":"LineString","coordinates":[[139.02992,35.16676],[139.02948,35.1669],[139.02882,35.16695]]}},{"type":"Feature","properties":{"idx":10,"road":"アネスト岩田 ターンパイク箱根","cls":"tertiary","shops":0,"st_km":4.21,"mesh":"52396036"},"geometry":{"type":"LineString","coordinates":[[139.10036,35.21351],[139.10038,35.2137],[139.10057,35.214],[139.1015,35.21477],[139.10162,35.21495],[139.10166,35.2152],[139.10166,35.21548],[139.10136,35.21591],[139.10102,35.2161],[139.10077,35.21617],[139.10047,35.21618],[139.10011,35.2161],[139.09982,35.21595],[139.09965,35.21579],[139.09878,35.21446],[139.09583,35.21124],[139.09559,35.21084],[139.09548,35.21047],[139.09554,35.20931],[139.09551,35.20906],[139.09536,35.20856],[139.09518,35.20819],[139.09337,35.20593],[139.09301,35.20569],[139.09238,35.20551],[139.09178,35.20552],[139.09061,35.20573],[139.09001,35.20575],[139.0895,35.2056],[139.08927,35.20545],[139.08895,35.20505],[139.08863,35.20326],[139.08853,35.20302],[139.08832,35.20274],[139.08799,35.20257],[139.08771,35.20249],[139.08522,35.20225],[139.08468,35.20201],[139.08421,35.20154],[139.08376,35.20075],[139.08325,35.2002],[139.08093,35.19854],[139.08003,35.19764],[139.07949,35.19723],[139.07926,35.19714],[139.07893,35.19709],[139.07844,35.19717],[139.07798,35.19737],[139.07779,35.19752],[139.07725,35.19841],[139.07698,35.19872],[139.07634,35.1991],[139.07588,35.19923],[139.0754,35.19925],[139.07488,35.19918],[139.0725,35.19845],[139.07198,35.19809],[139.07176,35.19778],[139.07164,35.19742],[139.07154,35.1968],[139.07139,35.19638],[139.07124,35.19617],[139.07107,35.19607],[139.0692,35.19519],[139.06889,35.1951],[139.06704,35.1952],[139.06664,35.19512],[139.06643,35.19502],[139.06621,35.19483],[139.06552,35.19375],[139.06506,35.19325],[139.06357,35.19238],[139.06123,35.19086],[139.0603,35.19033],[139.05941,35.18996],[139.05625,35.18904],[139.05551,35.18878],[139.05506,35.18857],[139.05308,35.18735],[139.05253,35.18695],[139.05134,35.18593]]}},{"type":"Feature","properties":{"idx":58,"road":NaN,"cls":"tertiary","shops":0,"st_km":0.33,"mesh":"52396089"},"geometry":{"type":"LineString","coordinates":[[139.12504,35.2405],[139.1249,35.24069],[139.12435,35.24119]]}},{"type":"Feature","properties":{"idx":72,"road":NaN,"cls":"tertiary","shops":0,"st_km":0.11,"mesh":"52396089"},"geometry":{"type":"LineString","coordinates":[[139.12259,35.24023],[139.12232,35.2404],[139.12201,35.241]]}},{"type":"Feature","properties":{"idx":103,"road":"大湧谷小湧谷線","cls":"secondary","shops":1,"st_km":0.71,"mesh":"52396083"},"geometry":{"type":"LineString","coordinates":[[139.04595,35.23885],[139.04539,35.23869]]}},{"type":"Feature","properties":{"idx":71,"road":"大湧谷小湧谷線","cls":"secondary","shops":0,"st_km":0.66,"mesh":"52396083"},"geometry":{"type":"LineString","coordinates":[[139.04636,35.23893],[139.04595,35.23885]]}},{"type":"Feature","properties":{"idx":59,"road":"湯河原箱根仙石原線","cls":"primary","shops":0,"st_km":3.72,"mesh":"52396060"},"geometry":{"type":"LineString","coordinates":[[139.01529,35.2113],[139.01453,35.21278],[139.0145,35.21313],[139.01458,35.21337],[139.01523,35.21418],[139.01532,35.21433],[139.01531,35.21457],[139.01511,35.2148],[139.01492,35.21493],[139.01347,35.2153],[139.01325,35.21546],[139.01303,35.21668],[139.01295,35.21694],[139.01256,35.21755],[139.01189,35.21803],[139.01147,35.21845],[139.01116,35.21858],[139.01085,35.21859],[139.00979,35.21856],[139.00948,35.21848],[139.00932,35.2184],[139.00815,35.21752],[139.0078,35.21735],[139.00718,35.21728],[139.00654,35.21728],[139.00631,35.21735],[139.00609,35.21749],[139.00596,35.21766],[139.00558,35.21861],[139.00575,35.21962],[139.00557,35.2204],[139.00557,35.22105],[139.00561,35.22117],[139.00628,35.22207],[139.00653,35.22275],[139.00656,35.22292],[139.00653,35.22306],[139.00641,35.2232],[139.00618,35.22332],[139.00429,35.22395],[139.00422,35.22402],[139.00415,35.22422],[139.00429,35.22476],[139.00418,35.22529],[139.00421,35.22544],[139.00441,35.2258],[139.00444,35.22598],[139.00439,35.22612],[139.00428,35.22627],[139.00328,35.22702],[139.00315,35.22717],[139.00302,35.22739],[139.00286,35.22791],[139.00274,35.22807],[139.00258,35.22815],[139.00235,35.22814],[139.00163,35.22771],[139.00136,35.22764],[139.00055,35.2278],[139.00031,35.2279],[138.99934,35.2285],[138.99817,35.2298],[138.99813,35.23003],[138.99816,35.23022],[138.99845,35.23082],[138.9984,35.23143],[138.99852,35.23179],[138.99928,35.23256],[138.99975,35.2333],[138.99928,35.23411],[138.99927,35.23427],[138.99933,35.23446],[138.99944,35.23462],[139.00007,35.23507],[139.00092,35.23531],[139.00112,35.23543],[139.0019,35.23662],[139.00203,35.23688],[139.00206,35.23706]]}},{"type":"Feature","properties":{"idx":92,"road":"神社通り","cls":"tertiary","shops":0,"st_km":4.69,"mesh":"52396041"},"geometry":{"type":"LineString","coordinates":[[139.02257,35.2038],[139.02185,35.20415],[139.02103,35.20421],[139.02029,35.20458],[139.01965,35.20467],[139.0191,35.20506],[139.01861,35.20531],[139.01771,35.20599],[139.01746,35.20639],[139.01708,35.2068],[139.01699,35.207],[139.01684,35.20765],[139.01678,35.20774],[139.01621,35.20787],[139.0155,35.20778],[139.01528,35.20786],[139.01487,35.20825],[139.01446,35.20837],[139.01426,35.20851],[139.01423,35.2086],[139.01429,35.20889],[139.01389,35.20906],[139.01375,35.20939],[139.01365,35.2095],[139.01259,35.21003],[139.01208,35.21061]]}},{"type":"Feature","properties":{"idx":351,"road":NaN,"cls":"tertiary","shops":4,"st_km":4.35,"mesh":"52396050"},"geometry":{"type":"LineString","coordinates":[[139.01039,35.21323],[139.01025,35.21334]]}},{"type":"Feature","properties":{"idx":117,"road":NaN,"cls":"tertiary","shops":0,"st_km":4.42,"mesh":"52396050"},"geometry":{"type":"LineString","coordinates":[[139.01208,35.21061],[139.01186,35.21084],[139.01161,35.21136],[139.01153,35.21154],[139.01145,35.21201],[139.01129,35.21244],[139.01047,35.21317]]}},{"type":"Feature","properties":{"idx":13,"road":"湯河原箱根仙石原線","cls":"primary","shops":0,"st_km":4.7,"mesh":"52396015"},"geometry":{"type":"LineString","coordinates":[[139.07313,35.15702],[139.07353,35.15689],[139.0739,35.15696],[139.07414,35.15715],[139.07447,35.15768],[139.07469,35.15772],[139.0748,35.15763],[139.07497,35.15731],[139.0751,35.15669],[139.0753,35.15637],[139.07547,35.15627],[139.07603,35.15639],[139.07625,35.15632],[139.07634,35.15614],[139.07633,35.15562],[139.07656,35.15528],[139.07653,35.15482],[139.07663,35.15464],[139.07689,35.15453],[139.0772,35.15458],[139.07731,35.15466],[139.07774,35.15533],[139.07827,35.15571],[139.07899,35.15654],[139.0792,35.15666],[139.07963,35.15672],[139.07973,35.1568],[139.07969,35.15694],[139.07952,35.15697],[139.07915,35.15681],[139.07879,35.15655],[139.07804,35.15586],[139.07762,35.15571],[139.07742,35.15569],[139.0773,35.15573],[139.0771,35.15593],[139.0771,35.15609],[139.0772,35.15631],[139.07721,35.1565],[139.07696,35.1569],[139.07692,35.15736],[139.07678,35.15744],[139.07645,35.15743],[139.0762,35.15752],[139.0761,35.1579],[139.07589,35.15828],[139.0759,35.15841],[139.07612,35.15872],[139.07616,35.15905],[139.07637,35.15948],[139.07636,35.15961],[139.0762,35.15967],[139.07578,35.15969],[139.07549,35.15984],[139.07535,35.15985],[139.07459,35.15956],[139.07403,35.15913],[139.07341,35.15902],[139.07314,35.15917],[139.07298,35.15931],[139.07257,35.15991],[139.07237,35.16],[139.07177,35.1601],[139.07155,35.16026],[139.07123,35.16065],[139.07108,35.16075],[139.07032,35.16105],[139.07016,35.16122],[139.07008,35.16145],[139.07012,35.16165],[139.07076,35.16196],[139.07115,35.1624],[139.07118,35.16255],[139.07117,35.16266],[139.07103,35.16284],[139.07064,35.1631],[139.07058,35.16326],[139.07061,35.1635],[139.07056,35.16362],[139.0704,35.1638],[139.07025,35.16413],[139.07004,35.16428],[139.06975,35.16422],[139.06949,35.164],[139.06929,35.16393],[139.06862,35.16411],[139.0684,35.16408],[139.06821,35.16393],[139.06795,35.16355],[139.06779,35.16344],[139.06757,35.16341],[139.06742,35.16346],[139.06736,35.16353],[139.06732,35.16362],[139.06735,35.16381],[139.06758,35.16398],[139.06849,35.16431],[139.06916,35.16425],[139.06928,35.16431],[139.06964,35.16473],[139.06983,35.16485],[139.07006,35.16486],[139.07053,35.16477],[139.07064,35.16468],[139.07089,35.16423],[139.07131,35.16399],[139.07145,35.16354],[139.07156,35.16341],[139.07207,35.16314],[139.07219,35.163],[139.07225,35.16231],[139.07211,35.16188],[139.07216,35.16171],[139.07226,35.16163],[139.0731,35.16134],[139.07368,35.16094],[139.07385,35.16092],[139.07392,35.161],[139.07393,35.16108],[139.07388,35.16113],[139.07365,35.16119],[139.0732,35.16146],[139.07258,35.16172],[139.07246,35.16185],[139.07273,35.16301],[139.07271,35.16326],[139.07213,35.16373],[139.07216,35.16401],[139.07213,35.16422],[139.07194,35.16449],[139.07161,35.16473],[139.07137,35.16537],[139.07096,35.16593],[139.07073,35.16603],[139.07015,35.16612],[139.06994,35.16624],[139.0697,35.16648],[139.06958,35.16679],[139.0696,35.16701],[139.06974,35.16723],[139.06979,35.16741],[139.06976,35.16777],[139.06968,35.16802],[139.06917,35.16871],[139.06839,35.16923],[139.06835,35.16936],[139.06849,35.16965],[139.06848,35.16984],[139.06766,35.17087],[139.06751,35.17117],[139.0674,35.17124],[139.06715,35.17127],[139.06695,35.17124],[139.06673,35.17112],[139.06657,35.17111],[139.06638,35.17119],[139.06635,35.17136],[139.06645,35.17151],[139.06702,35.17166],[139.06723,35.17185],[139.06729,35.17199],[139.06722,35.17268],[139.06679,35.17288],[139.06671,35.17308],[139.06677,35.17323],[139.067,35.17345],[139.06697,35.17378],[139.067,35.17388],[139.06722,35.17412],[139.06723,35.17431],[139.06716,35.17444],[139.06663,35.17492],[139.06636,35.17508],[139.06601,35.17519],[139.06441,35.17554],[139.06408,35.17568],[139.06348,35.17622],[139.06303,35.17736],[139.06285,35.17757],[139.06272,35.17769],[139.06253,35.17774],[139.06195,35.17766],[139.06168,35.17775],[139.06156,35.17796],[139.06175,35.17858],[139.06171,35.17873],[139.06121,35.17896],[139.06091,35.17939],[139.06021,35.17978],[139.06003,35.17983],[139.05977,35.1798],[139.05932,35.17945],[139.0585,35.17957],[139.05813,35.17957],[139.05801,35.17952],[139.05778,35.17936],[139.0575,35.17859],[139.05738,35.17845],[139.05727,35.17841],[139.05708,35.17839],[139.05576,35.17857],[139.0556,35.17864],[139.05546,35.17879],[139.05539,35.17911],[139.05542,35.17923],[139.05567,35.17955],[139.05563,35.17971],[139.05533,35.18015],[139.05536,35.18028],[139.05554,35.18025],[139.05569,35.17993],[139.05593,35.1796],[139.056,35.17944],[139.05602,35.17905],[139.05614,35.17897],[139.05635,35.17896],[139.0565,35.1791],[139.05662,35.17952],[139.05693,35.17994],[139.05712,35.18009],[139.05824,35.18053],[139.05877,35.18064],[139.0589,35.18075],[139.05902,35.18101],[139.05966,35.18135],[139.06051,35.1813],[139.06091,35.18114],[139.06222,35.18045],[139.06286,35.18002],[139.06312,35.17997],[139.06336,35.18003],[139.06343,35.18009],[139.06348,35.18027],[139.06336,35.18046],[139.06313,35.18057],[139.06233,35.18071],[139.06138,35.18141],[139.06129,35.18153],[139.06123,35.18173],[139.06125,35.18267],[139.0608,35.18353],[139.06056,35.18357],[139.06043,35.18343],[139.06047,35.18328],[139.0608,35.18293],[139.06088,35.1827],[139.06079,35.18243],[139.06061,35.18229],[139.06043,35.18223],[139.05897,35.18212],[139.05854,35.18215],[139.05826,35.18223],[139.05788,35.18249],[139.05726,35.18335],[139.057,35.18363],[139.05614,35.18414],[139.05559,35.18469],[139.05536,35.18483],[139.05409,35.18545],[139.05304,35.18642],[139.05282,35.18652],[139.05268,35.18651],[139.0526,35.18644],[139.05233,35.18589],[139.05183,35.18547],[139.05179,35.18505],[139.05168,35.18493],[139.05144,35.18486],[139.05088,35.1849],[139.05065,35.18481],[139.04959,35.18393],[139.04925,35.18376],[139.04775,35.18359],[139.04752,35.18366],[139.0469,35.18411],[139.04666,35.18421],[139.04643,35.18416],[139.04587,35.18386],[139.04563,35.18382],[139.04494,35.18381],[139.04474,35.1837],[139.04434,35.18333],[139.04432,35.18316],[139.0444,35.18299],[139.04481,35.18256],[139.04497,35.18231],[139.04504,35.18157],[139.04502,35.18145],[139.04488,35.18126],[139.0443,35.18089],[139.04339,35.18083],[139.04271,35.18061],[139.04178,35.17969],[139.04169,35.17948],[139.04163,35.17903],[139.04153,35.17891],[139.04131,35.17882],[139.04062,35.17878],[139.0404,35.17871],[139.04025,35.17859],[139.04001,35.17826],[139.0395,35.17808],[139.0387,35.17744],[139.0385,35.17741],[139.03807,35.17749],[139.03779,35.17747],[139.03757,35.17735],[139.03711,35.17686],[139.03648,35.17669],[139.03598,35.17641],[139.03563,35.17635],[139.03509,35.17643]]}},{"type":"Feature","properties":{"idx":41,"road":"アネスト岩田ターンパイク箱根","cls":"tertiary","shops":3,"st_km":6.26,"mesh":"52396023"},"geometry":{"type":"LineString","coordinates":[[139.04867,35.18441],[139.04855,35.1842],[139.04852,35.18368]]}},{"type":"Feature","properties":{"idx":3,"road":"湯河原パークウェイ","cls":"tertiary","shops":0,"st_km":4.42,"mesh":"52396002"},"geometry":{"type":"LineString","coordinates":[[139.02882,35.16695],[139.02859,35.16689]]}},{"type":"Feature","properties":{"idx":4,"road":"熱海箱根峠線","cls":"primary","shops":0,"st_km":4.46,"mesh":"52396002"},"geometry":{"type":"LineString","coordinates":[[139.02881,35.16624],[139.02839,35.16753],[139.02829,35.16773],[139.02786,35.16814]]}},{"type":"Feature","properties":{"idx":3,"road":NaN,"cls":"tertiary","shops":0,"st_km":4.43,"mesh":"52396002"},"geometry":{"type":"LineString","coordinates":[[139.02882,35.16695],[139.02903,35.16702]]}},{"type":"Feature","properties":{"idx":171,"road":NaN,"cls":"pedestrian","shops":0,"st_km":5.57,"mesh":"52396032"},"geometry":{"type":"LineString","coordinates":[[139.02673,35.19403],[139.02634,35.19415],[139.02573,35.19476],[139.02582,35.19539],[139.02545,35.19563],[139.02524,35.19605],[139.02567,35.19682],[139.02628,35.19739]]}},{"type":"Feature","properties":{"idx":14,"road":"小田原湯河原広域農道","cls":"tertiary","shops":0,"st_km":1.52,"mesh":"52396049"},"geometry":{"type":"LineString","coordinates":[[139.12195,35.20284],[139.12183,35.20253],[139.12193,35.20218],[139.12214,35.20197],[139.12268,35.20175]]}},{"type":"Feature","properties":{"idx":39,"road":"姥子通り","cls":"tertiary","shops":0,"st_km":3.16,"mesh":"52396090"},"geometry":{"type":"LineString","coordinates":[[138.99989,35.24861],[139.00034,35.24838],[139.00078,35.24859],[139.00102,35.24863],[139.00136,35.24838],[139.00246,35.24788]]}},{"type":"Feature","properties":{"idx":176,"road":NaN,"cls":"tertiary","shops":1,"st_km":0.21,"mesh":"52396093"},"geometry":{"type":"LineString","coordinates":[[139.04844,35.24879],[139.04634,35.2482],[139.04587,35.24818],[139.04474,35.24783],[139.04441,35.24781],[139.04408,35.24771]]}},{"type":"Feature","properties":{"idx":171,"road":"関本小涌谷線","cls":"secondary","shops":0,"st_km":0.18,"mesh":"52396093"},"geometry":{"type":"LineString","coordinates":[[139.04844,35.24879],[139.04854,35.24928],[139.04847,35.24964]]}},{"type":"Feature","properties":{"idx":68,"road":"大涌谷小涌谷線","cls":"secondary","shops":0,"st_km":1.48,"mesh":"52396091"},"geometry":{"type":"LineString","coordinates":[[139.01154,35.24965],[139.01284,35.25073],[139.01304,35.25084],[139.0133,35.25088],[139.01365,35.25078],[139.01419,35.25027],[139.01513,35.24977],[139.01556,35.24981],[139.01623,35.25019],[139.01663,35.25021],[139.017,35.25006],[139.01842,35.24921],[139.01962,35.24928],[139.01978,35.24927],[139.02015,35.24908],[139.0204,35.24905],[139.02059,35.24915],[139.02074,35.24983],[139.02109,35.25029],[139.02147,35.25109],[139.02156,35.25119],[139.02249,35.25174],[139.02273,35.25179],[139.02306,35.25174],[139.02322,35.25167],[139.02412,35.25109],[139.02448,35.25078],[139.0247,35.25036],[139.0252,35.25004],[139.02541,35.24999],[139.02576,35.25],[139.0259,35.24994],[139.02596,35.24988],[139.02597,35.24965],[139.02579,35.24923],[139.02587,35.2491]]}},{"type":"Feature","properties":{"idx":25,"road":"湯本元箱根線","cls":"secondary","shops":0,"st_km":2.02,"mesh":"52396066"},"geometry":{"type":"LineString","coordinates":[[139.07882,35.22135],[139.07861,35.22131],[139.07807,35.22143],[139.07787,35.22142],[139.07739,35.22125],[139.07682,35.22093],[139.07641,35.22085],[139.07463,35.22103],[139.07409,35.22056],[139.07378,35.21997],[139.07328,35.21957]]}},{"type":"Feature","properties":{"idx":14,"road":"湯本元箱根線","cls":"secondary","shops":0,"st_km":3.36,"mesh":"52396054"},"geometry":{"type":"LineString","coordinates":[[139.06094,35.21154],[139.0607,35.21106],[139.06065,35.21084],[139.06088,35.2102],[139.06087,35.20987]]}},{"type":"Feature","properties":{"idx":57,"road":"大湧谷小湧谷線","cls":"secondary","shops":0,"st_km":1.81,"mesh":"52396091"},"geometry":{"type":"LineString","coordinates":[[139.01802,35.24315],[139.01781,35.24369],[139.01771,35.24381],[139.01745,35.24395],[139.01656,35.24425],[139.01639,35.24441],[139.01638,35.24548],[139.01609,35.24674],[139.01592,35.24714],[139.01543,35.24786],[139.01521,35.24798],[139.01427,35.2483],[139.0132,35.24886],[139.0124,35.24902],[139.01154,35.24965]]}},{"type":"Feature","properties":{"idx":177,"road":"大湧谷小湧谷線","cls":"secondary","shops":0,"st_km":0.15,"mesh":"52396092"},"geometry":{"type":"LineString","coordinates":[[139.02602,35.24896],[139.0262,35.24895],[139.02652,35.24912],[139.02738,35.24926],[139.02789,35.24922],[139.02867,35.24891],[139.02879,35.24882],[139.02905,35.24834],[139.02944,35.24812],[139.02972,35.24806],[139.03058,35.24814],[139.03088,35.24807],[139.03114,35.24781],[139.03167,35.24664],[139.03182,35.24653],[139.0319,35.24653],[139.03272,35.24713],[139.03312,35.24721],[139.03341,35.24717],[139.03363,35.24708],[139.03413,35.24678],[139.0346,35.24668],[139.03474,35.24669],[139.0348,35.24678],[139.03473,35.24691],[139.03427,35.24705],[139.034,35.24726],[139.03374,35.24756],[139.0337,35.24779],[139.03378,35.2479],[139.03391,35.24796],[139.0341,35.24797],[139.03434,35.2479],[139.03514,35.24742],[139.03606,35.24726],[139.03635,35.24708],[139.03698,35.24637],[139.03775,35.24588],[139.03831,35.24514],[139.03895,35.2446],[139.03942,35.24394]]}},{"type":"Feature","properties":{"idx":88,"road":"大湧谷小湧谷線","cls":"secondary","shops":0,"st_km":0.94,"mesh":"52396092"},"geometry":{"type":"LineString","coordinates":[[139.02587,35.2491],[139.02602,35.24896]]}},{"type":"Feature","properties":{"idx":182,"road":"湯本歩道橋","cls":"pedestrian","shops":0,"st_km":0.7,"mesh":"52396088"},"geometry":{"type":"LineString","coordinates":[[139.11164,35.23404],[139.11169,35.23388]]}},{"type":"Feature","properties":{"idx":70,"road":"旧東海道","cls":"tertiary","shops":0,"st_km":6.44,"mesh":"52396011"},"geometry":{"type":"LineString","coordinates":[[139.01401,35.18205],[139.0142,35.18215],[139.0144,35.18269],[139.0145,35.1828],[139.0147,35.18283],[139.0148,35.18272]]}},{"type":"Feature","properties":{"idx":71,"road":NaN,"cls":"tertiary","shops":0,"st_km":6.33,"mesh":"52396011"},"geometry":{"type":"LineString","coordinates":[[139.0148,35.18272],[139.01455,35.18249],[139.0145,35.18235],[139.01453,35.18223],[139.01475,35.18189],[139.01492,35.18176],[139.0151,35.18172],[139.01534,35.1818],[139.01621,35.18265],[139.01644,35.18274],[139.01668,35.18272],[139.01725,35.1823],[139.01741,35.18225],[139.01767,35.18227],[139.01786,35.18237],[139.01802,35.18282],[139.01812,35.18292],[139.01832,35.18295],[139.01897,35.18259],[139.01948,35.18217],[139.02037,35.18205],[139.02077,35.18215],[139.02091,35.18229]]}},{"type":"Feature","properties":{"idx":67,"road":"長尾芦川線","cls":"secondary","shops":0,"st_km":6.3,"mesh":"52396031"},"geometry":{"type":"LineString","coordinates":[[139.02133,35.18812],[139.02115,35.18851],[139.02073,35.18876],[139.02034,35.1892],[139.01992,35.19005],[139.01964,35.19036],[139.01963,35.19058],[139.01971,35.19073],[139.02024,35.19092],[139.02031,35.19107],[139.0203,35.19125],[139.02016,35.19152],[139.01933,35.19236],[139.01921,35.19245],[139.01903,35.19249],[139.01859,35.19242],[139.01836,35.19224],[139.01806,35.19221],[139.01709,35.19188],[139.01672,35.19169],[139.0164,35.19189],[139.01621,35.19215],[139.01601,35.19232],[139.01585,35.19234],[139.01553,35.19229],[139.01526,35.19234],[139.01479,35.19254],[139.01422,35.19252],[139.01388,35.19242],[139.01364,35.19219],[139.01312,35.19198],[139.01293,35.19185],[139.01291,35.19173],[139.01302,35.1913],[139.01328,35.19111],[139.01361,35.19071],[139.01368,35.19061],[139.01371,35.19036],[139.01358,35.19021],[139.01304,35.19012],[139.01287,35.19002],[139.01278,35.18983],[139.01279,35.18933],[139.01267,35.18916]]}},{"type":"Feature","properties":{"idx":42,"road":"神奈川県道732号湯本元箱根線","cls":"secondary","shops":0,"st_km":4.03,"mesh":"52396043"},"geometry":{"type":"LineString","coordinates":[[139.05089,35.2025],[139.04839,35.20204],[139.04794,35.20212],[139.04727,35.20238],[139.04669,35.20238],[139.04574,35.20251],[139.0452,35.20243],[139.04477,35.20247],[139.04467,35.20259],[139.04467,35.20321],[139.04454,35.20329],[139.04425,35.20333],[139.0442,35.20343],[139.04422,35.20408],[139.04415,35.20412],[139.04396,35.2041],[139.04375,35.20391],[139.04366,35.2039],[139.04353,35.20398],[139.04357,35.20411],[139.04404,35.20459],[139.04406,35.20468],[139.04369,35.20477],[139.04338,35.20534],[139.04252,35.20554],[139.04224,35.20555],[139.04106,35.20541],[139.04059,35.20553],[139.0396,35.2055],[139.03799,35.2056],[139.03755,35.20551],[139.0369,35.20524],[139.03671,35.20505],[139.03654,35.205],[139.03643,35.20504],[139.03638,35.20514],[139.0365,35.20578],[139.03642,35.20589],[139.03624,35.20595],[139.03452,35.20541]]}},{"type":"Feature","properties":{"idx":47,"road":"湯本元箱根線","cls":"secondary","shops":0,"st_km":4.07,"mesh":"52396044"},"geometry":{"type":"LineString","coordinates":[[139.05358,35.20388],[139.05331,35.20362],[139.05284,35.20334],[139.05276,35.20333],[139.05271,35.20339],[139.05273,35.20346],[139.0532,35.20375],[139.05316,35.20385],[139.05302,35.20385],[139.05257,35.20356],[139.05151,35.20268],[139.05131,35.20257],[139.05089,35.2025]]}},{"type":"Feature","properties":{"idx":41,"road":"湯本元箱根線","cls":"secondary","shops":4,"st_km":3.55,"mesh":"52396054"},"geometry":{"type":"LineString","coordinates":[[139.0586,35.20879],[139.0585,35.20884],[139.05846,35.20892],[139.05864,35.2093],[139.05859,35.20944],[139.05844,35.20947],[139.05833,35.20942],[139.05825,35.20892],[139.05817,35.20875],[139.058,35.20862],[139.05789,35.20865],[139.05784,35.20874],[139.05789,35.20937],[139.05775,35.20942],[139.05765,35.20934],[139.05762,35.20889],[139.05756,35.20881],[139.05745,35.20879],[139.05737,35.20888],[139.05745,35.20945],[139.05734,35.20955],[139.05723,35.20952],[139.05691,35.20829],[139.05707,35.2078],[139.05706,35.20769],[139.05629,35.20681],[139.05596,35.20623],[139.05552,35.20561],[139.05475,35.20503],[139.05391,35.20411],[139.05358,35.20388]]}},{"type":"Feature","properties":{"idx":14,"road":"湯本元箱根線","cls":"secondary","shops":0,"st_km":3.44,"mesh":"52396054"},"geometry":{"type":"LineString","coordinates":[[139.06044,35.20975],[139.06078,35.20923],[139.06069,35.20909],[139.0604,35.2089],[139.06029,35.2089],[139.06019,35.20897],[139.05978,35.20962],[139.05966,35.20973],[139.05943,35.20974],[139.05936,35.20965],[139.05953,35.20933],[139.05964,35.20896],[139.05963,35.20884],[139.05956,35.20877],[139.05942,35.20875],[139.05929,35.2088],[139.05923,35.20935],[139.05915,35.20942],[139.05903,35.20942]]}},{"type":"Feature","properties":{"idx":14,"road":"湯本元箱根線","cls":"secondary","shops":0,"st_km":3.43,"mesh":"52396054"},"geometry":{"type":"LineString","coordinates":[[139.06078,35.2096],[139.06053,35.20998],[139.0604,35.21003],[139.06031,35.20997],[139.06044,35.20975]]}},{"type":"Feature","properties":{"idx":14,"road":"湯本元箱根線","cls":"secondary","shops":0,"st_km":3.47,"mesh":"52396054"},"geometry":{"type":"LineString","coordinates":[[139.06087,35.20987],[139.06107,35.20965],[139.06108,35.20955],[139.06094,35.2095],[139.06078,35.2096]]}},{"type":"Feature","properties":{"idx":14,"road":"湯本元箱根線","cls":"secondary","shops":0,"st_km":3.1,"mesh":"52396054"},"geometry":{"type":"LineString","coordinates":[[139.06257,35.21194],[139.06244,35.21198],[139.06238,35.21211],[139.06248,35.21292],[139.06233,35.21302],[139.062,35.21299],[139.06181,35.21291],[139.06169,35.21276],[139.06153,35.21238],[139.06094,35.21154]]}},{"type":"Feature","properties":{"idx":24,"road":"湯本元箱根線","cls":"secondary","shops":2,"st_km":3.04,"mesh":"52396055"},"geometry":{"type":"LineString","coordinates":[[139.06487,35.21369],[139.06478,35.2136],[139.06393,35.21334],[139.06371,35.21321],[139.06325,35.2125],[139.06267,35.21199],[139.06257,35.21194]]}},{"type":"Feature","properties":{"idx":12,"road":"湯本元箱根線","cls":"secondary","shops":0,"st_km":2.82,"mesh":"52396055"},"geometry":{"type":"LineString","coordinates":[[139.06591,35.21543],[139.06551,35.21525],[139.06472,35.21454],[139.0644,35.21444],[139.0638,35.21447],[139.06369,35.2144]]}},{"type":"Feature","properties":{"idx":13,"road":"湯本元箱根線","cls":"secondary","shops":0,"st_km":2.63,"mesh":"52396055"},"geometry":{"type":"LineString","coordinates":[[139.06698,35.21667],[139.06621,35.21619],[139.06615,35.2161],[139.06609,35.21559],[139.06591,35.21543]]}},{"type":"Feature","properties":{"idx":10,"road":"湯本元箱根線","cls":"secondary","shops":0,"st_km":2.47,"mesh":"52396065"},"geometry":{"type":"LineString","coordinates":[[139.06969,35.21782],[139.06919,35.21747],[139.06834,35.21726],[139.06698,35.21667]]}},{"type":"Feature","properties":{"idx":62,"road":"大湧谷小湧谷線","cls":"secondary","shops":0,"st_km":0.83,"mesh":"52396083"},"geometry":{"type":"LineString","coordinates":[[139.04398,35.24014],[139.04392,35.23982],[139.04396,35.2397],[139.04471,35.23881]]}},{"type":"Feature","properties":{"idx":38,"road":NaN,"cls":"tertiary","shops":0,"st_km":0.82,"mesh":"52396089"},"geometry":{"type":"LineString","coordinates":[[139.12255,35.23162],[139.12215,35.23152],[139.12122,35.23149],[139.11998,35.23104],[139.11975,35.23111],[139.11967,35.23124],[139.11969,35.23143],[139.12003,35.23176],[139.1212,35.23229],[139.1222,35.23245],[139.12249,35.23262],[139.12285,35.23294],[139.12388,35.2335],[139.12419,35.23382],[139.12429,35.23408],[139.12427,35.23442],[139.12379,35.23527],[139.12374,35.23646],[139.12385,35.23676],[139.12404,35.23698],[139.12527,35.23792],[139.12549,35.23825],[139.12552,35.23874],[139.12543,35.23948],[139.12504,35.2405]]}},{"type":"Feature","properties":{"idx":11,"road":"箕ヶ窪橋","cls":"tertiary","shops":0,"st_km":1.02,"mesh":"52396079"},"geometry":{"type":"LineString","coordinates":[[139.12276,35.23168],[139.12255,35.23162]]}},{"type":"Feature","properties":{"idx":103,"road":NaN,"cls":"tertiary","shops":1,"st_km":0.16,"mesh":"52396089"},"geometry":{"type":"LineString","coordinates":[[139.12279,35.24012],[139.12259,35.24023]]}},{"type":"Feature","properties":{"idx":64,"road":NaN,"cls":"tertiary","shops":0,"st_km":0.23,"mesh":"52396089"},"geometry":{"type":"LineString","coordinates":[[139.12435,35.24119],[139.12411,35.24124],[139.12395,35.24114],[139.12321,35.24012],[139.12297,35.24006],[139.12279,35.24012]]}},{"type":"Feature","properties":{"idx":242,"road":NaN,"cls":"pedestrian","shops":3,"st_km":0.14,"mesh":"52396089"},"geometry":{"type":"LineString","coordinates":[[139.12253,35.24026],[139.12189,35.23965]]}},{"type":"Feature","properties":{"idx":95,"road":"大湧谷小湧谷線","cls":"secondary","shops":1,"st_km":1.6,"mesh":"52396091"},"geometry":{"type":"LineString","coordinates":[[139.01802,35.24315],[139.01814,35.24299],[139.01827,35.24292],[139.0185,35.24294],[139.01862,35.24306],[139.01867,35.24351],[139.01882,35.24363],[139.01913,35.24356],[139.01953,35.24322]]}},{"type":"Feature","properties":{"idx":11,"road":NaN,"cls":"tertiary","shops":0,"st_km":1.04,"mesh":"52396079"},"geometry":{"type":"LineString","coordinates":[[139.12428,35.23205],[139.124,35.23175],[139.12385,35.23168],[139.12276,35.23168]]}},{"type":"Feature","properties":{"idx":11,"road":NaN,"cls":"tertiary","shops":0,"st_km":1.0,"mesh":"52396079"},"geometry":{"type":"LineString","coordinates":[[139.12508,35.23221],[139.12462,35.23226],[139.12447,35.23222],[139.12428,35.23205]]}},{"type":"Feature","properties":{"idx":7,"road":"アネスト岩田 ターンパイク箱根","cls":"tertiary","shops":0,"st_km":2.3,"mesh":"52396058"},"geometry":{"type":"LineString","coordinates":[[139.10085,35.21261],[139.10063,35.21279],[139.10044,35.21305],[139.10036,35.21327],[139.10036,35.21351]]}},{"type":"Feature","properties":{"idx":8,"road":"アネスト岩田 ターンパイク箱根","cls":"tertiary","shops":0,"st_km":2.2,"mesh":"52396058"},"geometry":{"type":"LineString","coordinates":[[139.11458,35.21978],[139.11529,35.21972],[139.11558,35.21963],[139.11591,35.21937],[139.11629,35.21881],[139.11647,35.21842],[139.11652,35.21805],[139.11638,35.21773],[139.11608,35.21745],[139.11583,35.21732],[139.11549,35.21724],[139.1132,35.21758],[139.1127,35.21755],[139.11227,35.21733],[139.112,35.21696],[139.11175,35.21594],[139.11151,35.21528],[139.11114,35.21465],[139.1106,35.21405],[139.11019,35.21388],[139.10972,35.21387],[139.10731,35.21465],[139.10701,35.21473],[139.1066,35.21473],[139.10592,35.2145],[139.1036,35.21332],[139.10234,35.21253],[139.102,35.21241],[139.10175,35.21237],[139.10128,35.21243],[139.10085,35.21261]]}},{"type":"Feature","properties":{"idx":13,"road":"アネスト岩田 ターンパイク箱根","cls":"tertiary","shops":0,"st_km":1.75,"mesh":"52396069"},"geometry":{"type":"LineString","coordinates":[[139.11339,35.22059],[139.11354,35.22025],[139.11386,35.21996],[139.11423,35.21982],[139.11458,35.21978]]}},{"type":"Feature","properties":{"idx":4,"road":"熱海箱根峠線","cls":"primary","shops":0,"st_km":4.57,"mesh":"52396002"},"geometry":{"type":"LineString","coordinates":[[139.02798,35.16817],[139.0281,35.16806]]}},{"type":"Feature","properties":{"idx":4,"road":"熱海箱根峠線","cls":"primary","shops":0,"st_km":4.46,"mesh":"52396002"},"geometry":{"type":"LineString","coordinates":[[139.0281,35.16806],[139.02836,35.16779],[139.02854,35.16749],[139.02881,35.16624]]}},{"type":"Feature","properties":{"idx":4,"road":"熱海箱根峠線","cls":"primary","shops":0,"st_km":4.58,"mesh":"52396002"},"geometry":{"type":"LineString","coordinates":[[139.02792,35.16821],[139.02798,35.16817]]}},{"type":"Feature","properties":{"idx":50,"road":"アネスト岩田ターンパイク箱根","cls":"tertiary","shops":4,"st_km":6.21,"mesh":"52396023"},"geometry":{"type":"LineString","coordinates":[[139.04899,35.18462],[139.04867,35.18441]]}},{"type":"Feature","properties":{"idx":17,"road":NaN,"cls":"tertiary","shops":0,"st_km":2.38,"mesh":"52396019"},"geometry":{"type":"LineString","coordinates":[[139.12458,35.17718],[139.12458,35.17744]]}},{"type":"Feature","properties":{"idx":23,"road":"大涌谷湖尻線","cls":"secondary","shops":0,"st_km":3.16,"mesh":"52396080"},"geometry":{"type":"LineString","coordinates":[[139.0015,35.24067],[139.00144,35.24095],[139.00152,35.24106],[139.00165,35.2411],[139.00183,35.24107],[139.00222,35.24072]]}},{"type":"Feature","properties":{"idx":23,"road":"大涌谷湖尻線","cls":"secondary","shops":0,"st_km":3.16,"mesh":"52396080"},"geometry":{"type":"LineString","coordinates":[[139.00206,35.23706],[139.00242,35.23713],[139.00257,35.23735],[139.00251,35.2384],[139.00245,35.23864],[139.00184,35.23967],[139.0015,35.24067]]}},{"type":"Feature","properties":{"idx":23,"road":"大涌谷湖尻線","cls":"secondary","shops":0,"st_km":3.16,"mesh":"52396080"},"geometry":{"type":"LineString","coordinates":[[139.00222,35.24072],[139.00196,35.24085],[139.00171,35.24088],[139.00155,35.24082],[139.0015,35.24067]]}},{"type":"Feature","properties":{"idx":57,"road":"湯河原箱根仙石原線","cls":"primary","shops":0,"st_km":6.41,"mesh":"52396022"},"geometry":{"type":"LineString","coordinates":[[139.03076,35.18543],[139.03087,35.1857]]}},{"type":"Feature","properties":{"idx":57,"road":"湯河原箱根仙石原線","cls":"primary","shops":0,"st_km":6.13,"mesh":"52396022"},"geometry":{"type":"LineString","coordinates":[[139.03087,35.1857],[139.03102,35.18587],[139.03153,35.18614],[139.03174,35.18622],[139.03244,35.18629],[139.03257,35.18642],[139.03252,35.18657],[139.03217,35.18684],[139.03096,35.1874],[139.03086,35.18749],[139.03082,35.18762],[139.03086,35.18773],[139.03131,35.18837],[139.03131,35.18846],[139.03124,35.18856],[139.03103,35.18857],[139.03075,35.18822],[139.03058,35.18816],[139.03038,35.18819],[139.0295,35.1886],[139.02932,35.18864],[139.02912,35.18857],[139.0288,35.18831],[139.02811,35.1883],[139.02676,35.18859],[139.02563,35.18866],[139.02504,35.18904]]}},{"type":"Feature","properties":{"idx":57,"road":"湯河原箱根仙石原線","cls":"primary","shops":0,"st_km":6.37,"mesh":"52396022"},"geometry":{"type":"LineString","coordinates":[[139.03053,35.18473],[139.03053,35.18484]]}},{"type":"Feature","properties":{"idx":57,"road":"湯河原箱根仙石原線","cls":"primary","shops":0,"st_km":6.35,"mesh":"52396022"},"geometry":{"type":"LineString","coordinates":[[139.03075,35.18459],[139.03053,35.18473]]}},{"type":"Feature","properties":{"idx":11,"road":"湯河原箱根仙石原線","cls":"primary","shops":0,"st_km":5.84,"mesh":"52396012"},"geometry":{"type":"LineString","coordinates":[[139.03481,35.17687],[139.03478,35.17729],[139.03492,35.17782],[139.03485,35.17797],[139.03466,35.17809],[139.0344,35.17811],[139.0336,35.178],[139.03281,35.1776],[139.0326,35.17756],[139.03231,35.17764],[139.03184,35.17799],[139.03125,35.17808],[139.03108,35.17826],[139.03136,35.17891],[139.03153,35.17907],[139.03182,35.17909],[139.03232,35.17893],[139.03267,35.17897],[139.03386,35.17962],[139.03416,35.17996],[139.03428,35.18024],[139.03486,35.18339],[139.03484,35.18378],[139.03454,35.1846],[139.03434,35.18478],[139.03403,35.18477],[139.03321,35.18428],[139.03284,35.18416],[139.03221,35.18407],[139.03202,35.18412],[139.03189,35.18422],[139.03183,35.18435],[139.03184,35.18467],[139.03176,35.18482],[139.03166,35.18489],[139.03145,35.18489],[139.03101,35.18462],[139.03075,35.18459]]}},{"type":"Feature","properties":{"idx":11,"road":"湯河原箱根仙石原線","cls":"primary","shops":0,"st_km":5.43,"mesh":"52396012"},"geometry":{"type":"LineString","coordinates":[[139.03509,35.17643],[139.03491,35.17656],[139.03481,35.17687]]}},{"type":"Feature","properties":{"idx":12,"road":"湯本元箱根線","cls":"secondary","shops":0,"st_km":2.92,"mesh":"52396055"},"geometry":{"type":"LineString","coordinates":[[139.06368,35.2142],[139.06418,35.21398],[139.06455,35.21394],[139.06482,35.21386],[139.06488,35.21378],[139.06487,35.21369]]}},{"type":"Feature","properties":{"idx":12,"road":"湯本元箱根線","cls":"secondary","shops":0,"st_km":2.9,"mesh":"52396055"},"geometry":{"type":"LineString","coordinates":[[139.06369,35.2144],[139.06368,35.2142]]}},{"type":"Feature","properties":{"idx":35,"road":NaN,"cls":"pedestrian","shops":4,"st_km":2.77,"mesh":"52396061"},"geometry":{"type":"LineString","coordinates":[[139.02432,35.22351],[139.02431,35.22338],[139.02448,35.22333],[139.02432,35.22351]]}},{"type":"Feature","properties":{"idx":16,"road":"神奈川県道732号湯本元箱根線","cls":"secondary","shops":1,"st_km":2.16,"mesh":"52396065"},"geometry":{"type":"LineString","coordinates":[[139.07328,35.21957],[139.07325,35.21957]]}},{"type":"Feature","properties":{"idx":25,"road":"湯本元箱根線","cls":"secondary","shops":0,"st_km":2.0,"mesh":"52396066"},"geometry":{"type":"LineString","coordinates":[[139.07898,35.2214],[139.07882,35.22135]]}},{"type":"Feature","properties":{"idx":25,"road":"湯本元箱根線","cls":"secondary","shops":0,"st_km":1.94,"mesh":"52396066"},"geometry":{"type":"LineString","coordinates":[[139.08016,35.22188],[139.07959,35.22171],[139.07923,35.22149],[139.07898,35.2214]]}},{"type":"Feature","properties":{"idx":29,"road":"神奈川県道732号湯本元箱根線","cls":"secondary","shops":0,"st_km":1.54,"mesh":"52396066"},"geometry":{"type":"LineString","coordinates":[[139.08618,35.2229],[139.08558,35.22273],[139.08509,35.22275],[139.08446,35.22286],[139.08425,35.22285],[139.08382,35.22273],[139.0834,35.22249]]}},{"type":"Feature","properties":{"idx":31,"road":"神奈川県道732号湯本元箱根線","cls":"secondary","shops":0,"st_km":1.46,"mesh":"52396066"},"geometry":{"type":"LineString","coordinates":[[139.0864,35.22297],[139.08618,35.2229]]}},{"type":"Feature","properties":{"idx":26,"road":"神奈川県道732号湯本元箱根線","cls":"secondary","shops":0,"st_km":1.09,"mesh":"52396067"},"geometry":{"type":"LineString","coordinates":[[139.0921,35.22475],[139.09196,35.22477]]}},{"type":"Feature","properties":{"idx":26,"road":"神奈川県道732号湯本元箱根線","cls":"secondary","shops":0,"st_km":1.09,"mesh":"52396067"},"geometry":{"type":"LineString","coordinates":[[139.09247,35.22476],[139.0921,35.22475]]}},{"type":"Feature","properties":{"idx":26,"road":"神奈川県道732号湯本元箱根線","cls":"secondary","shops":0,"st_km":1.11,"mesh":"52396067"},"geometry":{"type":"LineString","coordinates":[[139.09131,35.22466],[139.09118,35.22471]]}},{"type":"Feature","properties":{"idx":26,"road":"神奈川県道732号湯本元箱根線","cls":"secondary","shops":0,"st_km":1.1,"mesh":"52396067"},"geometry":{"type":"LineString","coordinates":[[139.09196,35.22477],[139.09177,35.22479],[139.09147,35.22465],[139.09131,35.22466]]}},{"type":"Feature","properties":{"idx":24,"road":"神奈川県道732号湯本元箱根線","cls":"secondary","shops":0,"st_km":1.25,"mesh":"52396067"},"geometry":{"type":"LineString","coordinates":[[139.09118,35.22471],[139.09069,35.22499],[139.09035,35.2249],[139.08803,35.22379],[139.08691,35.2236],[139.08674,35.22344],[139.08657,35.22307],[139.0864,35.22297]]}},{"type":"Feature","properties":{"idx":27,"road":"神奈川県道732号湯本元箱根線","cls":"secondary","shops":0,"st_km":1.08,"mesh":"52396067"},"geometry":{"type":"LineString","coordinates":[[139.09262,35.22478],[139.09247,35.22476]]}},{"type":"Feature","properties":{"idx":819,"road":"神奈川県道732号湯本元箱根線","cls":"secondary","shops":0,"st_km":0.87,"mesh":"52396077"},"geometry":{"type":"LineString","coordinates":[[139.09514,35.2267],[139.09485,35.22664]]}},{"type":"Feature","properties":{"idx":802,"road":"神奈川県道732号湯本元箱根線","cls":"secondary","shops":0,"st_km":0.9,"mesh":"52396077"},"geometry":{"type":"LineString","coordinates":[[139.09485,35.22664],[139.09467,35.22667],[139.0945,35.22689],[139.09429,35.22703],[139.09399,35.227],[139.09364,35.22687],[139.09339,35.22662],[139.09324,35.22637],[139.09315,35.22595],[139.09297,35.22549],[139.09287,35.225],[139.09273,35.22483],[139.09262,35.22478]]}},{"type":"Feature","properties":{"idx":2,"road":NaN,"cls":"tertiary","shops":0,"st_km":2.17,"mesh":"52396072"},"geometry":{"type":"LineString","coordinates":[[139.03611,35.22657],[139.036,35.22673],[139.03579,35.22684]]}},{"type":"Feature","properties":{"idx":2,"road":NaN,"cls":"tertiary","shops":0,"st_km":2.23,"mesh":"52396072"},"geometry":{"type":"LineString","coordinates":[[139.03551,35.22548],[139.03544,35.2256],[139.03551,35.22577],[139.03587,35.22611],[139.03611,35.22644],[139.03611,35.22657],[139.03591,35.2266],[139.03584,35.22643]]}},{"type":"Feature","properties":{"idx":37,"road":NaN,"cls":"tertiary","shops":0,"st_km":3.87,"mesh":"52396052"},"geometry":{"type":"LineString","coordinates":[[139.03331,35.21274],[139.03358,35.21275],[139.03409,35.21288],[139.03423,35.21287],[139.03431,35.2128],[139.03424,35.21262],[139.03413,35.21253],[139.03367,35.21243],[139.0337,35.21151],[139.03264,35.2115],[139.03257,35.21154],[139.03228,35.21229],[139.03208,35.21246],[139.03189,35.21255],[139.03176,35.21254],[139.03159,35.21205],[139.03145,35.21187],[139.03119,35.21171],[139.03037,35.21136],[139.02989,35.2114],[139.02973,35.21132],[139.02958,35.21106],[139.02962,35.21078],[139.02928,35.21017],[139.02896,35.20976],[139.02852,35.20945],[139.02827,35.20921],[139.02794,35.20904],[139.02702,35.20897],[139.02685,35.20895],[139.02676,35.20889],[139.02638,35.20775],[139.02614,35.20721],[139.02589,35.20688],[139.02496,35.20683],[139.02444,35.20676]]}},{"type":"Feature","properties":{"idx":162,"road":"関本小涌谷線","cls":"secondary","shops":0,"st_km":0.14,"mesh":"52396093"},"geometry":{"type":"LineString","coordinates":[[139.0505,35.24653],[139.04996,35.24657],[139.04845,35.24622],[139.04817,35.24627],[139.04803,35.24643]]}},{"type":"Feature","properties":{"idx":1860,"road":NaN,"cls":"tertiary","shops":5,"st_km":0.07,"mesh":"52396094"},"geometry":{"type":"LineString","coordinates":[[139.05136,35.24625],[139.05107,35.24608]]}},{"type":"Feature","properties":{"idx":641,"road":"関本小涌谷線","cls":"secondary","shops":5,"st_km":0.11,"mesh":"52396093"},"geometry":{"type":"LineString","coordinates":[[139.04847,35.24964],[139.04837,35.25002]]}},{"type":"Feature","properties":{"idx":117,"road":NaN,"cls":"tertiary","shops":0,"st_km":4.35,"mesh":"52396050"},"geometry":{"type":"LineString","coordinates":[[139.01025,35.21334],[139.00901,35.21392]]}},{"type":"Feature","properties":{"idx":176,"road":NaN,"cls":"tertiary","shops":1,"st_km":4.35,"mesh":"52396050"},"geometry":{"type":"LineString","coordinates":[[139.01047,35.21317],[139.01039,35.21323]]}},{"type":"Feature","properties":{"idx":143,"road":"関本小涌谷線","cls":"secondary","shops":0,"st_km":0.27,"mesh":"52396093"},"geometry":{"type":"LineString","coordinates":[[139.04797,35.24657],[139.04789,35.24689],[139.04844,35.24879]]}},{"type":"Feature","properties":{"idx":218,"road":"関本小涌谷線","cls":"secondary","shops":1,"st_km":0.25,"mesh":"52396093"},"geometry":{"type":"LineString","coordinates":[[139.04803,35.24643],[139.04797,35.24657]]}},{"type":"Feature","properties":{"idx":294,"road":NaN,"cls":"tertiary","shops":1,"st_km":4.47,"mesh":"52396042"},"geometry":{"type":"LineString","coordinates":[[139.02994,35.20488],[139.02988,35.20487]]}},{"type":"Feature","properties":{"idx":294,"road":NaN,"cls":"tertiary","shops":1,"st_km":4.47,"mesh":"52396042"},"geometry":{"type":"LineString","coordinates":[[139.03001,35.20489],[139.02994,35.20488]]}},{"type":"Feature","properties":{"idx":38,"road":NaN,"cls":"tertiary","shops":0,"st_km":0.84,"mesh":"52396086"},"geometry":{"type":"LineString","coordinates":[[139.08095,35.23419],[139.08104,35.2342]]}},{"type":"Feature","properties":{"idx":38,"road":NaN,"cls":"tertiary","shops":0,"st_km":0.85,"mesh":"52396086"},"geometry":{"type":"LineString","coordinates":[[139.08104,35.2342],[139.0814,35.23415],[139.08151,35.23425],[139.08147,35.23433],[139.08111,35.23446],[139.08067,35.23451],[139.08055,35.2346],[139.08054,35.23471]]}},{"type":"Feature","properties":{"idx":48,"road":NaN,"cls":"tertiary","shops":0,"st_km":0.57,"mesh":"52396086"},"geometry":{"type":"LineString","coordinates":[[139.07572,35.23422],[139.07575,35.23413],[139.07591,35.23402],[139.07608,35.23401],[139.07627,35.2341],[139.07628,35.23433],[139.07617,35.23479],[139.0762,35.23494],[139.07632,35.23506]]}},{"type":"Feature","properties":{"idx":246,"road":NaN,"cls":"pedestrian","shops":4,"st_km":1.49,"mesh":"52396091"},"geometry":{"type":"LineString","coordinates":[[139.01972,35.24421],[139.0199,35.24385],[139.01975,35.24333],[139.01955,35.24317]]}},{"type":"Feature","properties":{"idx":211,"road":NaN,"cls":"pedestrian","shops":3,"st_km":0.7,"mesh":"52396083"},"geometry":{"type":"LineString","coordinates":[[139.04538,35.24013],[139.04574,35.23937]]}},{"type":"Feature","properties":{"idx":64,"road":"大湧谷小湧谷線","cls":"secondary","shops":0,"st_km":0.79,"mesh":"52396083"},"geometry":{"type":"LineString","coordinates":[[139.04471,35.23881],[139.04475,35.23876]]}},{"type":"Feature","properties":{"idx":65,"road":"大湧谷小湧谷線","cls":"secondary","shops":0,"st_km":0.76,"mesh":"52396083"},"geometry":{"type":"LineString","coordinates":[[139.04475,35.23876],[139.04497,35.23864],[139.04539,35.23869]]}}]}