{"type":"FeatureCollection","features":[{"type":"Feature","properties":{"idx":6,"road":NaN,"cls":"tertiary","shops":0,"st_km":0.62,"mesh":"53387748"},"geometry":{"type":"LineString","coordinates":[[138.98676,35.95797],[138.9863,35.95821]]}},{"type":"Feature","properties":{"idx":9,"road":"中津川三峰口停車場線","cls":"secondary","shops":0,"st_km":0.35,"mesh":"53387757"},"geometry":{"type":"LineString","coordinates":[[138.97404,35.96132],[138.97414,35.96122]]}},{"type":"Feature","properties":{"idx":52,"road":NaN,"cls":"tertiary","shops":0,"st_km":0.12,"mesh":"53387759"},"geometry":{"type":"LineString","coordinates":[[138.99338,35.95999],[138.99343,35.95979],[138.99454,35.95958],[138.99497,35.95925]]}},{"type":"Feature","properties":{"idx":92,"road":"皆野両神荒川線","cls":"primary","shops":0,"st_km":4.08,"mesh":"53387797"},"geometry":{"type":"LineString","coordinates":[[138.97247,35.99684],[138.97303,35.9966]]}},{"type":"Feature","properties":{"idx":93,"road":"皆野両神荒川線","cls":"primary","shops":0,"st_km":3.89,"mesh":"53387797"},"geometry":{"type":"LineString","coordinates":[[138.97303,35.9966],[138.97367,35.99628],[138.97384,35.99609],[138.97395,35.99579],[138.97393,35.99553],[138.97382,35.99529],[138.97338,35.99453],[138.97333,35.99369],[138.97317,35.99329]]}},{"type":"Feature","properties":{"idx":23,"road":"薄小森線","cls":"secondary","shops":0,"st_km":4.06,"mesh":"53387796"},"geometry":{"type":"LineString","coordinates":[[138.95357,35.98843],[138.95366,35.98843],[138.95419,35.98823],[138.95504,35.98824],[138.95516,35.98829],[138.95563,35.98883],[138.95579,35.98939],[138.95617,35.9897],[138.95691,35.99056],[138.95715,35.99075],[138.95748,35.99088],[138.95851,35.9908],[138.95868,35.99082],[138.95891,35.99092],[138.9592,35.99181],[138.95934,35.99243],[138.95981,35.99294],[138.96,35.99333],[138.96063,35.9943],[138.96081,35.99441],[138.96152,35.99436],[138.96187,35.99444],[138.96233,35.99463],[138.96293,35.99468],[138.96321,35.99475],[138.96359,35.995],[138.96433,35.99518],[138.9651,35.9956],[138.96554,35.99577],[138.96645,35.99586],[138.96659,35.99589],[138.96691,35.99607],[138.96719,35.99637],[138.96746,35.99656],[138.96787,35.99675],[138.96815,35.99701],[138.96831,35.99725],[138.96846,35.99806],[138.96854,35.9982],[138.96874,35.99842],[138.96897,35.99857],[138.97015,35.99923],[138.97037,35.99953],[138.97065,36.00024],[138.97104,36.00055]]}},{"type":"Feature","properties":{"idx":16,"road":"薄小森線","cls":"secondary","shops":0,"st_km":3.82,"mesh":"53387786"},"geometry":{"type":"LineString","coordinates":[[138.95325,35.98829],[138.95357,35.98843]]}},{"type":"Feature","properties":{"idx":10,"road":"中津川三峰口停車場線","cls":"secondary","shops":0,"st_km":0.3,"mesh":"53387757"},"geometry":{"type":"LineString","coordinates":[[138.97414,35.96122],[138.97487,35.96037]]}},{"type":"Feature","properties":{"idx":6,"road":"二見沢橋","cls":"tertiary","shops":0,"st_km":0.59,"mesh":"53387748"},"geometry":{"type":"LineString","coordinates":[[138.98676,35.95797],[138.98702,35.95788]]}},{"type":"Feature","properties":{"idx":50,"road":NaN,"cls":"tertiary","shops":0,"st_km":0.16,"mesh":"53387759"},"geometry":{"type":"LineString","coordinates":[[138.99512,35.95916],[138.99497,35.95925]]}},{"type":"Feature","properties":{"idx":6,"road":NaN,"cls":"tertiary","shops":0,"st_km":0.56,"mesh":"53387748"},"geometry":{"type":"LineString","coordinates":[[138.98702,35.95788],[138.9873,35.95789]]}},{"type":"Feature","properties":{"idx":45,"road":NaN,"cls":"tertiary","shops":0,"st_km":0.28,"mesh":"53387759"},"geometry":{"type":"LineString","coordinates":[[138.99348,35.96068],[138.99355,35.96118],[138.9935,35.9614],[138.99335,35.96153],[138.993,35.96172],[138.99293,35.96186],[138.99294,35.96203]]}},{"type":"Feature","properties":{"idx":24,"road":"中津川三峰口停車場線","cls":"secondary","shops":0,"st_km":0.07,"mesh":"53387758"},"geometry":{"type":"LineString","coordinates":[[138.97487,35.96037],[138.97512,35.96013],[138.97526,35.96006],[138.9765,35.96032],[138.97677,35.96033],[138.9791,35.95975]]}},{"type":"Feature","properties":{"idx":35,"road":"皆野両神荒川線","cls":"primary","shops":0,"st_km":1.67,"mesh":"53387767"},"geometry":{"type":"LineString","coordinates":[[138.97137,35.97429],[138.97244,35.97471]]}},{"type":"Feature","properties":{"idx":15,"road":"秩父多摩甲斐国立公園三峰線","cls":"secondary","shops":0,"st_km":6.43,"mesh":"53387713"},"geometry":{"type":"LineString","coordinates":[[138.9167,35.93021],[138.9169,35.93011]]}},{"type":"Feature","properties":{"idx":23,"road":"秩父多摩甲斐国立公園三峰線","cls":"secondary","shops":0,"st_km":5.95,"mesh":"53387704"},"geometry":{"type":"LineString","coordinates":[[138.93436,35.91973],[138.93361,35.92027],[138.93299,35.92106]]}},{"type":"Feature","properties":{"idx":9,"road":"秩父多摩甲斐国立公園三峰線","cls":"secondary","shops":0,"st_km":6.93,"mesh":"53387722"},"geometry":{"type":"LineString","coordinates":[[138.90744,35.93504],[138.90749,35.93479]]}},{"type":"Feature","properties":{"idx":32,"road":"二十六木トンネル","cls":"tertiary","shops":0,"st_km":7.1,"mesh":"53387741"},"geometry":{"type":"LineString","coordinates":[[138.89755,35.95353],[138.89848,35.95335],[138.89894,35.95338],[138.89934,35.95345],[138.90125,35.9542]]}},{"type":"Feature","properties":{"idx":15,"road":"秩父多摩甲斐国立公園三峰線","cls":"secondary","shops":0,"st_km":5.97,"mesh":"53387713"},"geometry":{"type":"LineString","coordinates":[[138.91695,35.9242],[138.91715,35.92378],[138.91732,35.92373],[138.91739,35.92386],[138.91714,35.92416],[138.9171,35.92433],[138.91753,35.92551],[138.91769,35.92573],[138.91832,35.92611],[138.91846,35.92627],[138.91845,35.92642],[138.91814,35.92681],[138.91809,35.92695],[138.91812,35.92714],[138.91838,35.92743],[138.91847,35.9276],[138.91844,35.92776],[138.91816,35.92809],[138.91815,35.92827],[138.91824,35.92853],[138.91843,35.92876],[138.91901,35.92919],[138.91962,35.92981],[138.91974,35.93001],[138.91972,35.93022],[138.91958,35.93044],[138.91896,35.93091],[138.91883,35.93114],[138.91862,35.93182],[138.91832,35.93209],[138.91774,35.93242],[138.91709,35.93239],[138.91691,35.93244],[138.91678,35.93255],[138.9159,35.93405],[138.91571,35.93456],[138.9156,35.93508],[138.91545,35.93533],[138.915,35.93578],[138.91483,35.93588],[138.91461,35.93594],[138.91402,35.93597],[138.91342,35.93625],[138.91328,35.93638],[138.91295,35.93692],[138.91261,35.93722],[138.91261,35.93731],[138.9127,35.93738],[138.91286,35.93735],[138.91323,35.9369],[138.91387,35.93645],[138.91419,35.93637],[138.9148,35.93645],[138.91514,35.93644],[138.91593,35.93597],[138.91671,35.93572],[138.91687,35.9355],[138.91705,35.93504],[138.91725,35.9348],[138.9175,35.93467],[138.91847,35.93438],[138.91978,35.93379],[138.92003,35.93362],[138.9204,35.93325],[138.92098,35.9328],[138.92127,35.93258],[138.92138,35.93255],[138.9215,35.93259],[138.9215,35.93273],[138.9209,35.933],[138.9206,35.93334],[138.92048,35.93357],[138.92031,35.93417],[138.92019,35.93435],[138.91925,35.93504],[138.91864,35.93581],[138.91821,35.93612],[138.91771,35.93633],[138.91768,35.93648],[138.91775,35.93653],[138.9179,35.93652],[138.91832,35.93631],[138.9191,35.93604],[138.91988,35.93544],[138.92019,35.93528],[138.92128,35.93506],[138.92151,35.93497],[138.92191,35.93461],[138.92263,35.9338],[138.92291,35.93322],[138.92306,35.93263],[138.9233,35.93201],[138.92383,35.93088],[138.92382,35.93067],[138.92359,35.93024],[138.92353,35.93003],[138.9237,35.92956],[138.92364,35.92937],[138.92325,35.92886],[138.92322,35.9287],[138.92331,35.92849],[138.92365,35.92827],[138.9262,35.92735],[138.92813,35.92604],[138.93063,35.92366],[138.9313,35.92325],[138.9315,35.92308],[138.93201,35.92239]]}},{"type":"Feature","properties":{"idx":17,"road":"秩父多摩甲斐国立公園三峰線","cls":"secondary","shops":0,"st_km":6.63,"mesh":"53387712"},"geometry":{"type":"LineString","coordinates":[[138.90749,35.93479],[138.90754,35.93472],[138.90768,35.93466],[138.90872,35.93462],[138.90891,35.93457],[138.9092,35.93424],[138.90967,35.93392],[138.91006,35.93327],[138.91017,35.93294],[138.91032,35.93283],[138.91076,35.93273],[138.91107,35.9328],[138.91127,35.93279],[138.91191,35.93258],[138.91262,35.93289],[138.91284,35.9329],[138.91308,35.93281],[138.91331,35.93267],[138.91346,35.9325],[138.9138,35.93225],[138.91397,35.9318],[138.91394,35.93148],[138.91406,35.93094],[138.91415,35.93075],[138.91432,35.9306],[138.91472,35.9304],[138.91577,35.93009],[138.91634,35.93005],[138.9167,35.93021]]}},{"type":"Feature","properties":{"idx":15,"road":"秩父多摩甲斐国立公園三峰線","cls":"secondary","shops":0,"st_km":6.57,"mesh":"53387713"},"geometry":{"type":"LineString","coordinates":[[138.9169,35.93011],[138.91738,35.92975],[138.91743,35.9296],[138.91704,35.92924],[138.91692,35.92895],[138.91667,35.92862],[138.91664,35.92851],[138.91683,35.92801],[138.91694,35.92758],[138.91719,35.92724],[138.91728,35.92671],[138.91751,35.92637],[138.91754,35.92625],[138.91745,35.92605],[138.91704,35.92579],[138.91713,35.92553],[138.91711,35.92524],[138.91705,35.92507],[138.91682,35.92476],[138.91695,35.9242]]}},{"type":"Feature","properties":{"idx":9,"road":"秩父多摩甲斐国立公園三峰線","cls":"secondary","shops":0,"st_km":6.77,"mesh":"53387722"},"geometry":{"type":"LineString","coordinates":[[138.91085,35.94067],[138.91104,35.94039],[138.91102,35.9403],[138.91094,35.94021],[138.91062,35.94005],[138.91026,35.93998],[138.90964,35.93976],[138.90931,35.93928],[138.90912,35.93916],[138.90853,35.93898],[138.90796,35.93895],[138.90777,35.93876],[138.90747,35.93805],[138.90749,35.93782],[138.90785,35.93719],[138.90843,35.93692],[138.90852,35.93671],[138.90847,35.93648],[138.90811,35.93579],[138.90792,35.93559],[138.90748,35.93527],[138.90744,35.93504]]}},{"type":"Feature","properties":{"idx":16,"road":"皆野両神荒川線","cls":"primary","shops":0,"st_km":0.65,"mesh":"53387758"},"geometry":{"type":"LineString","coordinates":[[138.97928,35.96391],[138.97926,35.96553],[138.97921,35.96591],[138.97907,35.96625],[138.97849,35.967],[138.97811,35.96771]]}},{"type":"Feature","properties":{"idx":43,"road":"皆野両神荒川線","cls":"primary","shops":0,"st_km":1.29,"mesh":"53387767"},"geometry":{"type":"LineString","coordinates":[[138.97633,35.9695],[138.97562,35.97096],[138.97534,35.9713],[138.97489,35.97145],[138.97337,35.97151],[138.97224,35.97179],[138.97185,35.97196],[138.97165,35.9721],[138.97149,35.97233],[138.97138,35.97266]]}},{"type":"Feature","properties":{"idx":77,"road":"皆野両神荒川線","cls":"primary","shops":0,"st_km":1.97,"mesh":"53387777"},"geometry":{"type":"LineString","coordinates":[[138.97552,35.97807],[138.97537,35.9776],[138.9753,35.97748],[138.97516,35.97738],[138.97489,35.97733],[138.97423,35.97737],[138.97329,35.97759],[138.97293,35.97759],[138.97069,35.97698],[138.9698,35.9764],[138.96976,35.97626],[138.96979,35.97618],[138.96991,35.97608],[138.9704,35.97601],[138.97109,35.97576],[138.9719,35.97578],[138.97229,35.97571],[138.9726,35.97559],[138.97278,35.97545],[138.97286,35.97532],[138.97288,35.97511],[138.97282,35.97496],[138.97269,35.97482],[138.97244,35.97471]]}},{"type":"Feature","properties":{"idx":37,"road":"皆野両神荒川線","cls":"primary","shops":0,"st_km":1.59,"mesh":"53387767"},"geometry":{"type":"LineString","coordinates":[[138.97138,35.97266],[138.97127,35.9731],[138.97138,35.97366],[138.97125,35.97416],[138.97137,35.97429]]}},{"type":"Feature","properties":{"idx":67,"road":"皆野両神荒川線","cls":"primary","shops":0,"st_km":2.46,"mesh":"53387777"},"geometry":{"type":"LineString","coordinates":[[138.97325,35.98658],[138.97323,35.98622],[138.97338,35.98566],[138.97334,35.98512],[138.97353,35.98442],[138.97337,35.98333],[138.9734,35.9828],[138.97352,35.98224],[138.97385,35.98162],[138.97387,35.98082],[138.97396,35.98058],[138.97412,35.98033],[138.97444,35.98004],[138.97545,35.97932],[138.97563,35.9791],[138.9757,35.9789],[138.97569,35.97873],[138.97552,35.97807]]}},{"type":"Feature","properties":{"idx":16,"road":"薄小森線","cls":"secondary","shops":0,"st_km":7.38,"mesh":"53387782"},"geometry":{"type":"LineString","coordinates":[[138.87081,35.9994],[138.87117,35.99916],[138.87157,35.999],[138.87184,35.99896],[138.87235,35.99901],[138.87266,35.99896],[138.87296,35.99877],[138.87323,35.99833],[138.87334,35.99825],[138.87414,35.99821],[138.87459,35.99812],[138.87509,35.99794],[138.87576,35.99753],[138.87655,35.99717],[138.87785,35.99699],[138.87823,35.9969],[138.87846,35.99676],[138.87879,35.99629],[138.87909,35.99598],[138.87954,35.99579],[138.88008,35.99531],[138.88051,35.99515],[138.8808,35.99498],[138.88195,35.99415],[138.8835,35.99351],[138.88383,35.99342],[138.88433,35.99338],[138.88558,35.99279],[138.88672,35.99247],[138.88689,35.99223],[138.88692,35.99183],[138.88712,35.99165],[138.88825,35.99128],[138.889,35.99111],[138.88917,35.99102],[138.88936,35.99077],[138.88953,35.99024],[138.88968,35.99013],[138.88988,35.99009],[138.89006,35.99013],[138.89047,35.99075],[138.89087,35.99104],[138.89141,35.99121],[138.89165,35.99122],[138.89188,35.99115],[138.89213,35.99089],[138.8922,35.99071],[138.8922,35.99052],[138.89209,35.99019],[138.89209,35.98983],[138.89187,35.98943],[138.89176,35.98903],[138.89176,35.98889],[138.89193,35.98868],[138.89235,35.98844],[138.89286,35.98796],[138.89304,35.98785],[138.8934,35.98778],[138.89367,35.98784],[138.8949,35.98839],[138.89562,35.98847],[138.89705,35.98788],[138.89723,35.9877],[138.89735,35.98739],[138.89754,35.98714],[138.89783,35.9869],[138.89829,35.98672],[138.89993,35.98651],[138.90163,35.98594],[138.90188,35.9859],[138.90322,35.98588],[138.90432,35.98554],[138.90551,35.98575],[138.90599,35.98578],[138.9062,35.98573],[138.90725,35.98515],[138.9084,35.98471],[138.90874,35.98387],[138.909,35.98369],[138.90968,35.9834],[138.91039,35.98295],[138.91056,35.98291],[138.91104,35.98291],[138.91121,35.98298],[138.91154,35.98321],[138.91168,35.98325],[138.91358,35.98242],[138.9149,35.98208],[138.91525,35.98206],[138.91601,35.98233],[138.91669,35.9823],[138.91696,35.98221],[138.91742,35.98183],[138.91765,35.98175],[138.91797,35.98175],[138.91846,35.98185],[138.91869,35.98182],[138.91874,35.98175],[138.91882,35.98133],[138.919,35.98122],[138.91918,35.98122],[138.9194,35.98131],[138.91991,35.98184],[138.92007,35.98193],[138.92035,35.982],[138.92128,35.98203],[138.92162,35.98217],[138.92196,35.98287],[138.92236,35.9833],[138.92269,35.98385],[138.92289,35.98399],[138.92311,35.98402],[138.92333,35.98398],[138.92356,35.98384],[138.92366,35.98372],[138.92374,35.98349],[138.92367,35.98312],[138.92382,35.98285],[138.92414,35.98272],[138.92429,35.98271],[138.92448,35.9828],[138.92453,35.98298],[138.92435,35.98445],[138.92444,35.98472],[138.9255,35.9862],[138.92578,35.98638],[138.92612,35.98645],[138.92655,35.98632],[138.92719,35.98576],[138.92733,35.9857],[138.92856,35.9856],[138.92872,35.98544],[138.92884,35.98478],[138.92902,35.98464],[138.92917,35.98465],[138.9297,35.98491],[138.93055,35.98494],[138.93109,35.98479],[138.93157,35.98443],[138.93188,35.9843],[138.93275,35.98434]]}},{"type":"Feature","properties":{"idx":20,"road":"薄小森線","cls":"secondary","shops":0,"st_km":4.86,"mesh":"53387784"},"geometry":{"type":"LineString","coordinates":[[138.93275,35.98434],[138.93292,35.98432]]}},{"type":"Feature","properties":{"idx":22,"road":NaN,"cls":"tertiary","shops":0,"st_km":3.96,"mesh":"53387744"},"geometry":{"type":"LineString","coordinates":[[138.93468,35.95243],[138.93522,35.95184]]}},{"type":"Feature","properties":{"idx":22,"road":NaN,"cls":"tertiary","shops":0,"st_km":3.92,"mesh":"53387744"},"geometry":{"type":"LineString","coordinates":[[138.9357,35.95204],[138.9355,35.95202],[138.93524,35.95181]]}},{"type":"Feature","properties":{"idx":22,"road":NaN,"cls":"tertiary","shops":0,"st_km":3.98,"mesh":"53387744"},"geometry":{"type":"LineString","coordinates":[[138.93524,35.95181],[138.9345,35.95148]]}},{"type":"Feature","properties":{"idx":92,"road":"皆野両神荒川線","cls":"primary","shops":0,"st_km":4.31,"mesh":"53387797"},"geometry":{"type":"LineString","coordinates":[[138.97104,36.00055],[138.97105,36.00006],[138.97116,35.99979],[138.97156,35.99912],[138.97201,35.99738],[138.9722,35.99704],[138.97247,35.99684]]}},{"type":"Feature","properties":{"idx":41,"road":NaN,"cls":"tertiary","shops":0,"st_km":0.37,"mesh":"53387759"},"geometry":{"type":"LineString","coordinates":[[138.99969,35.95932],[138.99665,35.95929],[138.99537,35.95913],[138.99512,35.95916]]}},{"type":"Feature","properties":{"idx":34,"road":NaN,"cls":"tertiary","shops":0,"st_km":0.59,"mesh":"53387759"},"geometry":{"type":"LineString","coordinates":[[138.99982,35.95933],[138.99969,35.95932]]}},{"type":"Feature","properties":{"idx":15,"road":NaN,"cls":"tertiary","shops":0,"st_km":0.43,"mesh":"53387758"},"geometry":{"type":"LineString","coordinates":[[138.98228,35.95886],[138.9822,35.95889]]}},{"type":"Feature","properties":{"idx":16,"road":NaN,"cls":"tertiary","shops":0,"st_km":0.37,"mesh":"53387758"},"geometry":{"type":"LineString","coordinates":[[138.9822,35.95889],[138.98088,35.95919]]}},{"type":"Feature","properties":{"idx":14,"road":NaN,"cls":"tertiary","shops":0,"st_km":0.53,"mesh":"53387758"},"geometry":{"type":"LineString","coordinates":[[138.98378,35.95857],[138.98323,35.95863],[138.98271,35.95876]]}},{"type":"Feature","properties":{"idx":15,"road":NaN,"cls":"tertiary","shops":0,"st_km":0.46,"mesh":"53387758"},"geometry":{"type":"LineString","coordinates":[[138.98271,35.95876],[138.98228,35.95886]]}},{"type":"Feature","properties":{"idx":44,"road":NaN,"cls":"pedestrian","shops":0,"st_km":7.15,"mesh":"53387741"},"geometry":{"type":"LineString","coordinates":[[138.89797,35.95803],[138.89922,35.9542]]}},{"type":"Feature","properties":{"idx":23,"road":"秩父多摩甲斐国立公園三峰線","cls":"secondary","shops":0,"st_km":5.91,"mesh":"53387704"},"geometry":{"type":"LineString","coordinates":[[138.93201,35.92239],[138.93241,35.92166],[138.93299,35.92106]]}},{"type":"Feature","properties":{"idx":9,"road":"秩父多摩甲斐国立公園三峰線","cls":"secondary","shops":0,"st_km":6.44,"mesh":"53387722"},"geometry":{"type":"LineString","coordinates":[[138.90913,35.94262],[138.90914,35.94237],[138.90921,35.94212],[138.9094,35.94182],[138.90967,35.94159],[138.90993,35.94146],[138.91025,35.94137],[138.91052,35.94134],[138.9111,35.94138],[138.91113,35.94127],[138.91108,35.94112],[138.91079,35.94087],[138.91078,35.94079],[138.91085,35.94067]]}},{"type":"Feature","properties":{"idx":12,"road":"皆野両神荒川線","cls":"primary","shops":0,"st_km":0.91,"mesh":"53387768"},"geometry":{"type":"LineString","coordinates":[[138.97811,35.96771],[138.97773,35.96814],[138.97683,35.9689]]}},{"type":"Feature","properties":{"idx":12,"road":"皆野両神荒川線","cls":"primary","shops":0,"st_km":1.01,"mesh":"53387768"},"geometry":{"type":"LineString","coordinates":[[138.97683,35.9689],[138.97633,35.9695]]}},{"type":"Feature","properties":{"idx":22,"road":NaN,"cls":"tertiary","shops":0,"st_km":3.94,"mesh":"53387744"},"geometry":{"type":"LineString","coordinates":[[138.93522,35.95184],[138.93524,35.95181]]}},{"type":"Feature","properties":{"idx":22,"road":NaN,"cls":"tertiary","shops":0,"st_km":3.98,"mesh":"53387744"},"geometry":{"type":"LineString","coordinates":[[138.93466,35.95245],[138.93468,35.95243]]}},{"type":"Feature","properties":{"idx":28,"road":NaN,"cls":"pedestrian","shops":0,"st_km":5.74,"mesh":"53387704"},"geometry":{"type":"LineString","coordinates":[[138.93193,35.92453],[138.93154,35.92446]]}},{"type":"Feature","properties":{"idx":28,"road":NaN,"cls":"pedestrian","shops":0,"st_km":5.76,"mesh":"53387704"},"geometry":{"type":"LineString","coordinates":[[138.9314,35.92444],[138.93119,35.92451],[138.93095,35.92492],[138.93043,35.92532]]}},{"type":"Feature","properties":{"idx":7,"road":"皆野両神荒川線","cls":"primary","shops":0,"st_km":3.34,"mesh":"53387787"},"geometry":{"type":"LineString","coordinates":[[138.97317,35.99329],[138.97268,35.99237],[138.97261,35.9921],[138.9727,35.99174],[138.97309,35.99124],[138.9732,35.991],[138.97316,35.99062],[138.97285,35.99002],[138.97277,35.98974],[138.97289,35.98857],[138.97297,35.98835],[138.97335,35.9877],[138.97342,35.98746],[138.97328,35.98667]]}},{"type":"Feature","properties":{"idx":7,"road":"皆野両神荒川線","cls":"primary","shops":0,"st_km":2.96,"mesh":"53387787"},"geometry":{"type":"LineString","coordinates":[[138.97328,35.98667],[138.97325,35.98658]]}}]}