{"type":"FeatureCollection","features":[{"type":"Feature","properties":{"idx":3,"road":"中津川三峰口停車場線","cls":"secondary","shops":2,"st_km":13.92,"mesh":"53387686"},"geometry":{"type":"LineString","coordinates":[[138.82719,35.98975],[138.8275,35.98974],[138.82804,35.98932]]}},{"type":"Feature","properties":{"idx":1,"road":"中津川三峰口停車場線","cls":"secondary","shops":0,"st_km":14.08,"mesh":"53387686"},"geometry":{"type":"LineString","coordinates":[[138.82578,35.99259],[138.82672,35.99221],[138.82687,35.99202],[138.82689,35.99187],[138.82685,35.99174],[138.82647,35.99138],[138.82612,35.99068],[138.82571,35.99002],[138.82566,35.98989],[138.82566,35.98969],[138.82578,35.98957],[138.82621,35.98951],[138.82691,35.98968]]}},{"type":"Feature","properties":{"idx":3,"road":"中津川三峰口停車場線","cls":"secondary","shops":2,"st_km":13.98,"mesh":"53387686"},"geometry":{"type":"LineString","coordinates":[[138.82691,35.98968],[138.82719,35.98975]]}},{"type":"Feature","properties":{"idx":3,"road":"中津川三峰口停車場線","cls":"secondary","shops":0,"st_km":10.11,"mesh":"53387659"},"geometry":{"type":"LineString","coordinates":[[138.8668,35.96068],[138.86456,35.96225]]}},{"type":"Feature","properties":{"idx":3,"road":"中津川三峰口停車場線","cls":"secondary","shops":0,"st_km":10.0,"mesh":"53387659"},"geometry":{"type":"LineString","coordinates":[[138.8668,35.96068],[138.86689,35.96062]]}},{"type":"Feature","properties":{"idx":2,"road":"中津川三峰口停車場線","cls":"secondary","shops":0,"st_km":10.48,"mesh":"53387658"},"geometry":{"type":"LineString","coordinates":[[138.86153,35.96353],[138.8617,35.96348]]}},{"type":"Feature","properties":{"idx":12,"road":"中津川三峰口停車場線","cls":"secondary","shops":0,"st_km":9.88,"mesh":"53387649"},"geometry":{"type":"LineString","coordinates":[[138.86812,35.95819],[138.86847,35.9578]]}},{"type":"Feature","properties":{"idx":2,"road":"中津川三峰口停車場線","cls":"secondary","shops":0,"st_km":11.41,"mesh":"53387658"},"geometry":{"type":"LineString","coordinates":[[138.85294,35.9653],[138.85091,35.96507],[138.84988,35.96488]]}},{"type":"Feature","properties":{"idx":3,"road":"中津川三峰口停車場線","cls":"secondary","shops":0,"st_km":9.9,"mesh":"53387659"},"geometry":{"type":"LineString","coordinates":[[138.86812,35.95819],[138.868,35.95852],[138.86793,35.95919],[138.86755,35.95982]]}},{"type":"Feature","properties":{"idx":2,"road":"中津川三峰口停車場線","cls":"secondary","shops":0,"st_km":10.73,"mesh":"53387658"},"geometry":{"type":"LineString","coordinates":[[138.86153,35.96353],[138.85921,35.96419],[138.85857,35.9643],[138.85749,35.96433],[138.85605,35.96413]]}},{"type":"Feature","properties":{"idx":2,"road":"中津川三峰口停車場線","cls":"secondary","shops":0,"st_km":11.23,"mesh":"53387658"},"geometry":{"type":"LineString","coordinates":[[138.85294,35.9653],[138.8536,35.96536],[138.85394,35.96529]]}},{"type":"Feature","properties":{"idx":3,"road":"中津川三峰口停車場線","cls":"secondary","shops":0,"st_km":9.97,"mesh":"53387659"},"geometry":{"type":"LineString","coordinates":[[138.86689,35.96062],[138.86715,35.96039],[138.86755,35.95982]]}},{"type":"Feature","properties":{"idx":3,"road":"中津川三峰口停車場線","cls":"secondary","shops":0,"st_km":10.32,"mesh":"53387659"},"geometry":{"type":"LineString","coordinates":[[138.86204,35.96337],[138.86364,35.96285],[138.86456,35.96225]]}},{"type":"Feature","properties":{"idx":2,"road":"中津川三峰口停車場線","cls":"secondary","shops":0,"st_km":10.46,"mesh":"53387658"},"geometry":{"type":"LineString","coordinates":[[138.8617,35.96348],[138.86204,35.96337]]}},{"type":"Feature","properties":{"idx":2,"road":"中津川三峰口停車場線","cls":"secondary","shops":0,"st_km":11.13,"mesh":"53387658"},"geometry":{"type":"LineString","coordinates":[[138.8542,35.96503],[138.85454,35.96432],[138.85468,35.96415],[138.85508,35.964]]}},{"type":"Feature","properties":{"idx":2,"road":"中津川三峰口停車場線","cls":"secondary","shops":0,"st_km":11.17,"mesh":"53387658"},"geometry":{"type":"LineString","coordinates":[[138.85394,35.96529],[138.8542,35.96503]]}},{"type":"Feature","properties":{"idx":2,"road":"中津川三峰口停車場線","cls":"secondary","shops":0,"st_km":11.06,"mesh":"53387658"},"geometry":{"type":"LineString","coordinates":[[138.85508,35.964],[138.85527,35.964]]}},{"type":"Feature","properties":{"idx":2,"road":"中津川三峰口停車場線","cls":"secondary","shops":0,"st_km":11.02,"mesh":"53387658"},"geometry":{"type":"LineString","coordinates":[[138.85527,35.964],[138.85605,35.96413]]}},{"type":"Feature","properties":{"idx":1,"road":"中津川三峰口停車場線","cls":"secondary","shops":0,"st_km":13.85,"mesh":"53387686"},"geometry":{"type":"LineString","coordinates":[[138.82804,35.98932],[138.82857,35.98877]]}},{"type":"Feature","properties":{"idx":1,"road":"中津川三峰口停車場線","cls":"secondary","shops":0,"st_km":13.67,"mesh":"53387686"},"geometry":{"type":"LineString","coordinates":[[138.82857,35.98877],[138.82899,35.98848],[138.82988,35.98846],[138.83011,35.98837],[138.83019,35.98814],[138.83016,35.98801],[138.82991,35.98763],[138.82991,35.98718],[138.82998,35.987]]}},{"type":"Feature","properties":{"idx":1,"road":"中津川三峰口停車場線","cls":"secondary","shops":0,"st_km":13.65,"mesh":"53387686"},"geometry":{"type":"LineString","coordinates":[[138.82998,35.987],[138.83015,35.98683]]}},{"type":"Feature","properties":{"idx":1,"road":"中津川三峰口停車場線","cls":"secondary","shops":0,"st_km":13.29,"mesh":"53387686"},"geometry":{"type":"LineString","coordinates":[[138.83015,35.98683],[138.83049,35.98671],[138.83159,35.98663],[138.83196,35.98653],[138.83244,35.98631],[138.83324,35.98609],[138.83375,35.986],[138.83538,35.98587],[138.83558,35.98582],[138.83571,35.98568],[138.83572,35.98551],[138.83547,35.98501],[138.83542,35.98475],[138.83556,35.98445],[138.8358,35.98421]]}},{"type":"Feature","properties":{"idx":1,"road":"中津川三峰口停車場線","cls":"secondary","shops":0,"st_km":13.07,"mesh":"53387686"},"geometry":{"type":"LineString","coordinates":[[138.8358,35.98421],[138.83592,35.98416]]}},{"type":"Feature","properties":{"idx":1,"road":"中津川三峰口停車場線","cls":"secondary","shops":0,"st_km":13.02,"mesh":"53387686"},"geometry":{"type":"LineString","coordinates":[[138.83592,35.98416],[138.83621,35.98399],[138.83659,35.98342]]}},{"type":"Feature","properties":{"idx":1,"road":"中津川三峰口停車場線","cls":"secondary","shops":0,"st_km":12.99,"mesh":"53387686"},"geometry":{"type":"LineString","coordinates":[[138.83659,35.98342],[138.83664,35.98333]]}}]}