{"type":"FeatureCollection","features":[{"type":"Feature","properties":{"idx":10,"road":"山中湖小山線","cls":"secondary","shops":0,"st_km":8.39,"mesh":"53380783"},"geometry":{"type":"LineString","coordinates":[[138.91584,35.40527],[138.91641,35.40511],[138.91661,35.40502],[138.91673,35.40488],[138.91691,35.40437],[138.91714,35.4042],[138.91828,35.40397],[138.91856,35.40386],[138.91936,35.40286],[138.91958,35.4027],[138.91976,35.40273],[138.92009,35.40302],[138.92055,35.40301],[138.9213,35.40343],[138.92146,35.40347],[138.92177,35.40334],[138.92203,35.40278],[138.9223,35.40263],[138.92254,35.4027],[138.9231,35.40333],[138.92333,35.40348],[138.92404,35.40341],[138.92452,35.40304],[138.92505,35.40294],[138.92539,35.40294],[138.926,35.40311],[138.92623,35.40311],[138.92633,35.4029],[138.92633,35.40267],[138.926,35.40194],[138.92604,35.40168],[138.92703,35.40107],[138.92784,35.40072]]}},{"type":"Feature","properties":{"idx":10,"road":"山中湖小山線","cls":"secondary","shops":0,"st_km":9.03,"mesh":"53380783"},"geometry":{"type":"LineString","coordinates":[[138.91581,35.40528],[138.91584,35.40527]]}}]}