{"type":"FeatureCollection","features":[{"type":"Feature","properties":{"idx":374,"road":NaN,"cls":"tertiary","shops":4,"st_km":0.31,"mesh":"53390590"},"geometry":{"type":"LineString","coordinates":[[139.63249,35.41637],[139.6328,35.41557]]}},{"type":"Feature","properties":{"idx":192,"road":"山下本牧磯子線","cls":"primary","shops":2,"st_km":0.83,"mesh":"53390590"},"geometry":{"type":"LineString","coordinates":[[139.627,35.41487],[139.62717,35.41478]]}},{"type":"Feature","properties":{"idx":64,"road":NaN,"cls":"tertiary","shops":0,"st_km":1.05,"mesh":"53390590"},"geometry":{"type":"LineString","coordinates":[[139.62651,35.41062],[139.62619,35.41104]]}},{"type":"Feature","properties":{"idx":104,"road":NaN,"cls":"tertiary","shops":0,"st_km":0.5,"mesh":"53390590"},"geometry":{"type":"LineString","coordinates":[[139.63031,35.41586],[139.6309,35.41456],[139.63119,35.41407]]}},{"type":"Feature","properties":{"idx":105,"road":NaN,"cls":"tertiary","shops":0,"st_km":0.49,"mesh":"53390590"},"geometry":{"type":"LineString","coordinates":[[139.63119,35.41407],[139.63133,35.41384]]}},{"type":"Feature","properties":{"idx":105,"road":NaN,"cls":"tertiary","shops":0,"st_km":0.49,"mesh":"53390590"},"geometry":{"type":"LineString","coordinates":[[139.63133,35.41384],[139.63166,35.4133]]}},{"type":"Feature","properties":{"idx":121,"road":NaN,"cls":"tertiary","shops":0,"st_km":3.96,"mesh":"53390584"},"geometry":{"type":"LineString","coordinates":[[139.68525,35.40481],[139.68502,35.40466],[139.68486,35.4047],[139.68165,35.40735],[139.67958,35.40862]]}},{"type":"Feature","properties":{"idx":76,"road":NaN,"cls":"tertiary","shops":0,"st_km":2.28,"mesh":"53390593"},"geometry":{"type":"LineString","coordinates":[[139.6662,35.41402],[139.66675,35.41449],[139.66684,35.41472],[139.66686,35.41516],[139.66692,35.41535],[139.6671,35.41557],[139.66726,35.41565]]}},{"type":"Feature","properties":{"idx":121,"road":NaN,"cls":"tertiary","shops":0,"st_km":3.96,"mesh":"53390584"},"geometry":{"type":"LineString","coordinates":[[139.67965,35.40871],[139.68197,35.40729],[139.68495,35.40483],[139.68506,35.40478],[139.68525,35.40481]]}},{"type":"Feature","properties":{"idx":422,"road":NaN,"cls":"tertiary","shops":0,"st_km":3.34,"mesh":"53390594"},"geometry":{"type":"LineString","coordinates":[[139.67958,35.40862],[139.67463,35.41161]]}},{"type":"Feature","properties":{"idx":65,"road":NaN,"cls":"tertiary","shops":0,"st_km":2.98,"mesh":"53390593"},"geometry":{"type":"LineString","coordinates":[[139.67463,35.41161],[139.67313,35.41248]]}},{"type":"Feature","properties":{"idx":431,"road":NaN,"cls":"tertiary","shops":0,"st_km":3.16,"mesh":"53390594"},"geometry":{"type":"LineString","coordinates":[[139.67543,35.41128],[139.67577,35.41106]]}},{"type":"Feature","properties":{"idx":76,"road":NaN,"cls":"tertiary","shops":0,"st_km":2.29,"mesh":"53390593"},"geometry":{"type":"LineString","coordinates":[[139.66612,35.41371],[139.66597,35.4139]]}},{"type":"Feature","properties":{"idx":74,"road":NaN,"cls":"tertiary","shops":0,"st_km":2.38,"mesh":"53390593"},"geometry":{"type":"LineString","coordinates":[[139.66726,35.41565],[139.66756,35.4157],[139.66791,35.41563],[139.66987,35.4146]]}},{"type":"Feature","properties":{"idx":72,"road":NaN,"cls":"tertiary","shops":0,"st_km":2.48,"mesh":"53390593"},"geometry":{"type":"LineString","coordinates":[[139.66978,35.41449],[139.66911,35.41489]]}},{"type":"Feature","properties":{"idx":282,"road":NaN,"cls":"tertiary","shops":0,"st_km":0.63,"mesh":"53390510"},"geometry":{"type":"LineString","coordinates":[[139.62486,35.34867],[139.62521,35.3486],[139.62598,35.34865],[139.62655,35.34847],[139.62993,35.34668],[139.63036,35.34651],[139.63097,35.34639],[139.63184,35.34657],[139.63211,35.34658],[139.63253,35.34648],[139.63292,35.34623],[139.63322,35.3458],[139.63325,35.34565],[139.63321,35.34538],[139.63203,35.34179]]}},{"type":"Feature","properties":{"idx":506,"road":NaN,"cls":"tertiary","shops":0,"st_km":0.34,"mesh":"53390540"},"geometry":{"type":"LineString","coordinates":[[139.6256,35.37125],[139.62661,35.37114],[139.62707,35.37094],[139.62733,35.37066],[139.62773,35.36991],[139.62799,35.36974],[139.6283,35.36967],[139.6291,35.36969],[139.62919,35.36972],[139.62943,35.36993],[139.62954,35.37026],[139.6299,35.37049],[139.63051,35.37074],[139.63074,35.37093],[139.63092,35.37153],[139.63128,35.37198]]}},{"type":"Feature","properties":{"idx":432,"road":"小柴切通し","cls":"tertiary","shops":0,"st_km":0.18,"mesh":"53390510"},"geometry":{"type":"LineString","coordinates":[[139.63551,35.34299],[139.63581,35.34309],[139.63609,35.34326],[139.63664,35.34377],[139.63713,35.34467]]}},{"type":"Feature","properties":{"idx":725,"road":NaN,"cls":"tertiary","shops":1,"st_km":0.07,"mesh":"53390510"},"geometry":{"type":"LineString","coordinates":[[139.63551,35.34299],[139.63603,35.34254]]}},{"type":"Feature","properties":{"idx":244,"road":NaN,"cls":"tertiary","shops":0,"st_km":0.43,"mesh":"53390511"},"geometry":{"type":"LineString","coordinates":[[139.64105,35.34537],[139.64105,35.34599],[139.64114,35.34623],[139.64127,35.34641],[139.64342,35.34847],[139.6437,35.34884],[139.64378,35.34911],[139.64376,35.3495],[139.64323,35.35079],[139.64307,35.35136],[139.64289,35.35422]]}},{"type":"Feature","properties":{"idx":411,"road":"金沢海岸通り","cls":"tertiary","shops":0,"st_km":0.37,"mesh":"53390500"},"geometry":{"type":"LineString","coordinates":[[139.63203,35.34179],[139.632,35.3416],[139.63207,35.3414],[139.63187,35.34093],[139.63168,35.3393]]}},{"type":"Feature","properties":{"idx":400,"road":NaN,"cls":"tertiary","shops":0,"st_km":0.58,"mesh":"53390500"},"geometry":{"type":"LineString","coordinates":[[139.62713,35.33906],[139.62676,35.33893],[139.62386,35.3392]]}},{"type":"Feature","properties":{"idx":414,"road":"国道16号旧道","cls":"tertiary","shops":0,"st_km":0.54,"mesh":"53390500"},"geometry":{"type":"LineString","coordinates":[[139.62737,35.33796],[139.62729,35.33869],[139.62703,35.33925],[139.62688,35.33944],[139.62624,35.33988],[139.62385,35.34134]]}},{"type":"Feature","properties":{"idx":82,"road":NaN,"cls":"tertiary","shops":0,"st_km":0.47,"mesh":"53390521"},"geometry":{"type":"LineString","coordinates":[[139.64283,35.35527],[139.6405,35.35519],[139.64017,35.35529],[139.63999,35.35541],[139.63923,35.35618],[139.63914,35.35635],[139.63908,35.35665],[139.63891,35.36005]]}},{"type":"Feature","properties":{"idx":104,"road":NaN,"cls":"tertiary","shops":0,"st_km":0.36,"mesh":"53390531"},"geometry":{"type":"LineString","coordinates":[[139.64185,35.36016],[139.64174,35.36238]]}},{"type":"Feature","properties":{"idx":93,"road":NaN,"cls":"tertiary","shops":0,"st_km":0.41,"mesh":"53390541"},"geometry":{"type":"LineString","coordinates":[[139.63781,35.37467],[139.63799,35.37454],[139.63932,35.3746]]}},{"type":"Feature","properties":{"idx":1993,"road":NaN,"cls":"tertiary","shops":1,"st_km":0.2,"mesh":"53390512"},"geometry":{"type":"LineString","coordinates":[[139.65446,35.34548],[139.64782,35.34548]]}},{"type":"Feature","properties":{"idx":1150,"road":NaN,"cls":"tertiary","shops":0,"st_km":0.25,"mesh":"53390551"},"geometry":{"type":"LineString","coordinates":[[139.63905,35.37893],[139.63863,35.37767],[139.63939,35.37745],[139.63942,35.3774],[139.63931,35.37699],[139.64009,35.37635]]}},{"type":"Feature","properties":{"idx":1221,"road":NaN,"cls":"tertiary","shops":0,"st_km":0.29,"mesh":"53390550"},"geometry":{"type":"LineString","coordinates":[[139.62621,35.37389],[139.62647,35.37445],[139.62732,35.37498],[139.62739,35.37506],[139.62769,35.37594],[139.62827,35.37677],[139.62854,35.37688],[139.62947,35.37688],[139.62969,35.37693],[139.62999,35.37706],[139.6314,35.37787],[139.63156,35.37792],[139.63178,35.37792],[139.63674,35.37678],[139.6369,35.3767],[139.63859,35.37528]]}},{"type":"Feature","properties":{"idx":640,"road":NaN,"cls":"tertiary","shops":0,"st_km":0.11,"mesh":"53390540"},"geometry":{"type":"LineString","coordinates":[[139.63164,35.3674],[139.63067,35.36739],[139.63003,35.36744],[139.62972,35.36752]]}},{"type":"Feature","properties":{"idx":76,"road":NaN,"cls":"tertiary","shops":0,"st_km":2.3,"mesh":"53390593"},"geometry":{"type":"LineString","coordinates":[[139.66729,35.41559],[139.66708,35.41545],[139.66697,35.41524],[139.66699,35.41509],[139.66712,35.41492],[139.66728,35.41486],[139.66755,35.41486],[139.66809,35.41513]]}},{"type":"Feature","properties":{"idx":46,"road":NaN,"cls":"tertiary_link","shops":0,"st_km":2.36,"mesh":"53390593"},"geometry":{"type":"LineString","coordinates":[[139.66826,35.41486],[139.66722,35.41429]]}},{"type":"Feature","properties":{"idx":70,"road":NaN,"cls":"tertiary","shops":0,"st_km":2.55,"mesh":"53390593"},"geometry":{"type":"LineString","coordinates":[[139.66987,35.4146],[139.6705,35.41423]]}},{"type":"Feature","properties":{"idx":46,"road":NaN,"cls":"tertiary_link","shops":0,"st_km":2.4,"mesh":"53390593"},"geometry":{"type":"LineString","coordinates":[[139.66911,35.41489],[139.66867,35.41506],[139.66856,35.41504],[139.66826,35.41486]]}},{"type":"Feature","properties":{"idx":46,"road":NaN,"cls":"tertiary_link","shops":0,"st_km":2.4,"mesh":"53390593"},"geometry":{"type":"LineString","coordinates":[[139.66924,35.41574],[139.6689,35.41541],[139.66886,35.41528],[139.66893,35.41516],[139.6692,35.41497]]}},{"type":"Feature","properties":{"idx":338,"road":NaN,"cls":"tertiary","shops":0,"st_km":0.69,"mesh":"53390540"},"geometry":{"type":"LineString","coordinates":[[139.63281,35.37131],[139.63336,35.37208],[139.63357,35.37223],[139.63452,35.3728],[139.63535,35.37302],[139.63586,35.37325],[139.63662,35.37375],[139.63781,35.37467]]}},{"type":"Feature","properties":{"idx":79,"road":NaN,"cls":"tertiary","shops":0,"st_km":0.8,"mesh":"53390590"},"geometry":{"type":"LineString","coordinates":[[139.62804,35.41205],[139.62803,35.41228],[139.62787,35.41257],[139.62795,35.41315],[139.62793,35.41326],[139.62786,35.41341],[139.62718,35.41427],[139.62694,35.41469]]}},{"type":"Feature","properties":{"idx":372,"road":NaN,"cls":"tertiary","shops":0,"st_km":0.01,"mesh":"53390511"},"geometry":{"type":"LineString","coordinates":[[139.64849,35.34565],[139.64843,35.35338]]}},{"type":"Feature","properties":{"idx":191,"road":NaN,"cls":"tertiary","shops":2,"st_km":0.45,"mesh":"53390531"},"geometry":{"type":"LineString","coordinates":[[139.65073,35.36147],[139.65069,35.36144],[139.64652,35.36139],[139.6438,35.36129],[139.64333,35.36132]]}},{"type":"Feature","properties":{"idx":106,"road":NaN,"cls":"tertiary","shops":0,"st_km":0.35,"mesh":"53390531"},"geometry":{"type":"LineString","coordinates":[[139.64333,35.36132],[139.64113,35.36126]]}},{"type":"Feature","properties":{"idx":97,"road":NaN,"cls":"tertiary","shops":0,"st_km":0.43,"mesh":"53390531"},"geometry":{"type":"LineString","coordinates":[[139.64113,35.36126],[139.6394,35.36099]]}},{"type":"Feature","properties":{"idx":315,"road":NaN,"cls":"tertiary","shops":5,"st_km":0.52,"mesh":"53390531"},"geometry":{"type":"LineString","coordinates":[[139.63884,35.36132],[139.63975,35.36131]]}},{"type":"Feature","properties":{"idx":113,"road":NaN,"cls":"tertiary","shops":0,"st_km":0.17,"mesh":"53390541"},"geometry":{"type":"LineString","coordinates":[[139.6434,35.37202],[139.64589,35.37202]]}},{"type":"Feature","properties":{"idx":99,"road":NaN,"cls":"tertiary","shops":0,"st_km":0.36,"mesh":"53390541"},"geometry":{"type":"LineString","coordinates":[[139.64265,35.37852],[139.64347,35.37624],[139.64358,35.37604],[139.6445,35.37495],[139.64733,35.37264],[139.64748,35.37231],[139.64749,35.37189]]}},{"type":"Feature","properties":{"idx":142,"road":NaN,"cls":"tertiary","shops":1,"st_km":0.46,"mesh":"53390531"},"geometry":{"type":"LineString","coordinates":[[139.64333,35.36132],[139.64392,35.36141],[139.64634,35.36149],[139.65073,35.36147]]}},{"type":"Feature","properties":{"idx":284,"road":NaN,"cls":"tertiary","shops":0,"st_km":0.28,"mesh":"53390511"},"geometry":{"type":"LineString","coordinates":[[139.64552,35.35346],[139.64552,35.34548]]}},{"type":"Feature","properties":{"idx":128,"road":NaN,"cls":"tertiary","shops":0,"st_km":0.01,"mesh":"53390521"},"geometry":{"type":"LineString","coordinates":[[139.64424,35.35346],[139.64843,35.35346],[139.64864,35.35342]]}},{"type":"Feature","properties":{"idx":103,"road":NaN,"cls":"tertiary","shops":0,"st_km":0.37,"mesh":"53390531"},"geometry":{"type":"LineString","coordinates":[[139.64372,35.36255],[139.64633,35.36266]]}},{"type":"Feature","properties":{"idx":46,"road":NaN,"cls":"tertiary_link","shops":0,"st_km":2.41,"mesh":"53390593"},"geometry":{"type":"LineString","coordinates":[[139.66954,35.41617],[139.66924,35.41574]]}},{"type":"Feature","properties":{"idx":607,"road":"堀口橋","cls":"tertiary","shops":1,"st_km":0.52,"mesh":"53390520"},"geometry":{"type":"LineString","coordinates":[[139.62768,35.35576],[139.62829,35.35608]]}},{"type":"Feature","properties":{"idx":455,"road":NaN,"cls":"tertiary","shops":0,"st_km":0.4,"mesh":"53390520"},"geometry":{"type":"LineString","coordinates":[[139.62829,35.35608],[139.62921,35.35644],[139.62941,35.35664],[139.62945,35.3568],[139.62934,35.35707],[139.62907,35.35731],[139.6286,35.35757],[139.62814,35.35771]]}},{"type":"Feature","properties":{"idx":151,"road":NaN,"cls":"tertiary","shops":1,"st_km":0.4,"mesh":"53390531"},"geometry":{"type":"LineString","coordinates":[[139.6463,35.36619],[139.6465,35.36149],[139.6467,35.35818],[139.64678,35.35778],[139.64695,35.3574],[139.6477,35.35619]]}},{"type":"Feature","properties":{"idx":2204,"road":NaN,"cls":"tertiary","shops":0,"st_km":0.66,"mesh":"53390561"},"geometry":{"type":"LineString","coordinates":[[139.64093,35.38071],[139.63873,35.38414],[139.63735,35.38355],[139.63794,35.38267],[139.6393,35.38324]]}},{"type":"Feature","properties":{"idx":1504,"road":NaN,"cls":"tertiary","shops":0,"st_km":0.08,"mesh":"53390512"},"geometry":{"type":"LineString","coordinates":[[139.65014,35.34563],[139.6502,35.34537],[139.65017,35.34078]]}},{"type":"Feature","properties":{"idx":85,"road":NaN,"cls":"tertiary","shops":0,"st_km":0.58,"mesh":"53390531"},"geometry":{"type":"LineString","coordinates":[[139.6498,35.36148],[139.64981,35.35986],[139.64985,35.35962],[139.65005,35.3592],[139.65114,35.3575]]}},{"type":"Feature","properties":{"idx":644,"road":NaN,"cls":"tertiary","shops":0,"st_km":0.24,"mesh":"53390522"},"geometry":{"type":"LineString","coordinates":[[139.64434,35.35099],[139.65665,35.35099]]}},{"type":"Feature","properties":{"idx":120,"road":NaN,"cls":"tertiary","shops":0,"st_km":0.08,"mesh":"53390521"},"geometry":{"type":"LineString","coordinates":[[139.64446,35.36132],[139.6447,35.35658],[139.64486,35.3562],[139.64538,35.35538]]}},{"type":"Feature","properties":{"idx":129,"road":NaN,"cls":"tertiary","shops":0,"st_km":0.01,"mesh":"53390521"},"geometry":{"type":"LineString","coordinates":[[139.64843,35.35338],[139.64421,35.35336]]}},{"type":"Feature","properties":{"idx":647,"road":NaN,"cls":"tertiary","shops":0,"st_km":0.23,"mesh":"53390522"},"geometry":{"type":"LineString","coordinates":[[139.65665,35.35094],[139.64434,35.35092]]}},{"type":"Feature","properties":{"idx":593,"road":NaN,"cls":"tertiary","shops":0,"st_km":0.32,"mesh":"53390522"},"geometry":{"type":"LineString","coordinates":[[139.65013,35.35342],[139.65013,35.35094]]}},{"type":"Feature","properties":{"idx":516,"road":NaN,"cls":"tertiary","shops":0,"st_km":0.46,"mesh":"53390522"},"geometry":{"type":"LineString","coordinates":[[139.65325,35.34548],[139.6531,35.34564],[139.65306,35.34574],[139.65307,35.35402],[139.65289,35.35456],[139.65116,35.35733]]}},{"type":"Feature","properties":{"idx":1503,"road":NaN,"cls":"tertiary","shops":0,"st_km":0.08,"mesh":"53390512"},"geometry":{"type":"LineString","coordinates":[[139.65017,35.34078],[139.6501,35.34086],[139.65009,35.34548],[139.65014,35.34563]]}},{"type":"Feature","properties":{"idx":1267,"road":NaN,"cls":"tertiary","shops":0,"st_km":0.2,"mesh":"53390512"},"geometry":{"type":"LineString","coordinates":[[139.64847,35.34833],[139.65161,35.34834]]}},{"type":"Feature","properties":{"idx":100,"road":NaN,"cls":"tertiary","shops":0,"st_km":0.25,"mesh":"53390521"},"geometry":{"type":"LineString","coordinates":[[139.64412,35.35492],[139.64837,35.35651]]}},{"type":"Feature","properties":{"idx":229,"road":NaN,"cls":"tertiary","shops":0,"st_km":0.5,"mesh":"53390511"},"geometry":{"type":"LineString","coordinates":[[139.63871,35.3447],[139.6394,35.34506],[139.64013,35.34528],[139.64401,35.34556]]}},{"type":"Feature","properties":{"idx":98,"road":NaN,"cls":"tertiary","shops":0,"st_km":0.32,"mesh":"53390541"},"geometry":{"type":"LineString","coordinates":[[139.64273,35.37471],[139.64373,35.37475],[139.64441,35.37459],[139.64468,35.37444],[139.6454,35.37387],[139.64565,35.37358],[139.64583,35.37315],[139.64589,35.37202]]}},{"type":"Feature","properties":{"idx":1000,"road":NaN,"cls":"tertiary","shops":0,"st_km":0.54,"mesh":"53390550"},"geometry":{"type":"LineString","coordinates":[[139.63658,35.37683],[139.63583,35.37645],[139.63579,35.37637],[139.63705,35.37409]]}},{"type":"Feature","properties":{"idx":104,"road":NaN,"cls":"tertiary","shops":0,"st_km":0.26,"mesh":"53390541"},"geometry":{"type":"LineString","coordinates":[[139.64375,35.37411],[139.64455,35.37411],[139.64461,35.37406],[139.64463,35.37267]]}},{"type":"Feature","properties":{"idx":118,"road":NaN,"cls":"tertiary","shops":0,"st_km":0.13,"mesh":"53390541"},"geometry":{"type":"LineString","coordinates":[[139.64586,35.37268],[139.64387,35.37265],[139.64377,35.3727],[139.64372,35.37467]]}},{"type":"Feature","properties":{"idx":122,"road":NaN,"cls":"tertiary","shops":0,"st_km":3.84,"mesh":"53390584"},"geometry":{"type":"LineString","coordinates":[[139.68286,35.40635],[139.68263,35.40633],[139.68226,35.40605],[139.68187,35.40589],[139.68142,35.40587],[139.6811,35.40595],[139.68074,35.40617],[139.67865,35.40791]]}},{"type":"Feature","properties":{"idx":121,"road":NaN,"cls":"tertiary","shops":0,"st_km":4.02,"mesh":"53390584"},"geometry":{"type":"LineString","coordinates":[[139.68308,35.40878],[139.68299,35.40854],[139.68309,35.40831],[139.68531,35.40645]]}},{"type":"Feature","properties":{"idx":496,"road":NaN,"cls":"tertiary","shops":1,"st_km":0.61,"mesh":"53390500"},"geometry":{"type":"LineString","coordinates":[[139.62396,35.337],[139.62495,35.337],[139.62558,35.33694],[139.62588,35.33684],[139.62676,35.3364]]}},{"type":"Feature","properties":{"idx":404,"road":NaN,"cls":"tertiary","shops":0,"st_km":0.25,"mesh":"53390510"},"geometry":{"type":"LineString","coordinates":[[139.63435,35.3429],[139.63252,35.34326]]}},{"type":"Feature","properties":{"idx":312,"road":NaN,"cls":"tertiary","shops":0,"st_km":0.81,"mesh":"53390520"},"geometry":{"type":"LineString","coordinates":[[139.62779,35.35395],[139.62762,35.35366],[139.62742,35.35353],[139.62577,35.35339]]}},{"type":"Feature","properties":{"idx":343,"road":NaN,"cls":"tertiary","shops":1,"st_km":0.23,"mesh":"53390530"},"geometry":{"type":"LineString","coordinates":[[139.62839,35.35902],[139.62755,35.35911],[139.62718,35.35908],[139.62683,35.35896],[139.62648,35.35868]]}},{"type":"Feature","properties":{"idx":985,"road":NaN,"cls":"tertiary","shops":2,"st_km":0.37,"mesh":"53390540"},"geometry":{"type":"LineString","coordinates":[[139.63244,35.3681],[139.63267,35.36791],[139.63337,35.36791],[139.63366,35.36775],[139.63481,35.36741]]}},{"type":"Feature","properties":{"idx":472,"road":NaN,"cls":"tertiary","shops":0,"st_km":0.23,"mesh":"53390500"},"geometry":{"type":"LineString","coordinates":[[139.63168,35.3393],[139.63282,35.33924]]}},{"type":"Feature","properties":{"idx":282,"road":"谷津坂跨線橋","cls":"tertiary","shops":0,"st_km":0.03,"mesh":"53390530"},"geometry":{"type":"LineString","coordinates":[[139.62925,35.36057],[139.62937,35.3605],[139.62942,35.36036],[139.62921,35.35993]]}},{"type":"Feature","properties":{"idx":265,"road":NaN,"cls":"tertiary","shops":0,"st_km":0.09,"mesh":"53390530"},"geometry":{"type":"LineString","coordinates":[[139.62921,35.35993],[139.62909,35.35967],[139.62919,35.35949]]}},{"type":"Feature","properties":{"idx":205,"road":NaN,"cls":"tertiary","shops":0,"st_km":0.62,"mesh":"53390511"},"geometry":{"type":"LineString","coordinates":[[139.64284,35.3455],[139.64274,35.34742],[139.64253,35.3476]]}},{"type":"Feature","properties":{"idx":1416,"road":NaN,"cls":"tertiary","shops":0,"st_km":0.14,"mesh":"53390550"},"geometry":{"type":"LineString","coordinates":[[139.63334,35.38038],[139.63371,35.38133],[139.63383,35.38139],[139.6341,35.38134],[139.63426,35.38123],[139.63484,35.3804],[139.63585,35.38019],[139.63635,35.38036],[139.63646,35.38033],[139.63659,35.38007],[139.63642,35.37953]]}},{"type":"Feature","properties":{"idx":1302,"road":"新浜橋","cls":"tertiary","shops":2,"st_km":0.62,"mesh":"53390560"},"geometry":{"type":"LineString","coordinates":[[139.62597,35.38543],[139.62605,35.38532]]}},{"type":"Feature","properties":{"idx":534,"road":NaN,"cls":"tertiary","shops":0,"st_km":0.69,"mesh":"53390560"},"geometry":{"type":"LineString","coordinates":[[139.62605,35.38532],[139.62785,35.3824],[139.62788,35.3823],[139.62784,35.38217]]}},{"type":"Feature","properties":{"idx":367,"road":NaN,"cls":"tertiary","shops":1,"st_km":0.4,"mesh":"53390511"},"geometry":{"type":"LineString","coordinates":[[139.63818,35.34544],[139.63871,35.3447]]}},{"type":"Feature","properties":{"idx":263,"road":NaN,"cls":"tertiary","shops":0,"st_km":0.33,"mesh":"53390511"},"geometry":{"type":"LineString","coordinates":[[139.63839,35.34515],[139.63757,35.34449],[139.638,35.34412]]}},{"type":"Feature","properties":{"idx":581,"road":NaN,"cls":"pedestrian","shops":0,"st_km":0.2,"mesh":"53390510"},"geometry":{"type":"LineString","coordinates":[[139.63375,35.34168],[139.6337,35.34176]]}},{"type":"Feature","properties":{"idx":172,"road":NaN,"cls":"pedestrian","shops":1,"st_km":0.11,"mesh":"53390501"},"geometry":{"type":"LineString","coordinates":[[139.64014,35.34051],[139.64019,35.34038],[139.6404,35.34017],[139.64082,35.33994],[139.64088,35.3396],[139.64116,35.33938],[139.64135,35.33943]]}},{"type":"Feature","properties":{"idx":107,"road":NaN,"cls":"pedestrian","shops":0,"st_km":0.51,"mesh":"53390521"},"geometry":{"type":"LineString","coordinates":[[139.64048,35.35351],[139.6406,35.35356],[139.64083,35.3539]]}},{"type":"Feature","properties":{"idx":186,"road":NaN,"cls":"tertiary","shops":0,"st_km":0.44,"mesh":"53390530"},"geometry":{"type":"LineString","coordinates":[[139.63847,35.35666],[139.63711,35.35729],[139.63649,35.35771],[139.63607,35.35837],[139.63574,35.35945],[139.63558,35.35965],[139.63538,35.35978],[139.63511,35.35986],[139.63481,35.35984],[139.63323,35.35922],[139.63291,35.35918],[139.63258,35.35927],[139.63203,35.35958],[139.63136,35.3599],[139.63114,35.3601],[139.63012,35.3616],[139.63007,35.36174],[139.63007,35.36196],[139.63023,35.36228],[139.63025,35.36245],[139.63015,35.36256],[139.62995,35.36264]]}},{"type":"Feature","properties":{"idx":85,"road":NaN,"cls":"tertiary","shops":0,"st_km":0.57,"mesh":"53390531"},"geometry":{"type":"LineString","coordinates":[[139.65107,35.35748],[139.64997,35.35916],[139.64978,35.35958],[139.64973,35.35986],[139.64972,35.36148]]}},{"type":"Feature","properties":{"idx":512,"road":NaN,"cls":"tertiary","shops":0,"st_km":0.47,"mesh":"53390522"},"geometry":{"type":"LineString","coordinates":[[139.65122,35.35736],[139.65294,35.35458],[139.65313,35.35401],[139.65314,35.34574],[139.65295,35.34548]]}},{"type":"Feature","properties":{"idx":448,"road":"臨海橋","cls":"tertiary","shops":0,"st_km":0.62,"mesh":"53390522"},"geometry":{"type":"LineString","coordinates":[[139.65116,35.35733],[139.65107,35.35748]]}},{"type":"Feature","properties":{"idx":446,"road":"臨海橋","cls":"tertiary","shops":0,"st_km":0.63,"mesh":"53390522"},"geometry":{"type":"LineString","coordinates":[[139.65114,35.3575],[139.65122,35.35736]]}},{"type":"Feature","properties":{"idx":219,"road":NaN,"cls":"tertiary","shops":2,"st_km":0.21,"mesh":"53390541"},"geometry":{"type":"LineString","coordinates":[[139.64198,35.37193],[139.64192,35.37326],[139.64186,35.37342],[139.64174,35.37353],[139.64149,35.37364],[139.64124,35.37367],[139.63936,35.37361]]}},{"type":"Feature","properties":{"idx":484,"road":"金沢海岸通り","cls":"tertiary","shops":0,"st_km":0.21,"mesh":"53390500"},"geometry":{"type":"LineString","coordinates":[[139.63168,35.3393],[139.63154,35.33834],[139.63162,35.33674],[139.63173,35.33603],[139.63227,35.33441],[139.63274,35.33331],[139.63309,35.33219],[139.63304,35.33205],[139.63249,35.33178]]}},{"type":"Feature","properties":{"idx":159,"road":"山下本牧磯子線","cls":"primary","shops":1,"st_km":0.72,"mesh":"53390590"},"geometry":{"type":"LineString","coordinates":[[139.6282,35.41519],[139.62832,35.41523]]}},{"type":"Feature","properties":{"idx":244,"road":"山下本牧磯子線","cls":"primary","shops":3,"st_km":0.81,"mesh":"53390590"},"geometry":{"type":"LineString","coordinates":[[139.62717,35.41478],[139.62735,35.41485]]}},{"type":"Feature","properties":{"idx":653,"road":NaN,"cls":"tertiary","shops":0,"st_km":0.09,"mesh":"53390540"},"geometry":{"type":"LineString","coordinates":[[139.62972,35.36752],[139.62953,35.36755]]}},{"type":"Feature","properties":{"idx":651,"road":NaN,"cls":"tertiary","shops":0,"st_km":0.1,"mesh":"53390540"},"geometry":{"type":"LineString","coordinates":[[139.62953,35.36755],[139.6295,35.36755]]}},{"type":"Feature","properties":{"idx":486,"road":NaN,"cls":"tertiary","shops":0,"st_km":0.38,"mesh":"53390540"},"geometry":{"type":"LineString","coordinates":[[139.62605,35.36726],[139.62565,35.36761],[139.62571,35.36795]]}},{"type":"Feature","properties":{"idx":216,"road":NaN,"cls":"tertiary","shops":0,"st_km":0.27,"mesh":"53390530"},"geometry":{"type":"LineString","coordinates":[[139.63209,35.36547],[139.63265,35.36541],[139.63273,35.3679]]}},{"type":"Feature","properties":{"idx":167,"road":NaN,"cls":"tertiary","shops":0,"st_km":0.53,"mesh":"53390530"},"geometry":{"type":"LineString","coordinates":[[139.63582,35.36699],[139.6354,35.36536],[139.63545,35.36419]]}},{"type":"Feature","properties":{"idx":412,"road":"東浜橋","cls":"tertiary","shops":0,"st_km":0.55,"mesh":"53390540"},"geometry":{"type":"LineString","coordinates":[[139.63587,35.36715],[139.63582,35.36699]]}},{"type":"Feature","properties":{"idx":422,"road":NaN,"cls":"tertiary","shops":1,"st_km":0.02,"mesh":"53390530"},"geometry":{"type":"LineString","coordinates":[[139.6295,35.36755],[139.62955,35.36707],[139.62976,35.36606],[139.6297,35.36567]]}},{"type":"Feature","properties":{"idx":78,"road":NaN,"cls":"tertiary","shops":0,"st_km":2.23,"mesh":"53390593"},"geometry":{"type":"LineString","coordinates":[[139.66562,35.41453],[139.66623,35.41488],[139.66732,35.41598]]}},{"type":"Feature","properties":{"idx":317,"road":"山下本牧磯子線","cls":"primary","shops":2,"st_km":0.29,"mesh":"53390590"},"geometry":{"type":"LineString","coordinates":[[139.63249,35.41637],[139.63339,35.41662]]}},{"type":"Feature","properties":{"idx":75,"road":NaN,"cls":"tertiary","shops":0,"st_km":2.35,"mesh":"53390593"},"geometry":{"type":"LineString","coordinates":[[139.66911,35.41489],[139.66789,35.41557],[139.66756,35.41564],[139.66729,35.41559]]}},{"type":"Feature","properties":{"idx":66,"road":NaN,"cls":"tertiary","shops":0,"st_km":2.87,"mesh":"53390593"},"geometry":{"type":"LineString","coordinates":[[139.6705,35.41423],[139.67543,35.41128]]}},{"type":"Feature","properties":{"idx":70,"road":NaN,"cls":"tertiary","shops":0,"st_km":2.56,"mesh":"53390593"},"geometry":{"type":"LineString","coordinates":[[139.67044,35.41409],[139.66978,35.41449]]}},{"type":"Feature","properties":{"idx":67,"road":NaN,"cls":"tertiary","shops":0,"st_km":2.74,"mesh":"53390593"},"geometry":{"type":"LineString","coordinates":[[139.67313,35.41248],[139.67044,35.41409]]}},{"type":"Feature","properties":{"idx":581,"road":NaN,"cls":"tertiary_link","shops":0,"st_km":0.43,"mesh":"53390551"},"geometry":{"type":"LineString","coordinates":[[139.63804,35.37947],[139.63763,35.37926]]}},{"type":"Feature","properties":{"idx":82,"road":NaN,"cls":"tertiary","shops":0,"st_km":0.51,"mesh":"53390541"},"geometry":{"type":"LineString","coordinates":[[139.64589,35.37202],[139.65075,35.37204]]}},{"type":"Feature","properties":{"idx":101,"road":NaN,"cls":"tertiary","shops":0,"st_km":0.28,"mesh":"53390541"},"geometry":{"type":"LineString","coordinates":[[139.64583,35.37188],[139.64589,35.37202]]}},{"type":"Feature","properties":{"idx":113,"road":NaN,"cls":"tertiary","shops":0,"st_km":0.17,"mesh":"53390541"},"geometry":{"type":"LineString","coordinates":[[139.64583,35.37188],[139.6434,35.37187]]}},{"type":"Feature","properties":{"idx":64,"road":NaN,"cls":"tertiary","shops":0,"st_km":1.08,"mesh":"53390542"},"geometry":{"type":"LineString","coordinates":[[139.6534,35.37204],[139.65582,35.37205]]}},{"type":"Feature","properties":{"idx":82,"road":NaN,"cls":"tertiary","shops":0,"st_km":0.51,"mesh":"53390541"},"geometry":{"type":"LineString","coordinates":[[139.65075,35.3719],[139.64583,35.37188]]}},{"type":"Feature","properties":{"idx":67,"road":NaN,"cls":"tertiary","shops":0,"st_km":1.01,"mesh":"53390542"},"geometry":{"type":"LineString","coordinates":[[139.65427,35.3719],[139.65349,35.37189]]}},{"type":"Feature","properties":{"idx":765,"road":NaN,"cls":"tertiary","shops":0,"st_km":0.68,"mesh":"53390551"},"geometry":{"type":"LineString","coordinates":[[139.64167,35.37776],[139.64265,35.37852],[139.64326,35.37908],[139.65023,35.38484],[139.64881,35.38593]]}},{"type":"Feature","properties":{"idx":1403,"road":NaN,"cls":"tertiary","shops":0,"st_km":0.06,"mesh":"53390551"},"geometry":{"type":"LineString","coordinates":[[139.64152,35.37763],[139.64167,35.37776]]}},{"type":"Feature","properties":{"idx":552,"road":NaN,"cls":"tertiary","shops":10,"st_km":0.49,"mesh":"53390531"},"geometry":{"type":"LineString","coordinates":[[139.63975,35.36233],[139.6398,35.3615]]}},{"type":"Feature","properties":{"idx":1183,"road":NaN,"cls":"tertiary","shops":0,"st_km":0.22,"mesh":"53390551"},"geometry":{"type":"LineString","coordinates":[[139.63781,35.37467],[139.64152,35.37763]]}},{"type":"Feature","properties":{"idx":104,"road":NaN,"cls":"tertiary","shops":0,"st_km":0.3,"mesh":"53390541"},"geometry":{"type":"LineString","coordinates":[[139.63932,35.3746],[139.64175,35.37468]]}},{"type":"Feature","properties":{"idx":326,"road":NaN,"cls":"tertiary","shops":6,"st_km":0.51,"mesh":"53390541"},"geometry":{"type":"LineString","coordinates":[[139.63626,35.37173],[139.6363,35.37112],[139.63638,35.37091],[139.63662,35.37074],[139.63797,35.37007],[139.63806,35.36994],[139.63811,35.36946],[139.63805,35.36918],[139.63787,35.36902],[139.63642,35.36848],[139.63618,35.36834],[139.63605,35.36811],[139.6359,35.36728]]}},{"type":"Feature","properties":{"idx":538,"road":NaN,"cls":"tertiary","shops":9,"st_km":0.42,"mesh":"53390531"},"geometry":{"type":"LineString","coordinates":[[139.63879,35.36229],[139.64174,35.36238]]}},{"type":"Feature","properties":{"idx":118,"road":NaN,"cls":"tertiary","shops":0,"st_km":0.11,"mesh":"53390521"},"geometry":{"type":"LineString","coordinates":[[139.64283,35.35527],[139.64259,35.35973],[139.64254,35.35987],[139.64235,35.36005],[139.64208,35.36015],[139.64185,35.36016]]}},{"type":"Feature","properties":{"idx":157,"road":NaN,"cls":"tertiary","shops":1,"st_km":0.36,"mesh":"53390531"},"geometry":{"type":"LineString","coordinates":[[139.64185,35.36016],[139.63891,35.36005]]}},{"type":"Feature","properties":{"idx":116,"road":NaN,"cls":"tertiary","shops":0,"st_km":0.25,"mesh":"53390531"},"geometry":{"type":"LineString","coordinates":[[139.64174,35.36238],[139.64218,35.36249],[139.64242,35.36274],[139.64245,35.36298],[139.64238,35.36442]]}},{"type":"Feature","properties":{"idx":856,"road":NaN,"cls":"tertiary","shops":2,"st_km":0.51,"mesh":"53390540"},"geometry":{"type":"LineString","coordinates":[[139.63481,35.36741],[139.6359,35.36728]]}},{"type":"Feature","properties":{"idx":1261,"road":NaN,"cls":"tertiary","shops":1,"st_km":0.58,"mesh":"53390551"},"geometry":{"type":"LineString","coordinates":[[139.64881,35.38593],[139.64428,35.38215],[139.63804,35.37947]]}},{"type":"Feature","properties":{"idx":578,"road":"国道16号旧道","cls":"tertiary","shops":1,"st_km":0.63,"mesh":"53390500"},"geometry":{"type":"LineString","coordinates":[[139.6254,35.33186],[139.62616,35.33333],[139.62619,35.33367],[139.62614,35.33382],[139.62591,35.33422],[139.62589,35.33445],[139.62676,35.3364]]}},{"type":"Feature","properties":{"idx":67,"road":NaN,"cls":"tertiary","shops":0,"st_km":0.99,"mesh":"53390590"},"geometry":{"type":"LineString","coordinates":[[139.62609,35.41121],[139.62674,35.41166],[139.62699,35.41179],[139.62706,35.41177]]}},{"type":"Feature","properties":{"idx":70,"road":NaN,"cls":"tertiary","shops":0,"st_km":0.94,"mesh":"53390590"},"geometry":{"type":"LineString","coordinates":[[139.62706,35.41177],[139.62736,35.41137]]}},{"type":"Feature","properties":{"idx":186,"road":NaN,"cls":"pedestrian","shops":0,"st_km":0.7,"mesh":"53390530"},"geometry":{"type":"LineString","coordinates":[[139.63693,35.36182],[139.63697,35.36132]]}},{"type":"Feature","properties":{"idx":210,"road":NaN,"cls":"pedestrian","shops":0,"st_km":0.65,"mesh":"53390530"},"geometry":{"type":"LineString","coordinates":[[139.63569,35.36191],[139.63658,35.36196]]}},{"type":"Feature","properties":{"idx":294,"road":NaN,"cls":"pedestrian","shops":1,"st_km":0.64,"mesh":"53390530"},"geometry":{"type":"LineString","coordinates":[[139.63756,35.362],[139.63721,35.36199]]}},{"type":"Feature","properties":{"idx":163,"road":NaN,"cls":"pedestrian","shops":1,"st_km":0.16,"mesh":"53390501"},"geometry":{"type":"LineString","coordinates":[[139.64137,35.3402],[139.64131,35.34005],[139.64207,35.33901]]}},{"type":"Feature","properties":{"idx":236,"road":NaN,"cls":"pedestrian","shops":0,"st_km":0.52,"mesh":"53390530"},"geometry":{"type":"LineString","coordinates":[[139.63422,35.36291],[139.63491,35.36152],[139.63568,35.36159]]}},{"type":"Feature","properties":{"idx":482,"road":NaN,"cls":"pedestrian","shops":2,"st_km":0.48,"mesh":"53390530"},"geometry":{"type":"LineString","coordinates":[[139.63411,35.36452],[139.63392,35.3647],[139.63392,35.36476],[139.63481,35.36477],[139.63504,35.3646],[139.63534,35.3646]]}},{"type":"Feature","properties":{"idx":227,"road":NaN,"cls":"pedestrian","shops":0,"st_km":0.56,"mesh":"53390530"},"geometry":{"type":"LineString","coordinates":[[139.63542,35.36309],[139.63504,35.36308],[139.63444,35.36291],[139.63422,35.36291],[139.63413,35.3632]]}},{"type":"Feature","properties":{"idx":122,"road":NaN,"cls":"pedestrian","shops":0,"st_km":0.53,"mesh":"53390531"},"geometry":{"type":"LineString","coordinates":[[139.63849,35.36058],[139.63862,35.36075],[139.63877,35.36075]]}},{"type":"Feature","properties":{"idx":189,"road":"長浜公園連絡橋","cls":"pedestrian","shops":0,"st_km":0.68,"mesh":"53390530"},"geometry":{"type":"LineString","coordinates":[[139.63697,35.36132],[139.63699,35.36082]]}},{"type":"Feature","properties":{"idx":119,"road":NaN,"cls":"pedestrian","shops":0,"st_km":0.55,"mesh":"53390531"},"geometry":{"type":"LineString","coordinates":[[139.63868,35.35985],[139.63869,35.36025],[139.63849,35.36058],[139.63785,35.36054],[139.637,35.36071]]}},{"type":"Feature","properties":{"idx":341,"road":NaN,"cls":"pedestrian","shops":1,"st_km":0.56,"mesh":"53390530"},"geometry":{"type":"LineString","coordinates":[[139.63544,35.3624],[139.63462,35.3621]]}},{"type":"Feature","properties":{"idx":192,"road":NaN,"cls":"pedestrian","shops":0,"st_km":0.66,"mesh":"53390530"},"geometry":{"type":"LineString","coordinates":[[139.63699,35.36082],[139.637,35.36071]]}},{"type":"Feature","properties":{"idx":187,"road":NaN,"cls":"pedestrian","shops":1,"st_km":0.51,"mesh":"53390531"},"geometry":{"type":"LineString","coordinates":[[139.63866,35.35981],[139.63837,35.35973],[139.63827,35.35962],[139.6383,35.35956],[139.63825,35.35949],[139.63875,35.35913]]}},{"type":"Feature","properties":{"idx":750,"road":NaN,"cls":"pedestrian","shops":5,"st_km":0.62,"mesh":"53390530"},"geometry":{"type":"LineString","coordinates":[[139.6352,35.3646],[139.63531,35.36264],[139.63555,35.36226],[139.63563,35.36192],[139.63569,35.36191]]}},{"type":"Feature","properties":{"idx":108,"road":NaN,"cls":"pedestrian","shops":0,"st_km":0.5,"mesh":"53390521"},"geometry":{"type":"LineString","coordinates":[[139.64083,35.3539],[139.64091,35.35401]]}},{"type":"Feature","properties":{"idx":166,"road":NaN,"cls":"pedestrian","shops":3,"st_km":0.68,"mesh":"53390501"},"geometry":{"type":"LineString","coordinates":[[139.64662,35.33738],[139.64662,35.33676]]}},{"type":"Feature","properties":{"idx":237,"road":NaN,"cls":"pedestrian","shops":5,"st_km":0.66,"mesh":"53390501"},"geometry":{"type":"LineString","coordinates":[[139.64635,35.33738],[139.64635,35.33678]]}},{"type":"Feature","properties":{"idx":238,"road":NaN,"cls":"pedestrian","shops":5,"st_km":0.65,"mesh":"53390501"},"geometry":{"type":"LineString","coordinates":[[139.64566,35.33788],[139.64635,35.33738],[139.64662,35.33738],[139.64674,35.33803],[139.64684,35.3382]]}},{"type":"Feature","properties":{"idx":59,"road":NaN,"cls":"tertiary","shops":0,"st_km":1.19,"mesh":"53390542"},"geometry":{"type":"LineString","coordinates":[[139.65582,35.37205],[139.65581,35.37188]]}},{"type":"Feature","properties":{"idx":62,"road":NaN,"cls":"tertiary","shops":0,"st_km":1.12,"mesh":"53390542"},"geometry":{"type":"LineString","coordinates":[[139.65581,35.37188],[139.65427,35.3719]]}},{"type":"Feature","properties":{"idx":318,"road":NaN,"cls":"pedestrian","shops":3,"st_km":0.48,"mesh":"53390531"},"geometry":{"type":"LineString","coordinates":[[139.63767,35.36601],[139.6378,35.36635]]}},{"type":"Feature","properties":{"idx":139,"road":"波除橋","cls":"pedestrian","shops":0,"st_km":0.39,"mesh":"53390531"},"geometry":{"type":"LineString","coordinates":[[139.63894,35.36641],[139.63877,35.36616]]}},{"type":"Feature","properties":{"idx":167,"road":NaN,"cls":"pedestrian","shops":0,"st_km":0.2,"mesh":"53390531"},"geometry":{"type":"LineString","coordinates":[[139.6422,35.36619],[139.63968,35.36616]]}},{"type":"Feature","properties":{"idx":162,"road":NaN,"cls":"pedestrian","shops":1,"st_km":0.55,"mesh":"53390541"},"geometry":{"type":"LineString","coordinates":[[139.63837,35.3689],[139.63819,35.36893],[139.63783,35.36881],[139.63777,35.3689]]}},{"type":"Feature","properties":{"idx":509,"road":NaN,"cls":"pedestrian","shops":0,"st_km":0.6,"mesh":"53390540"},"geometry":{"type":"LineString","coordinates":[[139.63582,35.36596],[139.63599,35.36656],[139.6363,35.3667],[139.63672,35.36668],[139.6378,35.36635]]}},{"type":"Feature","properties":{"idx":149,"road":NaN,"cls":"pedestrian","shops":0,"st_km":0.32,"mesh":"53390531"},"geometry":{"type":"LineString","coordinates":[[139.6399,35.36359],[139.6406,35.36362]]}},{"type":"Feature","properties":{"idx":143,"road":NaN,"cls":"pedestrian","shops":0,"st_km":0.36,"mesh":"53390531"},"geometry":{"type":"LineString","coordinates":[[139.63846,35.36611],[139.63847,35.36494],[139.6399,35.36379],[139.63996,35.3624]]}},{"type":"Feature","properties":{"idx":255,"road":NaN,"cls":"pedestrian","shops":2,"st_km":0.48,"mesh":"53390531"},"geometry":{"type":"LineString","coordinates":[[139.6378,35.36635],[139.63787,35.36653]]}},{"type":"Feature","properties":{"idx":139,"road":NaN,"cls":"pedestrian","shops":0,"st_km":0.39,"mesh":"53390531"},"geometry":{"type":"LineString","coordinates":[[139.63877,35.36616],[139.63873,35.36611]]}},{"type":"Feature","properties":{"idx":147,"road":NaN,"cls":"pedestrian","shops":0,"st_km":0.33,"mesh":"53390531"},"geometry":{"type":"LineString","coordinates":[[139.6399,35.36379],[139.64016,35.36361]]}},{"type":"Feature","properties":{"idx":338,"road":NaN,"cls":"pedestrian","shops":3,"st_km":0.42,"mesh":"53390531"},"geometry":{"type":"LineString","coordinates":[[139.63897,35.36453],[139.63832,35.36393]]}},{"type":"Feature","properties":{"idx":264,"road":NaN,"cls":"pedestrian","shops":2,"st_km":0.44,"mesh":"53390531"},"geometry":{"type":"LineString","coordinates":[[139.63846,35.36527],[139.63776,35.36525]]}},{"type":"Feature","properties":{"idx":401,"road":NaN,"cls":"pedestrian","shops":4,"st_km":0.43,"mesh":"53390531"},"geometry":{"type":"LineString","coordinates":[[139.63826,35.36526],[139.63827,35.36507],[139.63847,35.36494]]}},{"type":"Feature","properties":{"idx":144,"road":NaN,"cls":"pedestrian","shops":0,"st_km":0.36,"mesh":"53390531"},"geometry":{"type":"LineString","coordinates":[[139.63873,35.36611],[139.63957,35.36611]]}},{"type":"Feature","properties":{"idx":202,"road":NaN,"cls":"pedestrian","shops":1,"st_km":0.32,"mesh":"53390541"},"geometry":{"type":"LineString","coordinates":[[139.63837,35.37248],[139.6402,35.37252]]}},{"type":"Feature","properties":{"idx":332,"road":NaN,"cls":"pedestrian","shops":3,"st_km":0.44,"mesh":"53390531"},"geometry":{"type":"LineString","coordinates":[[139.63873,35.36611],[139.63846,35.36611],[139.63778,35.36631]]}},{"type":"Feature","properties":{"idx":135,"road":NaN,"cls":"pedestrian","shops":0,"st_km":0.32,"mesh":"53390541"},"geometry":{"type":"LineString","coordinates":[[139.6395,35.37013],[139.63941,35.37018],[139.63928,35.37249]]}},{"type":"Feature","properties":{"idx":211,"road":NaN,"cls":"pedestrian","shops":1,"st_km":0.27,"mesh":"53390541"},"geometry":{"type":"LineString","coordinates":[[139.64198,35.37021],[139.63946,35.37011]]}},{"type":"Feature","properties":{"idx":97,"road":NaN,"cls":"tertiary","shops":0,"st_km":0.44,"mesh":"53390531"},"geometry":{"type":"LineString","coordinates":[[139.63975,35.36131],[139.64113,35.36126]]}},{"type":"Feature","properties":{"idx":152,"road":NaN,"cls":"pedestrian","shops":0,"st_km":0.3,"mesh":"53390531"},"geometry":{"type":"LineString","coordinates":[[139.64159,35.36356],[139.64156,35.3633],[139.64158,35.36246]]}},{"type":"Feature","properties":{"idx":170,"road":NaN,"cls":"pedestrian","shops":0,"st_km":0.19,"mesh":"53390531"},"geometry":{"type":"LineString","coordinates":[[139.64224,35.36553],[139.6414,35.36552],[139.641,35.36505],[139.64028,35.36558],[139.64023,35.36616]]}},{"type":"Feature","properties":{"idx":173,"road":NaN,"cls":"pedestrian","shops":0,"st_km":0.17,"mesh":"53390531"},"geometry":{"type":"LineString","coordinates":[[139.64102,35.36504],[139.64127,35.3649],[139.64131,35.36445]]}},{"type":"Feature","properties":{"idx":161,"road":NaN,"cls":"pedestrian","shops":0,"st_km":0.24,"mesh":"53390531"},"geometry":{"type":"LineString","coordinates":[[139.64134,35.36363],[139.64154,35.36363],[139.64159,35.36356],[139.64208,35.36357]]}},{"type":"Feature","properties":{"idx":223,"road":"ふじはし","cls":"pedestrian","shops":0,"st_km":0.56,"mesh":"53390530"},"geometry":{"type":"LineString","coordinates":[[139.63566,35.36496],[139.63549,35.36496]]}},{"type":"Feature","properties":{"idx":203,"road":NaN,"cls":"pedestrian","shops":0,"st_km":0.67,"mesh":"53390530"},"geometry":{"type":"LineString","coordinates":[[139.63582,35.36236],[139.63571,35.36416]]}},{"type":"Feature","properties":{"idx":312,"road":"あざみはし","cls":"pedestrian","shops":1,"st_km":0.66,"mesh":"53390530"},"geometry":{"type":"LineString","coordinates":[[139.63574,35.36324],[139.63559,35.36324]]}},{"type":"Feature","properties":{"idx":201,"road":NaN,"cls":"pedestrian","shops":0,"st_km":0.61,"mesh":"53390530"},"geometry":{"type":"LineString","coordinates":[[139.63574,35.36324],[139.63684,35.36328],[139.63675,35.3642]]}},{"type":"Feature","properties":{"idx":203,"road":NaN,"cls":"pedestrian","shops":0,"st_km":0.6,"mesh":"53390530"},"geometry":{"type":"LineString","coordinates":[[139.63684,35.36328],[139.63723,35.36296],[139.63728,35.36232]]}},{"type":"Feature","properties":{"idx":209,"road":NaN,"cls":"pedestrian","shops":0,"st_km":0.56,"mesh":"53390530"},"geometry":{"type":"LineString","coordinates":[[139.63767,35.36525],[139.63679,35.36523],[139.63681,35.36501],[139.63566,35.36496]]}},{"type":"Feature","properties":{"idx":122,"road":NaN,"cls":"pedestrian","shops":0,"st_km":0.53,"mesh":"53390531"},"geometry":{"type":"LineString","coordinates":[[139.63723,35.36296],[139.63825,35.36386]]}},{"type":"Feature","properties":{"idx":198,"road":NaN,"cls":"pedestrian","shops":1,"st_km":0.36,"mesh":"53390541"},"geometry":{"type":"LineString","coordinates":[[139.64051,35.3674],[139.64045,35.36745],[139.64041,35.36839]]}},{"type":"Feature","properties":{"idx":400,"road":"並木橋","cls":"tertiary","shops":4,"st_km":0.11,"mesh":"53390531"},"geometry":{"type":"LineString","coordinates":[[139.64227,35.36617],[139.64226,35.36641]]}},{"type":"Feature","properties":{"idx":211,"road":NaN,"cls":"tertiary","shops":1,"st_km":0.06,"mesh":"53390531"},"geometry":{"type":"LineString","coordinates":[[139.64238,35.36442],[139.64227,35.36617]]}},{"type":"Feature","properties":{"idx":99,"road":NaN,"cls":"tertiary","shops":0,"st_km":0.31,"mesh":"53390541"},"geometry":{"type":"LineString","coordinates":[[139.64222,35.36742],[139.64203,35.37109]]}},{"type":"Feature","properties":{"idx":186,"road":NaN,"cls":"tertiary","shops":1,"st_km":0.09,"mesh":"53390541"},"geometry":{"type":"LineString","coordinates":[[139.64203,35.37109],[139.64198,35.37193]]}},{"type":"Feature","properties":{"idx":147,"road":NaN,"cls":"pedestrian","shops":0,"st_km":0.24,"mesh":"53390541"},"geometry":{"type":"LineString","coordinates":[[139.64141,35.36741],[139.64215,35.36742]]}},{"type":"Feature","properties":{"idx":172,"road":NaN,"cls":"tertiary","shops":1,"st_km":0.18,"mesh":"53390541"},"geometry":{"type":"LineString","coordinates":[[139.64226,35.36641],[139.64222,35.36742]]}},{"type":"Feature","properties":{"idx":138,"road":NaN,"cls":"pedestrian","shops":0,"st_km":0.31,"mesh":"53390541"},"geometry":{"type":"LineString","coordinates":[[139.64139,35.36741],[139.64136,35.36844]]}},{"type":"Feature","properties":{"idx":161,"road":NaN,"cls":"pedestrian","shops":0,"st_km":0.24,"mesh":"53390531"},"geometry":{"type":"LineString","coordinates":[[139.64131,35.36434],[139.64134,35.36363],[139.64073,35.36362]]}},{"type":"Feature","properties":{"idx":125,"road":NaN,"cls":"pedestrian","shops":0,"st_km":0.4,"mesh":"53390541"},"geometry":{"type":"LineString","coordinates":[[139.63852,35.37011],[139.63838,35.37181],[139.63835,35.37243],[139.63839,35.37252],[139.63832,35.37351]]}},{"type":"Feature","properties":{"idx":141,"road":NaN,"cls":"pedestrian","shops":0,"st_km":0.29,"mesh":"53390541"},"geometry":{"type":"LineString","coordinates":[[139.63964,35.3667],[139.64054,35.36673],[139.64051,35.3674],[139.64141,35.36741]]}},{"type":"Feature","properties":{"idx":129,"road":NaN,"cls":"pedestrian","shops":0,"st_km":0.36,"mesh":"53390541"},"geometry":{"type":"LineString","coordinates":[[139.64135,35.36851],[139.64129,35.36942]]}},{"type":"Feature","properties":{"idx":206,"road":NaN,"cls":"pedestrian","shops":1,"st_km":0.4,"mesh":"53390531"},"geometry":{"type":"LineString","coordinates":[[139.63956,35.36616],[139.63846,35.36616],[139.6378,35.36635]]}},{"type":"Feature","properties":{"idx":120,"road":NaN,"cls":"pedestrian","shops":0,"st_km":0.45,"mesh":"53390541"},"geometry":{"type":"LineString","coordinates":[[139.63955,35.36642],[139.63894,35.36641],[139.63882,35.36666],[139.63859,35.36763],[139.63838,35.36887],[139.63833,35.36893]]}},{"type":"Feature","properties":{"idx":159,"road":NaN,"cls":"pedestrian","shops":0,"st_km":0.15,"mesh":"53390541"},"geometry":{"type":"LineString","coordinates":[[139.64129,35.36942],[139.64107,35.37361]]}},{"type":"Feature","properties":{"idx":113,"road":NaN,"cls":"pedestrian","shops":0,"st_km":0.47,"mesh":"53390521"},"geometry":{"type":"LineString","coordinates":[[139.63886,35.35683],[139.63896,35.35682]]}},{"type":"Feature","properties":{"idx":150,"road":NaN,"cls":"pedestrian","shops":0,"st_km":0.31,"mesh":"53390531"},"geometry":{"type":"LineString","coordinates":[[139.63947,35.36413],[139.6401,35.36471]]}},{"type":"Feature","properties":{"idx":162,"road":NaN,"cls":"pedestrian","shops":0,"st_km":0.23,"mesh":"53390531"},"geometry":{"type":"LineString","coordinates":[[139.64019,35.36476],[139.64074,35.36524]]}},{"type":"Feature","properties":{"idx":156,"road":"すいれんはし","cls":"tertiary","shops":0,"st_km":0.62,"mesh":"53390530"},"geometry":{"type":"LineString","coordinates":[[139.63565,35.36239],[139.63582,35.36227]]}},{"type":"Feature","properties":{"idx":216,"road":NaN,"cls":"tertiary","shops":1,"st_km":0.63,"mesh":"53390530"},"geometry":{"type":"LineString","coordinates":[[139.63582,35.36227],[139.63617,35.36222],[139.63879,35.36229]]}},{"type":"Feature","properties":{"idx":219,"road":NaN,"cls":"pedestrian","shops":1,"st_km":0.2,"mesh":"53390521"},"geometry":{"type":"LineString","coordinates":[[139.64207,35.35689],[139.64266,35.35691]]}},{"type":"Feature","properties":{"idx":146,"road":NaN,"cls":"pedestrian","shops":0,"st_km":0.2,"mesh":"53390521"},"geometry":{"type":"LineString","coordinates":[[139.64042,35.36004],[139.64045,35.35925],[139.64158,35.35839],[139.64163,35.35731],[139.64203,35.35699],[139.64207,35.35689],[139.64208,35.35658],[139.64188,35.35658],[139.64196,35.35528]]}},{"type":"Feature","properties":{"idx":124,"road":NaN,"cls":"pedestrian","shops":0,"st_km":0.36,"mesh":"53390521"},"geometry":{"type":"LineString","coordinates":[[139.64075,35.35727],[139.63912,35.35722]]}},{"type":"Feature","properties":{"idx":121,"road":NaN,"cls":"pedestrian","shops":0,"st_km":0.39,"mesh":"53390521"},"geometry":{"type":"LineString","coordinates":[[139.64016,35.35614],[139.63965,35.35663],[139.63961,35.35778],[139.64025,35.35834]]}},{"type":"Feature","properties":{"idx":136,"road":NaN,"cls":"tertiary","shops":1,"st_km":0.35,"mesh":"53390521"},"geometry":{"type":"LineString","coordinates":[[139.64289,35.35435],[139.64283,35.35527]]}},{"type":"Feature","properties":{"idx":232,"road":"小柴橋","cls":"tertiary","shops":3,"st_km":0.33,"mesh":"53390521"},"geometry":{"type":"LineString","coordinates":[[139.64289,35.35422],[139.64289,35.35435]]}},{"type":"Feature","properties":{"idx":117,"road":NaN,"cls":"pedestrian","shops":0,"st_km":0.46,"mesh":"53390541"},"geometry":{"type":"LineString","coordinates":[[139.63736,35.37381],[139.63819,35.37407],[139.63927,35.37412]]}},{"type":"Feature","properties":{"idx":137,"road":NaN,"cls":"pedestrian","shops":0,"st_km":0.3,"mesh":"53390541"},"geometry":{"type":"LineString","coordinates":[[139.63942,35.37413],[139.64192,35.37421]]}},{"type":"Feature","properties":{"idx":192,"road":NaN,"cls":"tertiary","shops":0,"st_km":0.41,"mesh":"53390530"},"geometry":{"type":"LineString","coordinates":[[139.6297,35.36567],[139.62924,35.36448],[139.62874,35.36391],[139.62278,35.36306]]}},{"type":"Feature","properties":{"idx":531,"road":NaN,"cls":"pedestrian","shops":0,"st_km":0.57,"mesh":"53390520"},"geometry":{"type":"LineString","coordinates":[[139.62574,35.35616],[139.62601,35.35617]]}},{"type":"Feature","properties":{"idx":504,"road":NaN,"cls":"pedestrian","shops":0,"st_km":0.63,"mesh":"53390520"},"geometry":{"type":"LineString","coordinates":[[139.62441,35.35598],[139.62564,35.35615]]}},{"type":"Feature","properties":{"idx":532,"road":NaN,"cls":"pedestrian","shops":0,"st_km":0.57,"mesh":"53390520"},"geometry":{"type":"LineString","coordinates":[[139.62606,35.35617],[139.62644,35.35607],[139.62695,35.35573],[139.62726,35.35573],[139.62777,35.35587]]}},{"type":"Feature","properties":{"idx":1239,"road":"鴻ノ巣橋","cls":"tertiary","shops":0,"st_km":0.18,"mesh":"53390551"},"geometry":{"type":"LineString","coordinates":[[139.64009,35.37635],[139.64018,35.37627]]}},{"type":"Feature","properties":{"idx":1177,"road":NaN,"cls":"tertiary","shops":0,"st_km":0.23,"mesh":"53390551"},"geometry":{"type":"LineString","coordinates":[[139.64018,35.37627],[139.64028,35.37616],[139.64033,35.37596],[139.64042,35.37464]]}},{"type":"Feature","properties":{"idx":94,"road":"福浦橋","cls":"tertiary","shops":0,"st_km":0.31,"mesh":"53390521"},"geometry":{"type":"LineString","coordinates":[[139.64762,35.35601],[139.64755,35.35613]]}},{"type":"Feature","properties":{"idx":102,"road":NaN,"cls":"tertiary","shops":0,"st_km":0.38,"mesh":"53390531"},"geometry":{"type":"LineString","coordinates":[[139.64755,35.35613],[139.64679,35.35732],[139.6466,35.35776],[139.6465,35.3582],[139.64634,35.36149],[139.64633,35.36266],[139.64609,35.3662]]}},{"type":"Feature","properties":{"idx":112,"road":NaN,"cls":"tertiary","shops":0,"st_km":0.14,"mesh":"53390521"},"geometry":{"type":"LineString","coordinates":[[139.64778,35.35606],[139.6484,35.35505],[139.64863,35.35428],[139.64863,35.34565],[139.64856,35.34547]]}},{"type":"Feature","properties":{"idx":93,"road":"福浦橋","cls":"tertiary","shops":0,"st_km":0.33,"mesh":"53390521"},"geometry":{"type":"LineString","coordinates":[[139.6477,35.35619],[139.64778,35.35606]]}},{"type":"Feature","properties":{"idx":186,"road":NaN,"cls":"pedestrian","shops":1,"st_km":0.51,"mesh":"53390531"},"geometry":{"type":"LineString","coordinates":[[139.63827,35.35962],[139.63821,35.35957],[139.63825,35.35949]]}},{"type":"Feature","properties":{"idx":390,"road":NaN,"cls":"tertiary","shops":7,"st_km":0.55,"mesh":"53390531"},"geometry":{"type":"LineString","coordinates":[[139.63884,35.36132],[139.63879,35.36229]]}},{"type":"Feature","properties":{"idx":177,"road":NaN,"cls":"tertiary","shops":2,"st_km":0.53,"mesh":"53390531"},"geometry":{"type":"LineString","coordinates":[[139.63884,35.36132],[139.63886,35.36096]]}},{"type":"Feature","properties":{"idx":91,"road":NaN,"cls":"tertiary","shops":0,"st_km":0.5,"mesh":"53390531"},"geometry":{"type":"LineString","coordinates":[[139.6394,35.36099],[139.63886,35.36096]]}},{"type":"Feature","properties":{"idx":410,"road":NaN,"cls":"tertiary","shops":0,"st_km":0.56,"mesh":"53390540"},"geometry":{"type":"LineString","coordinates":[[139.6359,35.36728],[139.63587,35.36715]]}},{"type":"Feature","properties":{"idx":92,"road":NaN,"cls":"tertiary","shops":0,"st_km":0.34,"mesh":"53390521"},"geometry":{"type":"LineString","coordinates":[[139.64391,35.351],[139.64434,35.35099]]}},{"type":"Feature","properties":{"idx":91,"road":NaN,"cls":"tertiary","shops":0,"st_km":0.34,"mesh":"53390521"},"geometry":{"type":"LineString","coordinates":[[139.64434,35.35092],[139.64391,35.35092]]}},{"type":"Feature","properties":{"idx":108,"road":NaN,"cls":"tertiary","shops":0,"st_km":0.32,"mesh":"53390531"},"geometry":{"type":"LineString","coordinates":[[139.64638,35.36435],[139.6462,35.36434]]}},{"type":"Feature","properties":{"idx":110,"road":NaN,"cls":"tertiary","shops":0,"st_km":0.3,"mesh":"53390531"},"geometry":{"type":"LineString","coordinates":[[139.64635,35.36501],[139.64617,35.365]]}},{"type":"Feature","properties":{"idx":282,"road":NaN,"cls":"tertiary","shops":0,"st_km":0.25,"mesh":"53390511"},"geometry":{"type":"LineString","coordinates":[[139.6447,35.34548],[139.64038,35.34518],[139.63964,35.34501],[139.63914,35.3448],[139.63866,35.3445],[139.63447,35.34112],[139.63397,35.34058],[139.63295,35.33917]]}},{"type":"Feature","properties":{"idx":121,"road":NaN,"cls":"pedestrian","shops":0,"st_km":0.39,"mesh":"53390521"},"geometry":{"type":"LineString","coordinates":[[139.64288,35.35293],[139.64168,35.3529],[139.64146,35.35272]]}},{"type":"Feature","properties":{"idx":25,"road":NaN,"cls":"tertiary","shops":0,"st_km":0.36,"mesh":"53390502"},"geometry":{"type":"LineString","coordinates":[[139.64553,35.34013],[139.64688,35.34017],[139.64725,35.34021],[139.65383,35.34147],[139.65444,35.34227],[139.65446,35.34548]]}},{"type":"Feature","properties":{"idx":145,"road":NaN,"cls":"pedestrian","shops":0,"st_km":0.24,"mesh":"53390541"},"geometry":{"type":"LineString","coordinates":[[139.64023,35.37188],[139.64016,35.37357]]}},{"type":"Feature","properties":{"idx":98,"road":NaN,"cls":"tertiary","shops":0,"st_km":0.31,"mesh":"53390541"},"geometry":{"type":"LineString","coordinates":[[139.64372,35.37467],[139.64373,35.37475]]}},{"type":"Feature","properties":{"idx":62,"road":NaN,"cls":"tertiary","shops":0,"st_km":0.41,"mesh":"53390501"},"geometry":{"type":"LineString","coordinates":[[139.64553,35.34013],[139.64488,35.34013]]}},{"type":"Feature","properties":{"idx":116,"road":NaN,"cls":"tertiary","shops":1,"st_km":2.24,"mesh":"53390593"},"geometry":{"type":"LineString","coordinates":[[139.66597,35.4139],[139.6656,35.41441],[139.66562,35.41453]]}},{"type":"Feature","properties":{"idx":1012,"road":NaN,"cls":"tertiary","shops":2,"st_km":0.29,"mesh":"53390520"},"geometry":{"type":"LineString","coordinates":[[139.62899,35.36062],[139.62878,35.35995],[139.62881,35.35968],[139.628,35.35837],[139.62781,35.35786],[139.62776,35.357],[139.62776,35.3554]]}},{"type":"Feature","properties":{"idx":355,"road":NaN,"cls":"tertiary","shops":0,"st_km":0.66,"mesh":"53390520"},"geometry":{"type":"LineString","coordinates":[[139.62776,35.3554],[139.62783,35.35493],[139.62779,35.35395]]}},{"type":"Feature","properties":{"idx":540,"road":NaN,"cls":"tertiary","shops":0,"st_km":0.1,"mesh":"53390500"},"geometry":{"type":"LineString","coordinates":[[139.63176,35.33677],[139.63175,35.33732],[139.63192,35.3379],[139.63224,35.33845],[139.63282,35.33924]]}},{"type":"Feature","properties":{"idx":216,"road":NaN,"cls":"tertiary","shops":0,"st_km":0.53,"mesh":"53390511"},"geometry":{"type":"LineString","coordinates":[[139.63818,35.34544],[139.64002,35.34596],[139.64105,35.34599]]}},{"type":"Feature","properties":{"idx":746,"road":NaN,"cls":"tertiary","shops":1,"st_km":0.04,"mesh":"53390510"},"geometry":{"type":"LineString","coordinates":[[139.63603,35.34254],[139.63612,35.34246]]}},{"type":"Feature","properties":{"idx":498,"road":NaN,"cls":"tertiary","shops":2,"st_km":0.38,"mesh":"53390511"},"geometry":{"type":"LineString","coordinates":[[139.63871,35.3447],[139.63879,35.3446]]}},{"type":"Feature","properties":{"idx":419,"road":NaN,"cls":"tertiary","shops":0,"st_km":0.21,"mesh":"53390510"},"geometry":{"type":"LineString","coordinates":[[139.63603,35.34254],[139.63871,35.3447]]}},{"type":"Feature","properties":{"idx":569,"road":"国道16号旧道","cls":"tertiary","shops":1,"st_km":0.46,"mesh":"53390500"},"geometry":{"type":"LineString","coordinates":[[139.62676,35.3364],[139.62733,35.33768],[139.62737,35.33796]]}},{"type":"Feature","properties":{"idx":458,"road":NaN,"cls":"tertiary","shops":0,"st_km":0.12,"mesh":"53390510"},"geometry":{"type":"LineString","coordinates":[[139.63435,35.3429],[139.63457,35.34287],[139.63551,35.34299]]}},{"type":"Feature","properties":{"idx":943,"road":NaN,"cls":"tertiary","shops":2,"st_km":0.23,"mesh":"53390500"},"geometry":{"type":"LineString","coordinates":[[139.63282,35.33924],[139.63295,35.33917]]}},{"type":"Feature","properties":{"idx":496,"road":NaN,"cls":"tertiary","shops":0,"st_km":0.2,"mesh":"53390500"},"geometry":{"type":"LineString","coordinates":[[139.63282,35.33924],[139.6336,35.34031],[139.63415,35.34097],[139.63603,35.34254]]}},{"type":"Feature","properties":{"idx":66,"road":NaN,"cls":"pedestrian","shops":0,"st_km":0.69,"mesh":"53390501"},"geometry":{"type":"LineString","coordinates":[[139.64286,35.33482],[139.64304,35.3351]]}},{"type":"Feature","properties":{"idx":309,"road":NaN,"cls":"tertiary","shops":1,"st_km":0.34,"mesh":"53390530"},"geometry":{"type":"LineString","coordinates":[[139.62648,35.35868],[139.62626,35.3585]]}},{"type":"Feature","properties":{"idx":357,"road":NaN,"cls":"pedestrian","shops":0,"st_km":0.11,"mesh":"53390530"},"geometry":{"type":"LineString","coordinates":[[139.62836,35.36005],[139.6283,35.35977],[139.62817,35.35975]]}},{"type":"Feature","properties":{"idx":382,"road":NaN,"cls":"tertiary","shops":0,"st_km":0.58,"mesh":"53390520"},"geometry":{"type":"LineString","coordinates":[[139.62672,35.35541],[139.62725,35.35556],[139.62768,35.35576]]}},{"type":"Feature","properties":{"idx":360,"road":"谷津坂第1高架橋","cls":"tertiary","shops":0,"st_km":0.65,"mesh":"53390520"},"geometry":{"type":"LineString","coordinates":[[139.62529,35.35534],[139.62601,35.35532],[139.62672,35.35541]]}},{"type":"Feature","properties":{"idx":542,"road":NaN,"cls":"pedestrian","shops":0,"st_km":0.55,"mesh":"53390520"},"geometry":{"type":"LineString","coordinates":[[139.62577,35.35697],[139.62505,35.35638]]}},{"type":"Feature","properties":{"idx":584,"road":NaN,"cls":"pedestrian","shops":0,"st_km":0.47,"mesh":"53390520"},"geometry":{"type":"LineString","coordinates":[[139.62715,35.35737],[139.62685,35.35712],[139.6264,35.35697],[139.62577,35.35697],[139.62552,35.35715]]}},{"type":"Feature","properties":{"idx":273,"road":NaN,"cls":"pedestrian","shops":0,"st_km":0.37,"mesh":"53390530"},"geometry":{"type":"LineString","coordinates":[[139.62606,35.35876],[139.62534,35.35903],[139.62525,35.35895]]}},{"type":"Feature","properties":{"idx":425,"road":NaN,"cls":"pedestrian","shops":1,"st_km":0.33,"mesh":"53390530"},"geometry":{"type":"LineString","coordinates":[[139.62652,35.35856],[139.6262,35.3587]]}},{"type":"Feature","properties":{"idx":109,"road":NaN,"cls":"tertiary","shops":0,"st_km":0.32,"mesh":"53390531"},"geometry":{"type":"LineString","coordinates":[[139.64629,35.36647],[139.6463,35.36619]]}},{"type":"Feature","properties":{"idx":87,"road":NaN,"cls":"tertiary","shops":0,"st_km":0.44,"mesh":"53390541"},"geometry":{"type":"LineString","coordinates":[[139.64589,35.37202],[139.64599,35.37188],[139.64629,35.36647]]}},{"type":"Feature","properties":{"idx":88,"road":NaN,"cls":"tertiary","shops":0,"st_km":0.43,"mesh":"53390541"},"geometry":{"type":"LineString","coordinates":[[139.64608,35.36646],[139.64583,35.37188]]}},{"type":"Feature","properties":{"idx":111,"road":NaN,"cls":"tertiary","shops":0,"st_km":0.3,"mesh":"53390531"},"geometry":{"type":"LineString","coordinates":[[139.64609,35.3662],[139.64608,35.36646]]}},{"type":"Feature","properties":{"idx":445,"road":NaN,"cls":"pedestrian","shops":0,"st_km":0.68,"mesh":"53390520"},"geometry":{"type":"LineString","coordinates":[[139.63638,35.35786],[139.63616,35.35757],[139.63613,35.35744]]}},{"type":"Feature","properties":{"idx":120,"road":"南本牧はま道路","cls":"tertiary","shops":0,"st_km":4.19,"mesh":"53390584"},"geometry":{"type":"LineString","coordinates":[[139.68735,35.40649],[139.68741,35.40661],[139.68734,35.40672],[139.6849,35.40874]]}},{"type":"Feature","properties":{"idx":76,"road":NaN,"cls":"tertiary","shops":0,"st_km":0.85,"mesh":"53390542"},"geometry":{"type":"LineString","coordinates":[[139.65349,35.37189],[139.65075,35.3719]]}},{"type":"Feature","properties":{"idx":76,"road":NaN,"cls":"tertiary","shops":0,"st_km":0.85,"mesh":"53390542"},"geometry":{"type":"LineString","coordinates":[[139.65075,35.37204],[139.6534,35.37204]]}},{"type":"Feature","properties":{"idx":408,"road":NaN,"cls":"tertiary","shops":0,"st_km":3.74,"mesh":"53390594"},"geometry":{"type":"LineString","coordinates":[[139.68494,35.40882],[139.6849,35.40874],[139.68455,35.40852],[139.6843,35.40844],[139.68395,35.40844],[139.6809,35.40937],[139.68044,35.4094],[139.68014,35.40931],[139.67996,35.40919],[139.67876,35.40814],[139.67872,35.40806],[139.67874,35.40796]]}},{"type":"Feature","properties":{"idx":251,"road":"南本牧はま道路","cls":"tertiary_link","shops":0,"st_km":4.02,"mesh":"53390594"},"geometry":{"type":"LineString","coordinates":[[139.6849,35.40874],[139.68484,35.4088]]}},{"type":"Feature","properties":{"idx":120,"road":"南本牧はま道路","cls":"tertiary","shops":0,"st_km":4.2,"mesh":"53390584"},"geometry":{"type":"LineString","coordinates":[[139.68494,35.40882],[139.68743,35.40678],[139.68749,35.40665],[139.68735,35.40649]]}},{"type":"Feature","properties":{"idx":76,"road":NaN,"cls":"tertiary_link","shops":0,"st_km":3.92,"mesh":"53390584"},"geometry":{"type":"LineString","coordinates":[[139.68156,35.40755],[139.68268,35.40658],[139.68272,35.40646],[139.68263,35.40633]]}},{"type":"Feature","properties":{"idx":119,"road":NaN,"cls":"tertiary","shops":0,"st_km":4.31,"mesh":"53390584"},"geometry":{"type":"LineString","coordinates":[[139.68735,35.40649],[139.68525,35.40481]]}},{"type":"Feature","properties":{"idx":76,"road":NaN,"cls":"tertiary_link","shops":0,"st_km":3.99,"mesh":"53390584"},"geometry":{"type":"LineString","coordinates":[[139.68256,35.40639],[139.6828,35.40648],[139.683,35.40645]]}},{"type":"Feature","properties":{"idx":408,"road":NaN,"cls":"tertiary","shops":0,"st_km":3.71,"mesh":"53390594"},"geometry":{"type":"LineString","coordinates":[[139.67865,35.40791],[139.67856,35.40805],[139.6786,35.40817],[139.67998,35.40932],[139.68043,35.40949],[139.68086,35.40946],[139.68396,35.40852],[139.68444,35.40856],[139.68484,35.4088]]}},{"type":"Feature","properties":{"idx":122,"road":NaN,"cls":"tertiary","shops":0,"st_km":3.83,"mesh":"53390584"},"geometry":{"type":"LineString","coordinates":[[139.67874,35.40796],[139.6808,35.40622],[139.68113,35.40602],[139.68153,35.40594],[139.68202,35.40603],[139.68256,35.40639],[139.6826,35.40649],[139.68257,35.40659]]}},{"type":"Feature","properties":{"idx":419,"road":NaN,"cls":"tertiary","shops":0,"st_km":3.4,"mesh":"53390594"},"geometry":{"type":"LineString","coordinates":[[139.67577,35.41106],[139.67965,35.40871]]}},{"type":"Feature","properties":{"idx":401,"road":NaN,"cls":"tertiary","shops":0,"st_km":4.02,"mesh":"53390594"},"geometry":{"type":"LineString","coordinates":[[139.68484,35.4088],[139.68494,35.40882]]}},{"type":"Feature","properties":{"idx":116,"road":NaN,"cls":"tertiary","shops":1,"st_km":2.24,"mesh":"53390593"},"geometry":{"type":"LineString","coordinates":[[139.66732,35.41598],[139.66758,35.41625]]}},{"type":"Feature","properties":{"idx":88,"road":NaN,"cls":"pedestrian","shops":0,"st_km":0.37,"mesh":"53390501"},"geometry":{"type":"LineString","coordinates":[[139.64263,35.33819],[139.64302,35.33782]]}},{"type":"Feature","properties":{"idx":161,"road":NaN,"cls":"pedestrian","shops":1,"st_km":0.17,"mesh":"53390501"},"geometry":{"type":"LineString","coordinates":[[139.64124,35.33996],[139.64196,35.33896]]}},{"type":"Feature","properties":{"idx":88,"road":NaN,"cls":"pedestrian","shops":0,"st_km":0.37,"mesh":"53390501"},"geometry":{"type":"LineString","coordinates":[[139.64254,35.33814],[139.64293,35.33772]]}},{"type":"Feature","properties":{"idx":543,"road":NaN,"cls":"tertiary","shops":0,"st_km":0.09,"mesh":"53390500"},"geometry":{"type":"LineString","coordinates":[[139.63295,35.33917],[139.63204,35.33788],[139.63184,35.3373],[139.63176,35.33677]]}},{"type":"Feature","properties":{"idx":311,"road":NaN,"cls":"tertiary","shops":0,"st_km":0.23,"mesh":"53390511"},"geometry":{"type":"LineString","coordinates":[[139.64856,35.34547],[139.64849,35.34565]]}},{"type":"Feature","properties":{"idx":1233,"road":NaN,"cls":"tertiary","shops":0,"st_km":0.27,"mesh":"53390512"},"geometry":{"type":"LineString","coordinates":[[139.65014,35.34563],[139.65433,35.34563]]}},{"type":"Feature","properties":{"idx":102,"road":NaN,"cls":"tertiary","shops":0,"st_km":0.24,"mesh":"53390521"},"geometry":{"type":"LineString","coordinates":[[139.64843,35.35338],[139.64848,35.35418],[139.64835,35.35477],[139.64825,35.355],[139.64762,35.35601]]}},{"type":"Feature","properties":{"idx":105,"road":NaN,"cls":"tertiary","shops":0,"st_km":0.2,"mesh":"53390521"},"geometry":{"type":"LineString","coordinates":[[139.64864,35.35342],[139.64843,35.35338]]}},{"type":"Feature","properties":{"idx":320,"road":NaN,"cls":"tertiary","shops":0,"st_km":0.21,"mesh":"53390511"},"geometry":{"type":"LineString","coordinates":[[139.64849,35.34565],[139.65014,35.34563]]}},{"type":"Feature","properties":{"idx":25,"road":NaN,"cls":"tertiary","shops":0,"st_km":0.36,"mesh":"53390502"},"geometry":{"type":"LineString","coordinates":[[139.65446,35.34548],[139.65447,35.34226],[139.65386,35.34143],[139.64726,35.34018],[139.64666,35.34012],[139.64553,35.34013]]}},{"type":"Feature","properties":{"idx":968,"road":NaN,"cls":"tertiary","shops":0,"st_km":0.52,"mesh":"53390512"},"geometry":{"type":"LineString","coordinates":[[139.65433,35.34563],[139.65655,35.34562]]}},{"type":"Feature","properties":{"idx":254,"road":NaN,"cls":"tertiary","shops":0,"st_km":0.44,"mesh":"53390511"},"geometry":{"type":"LineString","coordinates":[[139.64553,35.34013],[139.64549,35.34535],[139.64552,35.34548]]}},{"type":"Feature","properties":{"idx":255,"road":NaN,"cls":"tertiary","shops":0,"st_km":0.43,"mesh":"53390511"},"geometry":{"type":"LineString","coordinates":[[139.64552,35.34548],[139.64556,35.34237],[139.64553,35.34013]]}},{"type":"Feature","properties":{"idx":25,"road":NaN,"cls":"tertiary","shops":0,"st_km":0.35,"mesh":"53390502"},"geometry":{"type":"LineString","coordinates":[[139.65017,35.34078],[139.65018,35.34074]]}},{"type":"Feature","properties":{"idx":1055,"road":NaN,"cls":"tertiary","shops":0,"st_km":0.43,"mesh":"53390512"},"geometry":{"type":"LineString","coordinates":[[139.65428,35.34563],[139.65446,35.34548]]}},{"type":"Feature","properties":{"idx":1043,"road":NaN,"cls":"tertiary","shops":0,"st_km":0.44,"mesh":"53390512"},"geometry":{"type":"LineString","coordinates":[[139.65446,35.34548],[139.65463,35.34563]]}},{"type":"Feature","properties":{"idx":219,"road":NaN,"cls":"pedestrian","shops":0,"st_km":0.6,"mesh":"53390530"},"geometry":{"type":"LineString","coordinates":[[139.63566,35.3602],[139.63559,35.35999],[139.6356,35.35988],[139.63587,35.35961],[139.63591,35.35945],[139.63588,35.35922]]}},{"type":"Feature","properties":{"idx":222,"road":NaN,"cls":"pedestrian","shops":0,"st_km":0.59,"mesh":"53390530"},"geometry":{"type":"LineString","coordinates":[[139.6357,35.36026],[139.63566,35.3602]]}},{"type":"Feature","properties":{"idx":139,"road":NaN,"cls":"pedestrian","shops":0,"st_km":0.26,"mesh":"53390521"},"geometry":{"type":"LineString","coordinates":[[139.64163,35.35731],[139.64082,35.35727]]}},{"type":"Feature","properties":{"idx":155,"road":NaN,"cls":"pedestrian","shops":0,"st_km":0.28,"mesh":"53390531"},"geometry":{"type":"LineString","coordinates":[[139.64028,35.35838],[139.64089,35.3589]]}},{"type":"Feature","properties":{"idx":253,"road":NaN,"cls":"tertiary","shops":0,"st_km":0.37,"mesh":"53390511"},"geometry":{"type":"LineString","coordinates":[[139.63713,35.34467],[139.63764,35.34514],[139.63818,35.34544]]}},{"type":"Feature","properties":{"idx":122,"road":NaN,"cls":"pedestrian","shops":0,"st_km":0.37,"mesh":"53390521"},"geometry":{"type":"LineString","coordinates":[[139.64207,35.35386],[139.6424,35.35317]]}},{"type":"Feature","properties":{"idx":122,"road":NaN,"cls":"pedestrian","shops":0,"st_km":0.38,"mesh":"53390521"},"geometry":{"type":"LineString","coordinates":[[139.64244,35.35255],[139.64246,35.35195]]}},{"type":"Feature","properties":{"idx":1013,"road":NaN,"cls":"tertiary_link","shops":0,"st_km":0.01,"mesh":"53390550"},"geometry":{"type":"LineString","coordinates":[[139.63334,35.38038],[139.63326,35.3803],[139.63314,35.38028]]}},{"type":"Feature","properties":{"idx":1004,"road":NaN,"cls":"tertiary_link","shops":0,"st_km":0.02,"mesh":"53390550"},"geometry":{"type":"LineString","coordinates":[[139.63361,35.38017],[139.63342,35.38027],[139.63334,35.38038]]}},{"type":"Feature","properties":{"idx":626,"road":NaN,"cls":"tertiary_link","shops":0,"st_km":0.39,"mesh":"53390551"},"geometry":{"type":"LineString","coordinates":[[139.63863,35.37904],[139.63815,35.37922],[139.63804,35.37947]]}},{"type":"Feature","properties":{"idx":294,"road":NaN,"cls":"tertiary","shops":0,"st_km":0.29,"mesh":"53390511"},"geometry":{"type":"LineString","coordinates":[[139.64698,35.34563],[139.64849,35.34565]]}},{"type":"Feature","properties":{"idx":263,"road":NaN,"cls":"tertiary","shops":0,"st_km":0.4,"mesh":"53390511"},"geometry":{"type":"LineString","coordinates":[[139.64552,35.34563],[139.64698,35.34563]]}},{"type":"Feature","properties":{"idx":226,"road":NaN,"cls":"tertiary","shops":0,"st_km":0.56,"mesh":"53390511"},"geometry":{"type":"LineString","coordinates":[[139.64401,35.34556],[139.64457,35.3456]]}},{"type":"Feature","properties":{"idx":239,"road":NaN,"cls":"tertiary","shops":0,"st_km":0.5,"mesh":"53390511"},"geometry":{"type":"LineString","coordinates":[[139.64457,35.3456],[139.64552,35.34563]]}},{"type":"Feature","properties":{"idx":284,"road":NaN,"cls":"tertiary","shops":0,"st_km":0.32,"mesh":"53390511"},"geometry":{"type":"LineString","coordinates":[[139.64782,35.34548],[139.64642,35.34548]]}},{"type":"Feature","properties":{"idx":259,"road":NaN,"cls":"tertiary","shops":0,"st_km":0.42,"mesh":"53390511"},"geometry":{"type":"LineString","coordinates":[[139.64642,35.34548],[139.64552,35.34548]]}},{"type":"Feature","properties":{"idx":242,"road":NaN,"cls":"tertiary","shops":0,"st_km":0.49,"mesh":"53390511"},"geometry":{"type":"LineString","coordinates":[[139.64552,35.34548],[139.6447,35.34548]]}},{"type":"Feature","properties":{"idx":117,"road":NaN,"cls":"tertiary","shops":1,"st_km":2.22,"mesh":"53390593"},"geometry":{"type":"LineString","coordinates":[[139.66732,35.41598],[139.66727,35.41606],[139.66725,35.41663]]}},{"type":"Feature","properties":{"idx":70,"road":NaN,"cls":"tertiary","shops":0,"st_km":0.94,"mesh":"53390590"},"geometry":{"type":"LineString","coordinates":[[139.62651,35.41062],[139.62784,35.41178],[139.62804,35.41205]]}},{"type":"Feature","properties":{"idx":118,"road":NaN,"cls":"pedestrian","shops":0,"st_km":0.41,"mesh":"53390521"},"geometry":{"type":"LineString","coordinates":[[139.64197,35.35516],[139.64196,35.35476],[139.64278,35.35475]]}},{"type":"Feature","properties":{"idx":115,"road":NaN,"cls":"pedestrian","shops":0,"st_km":0.45,"mesh":"53390521"},"geometry":{"type":"LineString","coordinates":[[139.64196,35.35476],[139.64144,35.35469]]}},{"type":"Feature","properties":{"idx":254,"road":NaN,"cls":"pedestrian","shops":3,"st_km":0.58,"mesh":"53390521"},"geometry":{"type":"LineString","coordinates":[[139.63783,35.3565],[139.63771,35.35649],[139.63768,35.35658],[139.63782,35.35663],[139.63787,35.35657],[139.63783,35.3565]]}},{"type":"Feature","properties":{"idx":109,"road":NaN,"cls":"pedestrian","shops":0,"st_km":0.5,"mesh":"53390521"},"geometry":{"type":"LineString","coordinates":[[139.64091,35.35401],[139.64094,35.35404]]}},{"type":"Feature","properties":{"idx":102,"road":NaN,"cls":"pedestrian","shops":0,"st_km":0.58,"mesh":"53390521"},"geometry":{"type":"LineString","coordinates":[[139.63959,35.35394],[139.6404,35.35433]]}},{"type":"Feature","properties":{"idx":108,"road":NaN,"cls":"pedestrian","shops":0,"st_km":0.51,"mesh":"53390521"},"geometry":{"type":"LineString","coordinates":[[139.63784,35.35642],[139.63801,35.35656],[139.63837,35.35651],[139.63897,35.35591],[139.6391,35.35569],[139.63916,35.3557],[139.64079,35.35384]]}},{"type":"Feature","properties":{"idx":111,"road":NaN,"cls":"pedestrian","shops":0,"st_km":0.47,"mesh":"53390521"},"geometry":{"type":"LineString","coordinates":[[139.64048,35.35351],[139.64101,35.35262],[139.64234,35.35118]]}},{"type":"Feature","properties":{"idx":106,"road":NaN,"cls":"pedestrian","shops":0,"st_km":0.53,"mesh":"53390521"},"geometry":{"type":"LineString","coordinates":[[139.6391,35.35569],[139.63906,35.35567],[139.63902,35.35546],[139.63909,35.35535]]}},{"type":"Feature","properties":{"idx":105,"road":NaN,"cls":"pedestrian","shops":0,"st_km":0.55,"mesh":"53390521"},"geometry":{"type":"LineString","coordinates":[[139.63935,35.35549],[139.6387,35.35512]]}},{"type":"Feature","properties":{"idx":589,"road":NaN,"cls":"pedestrian","shops":0,"st_km":0.46,"mesh":"53390520"},"geometry":{"type":"LineString","coordinates":[[139.6263,35.35723],[139.62632,35.35697]]}},{"type":"Feature","properties":{"idx":401,"road":NaN,"cls":"tertiary","shops":0,"st_km":0.5,"mesh":"53390540"},"geometry":{"type":"LineString","coordinates":[[139.63936,35.37361],[139.63832,35.37357],[139.63789,35.3735],[139.63633,35.37228],[139.63626,35.37211],[139.63626,35.37173]]}},{"type":"Feature","properties":{"idx":225,"road":NaN,"cls":"tertiary","shops":1,"st_km":0.65,"mesh":"53390530"},"geometry":{"type":"LineString","coordinates":[[139.63545,35.36419],[139.63551,35.36269],[139.63565,35.36239]]}},{"type":"Feature","properties":{"idx":209,"road":NaN,"cls":"pedestrian","shops":0,"st_km":0.65,"mesh":"53390530"},"geometry":{"type":"LineString","coordinates":[[139.637,35.36071],[139.63692,35.36063],[139.6362,35.36037],[139.6357,35.36026]]}},{"type":"Feature","properties":{"idx":115,"road":NaN,"cls":"pedestrian","shops":0,"st_km":0.45,"mesh":"53390521"},"geometry":{"type":"LineString","coordinates":[[139.63737,35.35734],[139.63848,35.35685],[139.63886,35.35683],[139.6388,35.35821],[139.63866,35.35843],[139.63878,35.35859],[139.63875,35.35913],[139.63862,35.35944],[139.63862,35.35968],[139.63868,35.35985]]}},{"type":"Feature","properties":{"idx":137,"road":NaN,"cls":"tertiary","shops":1,"st_km":0.5,"mesh":"53390531"},"geometry":{"type":"LineString","coordinates":[[139.63891,35.36005],[139.63886,35.36096]]}},{"type":"Feature","properties":{"idx":231,"road":NaN,"cls":"tertiary","shops":0,"st_km":0.49,"mesh":"53390511"},"geometry":{"type":"LineString","coordinates":[[139.64105,35.34524],[139.64105,35.34537]]}},{"type":"Feature","properties":{"idx":309,"road":NaN,"cls":"tertiary","shops":0,"st_km":0.19,"mesh":"53390511"},"geometry":{"type":"LineString","coordinates":[[139.64556,35.34249],[139.64216,35.3424],[139.64185,35.34243],[139.6415,35.34256],[139.64116,35.34287],[139.64106,35.34307],[139.64105,35.34524]]}},{"type":"Feature","properties":{"idx":110,"road":NaN,"cls":"pedestrian","shops":0,"st_km":0.15,"mesh":"53390501"},"geometry":{"type":"LineString","coordinates":[[139.6387,35.34151],[139.63883,35.34141],[139.63889,35.34108],[139.63911,35.34084],[139.63949,35.34065],[139.64014,35.34051]]}},{"type":"Feature","properties":{"idx":1038,"road":NaN,"cls":"tertiary","shops":2,"st_km":0.14,"mesh":"53390500"},"geometry":{"type":"LineString","coordinates":[[139.63222,35.3352],[139.63189,35.33615],[139.63176,35.33677]]}},{"type":"Feature","properties":{"idx":103,"road":NaN,"cls":"pedestrian","shops":0,"st_km":0.56,"mesh":"53390521"},"geometry":{"type":"LineString","coordinates":[[139.63995,35.35329],[139.64048,35.35351]]}},{"type":"Feature","properties":{"idx":117,"road":NaN,"cls":"pedestrian","shops":0,"st_km":0.41,"mesh":"53390521"},"geometry":{"type":"LineString","coordinates":[[139.64302,35.35119],[139.64234,35.35118]]}},{"type":"Feature","properties":{"idx":104,"road":NaN,"cls":"pedestrian","shops":0,"st_km":0.54,"mesh":"53390521"},"geometry":{"type":"LineString","coordinates":[[139.64023,35.35424],[139.6406,35.35356]]}},{"type":"Feature","properties":{"idx":101,"road":NaN,"cls":"pedestrian","shops":0,"st_km":0.58,"mesh":"53390521"},"geometry":{"type":"LineString","coordinates":[[139.63995,35.35329],[139.63959,35.35394],[139.6378,35.35635],[139.63775,35.35648]]}},{"type":"Feature","properties":{"idx":131,"road":"山下本牧磯子線","cls":"primary","shops":0,"st_km":0.49,"mesh":"53390590"},"geometry":{"type":"LineString","coordinates":[[139.63049,35.41592],[139.63097,35.41605]]}},{"type":"Feature","properties":{"idx":192,"road":"山下本牧磯子線","cls":"primary","shops":2,"st_km":0.83,"mesh":"53390590"},"geometry":{"type":"LineString","coordinates":[[139.62704,35.41472],[139.62717,35.41478]]}},{"type":"Feature","properties":{"idx":198,"road":NaN,"cls":"tertiary","shops":3,"st_km":0.79,"mesh":"53390590"},"geometry":{"type":"LineString","coordinates":[[139.62743,35.41478],[139.62745,35.41489]]}},{"type":"Feature","properties":{"idx":251,"road":"山下本牧磯子線","cls":"primary","shops":3,"st_km":0.78,"mesh":"53390590"},"geometry":{"type":"LineString","coordinates":[[139.62745,35.41489],[139.62781,35.41504]]}},{"type":"Feature","properties":{"idx":159,"road":NaN,"cls":"tertiary","shops":3,"st_km":1.06,"mesh":"53390590"},"geometry":{"type":"LineString","coordinates":[[139.62583,35.4115],[139.62551,35.41171]]}},{"type":"Feature","properties":{"idx":158,"road":"磯子産業道路","cls":"tertiary","shops":3,"st_km":1.07,"mesh":"53390590"},"geometry":{"type":"LineString","coordinates":[[139.62548,35.41137],[139.62551,35.41171],[139.62522,35.41198]]}},{"type":"Feature","properties":{"idx":64,"road":NaN,"cls":"tertiary","shops":0,"st_km":1.05,"mesh":"53390590"},"geometry":{"type":"LineString","coordinates":[[139.62583,35.4115],[139.62597,35.41134]]}},{"type":"Feature","properties":{"idx":64,"road":NaN,"cls":"tertiary","shops":0,"st_km":1.05,"mesh":"53390590"},"geometry":{"type":"LineString","coordinates":[[139.62619,35.41104],[139.62597,35.41134]]}},{"type":"Feature","properties":{"idx":64,"road":NaN,"cls":"tertiary","shops":0,"st_km":1.04,"mesh":"53390590"},"geometry":{"type":"LineString","coordinates":[[139.62597,35.41134],[139.62619,35.41104]]}},{"type":"Feature","properties":{"idx":61,"road":"磯子産業道路","cls":"tertiary","shops":0,"st_km":1.11,"mesh":"53390590"},"geometry":{"type":"LineString","coordinates":[[139.62521,35.41093],[139.62548,35.41137]]}},{"type":"Feature","properties":{"idx":238,"road":"山下本牧磯子線","cls":"primary","shops":3,"st_km":0.84,"mesh":"53390590"},"geometry":{"type":"LineString","coordinates":[[139.62695,35.41493],[139.627,35.41487]]}},{"type":"Feature","properties":{"idx":143,"road":"山下本牧磯子線","cls":"primary","shops":1,"st_km":0.84,"mesh":"53390590"},"geometry":{"type":"LineString","coordinates":[[139.62694,35.41469],[139.62704,35.41472]]}},{"type":"Feature","properties":{"idx":80,"road":NaN,"cls":"tertiary","shops":0,"st_km":0.49,"mesh":"53390521"},"geometry":{"type":"LineString","coordinates":[[139.63908,35.35665],[139.63847,35.35666]]}},{"type":"Feature","properties":{"idx":254,"road":NaN,"cls":"pedestrian","shops":3,"st_km":0.58,"mesh":"53390521"},"geometry":{"type":"LineString","coordinates":[[139.63736,35.35712],[139.63733,35.35701],[139.63801,35.35656]]}},{"type":"Feature","properties":{"idx":258,"road":NaN,"cls":"pedestrian","shops":3,"st_km":0.56,"mesh":"53390521"},"geometry":{"type":"LineString","coordinates":[[139.63794,35.35659],[139.63795,35.35651]]}},{"type":"Feature","properties":{"idx":361,"road":"山下本牧磯子線","cls":"primary","shops":3,"st_km":0.39,"mesh":"53390590"},"geometry":{"type":"LineString","coordinates":[[139.6316,35.41618],[139.6321,35.41627]]}},{"type":"Feature","properties":{"idx":210,"road":"山下本牧磯子線","cls":"primary","shops":1,"st_km":0.42,"mesh":"53390590"},"geometry":{"type":"LineString","coordinates":[[139.63143,35.41616],[139.63157,35.41617]]}},{"type":"Feature","properties":{"idx":210,"road":"山下本牧磯子線","cls":"primary","shops":1,"st_km":0.42,"mesh":"53390590"},"geometry":{"type":"LineString","coordinates":[[139.63157,35.41617],[139.63138,35.41613]]}},{"type":"Feature","properties":{"idx":209,"road":"山下本牧磯子線","cls":"primary","shops":1,"st_km":0.43,"mesh":"53390590"},"geometry":{"type":"LineString","coordinates":[[139.63138,35.41613],[139.63143,35.41616]]}},{"type":"Feature","properties":{"idx":212,"road":"山下本牧磯子線","cls":"primary","shops":1,"st_km":0.41,"mesh":"53390590"},"geometry":{"type":"LineString","coordinates":[[139.63157,35.41617],[139.6316,35.41618]]}},{"type":"Feature","properties":{"idx":208,"road":"山下本牧磯子線","cls":"primary","shops":1,"st_km":0.43,"mesh":"53390590"},"geometry":{"type":"LineString","coordinates":[[139.63136,35.41613],[139.63138,35.41613]]}},{"type":"Feature","properties":{"idx":206,"road":"山下本牧磯子線","cls":"primary","shops":1,"st_km":0.44,"mesh":"53390590"},"geometry":{"type":"LineString","coordinates":[[139.63114,35.41609],[139.63136,35.41613]]}},{"type":"Feature","properties":{"idx":203,"road":"山下本牧磯子線","cls":"primary","shops":1,"st_km":0.45,"mesh":"53390590"},"geometry":{"type":"LineString","coordinates":[[139.63107,35.41608],[139.63114,35.41609]]}},{"type":"Feature","properties":{"idx":202,"road":"山下本牧磯子線","cls":"primary","shops":1,"st_km":0.46,"mesh":"53390590"},"geometry":{"type":"LineString","coordinates":[[139.63097,35.41605],[139.63107,35.41608]]}},{"type":"Feature","properties":{"idx":125,"road":"山下本牧磯子線","cls":"primary","shops":0,"st_km":0.54,"mesh":"53390590"},"geometry":{"type":"LineString","coordinates":[[139.62999,35.41576],[139.63031,35.41586]]}},{"type":"Feature","properties":{"idx":229,"road":"山下本牧磯子線","cls":"primary","shops":2,"st_km":0.63,"mesh":"53390590"},"geometry":{"type":"LineString","coordinates":[[139.62916,35.41551],[139.62919,35.41552]]}},{"type":"Feature","properties":{"idx":234,"road":"山下本牧磯子線","cls":"primary","shops":2,"st_km":0.61,"mesh":"53390590"},"geometry":{"type":"LineString","coordinates":[[139.62919,35.41552],[139.62961,35.41566]]}},{"type":"Feature","properties":{"idx":166,"road":"山下本牧磯子線","cls":"primary","shops":1,"st_km":0.67,"mesh":"53390590"},"geometry":{"type":"LineString","coordinates":[[139.62832,35.41523],[139.62916,35.41551]]}},{"type":"Feature","properties":{"idx":207,"road":"山下本牧磯子線","cls":"primary","shops":2,"st_km":0.74,"mesh":"53390590"},"geometry":{"type":"LineString","coordinates":[[139.62781,35.41504],[139.6282,35.41519]]}},{"type":"Feature","properties":{"idx":247,"road":"山下本牧磯子線","cls":"primary","shops":3,"st_km":0.8,"mesh":"53390590"},"geometry":{"type":"LineString","coordinates":[[139.62738,35.41486],[139.62745,35.41489]]}},{"type":"Feature","properties":{"idx":246,"road":"山下本牧磯子線","cls":"primary","shops":3,"st_km":0.8,"mesh":"53390590"},"geometry":{"type":"LineString","coordinates":[[139.62735,35.41485],[139.62738,35.41486]]}},{"type":"Feature","properties":{"idx":79,"road":NaN,"cls":"tertiary","shops":0,"st_km":0.79,"mesh":"53390590"},"geometry":{"type":"LineString","coordinates":[[139.62745,35.41489],[139.62734,35.41651],[139.62727,35.41692],[139.6271,35.41732]]}},{"type":"Feature","properties":{"idx":127,"road":"山下本牧磯子線","cls":"primary","shops":0,"st_km":0.52,"mesh":"53390590"},"geometry":{"type":"LineString","coordinates":[[139.63031,35.41586],[139.63049,35.41592]]}},{"type":"Feature","properties":{"idx":376,"road":"山下本牧磯子線","cls":"primary","shops":3,"st_km":0.35,"mesh":"53390590"},"geometry":{"type":"LineString","coordinates":[[139.6321,35.41627],[139.63249,35.41637]]}},{"type":"Feature","properties":{"idx":120,"road":"山下本牧磯子線","cls":"primary","shops":0,"st_km":0.58,"mesh":"53390590"},"geometry":{"type":"LineString","coordinates":[[139.62961,35.41566],[139.62985,35.41572]]}},{"type":"Feature","properties":{"idx":122,"road":"山下本牧磯子線","cls":"primary","shops":0,"st_km":0.56,"mesh":"53390590"},"geometry":{"type":"LineString","coordinates":[[139.62985,35.41572],[139.62999,35.41576]]}}]}