{"type":"FeatureCollection","features":[{"type":"Feature","properties":{"idx":116,"road":"","cls":"tertiary","shops":0,"st_km":0.34,"mesh":"53392653"},"geometry":{"type":"LineString","coordinates":[[139.78898,35.54535],[139.78892,35.54542]]}},{"type":"Feature","properties":{"idx":124,"road":"","cls":"tertiary","shops":0,"st_km":0.83,"mesh":"53392662"},"geometry":{"type":"LineString","coordinates":[[139.78227,35.5566],[139.78233,35.55662]]}},{"type":"Feature","properties":{"idx":192,"road":"補助第303号線","cls":"tertiary","shops":0,"st_km":0.57,"mesh":"53392690"},"geometry":{"type":"LineString","coordinates":[[139.74945,35.57417],[139.75056,35.57493],[139.75224,35.57543],[139.75236,35.57542],[139.7539,35.57439],[139.75436,35.57339],[139.7547,35.57317]]}},{"type":"Feature","properties":{"idx":402,"road":"","cls":"tertiary","shops":1,"st_km":1.33,"mesh":"53392681"},"geometry":{"type":"LineString","coordinates":[[139.76439,35.57373],[139.76446,35.57359],[139.76443,35.57083]]}},{"type":"Feature","properties":{"idx":406,"road":"","cls":"tertiary","shops":1,"st_km":1.31,"mesh":"53392681"},"geometry":{"type":"LineString","coordinates":[[139.76431,35.57075],[139.76434,35.57328]]}},{"type":"Feature","properties":{"idx":214,"road":"","cls":"tertiary","shops":0,"st_km":1.73,"mesh":"53392681"},"geometry":{"type":"LineString","coordinates":[[139.76657,35.56657],[139.76986,35.57051],[139.77007,35.57083],[139.77027,35.57129],[139.77034,35.57174],[139.77035,35.57236]]}},{"type":"Feature","properties":{"idx":298,"road":"北大通り","cls":"tertiary","shops":0,"st_km":0.86,"mesh":"53392680"},"geometry":{"type":"LineString","coordinates":[[139.75861,35.57252],[139.75951,35.57252]]}},{"type":"Feature","properties":{"idx":146,"road":"","cls":"tertiary","shops":0,"st_km":1.83,"mesh":"53392691"},"geometry":{"type":"LineString","coordinates":[[139.77278,35.57959],[139.76618,35.58439],[139.76605,35.58456]]}},{"type":"Feature","properties":{"idx":398,"road":"","cls":"tertiary","shops":1,"st_km":0.13,"mesh":"53392660"},"geometry":{"type":"LineString","coordinates":[[139.75342,35.55544],[139.75334,35.55287],[139.75346,35.55251]]}},{"type":"Feature","properties":{"idx":117,"road":"環八通り","cls":"primary","shops":0,"st_km":0.26,"mesh":"53392651"},"geometry":{"type":"LineString","coordinates":[[139.76961,35.54135],[139.76661,35.54264],[139.76493,35.54348],[139.7634,35.54412]]}},{"type":"Feature","properties":{"idx":53,"road":"","cls":"tertiary","shops":0,"st_km":0.42,"mesh":"53392650"},"geometry":{"type":"LineString","coordinates":[[139.76244,35.54451],[139.76251,35.54469]]}},{"type":"Feature","properties":{"idx":185,"road":"","cls":"tertiary","shops":0,"st_km":0.66,"mesh":"53392690"},"geometry":{"type":"LineString","coordinates":[[139.75487,35.57911],[139.75511,35.57858],[139.7552,35.5785],[139.75658,35.57851]]}},{"type":"Feature","properties":{"idx":116,"road":"","cls":"tertiary","shops":0,"st_km":0.83,"mesh":"53392662"},"geometry":{"type":"LineString","coordinates":[[139.77188,35.54996],[139.78047,35.55403]]}},{"type":"Feature","properties":{"idx":89,"road":"","cls":"tertiary_link","shops":0,"st_km":0.67,"mesh":"53392662"},"geometry":{"type":"LineString","coordinates":[[139.78066,35.55412],[139.78167,35.55473],[139.78177,35.55488],[139.78181,35.55506],[139.78178,35.55523],[139.7817,35.55537]]}},{"type":"Feature","properties":{"idx":388,"road":"川崎駅東扇島線","cls":"tertiary","shops":0,"st_km":2.49,"mesh":"53392610"},"geometry":{"type":"LineString","coordinates":[[139.75822,35.51548],[139.75859,35.51431],[139.7587,35.51365],[139.75879,35.51269]]}},{"type":"Feature","properties":{"idx":389,"road":"川崎駅東扇島線","cls":"tertiary","shops":0,"st_km":2.49,"mesh":"53392610"},"geometry":{"type":"LineString","coordinates":[[139.75866,35.51267],[139.75847,35.51429],[139.75833,35.51485],[139.75811,35.51545]]}},{"type":"Feature","properties":{"idx":186,"road":"川崎駅東扇島線","cls":"tertiary","shops":0,"st_km":3.34,"mesh":"53392600"},"geometry":{"type":"LineString","coordinates":[[139.75991,35.50224],[139.76008,35.50044],[139.76027,35.49963]]}},{"type":"Feature","properties":{"idx":190,"road":"緑地前道路","cls":"tertiary","shops":0,"st_km":4.1,"mesh":"53392601"},"geometry":{"type":"LineString","coordinates":[[139.76978,35.50277],[139.77259,35.50339]]}},{"type":"Feature","properties":{"idx":186,"road":"中4号道路","cls":"tertiary","shops":0,"st_km":3.39,"mesh":"53392600"},"geometry":{"type":"LineString","coordinates":[[139.76011,35.50249],[139.76034,35.50034],[139.76041,35.50016],[139.76056,35.50002],[139.7608,35.49994],[139.76106,35.49996],[139.76295,35.50074]]}},{"type":"Feature","properties":{"idx":187,"road":"中6号道路","cls":"tertiary","shops":0,"st_km":3.81,"mesh":"53392601"},"geometry":{"type":"LineString","coordinates":[[139.76565,35.5036],[139.7658,35.50209]]}},{"type":"Feature","properties":{"idx":63,"road":"","cls":"tertiary","shops":0,"st_km":2.5,"mesh":"53392692"},"geometry":{"type":"LineString","coordinates":[[139.77452,35.58132],[139.77642,35.58306],[139.77655,35.58311],[139.77904,35.58134]]}},{"type":"Feature","properties":{"idx":59,"road":"","cls":"tertiary","shops":0,"st_km":2.81,"mesh":"53392692"},"geometry":{"type":"LineString","coordinates":[[139.77795,35.57892],[139.77805,35.57876],[139.77807,35.57823],[139.77824,35.57809],[139.78069,35.57805],[139.78102,35.57808],[139.78206,35.57905]]}},{"type":"Feature","properties":{"idx":60,"road":"","cls":"tertiary","shops":0,"st_km":2.66,"mesh":"53392692"},"geometry":{"type":"LineString","coordinates":[[139.77987,35.58063],[139.7782,35.57908],[139.77756,35.57869],[139.77706,35.5785],[139.77662,35.57841]]}},{"type":"Feature","properties":{"idx":186,"road":"川崎駅東扇島線","cls":"tertiary","shops":0,"st_km":3.35,"mesh":"53392600"},"geometry":{"type":"LineString","coordinates":[[139.76017,35.49959],[139.76003,35.50009],[139.75988,35.50117]]}},{"type":"Feature","properties":{"idx":193,"road":"環八通り","cls":"tertiary_link","shops":0,"st_km":0.46,"mesh":"53392643"},"geometry":{"type":"LineString","coordinates":[[139.79189,35.54123],[139.79158,35.5416],[139.79134,35.54165],[139.79115,35.54161]]}},{"type":"Feature","properties":{"idx":244,"road":"","cls":"tertiary","shops":0,"st_km":0.72,"mesh":"53392643"},"geometry":{"type":"LineString","coordinates":[[139.79434,35.53679],[139.79388,35.53662],[139.79373,35.53663],[139.79359,35.53672],[139.79098,35.5404]]}},{"type":"Feature","properties":{"idx":102,"road":"","cls":"tertiary","shops":0,"st_km":1.39,"mesh":"53392633"},"geometry":{"type":"LineString","coordinates":[[139.79571,35.53453],[139.79619,35.53385],[139.79618,35.53375],[139.796,35.53365],[139.79596,35.53351],[139.79632,35.53299],[139.79522,35.53249],[139.79462,35.53336],[139.7946,35.53354]]}},{"type":"Feature","properties":{"idx":96,"road":"","cls":"tertiary","shops":0,"st_km":0.54,"mesh":"53392653"},"geometry":{"type":"LineString","coordinates":[[139.79261,35.54222],[139.79262,35.54242],[139.79318,35.54269]]}},{"type":"Feature","properties":{"idx":236,"road":"","cls":"tertiary","shops":0,"st_km":0.76,"mesh":"53392643"},"geometry":{"type":"LineString","coordinates":[[139.79416,35.53998],[139.79486,35.54032]]}},{"type":"Feature","properties":{"idx":411,"road":"","cls":"tertiary","shops":1,"st_km":0.59,"mesh":"53392643"},"geometry":{"type":"LineString","coordinates":[[139.79271,35.54006],[139.7916,35.53954]]}},{"type":"Feature","properties":{"idx":233,"road":"","cls":"tertiary","shops":0,"st_km":0.78,"mesh":"53392643"},"geometry":{"type":"LineString","coordinates":[[139.79369,35.53838],[139.79273,35.53795]]}},{"type":"Feature","properties":{"idx":219,"road":"","cls":"tertiary_link","shops":0,"st_km":0.33,"mesh":"53392643"},"geometry":{"type":"LineString","coordinates":[[139.78945,35.541],[139.79016,35.54138]]}},{"type":"Feature","properties":{"idx":304,"road":"","cls":"tertiary","shops":3,"st_km":0.29,"mesh":"53392653"},"geometry":{"type":"LineString","coordinates":[[139.78957,35.54239],[139.79054,35.54286]]}},{"type":"Feature","properties":{"idx":69,"road":"","cls":"tertiary_link","shops":0,"st_km":0.39,"mesh":"53392653"},"geometry":{"type":"LineString","coordinates":[[139.78892,35.54542],[139.78821,35.54624],[139.78805,35.54636],[139.78772,35.54646],[139.78731,35.54638]]}},{"type":"Feature","properties":{"idx":134,"road":"","cls":"tertiary","shops":0,"st_km":0.67,"mesh":"53392662"},"geometry":{"type":"LineString","coordinates":[[139.78047,35.55403],[139.78066,35.55412]]}},{"type":"Feature","properties":{"idx":403,"road":"","cls":"tertiary","shops":0,"st_km":0.38,"mesh":"53392652"},"geometry":{"type":"LineString","coordinates":[[139.78864,35.54716],[139.78785,35.54672],[139.78709,35.5464],[139.78687,35.54638],[139.78662,35.54643],[139.78637,35.54658],[139.78624,35.54673]]}},{"type":"Feature","properties":{"idx":3814,"road":"","cls":"tertiary","shops":11,"st_km":0.01,"mesh":"53392652"},"geometry":{"type":"LineString","coordinates":[[139.78609,35.5469],[139.78294,35.55134]]}},{"type":"Feature","properties":{"idx":146,"road":"","cls":"tertiary","shops":0,"st_km":0.65,"mesh":"53392662"},"geometry":{"type":"LineString","coordinates":[[139.78273,35.55406],[139.78241,35.55442],[139.78223,35.5545],[139.78194,35.55454],[139.78166,35.55448],[139.78053,35.55394]]}},{"type":"Feature","properties":{"idx":78,"road":"","cls":"tertiary","shops":0,"st_km":0.44,"mesh":"53392651"},"geometry":{"type":"LineString","coordinates":[[139.77049,35.54918],[139.76795,35.54798]]}},{"type":"Feature","properties":{"idx":117,"road":"","cls":"tertiary","shops":0,"st_km":0.82,"mesh":"53392662"},"geometry":{"type":"LineString","coordinates":[[139.78053,35.55394],[139.77197,35.54987]]}},{"type":"Feature","properties":{"idx":214,"road":"環八通り","cls":"tertiary_link","shops":0,"st_km":0.35,"mesh":"53392643"},"geometry":{"type":"LineString","coordinates":[[139.79115,35.54161],[139.78899,35.54066]]}},{"type":"Feature","properties":{"idx":69,"road":"環八通り","cls":"tertiary_link","shops":0,"st_km":0.4,"mesh":"53392653"},"geometry":{"type":"LineString","coordinates":[[139.79041,35.54152],[139.79082,35.5417],[139.79107,35.5419],[139.79114,35.54212],[139.79102,35.54248]]}},{"type":"Feature","properties":{"idx":387,"road":"","cls":"tertiary","shops":4,"st_km":0.23,"mesh":"53392653"},"geometry":{"type":"LineString","coordinates":[[139.78967,35.54225],[139.78933,35.54273],[139.78935,35.54292],[139.79026,35.54338]]}},{"type":"Feature","properties":{"idx":339,"road":"","cls":"tertiary","shops":0,"st_km":0.36,"mesh":"53392643"},"geometry":{"type":"LineString","coordinates":[[139.79098,35.5404],[139.78967,35.54225]]}},{"type":"Feature","properties":{"idx":661,"road":"","cls":"tertiary","shops":1,"st_km":0.29,"mesh":"53392652"},"geometry":{"type":"LineString","coordinates":[[139.78667,35.54654],[139.7863,35.5468],[139.78602,35.54725]]}},{"type":"Feature","properties":{"idx":176,"road":"","cls":"tertiary","shops":0,"st_km":0.37,"mesh":"53392662"},"geometry":{"type":"LineString","coordinates":[[139.78295,35.55207],[139.78319,35.55228]]}},{"type":"Feature","properties":{"idx":183,"road":"","cls":"tertiary","shops":0,"st_km":0.34,"mesh":"53392662"},"geometry":{"type":"LineString","coordinates":[[139.78554,35.55337],[139.78584,35.55335],[139.78608,35.55326],[139.78643,35.55297]]}},{"type":"Feature","properties":{"idx":258,"road":"","cls":"tertiary_link","shops":0,"st_km":0.36,"mesh":"53392652"},"geometry":{"type":"LineString","coordinates":[[139.78731,35.54638],[139.78702,35.5463],[139.78671,35.54632],[139.78643,35.54646],[139.78624,35.54673]]}},{"type":"Feature","properties":{"idx":120,"road":"","cls":"tertiary","shops":0,"st_km":0.39,"mesh":"53392653"},"geometry":{"type":"LineString","coordinates":[[139.78956,35.54766],[139.78864,35.54716]]}},{"type":"Feature","properties":{"idx":189,"road":"","cls":"tertiary","shops":0,"st_km":0.31,"mesh":"53392662"},"geometry":{"type":"LineString","coordinates":[[139.78605,35.55396],[139.78705,35.55247]]}},{"type":"Feature","properties":{"idx":157,"road":"","cls":"tertiary","shops":0,"st_km":0.2,"mesh":"53392653"},"geometry":{"type":"LineString","coordinates":[[139.7883,35.54845],[139.78744,35.54965]]}},{"type":"Feature","properties":{"idx":135,"road":"","cls":"tertiary","shops":0,"st_km":0.66,"mesh":"53392662"},"geometry":{"type":"LineString","coordinates":[[139.78338,35.55543],[139.78411,35.55576],[139.78432,35.55579],[139.78471,35.5557],[139.78489,35.55555],[139.78497,35.55541]]}},{"type":"Feature","properties":{"idx":153,"road":"","cls":"tertiary","shops":0,"st_km":0.53,"mesh":"53392662"},"geometry":{"type":"LineString","coordinates":[[139.78497,35.55541],[139.78566,35.55444]]}},{"type":"Feature","properties":{"idx":125,"road":"","cls":"tertiary","shops":0,"st_km":0.82,"mesh":"53392662"},"geometry":{"type":"LineString","coordinates":[[139.78126,35.55604],[139.78133,35.5561]]}},{"type":"Feature","properties":{"idx":125,"road":"","cls":"tertiary","shops":0,"st_km":0.82,"mesh":"53392662"},"geometry":{"type":"LineString","coordinates":[[139.78133,35.5561],[139.78227,35.5566]]}},{"type":"Feature","properties":{"idx":108,"road":"","cls":"tertiary","shops":0,"st_km":0.42,"mesh":"53392653"},"geometry":{"type":"LineString","coordinates":[[139.78999,35.54582],[139.7914,35.54384]]}},{"type":"Feature","properties":{"idx":120,"road":"","cls":"tertiary","shops":0,"st_km":0.31,"mesh":"53392653"},"geometry":{"type":"LineString","coordinates":[[139.79038,35.54337],[139.78898,35.54535]]}},{"type":"Feature","properties":{"idx":226,"road":"","cls":"tertiary","shops":0,"st_km":0.81,"mesh":"53392643"},"geometry":{"type":"LineString","coordinates":[[139.7914,35.54384],[139.79243,35.54248],[139.79365,35.54074],[139.7946,35.53924],[139.795,35.53844],[139.79545,35.53734],[139.79573,35.53646],[139.79579,35.5362],[139.79577,35.53607],[139.79564,35.53595],[139.79523,35.53576],[139.79499,35.53573],[139.79476,35.53579],[139.79458,35.53597],[139.79434,35.53679]]}},{"type":"Feature","properties":{"idx":139,"road":"","cls":"tertiary","shops":0,"st_km":1.95,"mesh":"53392691"},"geometry":{"type":"LineString","coordinates":[[139.7686,35.57835],[139.76863,35.57862],[139.76868,35.57871],[139.77047,35.58034],[139.77055,35.58037],[139.77069,35.58032],[139.77156,35.5797],[139.77058,35.57878],[139.77051,35.57863],[139.77051,35.57834]]}},{"type":"Feature","properties":{"idx":56,"road":"","cls":"tertiary","shops":0,"st_km":3.05,"mesh":"53392692"},"geometry":{"type":"LineString","coordinates":[[139.78332,35.57866],[139.78315,35.5785],[139.78288,35.57848],[139.78206,35.57905]]}},{"type":"Feature","properties":{"idx":56,"road":"","cls":"tertiary","shops":0,"st_km":3.1,"mesh":"53392692"},"geometry":{"type":"LineString","coordinates":[[139.78332,35.57866],[139.78467,35.5799],[139.78471,35.57999],[139.78469,35.58016],[139.78217,35.58202],[139.78201,35.58207],[139.78176,35.58199],[139.78124,35.58151],[139.7812,35.58138],[139.78126,35.58121],[139.78196,35.58069]]}},{"type":"Feature","properties":{"idx":65,"road":"","cls":"tertiary","shops":0,"st_km":2.35,"mesh":"53392692"},"geometry":{"type":"LineString","coordinates":[[139.77343,35.58031],[139.77451,35.57953],[139.77486,35.57939],[139.77517,35.57937],[139.77665,35.57946],[139.77697,35.57954]]}},{"type":"Feature","properties":{"idx":64,"road":"","cls":"tertiary","shops":0,"st_km":2.42,"mesh":"53392692"},"geometry":{"type":"LineString","coordinates":[[139.77432,35.57968],[139.77742,35.58252]]}},{"type":"Feature","properties":{"idx":62,"road":"","cls":"tertiary","shops":0,"st_km":2.52,"mesh":"53392692"},"geometry":{"type":"LineString","coordinates":[[139.77825,35.58062],[139.77575,35.58244]]}},{"type":"Feature","properties":{"idx":96,"road":"","cls":"tertiary","shops":1,"st_km":2.41,"mesh":"53392692"},"geometry":{"type":"LineString","coordinates":[[139.77452,35.58132],[139.77697,35.57954]]}},{"type":"Feature","properties":{"idx":63,"road":"","cls":"tertiary","shops":0,"st_km":2.51,"mesh":"53392692"},"geometry":{"type":"LineString","coordinates":[[139.77603,35.58123],[139.77765,35.58007]]}},{"type":"Feature","properties":{"idx":65,"road":"","cls":"tertiary","shops":0,"st_km":2.39,"mesh":"53392692"},"geometry":{"type":"LineString","coordinates":[[139.77472,35.58003],[139.77498,35.57987],[139.77561,35.57989],[139.7759,35.57993],[139.77616,35.58012]]}},{"type":"Feature","properties":{"idx":216,"road":"","cls":"tertiary","shops":0,"st_km":0.49,"mesh":"53392690"},"geometry":{"type":"LineString","coordinates":[[139.75359,35.5817],[139.75559,35.58212]]}},{"type":"Feature","properties":{"idx":137,"road":"","cls":"tertiary","shops":0,"st_km":1.98,"mesh":"53392691"},"geometry":{"type":"LineString","coordinates":[[139.77475,35.57833],[139.76674,35.57835]]}},{"type":"Feature","properties":{"idx":271,"road":"","cls":"tertiary","shops":0,"st_km":0.26,"mesh":"53392690"},"geometry":{"type":"LineString","coordinates":[[139.75082,35.57759],[139.74941,35.58082]]}},{"type":"Feature","properties":{"idx":260,"road":"","cls":"tertiary","shops":0,"st_km":0.15,"mesh":"53392660"},"geometry":{"type":"LineString","coordinates":[[139.75573,35.55504],[139.75422,35.55535]]}},{"type":"Feature","properties":{"idx":436,"road":"","cls":"tertiary","shops":1,"st_km":0.04,"mesh":"53392660"},"geometry":{"type":"LineString","coordinates":[[139.75329,35.55544],[139.75342,35.55544]]}},{"type":"Feature","properties":{"idx":328,"road":"補助第303号線","cls":"tertiary","shops":0,"st_km":0.74,"mesh":"53392680"},"geometry":{"type":"LineString","coordinates":[[139.75762,35.57248],[139.75792,35.57247]]}},{"type":"Feature","properties":{"idx":189,"road":"中5号道路","cls":"tertiary","shops":0,"st_km":3.57,"mesh":"53392601"},"geometry":{"type":"LineString","coordinates":[[139.76295,35.50074],[139.76298,35.50094],[139.76279,35.50346]]}},{"type":"Feature","properties":{"idx":106,"road":"","cls":"tertiary","shops":0,"st_km":0.14,"mesh":"53392651"},"geometry":{"type":"LineString","coordinates":[[139.76671,35.54332],[139.76629,35.54397],[139.76627,35.54408],[139.76632,35.54416],[139.76643,35.54418],[139.76655,35.54412],[139.76679,35.54348],[139.76702,35.54322],[139.7673,35.543],[139.76796,35.54265]]}},{"type":"Feature","properties":{"idx":93,"road":"","cls":"tertiary","shops":0,"st_km":0.26,"mesh":"53392651"},"geometry":{"type":"LineString","coordinates":[[139.76628,35.5473],[139.76638,35.54723]]}},{"type":"Feature","properties":{"idx":52,"road":"","cls":"tertiary_link","shops":0,"st_km":0.37,"mesh":"53392651"},"geometry":{"type":"LineString","coordinates":[[139.76934,35.543],[139.76953,35.54252],[139.76947,35.54226],[139.76931,35.54211],[139.76916,35.54206],[139.76876,35.54205]]}},{"type":"Feature","properties":{"idx":82,"road":"","cls":"tertiary","shops":0,"st_km":0.4,"mesh":"53392651"},"geometry":{"type":"LineString","coordinates":[[139.76962,35.54145],[139.76967,35.54172],[139.76952,35.54194],[139.76931,35.54202],[139.76896,35.542],[139.76876,35.54205]]}},{"type":"Feature","properties":{"idx":63,"road":"","cls":"tertiary_link","shops":0,"st_km":0.19,"mesh":"53392651"},"geometry":{"type":"LineString","coordinates":[[139.76536,35.54619],[139.76615,35.54655],[139.7664,35.54659],[139.76678,35.5465],[139.7671,35.54621]]}},{"type":"Feature","properties":{"idx":124,"road":"","cls":"tertiary","shops":0,"st_km":0.59,"mesh":"53392641"},"geometry":{"type":"LineString","coordinates":[[139.77121,35.54071],[139.77159,35.54125]]}},{"type":"Feature","properties":{"idx":380,"road":"","cls":"tertiary","shops":0,"st_km":2.41,"mesh":"53392622"},"geometry":{"type":"LineString","coordinates":[[139.77794,35.52647],[139.77784,35.52636],[139.77783,35.52619],[139.7783,35.52576],[139.77849,35.52539],[139.77849,35.52495],[139.77832,35.52458],[139.77256,35.51957]]}},{"type":"Feature","properties":{"idx":401,"road":"千鳥町1号線","cls":"tertiary","shops":0,"st_km":2.37,"mesh":"53392610"},"geometry":{"type":"LineString","coordinates":[[139.75811,35.51545],[139.75729,35.51484],[139.75694,35.51465],[139.75449,35.51403]]}},{"type":"Feature","properties":{"idx":376,"road":"","cls":"tertiary","shops":0,"st_km":1.29,"mesh":"53392620"},"geometry":{"type":"LineString","coordinates":[[139.75299,35.52297],[139.75716,35.52659]]}},{"type":"Feature","properties":{"idx":158,"road":"","cls":"tertiary","shops":0,"st_km":2.57,"mesh":"53392623"},"geometry":{"type":"LineString","coordinates":[[139.78891,35.5207],[139.78986,35.52002],[139.79015,35.51987],[139.79055,35.5198],[139.79083,35.51968],[139.79191,35.51959],[139.7923,35.5195]]}},{"type":"Feature","properties":{"idx":122,"road":"","cls":"tertiary","shops":0,"st_km":0.29,"mesh":"53392653"},"geometry":{"type":"LineString","coordinates":[[139.78939,35.54296],[139.79017,35.54186],[139.7908,35.54216]]}},{"type":"Feature","properties":{"idx":334,"road":"川崎駅東扇島線","cls":"tertiary","shops":0,"st_km":1.47,"mesh":"53392620"},"geometry":{"type":"LineString","coordinates":[[139.75455,35.52178],[139.75299,35.52297]]}},{"type":"Feature","properties":{"idx":214,"road":"","cls":"tertiary","shops":0,"st_km":1.73,"mesh":"53392681"},"geometry":{"type":"LineString","coordinates":[[139.77039,35.57129],[139.76997,35.57051],[139.76726,35.56723]]}},{"type":"Feature","properties":{"idx":208,"road":"","cls":"tertiary","shops":0,"st_km":1.79,"mesh":"53392681"},"geometry":{"type":"LineString","coordinates":[[139.76865,35.57253],[139.77039,35.57245]]}},{"type":"Feature","properties":{"idx":94,"road":"天空橋","cls":"pedestrian","shops":0,"st_km":0.2,"mesh":"53392650"},"geometry":{"type":"LineString","coordinates":[[139.75215,35.54912],[139.7529,35.54888]]}},{"type":"Feature","properties":{"idx":368,"road":"","cls":"tertiary","shops":1,"st_km":0.34,"mesh":"53392660"},"geometry":{"type":"LineString","coordinates":[[139.75262,35.54994],[139.75216,35.55009],[139.75168,35.55043],[139.75132,35.55071],[139.75132,35.5509]]}},{"type":"Feature","properties":{"idx":168,"road":"","cls":"tertiary","shops":0,"st_km":1.21,"mesh":"53392643"},"geometry":{"type":"LineString","coordinates":[[139.79571,35.53453],[139.79468,35.53402],[139.79468,35.53387],[139.79478,35.53366],[139.79468,35.53355],[139.79452,35.53357],[139.79438,35.53375]]}},{"type":"Feature","properties":{"idx":164,"road":"","cls":"tertiary","shops":0,"st_km":1.24,"mesh":"53392643"},"geometry":{"type":"LineString","coordinates":[[139.7973,35.5367],[139.79753,35.5362],[139.79753,35.53581],[139.79737,35.53536],[139.7971,35.53518]]}},{"type":"Feature","properties":{"idx":335,"road":"環八通り","cls":"primary","shops":0,"st_km":0.25,"mesh":"53392660"},"geometry":{"type":"LineString","coordinates":[[139.75397,35.5503],[139.75327,35.55044]]}},{"type":"Feature","properties":{"idx":331,"road":"環八通り","cls":"primary","shops":0,"st_km":0.26,"mesh":"53392660"},"geometry":{"type":"LineString","coordinates":[[139.75328,35.55055],[139.75399,35.55041]]}},{"type":"Feature","properties":{"idx":91,"road":"","cls":"pedestrian","shops":0,"st_km":0.23,"mesh":"53392650"},"geometry":{"type":"LineString","coordinates":[[139.75271,35.54993],[139.75327,35.54982]]}},{"type":"Feature","properties":{"idx":124,"road":"","cls":"tertiary","shops":0,"st_km":2.25,"mesh":"53392691"},"geometry":{"type":"LineString","coordinates":[[139.77141,35.57843],[139.77291,35.57841],[139.77483,35.57873],[139.77615,35.57873]]}},{"type":"Feature","properties":{"idx":301,"road":"","cls":"tertiary","shops":1,"st_km":0.57,"mesh":"53392690"},"geometry":{"type":"LineString","coordinates":[[139.75677,35.57836],[139.75537,35.57836],[139.75518,35.57839],[139.75502,35.57848],[139.75391,35.581]]}},{"type":"Feature","properties":{"idx":85,"road":"環八通り","cls":"primary","shops":0,"st_km":0.21,"mesh":"53392650"},"geometry":{"type":"LineString","coordinates":[[139.7549,35.55012],[139.75568,35.5497],[139.7564,35.54909],[139.75802,35.54699]]}},{"type":"Feature","properties":{"idx":57,"road":"","cls":"tertiary","shops":0,"st_km":2.95,"mesh":"53392692"},"geometry":{"type":"LineString","coordinates":[[139.78107,35.57987],[139.78225,35.57903]]}},{"type":"Feature","properties":{"idx":65,"road":"","cls":"tertiary","shops":0,"st_km":2.37,"mesh":"53392692"},"geometry":{"type":"LineString","coordinates":[[139.77958,35.58084],[139.77655,35.58304],[139.77278,35.57959],[139.77152,35.5784],[139.77152,35.57833]]}},{"type":"Feature","properties":{"idx":59,"road":"","cls":"tertiary","shops":0,"st_km":2.81,"mesh":"53392692"},"geometry":{"type":"LineString","coordinates":[[139.77897,35.57977],[139.78113,35.57817]]}},{"type":"Feature","properties":{"idx":57,"road":"","cls":"tertiary","shops":0,"st_km":3.01,"mesh":"53392692"},"geometry":{"type":"LineString","coordinates":[[139.78287,35.58151],[139.78196,35.58069]]}},{"type":"Feature","properties":{"idx":188,"road":"","cls":"tertiary","shops":1,"st_km":2.21,"mesh":"53392691"},"geometry":{"type":"LineString","coordinates":[[139.77399,35.57873],[139.77278,35.57959]]}},{"type":"Feature","properties":{"idx":122,"road":"","cls":"tertiary","shops":0,"st_km":2.3,"mesh":"53392691"},"geometry":{"type":"LineString","coordinates":[[139.77475,35.57833],[139.77445,35.57843],[139.77399,35.57873]]}},{"type":"Feature","properties":{"idx":61,"road":"","cls":"tertiary","shops":0,"st_km":2.63,"mesh":"53392692"},"geometry":{"type":"LineString","coordinates":[[139.77615,35.57873],[139.77708,35.5789],[139.77769,35.57917],[139.77832,35.57968],[139.77965,35.5809]]}},{"type":"Feature","properties":{"idx":141,"road":"","cls":"tertiary","shops":0,"st_km":1.91,"mesh":"53392691"},"geometry":{"type":"LineString","coordinates":[[139.76616,35.58458],[139.76633,35.58441],[139.77265,35.57983],[139.77417,35.57874],[139.77442,35.57867]]}},{"type":"Feature","properties":{"idx":31,"road":"船溜道路","cls":"tertiary","shops":0,"st_km":4.31,"mesh":"53392602"},"geometry":{"type":"LineString","coordinates":[[139.7756,35.50232],[139.77475,35.50361],[139.77459,35.50374]]}},{"type":"Feature","properties":{"idx":63,"road":"","cls":"tertiary","shops":0,"st_km":0.27,"mesh":"53392650"},"geometry":{"type":"LineString","coordinates":[[139.75178,35.54692],[139.75224,35.54687]]}},{"type":"Feature","properties":{"idx":175,"road":"","cls":"tertiary","shops":0,"st_km":0.38,"mesh":"53392662"},"geometry":{"type":"LineString","coordinates":[[139.78503,35.55321],[139.78554,35.55337]]}},{"type":"Feature","properties":{"idx":166,"road":"","cls":"tertiary","shops":0,"st_km":0.51,"mesh":"53392662"},"geometry":{"type":"LineString","coordinates":[[139.78325,35.55334],[139.78273,35.55406]]}},{"type":"Feature","properties":{"idx":1160,"road":"","cls":"tertiary","shops":0,"st_km":1.34,"mesh":"53392672"},"geometry":{"type":"LineString","coordinates":[[139.77978,35.55766],[139.779,35.55831],[139.77774,35.55922],[139.77764,35.55936],[139.77762,35.55952],[139.77765,35.55965],[139.77777,35.55978],[139.77825,35.56],[139.77861,35.55995],[139.77963,35.55924],[139.78065,35.55841]]}},{"type":"Feature","properties":{"idx":127,"road":"","cls":"tertiary","shops":0,"st_km":0.33,"mesh":"53392653"},"geometry":{"type":"LineString","coordinates":[[139.7895,35.5486],[139.78969,35.54838],[139.78981,35.54806],[139.78971,35.54779],[139.78956,35.54766]]}},{"type":"Feature","properties":{"idx":554,"road":"","cls":"tertiary","shops":3,"st_km":0.15,"mesh":"53392662"},"geometry":{"type":"LineString","coordinates":[[139.787,35.55226],[139.78749,35.55156]]}},{"type":"Feature","properties":{"idx":165,"road":"","cls":"tertiary","shops":0,"st_km":0.44,"mesh":"53392662"},"geometry":{"type":"LineString","coordinates":[[139.78566,35.55444],[139.78586,35.55409]]}},{"type":"Feature","properties":{"idx":493,"road":"","cls":"tertiary","shops":3,"st_km":0.26,"mesh":"53392662"},"geometry":{"type":"LineString","coordinates":[[139.78339,35.55099],[139.78311,35.55132]]}},{"type":"Feature","properties":{"idx":283,"road":"","cls":"tertiary","shops":3,"st_km":0.08,"mesh":"53392651"},"geometry":{"type":"LineString","coordinates":[[139.7671,35.54621],[139.76819,35.54477]]}},{"type":"Feature","properties":{"idx":94,"road":"","cls":"tertiary","shops":0,"st_km":0.26,"mesh":"53392651"},"geometry":{"type":"LineString","coordinates":[[139.76638,35.54723],[139.76633,35.5472]]}},{"type":"Feature","properties":{"idx":188,"road":"","cls":"tertiary","shops":0,"st_km":0.31,"mesh":"53392662"},"geometry":{"type":"LineString","coordinates":[[139.78586,35.55409],[139.78695,35.55231]]}},{"type":"Feature","properties":{"idx":345,"road":"川崎3・3・15号浮島町線","cls":"tertiary","shops":0,"st_km":2.88,"mesh":"53392622"},"geometry":{"type":"LineString","coordinates":[[139.78113,35.51433],[139.78682,35.51965]]}},{"type":"Feature","properties":{"idx":261,"road":"川崎駅東扇島線","cls":"tertiary","shops":0,"st_km":1.94,"mesh":"53392620"},"geometry":{"type":"LineString","coordinates":[[139.75811,35.51545],[139.75662,35.51942],[139.7563,35.52015],[139.75592,35.52064],[139.75468,35.52162],[139.75455,35.52178]]}},{"type":"Feature","properties":{"idx":402,"road":"千鳥町1号線","cls":"tertiary","shops":0,"st_km":2.37,"mesh":"53392610"},"geometry":{"type":"LineString","coordinates":[[139.75421,35.51396],[139.75449,35.51403]]}},{"type":"Feature","properties":{"idx":424,"road":"千鳥町1号線","cls":"tertiary","shops":0,"st_km":2.2,"mesh":"53392610"},"geometry":{"type":"LineString","coordinates":[[139.75421,35.51396],[139.75259,35.51356],[139.7509,35.51795]]}},{"type":"Feature","properties":{"idx":87,"road":"","cls":"tertiary","shops":0,"st_km":0.33,"mesh":"53392651"},"geometry":{"type":"LineString","coordinates":[[139.76251,35.54469],[139.76305,35.54556],[139.76325,35.54578],[139.76362,35.54602],[139.76541,35.54687]]}},{"type":"Feature","properties":{"idx":90,"road":"","cls":"tertiary","shops":0,"st_km":0.29,"mesh":"53392651"},"geometry":{"type":"LineString","coordinates":[[139.76876,35.54205],[139.76803,35.54237],[139.7672,35.5429]]}},{"type":"Feature","properties":{"idx":82,"road":"","cls":"tertiary","shops":0,"st_km":0.39,"mesh":"53392651"},"geometry":{"type":"LineString","coordinates":[[139.76934,35.543],[139.76975,35.54243],[139.76986,35.5422],[139.76988,35.54187],[139.76969,35.54142]]}},{"type":"Feature","properties":{"idx":122,"road":"環八通り","cls":"primary","shops":0,"st_km":0.87,"mesh":"53392641"},"geometry":{"type":"LineString","coordinates":[[139.77127,35.5408],[139.77676,35.53831]]}},{"type":"Feature","properties":{"idx":91,"road":"","cls":"tertiary","shops":0,"st_km":0.29,"mesh":"53392651"},"geometry":{"type":"LineString","coordinates":[[139.76628,35.5473],[139.76739,35.54781]]}},{"type":"Feature","properties":{"idx":190,"road":"","cls":"tertiary","shops":0,"st_km":0.38,"mesh":"53392662"},"geometry":{"type":"LineString","coordinates":[[139.7827,35.552],[139.78286,35.5522],[139.78302,35.55231],[139.78429,35.55292],[139.78503,35.55321]]}},{"type":"Feature","properties":{"idx":186,"road":"川崎駅東扇島線","cls":"tertiary","shops":0,"st_km":3.3,"mesh":"53392600"},"geometry":{"type":"LineString","coordinates":[[139.75988,35.50117],[139.75977,35.50222]]}},{"type":"Feature","properties":{"idx":283,"road":"幹線4号道路","cls":"tertiary","shops":1,"st_km":4.29,"mesh":"53392601"},"geometry":{"type":"LineString","coordinates":[[139.77208,35.49927],[139.77193,35.49941],[139.76971,35.50275]]}},{"type":"Feature","properties":{"idx":1052,"road":"","cls":"tertiary","shops":2,"st_km":0.2,"mesh":"53392652"},"geometry":{"type":"LineString","coordinates":[[139.78824,35.54633],[139.7856,35.55004]]}},{"type":"Feature","properties":{"idx":299,"road":"千鳥町1号線","cls":"tertiary","shops":0,"st_km":1.67,"mesh":"53392620"},"geometry":{"type":"LineString","coordinates":[[139.75107,35.5187],[139.75455,35.52178]]}},{"type":"Feature","properties":{"idx":106,"road":"","cls":"tertiary","shops":0,"st_km":0.14,"mesh":"53392651"},"geometry":{"type":"LineString","coordinates":[[139.7672,35.5429],[139.76661,35.5434],[139.76632,35.54373],[139.76514,35.5454]]}},{"type":"Feature","properties":{"idx":100,"road":"","cls":"tertiary","shops":0,"st_km":0.2,"mesh":"53392651"},"geometry":{"type":"LineString","coordinates":[[139.76514,35.5454],[139.76503,35.54561],[139.76508,35.54594],[139.76517,35.54606],[139.76543,35.54624],[139.76637,35.54673],[139.76645,35.54684],[139.76645,35.54695],[139.76633,35.5472]]}},{"type":"Feature","properties":{"idx":84,"road":"環八通り","cls":"primary","shops":0,"st_km":0.21,"mesh":"53392650"},"geometry":{"type":"LineString","coordinates":[[139.75836,35.54643],[139.75785,35.54697],[139.75631,35.54903],[139.75561,35.54961],[139.75481,35.55001]]}},{"type":"Feature","properties":{"idx":511,"road":"","cls":"tertiary","shops":5,"st_km":0.19,"mesh":"53392653"},"geometry":{"type":"LineString","coordinates":[[139.7888,35.54963],[139.78934,35.54884]]}},{"type":"Feature","properties":{"idx":131,"road":"","cls":"tertiary","shops":0,"st_km":0.37,"mesh":"53392653"},"geometry":{"type":"LineString","coordinates":[[139.78864,35.54716],[139.78723,35.54654],[139.78701,35.54649],[139.78667,35.54654]]}},{"type":"Feature","properties":{"idx":90,"road":"","cls":"tertiary","shops":0,"st_km":0.3,"mesh":"53392651"},"geometry":{"type":"LineString","coordinates":[[139.76633,35.5472],[139.76341,35.5458],[139.7631,35.54548],[139.76258,35.54466]]}},{"type":"Feature","properties":{"idx":121,"road":"","cls":"tertiary","shops":0,"st_km":0.62,"mesh":"53392641"},"geometry":{"type":"LineString","coordinates":[[139.77159,35.54125],[139.77183,35.5413],[139.77207,35.5412],[139.77241,35.54074]]}},{"type":"Feature","properties":{"idx":477,"road":"","cls":"tertiary","shops":2,"st_km":0.92,"mesh":"53392640"},"geometry":{"type":"LineString","coordinates":[[139.75403,35.53867],[139.754,35.53913],[139.75404,35.53929],[139.75425,35.53952],[139.75456,35.53963],[139.75577,35.53964],[139.75638,35.53959],[139.7573,35.53944],[139.75825,35.5392]]}},{"type":"Feature","properties":{"idx":1325,"road":"","cls":"tertiary","shops":10,"st_km":0.15,"mesh":"53392662"},"geometry":{"type":"LineString","coordinates":[[139.78415,35.54996],[139.78364,35.55064]]}},{"type":"Feature","properties":{"idx":167,"road":"","cls":"tertiary","shops":0,"st_km":0.43,"mesh":"53392662"},"geometry":{"type":"LineString","coordinates":[[139.78566,35.55444],[139.78605,35.55396]]}},{"type":"Feature","properties":{"idx":191,"road":"","cls":"tertiary","shops":0,"st_km":0.37,"mesh":"53392662"},"geometry":{"type":"LineString","coordinates":[[139.78319,35.55228],[139.78503,35.55321]]}},{"type":"Feature","properties":{"idx":108,"road":"","cls":"tertiary","shops":0,"st_km":0.42,"mesh":"53392653"},"geometry":{"type":"LineString","coordinates":[[139.79161,35.54168],[139.79102,35.54248]]}},{"type":"Feature","properties":{"idx":5977,"road":"","cls":"tertiary","shops":5,"st_km":0.02,"mesh":"53392663"},"geometry":{"type":"LineString","coordinates":[[139.78749,35.55156],[139.78851,35.55005]]}},{"type":"Feature","properties":{"idx":58,"road":"環八通り","cls":"primary","shops":0,"st_km":0.55,"mesh":"53392650"},"geometry":{"type":"LineString","coordinates":[[139.76244,35.54451],[139.76131,35.54498],[139.75963,35.54557]]}},{"type":"Feature","properties":{"idx":57,"road":"環八通り","cls":"primary","shops":0,"st_km":0.58,"mesh":"53392650"},"geometry":{"type":"LineString","coordinates":[[139.75945,35.54587],[139.76007,35.5456],[139.76197,35.54491]]}},{"type":"Feature","properties":{"idx":275,"road":"千鳥町1号線","cls":"tertiary","shops":0,"st_km":1.83,"mesh":"53392620"},"geometry":{"type":"LineString","coordinates":[[139.75107,35.5187],[139.75074,35.51838],[139.7509,35.51795]]}},{"type":"Feature","properties":{"idx":187,"road":"外貿5号道路","cls":"tertiary","shops":0,"st_km":4.52,"mesh":"53392601"},"geometry":{"type":"LineString","coordinates":[[139.77208,35.49927],[139.77636,35.50116]]}},{"type":"Feature","properties":{"idx":189,"road":"幹線3号道路","cls":"tertiary","shops":0,"st_km":3.53,"mesh":"53392601"},"geometry":{"type":"LineString","coordinates":[[139.75633,35.50089],[139.7564,35.50097],[139.75904,35.50211],[139.76124,35.50314],[139.76201,35.5034],[139.76236,35.50346],[139.76908,35.50376],[139.76919,35.50371],[139.76941,35.50339]]}},{"type":"Feature","properties":{"idx":65,"road":"環八通り","cls":"primary","shops":0,"st_km":0.44,"mesh":"53392650"},"geometry":{"type":"LineString","coordinates":[[139.76197,35.54491],[139.76251,35.54469]]}},{"type":"Feature","properties":{"idx":57,"road":"","cls":"tertiary","shops":0,"st_km":0.38,"mesh":"53392650"},"geometry":{"type":"LineString","coordinates":[[139.75695,35.54616],[139.75788,35.54608],[139.75822,35.54617],[139.75847,35.54633]]}},{"type":"Feature","properties":{"idx":91,"road":"","cls":"tertiary","shops":0,"st_km":0.29,"mesh":"53392651"},"geometry":{"type":"LineString","coordinates":[[139.76743,35.54774],[139.76677,35.54742]]}},{"type":"Feature","properties":{"idx":87,"road":"","cls":"tertiary","shops":0,"st_km":0.33,"mesh":"53392651"},"geometry":{"type":"LineString","coordinates":[[139.76739,35.54781],[139.76794,35.54807]]}},{"type":"Feature","properties":{"idx":88,"road":"","cls":"tertiary","shops":0,"st_km":0.32,"mesh":"53392651"},"geometry":{"type":"LineString","coordinates":[[139.76795,35.54798],[139.76743,35.54774]]}},{"type":"Feature","properties":{"idx":77,"road":"","cls":"tertiary","shops":0,"st_km":0.45,"mesh":"53392651"},"geometry":{"type":"LineString","coordinates":[[139.76794,35.54807],[139.77043,35.54926]]}},{"type":"Feature","properties":{"idx":262,"road":"川崎駅東扇島線","cls":"tertiary","shops":0,"st_km":1.94,"mesh":"53392620"},"geometry":{"type":"LineString","coordinates":[[139.75455,35.52178],[139.75475,35.52168],[139.75584,35.52084],[139.75641,35.52017],[139.75822,35.51548]]}},{"type":"Feature","properties":{"idx":406,"road":"","cls":"tertiary","shops":0,"st_km":2.33,"mesh":"53392610"},"geometry":{"type":"LineString","coordinates":[[139.75822,35.51548],[139.75811,35.51545]]}},{"type":"Feature","properties":{"idx":244,"road":"北大通り","cls":"tertiary","shops":0,"st_km":1.48,"mesh":"53392681"},"geometry":{"type":"LineString","coordinates":[[139.77035,35.57236],[139.76193,35.57239]]}},{"type":"Feature","properties":{"idx":215,"road":"川崎3・4・29号殿町羽田空港線","cls":"tertiary","shops":0,"st_km":1.02,"mesh":"53392640"},"geometry":{"type":"LineString","coordinates":[[139.75985,35.53864],[139.75935,35.53747]]}},{"type":"Feature","properties":{"idx":206,"road":"","cls":"tertiary","shops":0,"st_km":0.29,"mesh":"53392662"},"geometry":{"type":"LineString","coordinates":[[139.78406,35.55424],[139.78428,35.55393],[139.78461,35.55328],[139.78527,35.55229],[139.78598,35.55145],[139.78659,35.55061],[139.78668,35.55055]]}},{"type":"Feature","properties":{"idx":92,"road":"","cls":"tertiary","shops":0,"st_km":0.59,"mesh":"53392653"},"geometry":{"type":"LineString","coordinates":[[139.79144,35.54394],[139.79191,35.54414],[139.79209,35.54412],[139.79223,35.54403],[139.79486,35.54032]]}},{"type":"Feature","properties":{"idx":112,"road":"","cls":"tertiary","shops":0,"st_km":0.38,"mesh":"53392653"},"geometry":{"type":"LineString","coordinates":[[139.79026,35.54338],[139.79144,35.54394]]}},{"type":"Feature","properties":{"idx":81,"road":"","cls":"tertiary_link","shops":0,"st_km":0.77,"mesh":"53392662"},"geometry":{"type":"LineString","coordinates":[[139.7817,35.55537],[139.78128,35.55594],[139.78126,35.55604]]}},{"type":"Feature","properties":{"idx":324,"road":"","cls":"tertiary","shops":4,"st_km":0.12,"mesh":"53392651"},"geometry":{"type":"LineString","coordinates":[[139.76819,35.54477],[139.76842,35.54441]]}},{"type":"Feature","properties":{"idx":147,"road":"","cls":"tertiary","shops":1,"st_km":0.22,"mesh":"53392651"},"geometry":{"type":"LineString","coordinates":[[139.76842,35.54441],[139.76934,35.543]]}},{"type":"Feature","properties":{"idx":201,"road":"","cls":"tertiary","shops":0,"st_km":0.25,"mesh":"53392662"},"geometry":{"type":"LineString","coordinates":[[139.78643,35.55297],[139.78695,35.55231]]}},{"type":"Feature","properties":{"idx":311,"road":"","cls":"tertiary","shops":2,"st_km":0.13,"mesh":"53392653"},"geometry":{"type":"LineString","coordinates":[[139.78705,35.55247],[139.78985,35.54845],[139.78988,35.54828],[139.78985,35.5481],[139.78973,35.54794],[139.78955,35.54782],[139.78913,35.54771],[139.78884,35.54779],[139.78868,35.54792]]}},{"type":"Feature","properties":{"idx":2049,"road":"","cls":"tertiary","shops":5,"st_km":0.02,"mesh":"53392652"},"geometry":{"type":"LineString","coordinates":[[139.78546,35.54808],[139.78415,35.54996]]}},{"type":"Feature","properties":{"idx":184,"road":"","cls":"tertiary","shops":0,"st_km":0.33,"mesh":"53392662"},"geometry":{"type":"LineString","coordinates":[[139.78311,35.55132],[139.78288,35.55183],[139.78295,35.55207]]}},{"type":"Feature","properties":{"idx":183,"road":"","cls":"tertiary","shops":0,"st_km":0.33,"mesh":"53392662"},"geometry":{"type":"LineString","coordinates":[[139.78294,35.55134],[139.78274,35.5516],[139.78267,35.55177],[139.7827,35.552]]}},{"type":"Feature","properties":{"idx":93,"road":"","cls":"tertiary","shops":0,"st_km":0.26,"mesh":"53392651"},"geometry":{"type":"LineString","coordinates":[[139.76633,35.5472],[139.76628,35.5473]]}},{"type":"Feature","properties":{"idx":189,"road":"幹線3号道路","cls":"tertiary","shops":0,"st_km":3.53,"mesh":"53392601"},"geometry":{"type":"LineString","coordinates":[[139.76927,35.50341],[139.76911,35.50363],[139.76897,35.50366],[139.76215,35.5033],[139.76154,35.50312],[139.75678,35.50101],[139.75647,35.50084]]}},{"type":"Feature","properties":{"idx":189,"road":"緑地前道路","cls":"tertiary","shops":0,"st_km":4.18,"mesh":"53392601"},"geometry":{"type":"LineString","coordinates":[[139.77459,35.50374],[139.77442,35.50376],[139.77259,35.50339]]}},{"type":"Feature","properties":{"idx":30,"road":"船溜道路","cls":"tertiary","shops":0,"st_km":4.55,"mesh":"53392602"},"geometry":{"type":"LineString","coordinates":[[139.7772,35.49978],[139.77718,35.49994],[139.7756,35.50232]]}},{"type":"Feature","properties":{"idx":283,"road":"幹線4号道路","cls":"tertiary","shops":1,"st_km":4.29,"mesh":"53392601"},"geometry":{"type":"LineString","coordinates":[[139.76978,35.50277],[139.77203,35.49944],[139.77208,35.49927]]}},{"type":"Feature","properties":{"idx":411,"road":"殿町夜光線","cls":"tertiary","shops":0,"st_km":0.33,"mesh":"53392640"},"geometry":{"type":"LineString","coordinates":[[139.75096,35.53443],[139.75077,35.53731]]}},{"type":"Feature","properties":{"idx":61,"road":"","cls":"tertiary","shops":0,"st_km":2.65,"mesh":"53392692"},"geometry":{"type":"LineString","coordinates":[[139.77965,35.58061],[139.77804,35.57913],[139.77739,35.57871],[139.77662,35.57841]]}},{"type":"Feature","properties":{"idx":61,"road":"","cls":"tertiary","shops":0,"st_km":2.63,"mesh":"53392692"},"geometry":{"type":"LineString","coordinates":[[139.77615,35.57873],[139.77673,35.57876],[139.77714,35.57883],[139.77756,35.57898],[139.77782,35.57912],[139.77957,35.58067]]}},{"type":"Feature","properties":{"idx":270,"road":"多摩川スカイブリッジ","cls":"tertiary","shops":0,"st_km":0.75,"mesh":"53392640"},"geometry":{"type":"LineString","coordinates":[[139.76192,35.54202],[139.75999,35.53888]]}},{"type":"Feature","properties":{"idx":142,"road":"","cls":"tertiary","shops":2,"st_km":0.16,"mesh":"53392650"},"geometry":{"type":"LineString","coordinates":[[139.75618,35.54627],[139.75621,35.54672],[139.75611,35.54697],[139.75597,35.54715],[139.75567,35.54736],[139.75465,35.5478]]}},{"type":"Feature","properties":{"idx":397,"road":"","cls":"tertiary","shops":1,"st_km":0.13,"mesh":"53392660"},"geometry":{"type":"LineString","coordinates":[[139.75346,35.55251],[139.75332,35.55263],[139.75325,35.55286],[139.75329,35.55544]]}},{"type":"Feature","properties":{"idx":236,"road":"","cls":"tertiary","shops":0,"st_km":0.24,"mesh":"53392660"},"geometry":{"type":"LineString","coordinates":[[139.75428,35.55534],[139.7548,35.55699],[139.75487,35.55703],[139.75507,35.557],[139.75622,35.55674],[139.75624,35.55663],[139.75529,35.55359],[139.75496,35.55282],[139.75484,35.55279],[139.75374,35.55301]]}},{"type":"Feature","properties":{"idx":209,"road":"","cls":"tertiary","shops":0,"st_km":0.37,"mesh":"53392660"},"geometry":{"type":"LineString","coordinates":[[139.755,35.56067],[139.7538,35.5567],[139.75389,35.55661],[139.75462,35.55646]]}},{"type":"Feature","properties":{"idx":217,"road":"","cls":"tertiary","shops":0,"st_km":0.33,"mesh":"53392660"},"geometry":{"type":"LineString","coordinates":[[139.75828,35.55652],[139.7579,35.55631],[139.7567,35.55627],[139.75577,35.55516]]}},{"type":"Feature","properties":{"idx":181,"road":"","cls":"tertiary","shops":0,"st_km":1.1,"mesh":"53392643"},"geometry":{"type":"LineString","coordinates":[[139.79654,35.53792],[139.79653,35.53779],[139.7966,35.53765],[139.7973,35.5367]]}},{"type":"Feature","properties":{"idx":63,"road":"羽田連絡道路","cls":"primary","shops":0,"st_km":0.46,"mesh":"53392650"},"geometry":{"type":"LineString","coordinates":[[139.7633,35.54425],[139.76141,35.54503],[139.76057,35.54532]]}},{"type":"Feature","properties":{"idx":250,"road":"","cls":"tertiary","shops":0,"st_km":0.11,"mesh":"53392662"},"geometry":{"type":"LineString","coordinates":[[139.78668,35.55055],[139.78719,35.54986]]}},{"type":"Feature","properties":{"idx":219,"road":"","cls":"tertiary","shops":0,"st_km":0.24,"mesh":"53392662"},"geometry":{"type":"LineString","coordinates":[[139.7856,35.55004],[139.78342,35.55307]]}},{"type":"Feature","properties":{"idx":147,"road":"","cls":"tertiary","shops":0,"st_km":0.26,"mesh":"53392653"},"geometry":{"type":"LineString","coordinates":[[139.78719,35.54986],[139.78926,35.54693]]}},{"type":"Feature","properties":{"idx":136,"road":"","cls":"tertiary","shops":0,"st_km":0.73,"mesh":"53392662"},"geometry":{"type":"LineString","coordinates":[[139.78232,35.55468],[139.78126,35.55604]]}},{"type":"Feature","properties":{"idx":132,"road":"","cls":"tertiary","shops":0,"st_km":0.76,"mesh":"53392662"},"geometry":{"type":"LineString","coordinates":[[139.78124,35.55783],[139.78227,35.5567],[139.78406,35.55424]]}},{"type":"Feature","properties":{"idx":112,"road":"","cls":"tertiary","shops":0,"st_km":0.37,"mesh":"53392653"},"geometry":{"type":"LineString","coordinates":[[139.78892,35.54542],[139.78824,35.54633]]}},{"type":"Feature","properties":{"idx":105,"road":"","cls":"tertiary","shops":0,"st_km":0.44,"mesh":"53392653"},"geometry":{"type":"LineString","coordinates":[[139.78991,35.54595],[139.78999,35.54582]]}},{"type":"Feature","properties":{"idx":198,"road":"","cls":"tertiary","shops":1,"st_km":0.29,"mesh":"53392653"},"geometry":{"type":"LineString","coordinates":[[139.78868,35.54792],[139.7883,35.54845]]}},{"type":"Feature","properties":{"idx":164,"road":"","cls":"tertiary","shops":0,"st_km":1.24,"mesh":"53392643"},"geometry":{"type":"LineString","coordinates":[[139.7971,35.53518],[139.79571,35.53453]]}},{"type":"Feature","properties":{"idx":210,"road":"","cls":"tertiary","shops":0,"st_km":0.9,"mesh":"53392643"},"geometry":{"type":"LineString","coordinates":[[139.79486,35.54032],[139.79654,35.53792]]}},{"type":"Feature","properties":{"idx":105,"road":"","cls":"tertiary","shops":0,"st_km":1.03,"mesh":"53392662"},"geometry":{"type":"LineString","coordinates":[[139.78065,35.55841],[139.78124,35.55783]]}},{"type":"Feature","properties":{"idx":110,"road":"","cls":"tertiary","shops":0,"st_km":0.97,"mesh":"53392662"},"geometry":{"type":"LineString","coordinates":[[139.78077,35.55667],[139.77978,35.55766]]}},{"type":"Feature","properties":{"idx":153,"road":"","cls":"tertiary","shops":0,"st_km":0.6,"mesh":"53392662"},"geometry":{"type":"LineString","coordinates":[[139.78273,35.55406],[139.78232,35.55468]]}},{"type":"Feature","properties":{"idx":121,"road":"","cls":"tertiary","shops":0,"st_km":0.86,"mesh":"53392662"},"geometry":{"type":"LineString","coordinates":[[139.78126,35.55604],[139.78077,35.55667]]}},{"type":"Feature","properties":{"idx":134,"road":"","cls":"tertiary","shops":0,"st_km":0.67,"mesh":"53392662"},"geometry":{"type":"LineString","coordinates":[[139.78066,35.55412],[139.7818,35.55466]]}},{"type":"Feature","properties":{"idx":144,"road":"","cls":"tertiary","shops":0,"st_km":0.66,"mesh":"53392662"},"geometry":{"type":"LineString","coordinates":[[139.78227,35.55489],[139.78338,35.55543]]}},{"type":"Feature","properties":{"idx":145,"road":"","cls":"tertiary","shops":0,"st_km":0.66,"mesh":"53392662"},"geometry":{"type":"LineString","coordinates":[[139.7818,35.55466],[139.78227,35.55489]]}},{"type":"Feature","properties":{"idx":65,"road":"","cls":"tertiary","shops":0,"st_km":0.63,"mesh":"53392651"},"geometry":{"type":"LineString","coordinates":[[139.77197,35.54987],[139.77059,35.54923]]}},{"type":"Feature","properties":{"idx":104,"road":"","cls":"tertiary","shops":1,"st_km":0.56,"mesh":"53392651"},"geometry":{"type":"LineString","coordinates":[[139.77059,35.54923],[139.77049,35.54918]]}},{"type":"Feature","properties":{"idx":65,"road":"","cls":"tertiary","shops":0,"st_km":0.64,"mesh":"53392651"},"geometry":{"type":"LineString","coordinates":[[139.77053,35.54931],[139.77188,35.54996]]}},{"type":"Feature","properties":{"idx":104,"road":"","cls":"tertiary","shops":1,"st_km":0.57,"mesh":"53392651"},"geometry":{"type":"LineString","coordinates":[[139.77043,35.54926],[139.77053,35.54931]]}},{"type":"Feature","properties":{"idx":161,"road":"川崎3・3・15号浮島町線","cls":"tertiary","shops":0,"st_km":2.47,"mesh":"53392623"},"geometry":{"type":"LineString","coordinates":[[139.7876,35.52043],[139.78786,35.52062]]}},{"type":"Feature","properties":{"idx":369,"road":"川崎3・3・15号浮島町線","cls":"tertiary","shops":0,"st_km":2.53,"mesh":"53392622"},"geometry":{"type":"LineString","coordinates":[[139.78682,35.51965],[139.7876,35.52043]]}},{"type":"Feature","properties":{"idx":371,"road":"川崎3・3・15号浮島町線","cls":"tertiary","shops":0,"st_km":2.51,"mesh":"53392622"},"geometry":{"type":"LineString","coordinates":[[139.78768,35.52038],[139.78726,35.51997]]}},{"type":"Feature","properties":{"idx":161,"road":"川崎3・3・15号浮島町線","cls":"tertiary","shops":0,"st_km":2.48,"mesh":"53392623"},"geometry":{"type":"LineString","coordinates":[[139.78786,35.52062],[139.78768,35.52038]]}},{"type":"Feature","properties":{"idx":62,"road":"","cls":"tertiary","shops":0,"st_km":0.29,"mesh":"53392650"},"geometry":{"type":"LineString","coordinates":[[139.75618,35.54627],[139.75695,35.54616]]}},{"type":"Feature","properties":{"idx":133,"road":"","cls":"tertiary","shops":0,"st_km":2.06,"mesh":"53392691"},"geometry":{"type":"LineString","coordinates":[[139.77156,35.5797],[139.77204,35.58014]]}},{"type":"Feature","properties":{"idx":96,"road":"","cls":"tertiary","shops":0,"st_km":0.54,"mesh":"53392653"},"geometry":{"type":"LineString","coordinates":[[139.79243,35.54248],[139.79259,35.54246],[139.79316,35.54272]]}},{"type":"Feature","properties":{"idx":83,"road":"","cls":"primary_link","shops":0,"st_km":0.24,"mesh":"53392651"},"geometry":{"type":"LineString","coordinates":[[139.76661,35.54264],[139.76573,35.54319]]}},{"type":"Feature","properties":{"idx":83,"road":"","cls":"primary_link","shops":0,"st_km":0.24,"mesh":"53392651"},"geometry":{"type":"LineString","coordinates":[[139.76573,35.54319],[139.76698,35.5426]]}},{"type":"Feature","properties":{"idx":43,"road":"","cls":"primary_link","shops":0,"st_km":0.52,"mesh":"53392650"},"geometry":{"type":"LineString","coordinates":[[139.76057,35.54532],[139.76001,35.5455],[139.75949,35.54572],[139.75847,35.54633]]}},{"type":"Feature","properties":{"idx":41,"road":"","cls":"primary_link","shops":0,"st_km":0.58,"mesh":"53392650"},"geometry":{"type":"LineString","coordinates":[[139.75945,35.54587],[139.75976,35.54568],[139.76057,35.54532]]}},{"type":"Feature","properties":{"idx":230,"road":"川崎3・4・29号殿町羽田空港線","cls":"tertiary","shops":0,"st_km":0.94,"mesh":"53392640"},"geometry":{"type":"LineString","coordinates":[[139.75999,35.53888],[139.75991,35.53875]]}},{"type":"Feature","properties":{"idx":116,"road":"羽田連絡道路","cls":"primary","shops":0,"st_km":0.27,"mesh":"53392651"},"geometry":{"type":"LineString","coordinates":[[139.76573,35.54319],[139.76501,35.54355],[139.7633,35.54425]]}},{"type":"Feature","properties":{"idx":356,"road":"","cls":"tertiary","shops":1,"st_km":0.36,"mesh":"53392660"},"geometry":{"type":"LineString","coordinates":[[139.75056,35.55192],[139.7502,35.551]]}},{"type":"Feature","properties":{"idx":67,"road":"環八通り","cls":"primary","shops":0,"st_km":0.43,"mesh":"53392650"},"geometry":{"type":"LineString","coordinates":[[139.75878,35.54605],[139.75854,35.54623],[139.75847,35.54633]]}},{"type":"Feature","properties":{"idx":65,"road":"環八通り","cls":"primary","shops":0,"st_km":0.47,"mesh":"53392650"},"geometry":{"type":"LineString","coordinates":[[139.75859,35.54641],[139.75945,35.54587]]}},{"type":"Feature","properties":{"idx":347,"road":"環八通り","cls":"primary","shops":0,"st_km":0.22,"mesh":"53392660"},"geometry":{"type":"LineString","coordinates":[[139.75481,35.55001],[139.75397,35.5503]]}},{"type":"Feature","properties":{"idx":343,"road":"環八通り","cls":"primary","shops":0,"st_km":0.23,"mesh":"53392660"},"geometry":{"type":"LineString","coordinates":[[139.75399,35.55041],[139.7549,35.55012]]}},{"type":"Feature","properties":{"idx":571,"road":"","cls":"tertiary","shops":2,"st_km":0.71,"mesh":"53392640"},"geometry":{"type":"LineString","coordinates":[[139.75403,35.53867],[139.75406,35.53791]]}},{"type":"Feature","properties":{"idx":190,"road":"","cls":"tertiary","shops":0,"st_km":2.97,"mesh":"53392611"},"geometry":{"type":"LineString","coordinates":[[139.7703,35.51755],[139.77037,35.51738],[139.77301,35.51535]]}},{"type":"Feature","properties":{"idx":71,"road":"環八通り","cls":"primary","shops":0,"st_km":0.38,"mesh":"53392650"},"geometry":{"type":"LineString","coordinates":[[139.75802,35.54699],[139.75859,35.54641]]}},{"type":"Feature","properties":{"idx":69,"road":"環八通り","cls":"primary","shops":0,"st_km":0.41,"mesh":"53392650"},"geometry":{"type":"LineString","coordinates":[[139.75847,35.54633],[139.75836,35.54643]]}},{"type":"Feature","properties":{"idx":227,"road":"川崎3・4・29号殿町羽田空港線","cls":"tertiary","shops":0,"st_km":0.95,"mesh":"53392640"},"geometry":{"type":"LineString","coordinates":[[139.75991,35.53875],[139.75985,35.53864]]}},{"type":"Feature","properties":{"idx":121,"road":"環八通り","cls":"primary","shops":0,"st_km":0.22,"mesh":"53392651"},"geometry":{"type":"LineString","coordinates":[[139.76258,35.54466],[139.76554,35.5434],[139.767,35.54259],[139.76827,35.54201]]}},{"type":"Feature","properties":{"idx":102,"road":"環八通り","cls":"primary","shops":0,"st_km":0.4,"mesh":"53392651"},"geometry":{"type":"LineString","coordinates":[[139.76827,35.54201],[139.76962,35.54145]]}},{"type":"Feature","properties":{"idx":257,"road":"環八通り","cls":"primary","shops":1,"st_km":0.49,"mesh":"53392641"},"geometry":{"type":"LineString","coordinates":[[139.76969,35.54142],[139.77037,35.54117]]}},{"type":"Feature","properties":{"idx":161,"road":"環八通り","cls":"primary","shops":0,"st_km":0.56,"mesh":"53392641"},"geometry":{"type":"LineString","coordinates":[[139.77037,35.54117],[139.77127,35.5408]]}},{"type":"Feature","properties":{"idx":116,"road":"環八通り","cls":"primary","shops":0,"st_km":0.94,"mesh":"53392641"},"geometry":{"type":"LineString","coordinates":[[139.77672,35.53825],[139.77247,35.54015]]}},{"type":"Feature","properties":{"idx":146,"road":"環八通り","cls":"primary","shops":0,"st_km":0.66,"mesh":"53392641"},"geometry":{"type":"LineString","coordinates":[[139.77247,35.54015],[139.77121,35.54071]]}},{"type":"Feature","properties":{"idx":253,"road":"","cls":"primary","shops":1,"st_km":0.51,"mesh":"53392641"},"geometry":{"type":"LineString","coordinates":[[139.77065,35.54095],[139.76961,35.54135]]}},{"type":"Feature","properties":{"idx":158,"road":"環八通り","cls":"primary","shops":0,"st_km":0.58,"mesh":"53392641"},"geometry":{"type":"LineString","coordinates":[[139.77121,35.54071],[139.77065,35.54095]]}},{"type":"Feature","properties":{"idx":155,"road":"環八通り","cls":"primary","shops":1,"st_km":0.38,"mesh":"53392651"},"geometry":{"type":"LineString","coordinates":[[139.7634,35.54412],[139.76244,35.54451]]}},{"type":"Feature","properties":{"idx":63,"road":"環八通り","cls":"primary","shops":0,"st_km":0.5,"mesh":"53392650"},"geometry":{"type":"LineString","coordinates":[[139.75963,35.54557],[139.75878,35.54605]]}},{"type":"Feature","properties":{"idx":233,"road":"","cls":"tertiary","shops":0,"st_km":0.41,"mesh":"53392690"},"geometry":{"type":"LineString","coordinates":[[139.75387,35.5811],[139.75359,35.5817]]}},{"type":"Feature","properties":{"idx":230,"road":"","cls":"tertiary","shops":0,"st_km":0.43,"mesh":"53392690"},"geometry":{"type":"LineString","coordinates":[[139.75391,35.581],[139.75387,35.5811]]}},{"type":"Feature","properties":{"idx":239,"road":"","cls":"tertiary","shops":0,"st_km":0.39,"mesh":"53392690"},"geometry":{"type":"LineString","coordinates":[[139.75334,35.58228],[139.75296,35.58315]]}},{"type":"Feature","properties":{"idx":222,"road":"","cls":"tertiary","shops":0,"st_km":0.46,"mesh":"53392690"},"geometry":{"type":"LineString","coordinates":[[139.75374,35.58173],[139.75468,35.57955]]}},{"type":"Feature","properties":{"idx":305,"road":"","cls":"tertiary","shops":1,"st_km":0.56,"mesh":"53392690"},"geometry":{"type":"LineString","coordinates":[[139.75468,35.57955],[139.75487,35.57911]]}},{"type":"Feature","properties":{"idx":256,"road":"","cls":"tertiary","shops":1,"st_km":0.75,"mesh":"53392690"},"geometry":{"type":"LineString","coordinates":[[139.75658,35.57851],[139.75672,35.57851]]}},{"type":"Feature","properties":{"idx":220,"road":"","cls":"tertiary","shops":1,"st_km":0.93,"mesh":"53392690"},"geometry":{"type":"LineString","coordinates":[[139.75766,35.57849],[139.75996,35.57849]]}},{"type":"Feature","properties":{"idx":235,"road":"","cls":"tertiary","shops":0,"st_km":0.4,"mesh":"53392690"},"geometry":{"type":"LineString","coordinates":[[139.75329,35.5828],[139.75374,35.58173]]}},{"type":"Feature","properties":{"idx":238,"road":"","cls":"tertiary","shops":0,"st_km":0.37,"mesh":"53392660"},"geometry":{"type":"LineString","coordinates":[[139.75399,35.55041],[139.75406,35.55085],[139.75401,35.55146],[139.75375,35.55209],[139.75346,35.55251]]}},{"type":"Feature","properties":{"idx":379,"road":"","cls":"tertiary","shops":1,"st_km":0.17,"mesh":"53392660"},"geometry":{"type":"LineString","coordinates":[[139.75346,35.55251],[139.75362,35.5526],[139.75369,35.55269],[139.75404,35.55474]]}},{"type":"Feature","properties":{"idx":244,"road":"","cls":"tertiary","shops":0,"st_km":0.72,"mesh":"53392643"},"geometry":{"type":"LineString","coordinates":[[139.79434,35.53679],[139.79385,35.53803],[139.79332,35.53907],[139.79271,35.54006],[139.79189,35.54123]]}},{"type":"Feature","properties":{"idx":55,"road":"","cls":"tertiary","shops":0,"st_km":0.42,"mesh":"53392650"},"geometry":{"type":"LineString","coordinates":[[139.75847,35.54633],[139.75859,35.54641]]}},{"type":"Feature","properties":{"idx":97,"road":"多摩川スカイブリッジ","cls":"primary","shops":0,"st_km":0.45,"mesh":"53392651"},"geometry":{"type":"LineString","coordinates":[[139.7633,35.54425],[139.76192,35.54202]]}},{"type":"Feature","properties":{"idx":59,"road":"","cls":"tertiary","shops":0,"st_km":2.82,"mesh":"53392692"},"geometry":{"type":"LineString","coordinates":[[139.78062,35.5815],[139.77989,35.58084]]}},{"type":"Feature","properties":{"idx":59,"road":"","cls":"tertiary","shops":0,"st_km":2.77,"mesh":"53392692"},"geometry":{"type":"LineString","coordinates":[[139.77989,35.58084],[139.77965,35.58061]]}},{"type":"Feature","properties":{"idx":59,"road":"","cls":"tertiary","shops":0,"st_km":2.81,"mesh":"53392692"},"geometry":{"type":"LineString","coordinates":[[139.7798,35.5809],[139.78053,35.58157]]}},{"type":"Feature","properties":{"idx":59,"road":"","cls":"tertiary","shops":0,"st_km":2.77,"mesh":"53392692"},"geometry":{"type":"LineString","coordinates":[[139.77957,35.58067],[139.7798,35.5809]]}},{"type":"Feature","properties":{"idx":265,"road":"","cls":"tertiary","shops":0,"st_km":1.35,"mesh":"53392681"},"geometry":{"type":"LineString","coordinates":[[139.76434,35.57328],[139.76433,35.57359],[139.76439,35.57373]]}},{"type":"Feature","properties":{"idx":200,"road":"","cls":"tertiary","shops":0,"st_km":1.87,"mesh":"53392681"},"geometry":{"type":"LineString","coordinates":[[139.77039,35.57245],[139.77049,35.57226]]}},{"type":"Feature","properties":{"idx":316,"road":"北大通り","cls":"tertiary","shops":0,"st_km":0.79,"mesh":"53392680"},"geometry":{"type":"LineString","coordinates":[[139.75792,35.57247],[139.75861,35.57252]]}},{"type":"Feature","properties":{"idx":94,"road":"","cls":"tertiary","shops":0,"st_km":0.26,"mesh":"53392651"},"geometry":{"type":"LineString","coordinates":[[139.76541,35.54687],[139.76628,35.5473]]}},{"type":"Feature","properties":{"idx":93,"road":"","cls":"tertiary","shops":0,"st_km":0.26,"mesh":"53392651"},"geometry":{"type":"LineString","coordinates":[[139.76677,35.54742],[139.76638,35.54723]]}},{"type":"Feature","properties":{"idx":235,"road":"","cls":"tertiary","shops":0,"st_km":0.4,"mesh":"53392690"},"geometry":{"type":"LineString","coordinates":[[139.75299,35.58348],[139.75329,35.5828]]}},{"type":"Feature","properties":{"idx":238,"road":"","cls":"tertiary","shops":0,"st_km":0.39,"mesh":"53392690"},"geometry":{"type":"LineString","coordinates":[[139.75359,35.5817],[139.75334,35.58228]]}},{"type":"Feature","properties":{"idx":316,"road":"北大通り","cls":"tertiary","shops":0,"st_km":0.79,"mesh":"53392680"},"geometry":{"type":"LineString","coordinates":[[139.75864,35.57244],[139.75792,35.57247]]}},{"type":"Feature","properties":{"idx":255,"road":"北大通り","cls":"tertiary","shops":0,"st_km":1.41,"mesh":"53392681"},"geometry":{"type":"LineString","coordinates":[[139.76193,35.57253],[139.76865,35.57253]]}},{"type":"Feature","properties":{"idx":69,"road":"","cls":"tertiary","shops":0,"st_km":0.18,"mesh":"53392650"},"geometry":{"type":"LineString","coordinates":[[139.75224,35.54687],[139.75332,35.54674],[139.75618,35.54627]]}},{"type":"Feature","properties":{"idx":433,"road":"","cls":"tertiary","shops":1,"st_km":0.04,"mesh":"53392660"},"geometry":{"type":"LineString","coordinates":[[139.75342,35.55544],[139.7538,35.55543]]}},{"type":"Feature","properties":{"idx":762,"road":"","cls":"tertiary","shops":0,"st_km":2.8,"mesh":"53392621"},"geometry":{"type":"LineString","coordinates":[[139.77256,35.51957],[139.77033,35.51766],[139.7703,35.51755]]}},{"type":"Feature","properties":{"idx":101,"road":"環八通り","cls":"primary","shops":0,"st_km":0.41,"mesh":"53392651"},"geometry":{"type":"LineString","coordinates":[[139.76251,35.54469],[139.76258,35.54466]]}},{"type":"Feature","properties":{"idx":80,"road":"","cls":"tertiary","shops":0,"st_km":0.42,"mesh":"53392651"},"geometry":{"type":"LineString","coordinates":[[139.76258,35.54466],[139.76244,35.54451]]}},{"type":"Feature","properties":{"idx":141,"road":"","cls":"tertiary","shops":0,"st_km":0.46,"mesh":"53392641"},"geometry":{"type":"LineString","coordinates":[[139.76961,35.54135],[139.76962,35.54145]]}},{"type":"Feature","properties":{"idx":115,"road":"","cls":"tertiary","shops":0,"st_km":0.35,"mesh":"53392653"},"geometry":{"type":"LineString","coordinates":[[139.79102,35.54248],[139.79038,35.54337]]}},{"type":"Feature","properties":{"idx":214,"road":"環八通り","cls":"tertiary_link","shops":0,"st_km":0.35,"mesh":"53392643"},"geometry":{"type":"LineString","coordinates":[[139.79016,35.54138],[139.79041,35.54152]]}},{"type":"Feature","properties":{"idx":177,"road":"環八通り","cls":"primary","shops":0,"st_km":0.46,"mesh":"53392641"},"geometry":{"type":"LineString","coordinates":[[139.76962,35.54145],[139.76969,35.54142]]}},{"type":"Feature","properties":{"idx":141,"road":"","cls":"tertiary","shops":0,"st_km":0.46,"mesh":"53392641"},"geometry":{"type":"LineString","coordinates":[[139.76969,35.54142],[139.76961,35.54135]]}},{"type":"Feature","properties":{"idx":271,"road":"","cls":"tertiary","shops":0,"st_km":0.24,"mesh":"53392660"},"geometry":{"type":"LineString","coordinates":[[139.75397,35.5503],[139.75399,35.55041]]}},{"type":"Feature","properties":{"idx":422,"road":"","cls":"tertiary","shops":1,"st_km":0.07,"mesh":"53392660"},"geometry":{"type":"LineString","coordinates":[[139.75404,35.55474],[139.75422,35.55535]]}},{"type":"Feature","properties":{"idx":423,"road":"","cls":"tertiary","shops":1,"st_km":0.07,"mesh":"53392660"},"geometry":{"type":"LineString","coordinates":[[139.75422,35.55535],[139.7538,35.55543]]}},{"type":"Feature","properties":{"idx":265,"road":"北大通り","cls":"tertiary","shops":0,"st_km":1.0,"mesh":"53392680"},"geometry":{"type":"LineString","coordinates":[[139.76193,35.57239],[139.75957,35.57239]]}},{"type":"Feature","properties":{"idx":401,"road":"","cls":"tertiary","shops":2,"st_km":1.87,"mesh":"53392681"},"geometry":{"type":"LineString","coordinates":[[139.77049,35.57226],[139.77039,35.57129]]}},{"type":"Feature","properties":{"idx":260,"road":"北大通り","cls":"tertiary","shops":0,"st_km":1.03,"mesh":"53392680"},"geometry":{"type":"LineString","coordinates":[[139.76004,35.57253],[139.76193,35.57253]]}},{"type":"Feature","properties":{"idx":298,"road":"北大通り","cls":"tertiary","shops":0,"st_km":0.86,"mesh":"53392680"},"geometry":{"type":"LineString","coordinates":[[139.75957,35.57239],[139.75864,35.57244]]}},{"type":"Feature","properties":{"idx":283,"road":"北大通り","cls":"tertiary","shops":0,"st_km":0.92,"mesh":"53392680"},"geometry":{"type":"LineString","coordinates":[[139.75951,35.57252],[139.76004,35.57253]]}},{"type":"Feature","properties":{"idx":102,"road":"","cls":"tertiary","shops":0,"st_km":0.47,"mesh":"53392653"},"geometry":{"type":"LineString","coordinates":[[139.78926,35.54693],[139.78991,35.54595]]}},{"type":"Feature","properties":{"idx":305,"road":"","cls":"tertiary","shops":0,"st_km":0.47,"mesh":"53392643"},"geometry":{"type":"LineString","coordinates":[[139.79189,35.54123],[139.79161,35.54168]]}},{"type":"Feature","properties":{"idx":150,"road":"","cls":"tertiary","shops":0,"st_km":0.9,"mesh":"53392690"},"geometry":{"type":"LineString","coordinates":[[139.76004,35.57836],[139.75677,35.57836]]}},{"type":"Feature","properties":{"idx":119,"road":"","cls":"tertiary","shops":0,"st_km":1.2,"mesh":"53392690"},"geometry":{"type":"LineString","coordinates":[[139.76378,35.57836],[139.76004,35.57836]]}},{"type":"Feature","properties":{"idx":59,"road":"","cls":"tertiary","shops":0,"st_km":2.79,"mesh":"53392692"},"geometry":{"type":"LineString","coordinates":[[139.77994,35.58069],[139.77987,35.58063]]}},{"type":"Feature","properties":{"idx":59,"road":"","cls":"tertiary","shops":0,"st_km":2.77,"mesh":"53392692"},"geometry":{"type":"LineString","coordinates":[[139.77987,35.58063],[139.77958,35.58084]]}},{"type":"Feature","properties":{"idx":58,"road":"","cls":"tertiary","shops":0,"st_km":2.89,"mesh":"53392692"},"geometry":{"type":"LineString","coordinates":[[139.78206,35.57905],[139.77987,35.58063]]}},{"type":"Feature","properties":{"idx":56,"road":"","cls":"tertiary","shops":0,"st_km":3.11,"mesh":"53392692"},"geometry":{"type":"LineString","coordinates":[[139.78303,35.57992],[139.78392,35.58075]]}},{"type":"Feature","properties":{"idx":56,"road":"","cls":"tertiary","shops":0,"st_km":3.03,"mesh":"53392692"},"geometry":{"type":"LineString","coordinates":[[139.78206,35.57905],[139.78303,35.57992]]}},{"type":"Feature","properties":{"idx":56,"road":"","cls":"tertiary","shops":0,"st_km":3.12,"mesh":"53392692"},"geometry":{"type":"LineString","coordinates":[[139.78303,35.57992],[139.78396,35.57925]]}},{"type":"Feature","properties":{"idx":57,"road":"","cls":"tertiary","shops":0,"st_km":3.02,"mesh":"53392692"},"geometry":{"type":"LineString","coordinates":[[139.78196,35.58069],[139.78303,35.57992]]}},{"type":"Feature","properties":{"idx":57,"road":"","cls":"tertiary","shops":0,"st_km":2.93,"mesh":"53392692"},"geometry":{"type":"LineString","coordinates":[[139.78196,35.58069],[139.78107,35.57987]]}},{"type":"Feature","properties":{"idx":58,"road":"","cls":"tertiary","shops":0,"st_km":2.89,"mesh":"53392692"},"geometry":{"type":"LineString","coordinates":[[139.78107,35.57987],[139.78101,35.57981]]}},{"type":"Feature","properties":{"idx":58,"road":"","cls":"tertiary","shops":0,"st_km":2.83,"mesh":"53392692"},"geometry":{"type":"LineString","coordinates":[[139.77965,35.5809],[139.78107,35.57987]]}},{"type":"Feature","properties":{"idx":60,"road":"","cls":"tertiary","shops":0,"st_km":2.73,"mesh":"53392692"},"geometry":{"type":"LineString","coordinates":[[139.77904,35.58134],[139.77965,35.5809]]}},{"type":"Feature","properties":{"idx":138,"road":"","cls":"tertiary","shops":0,"st_km":1.96,"mesh":"53392691"},"geometry":{"type":"LineString","coordinates":[[139.76949,35.57844],[139.77141,35.57843]]}},{"type":"Feature","properties":{"idx":133,"road":"","cls":"tertiary","shops":0,"st_km":2.04,"mesh":"53392691"},"geometry":{"type":"LineString","coordinates":[[139.7714,35.57833],[139.77141,35.57843]]}},{"type":"Feature","properties":{"idx":128,"road":"","cls":"tertiary","shops":0,"st_km":2.16,"mesh":"53392691"},"geometry":{"type":"LineString","coordinates":[[139.77141,35.57843],[139.77452,35.58132]]}},{"type":"Feature","properties":{"idx":61,"road":"","cls":"tertiary","shops":0,"st_km":2.62,"mesh":"53392692"},"geometry":{"type":"LineString","coordinates":[[139.77697,35.57954],[139.77724,35.5797],[139.77904,35.58134]]}},{"type":"Feature","properties":{"idx":152,"road":"","cls":"tertiary","shops":0,"st_km":1.75,"mesh":"53392691"},"geometry":{"type":"LineString","coordinates":[[139.76688,35.57846],[139.76949,35.57844]]}},{"type":"Feature","properties":{"idx":164,"road":"","cls":"tertiary","shops":0,"st_km":0.8,"mesh":"53392690"},"geometry":{"type":"LineString","coordinates":[[139.75672,35.57851],[139.75766,35.57849]]}},{"type":"Feature","properties":{"idx":119,"road":"","cls":"tertiary","shops":0,"st_km":1.21,"mesh":"53392690"},"geometry":{"type":"LineString","coordinates":[[139.76013,35.57849],[139.76391,35.57846]]}},{"type":"Feature","properties":{"idx":135,"road":"","cls":"tertiary","shops":0,"st_km":1.04,"mesh":"53392690"},"geometry":{"type":"LineString","coordinates":[[139.75996,35.57849],[139.76013,35.57849]]}},{"type":"Feature","properties":{"idx":224,"road":"","cls":"tertiary","shops":0,"st_km":0.45,"mesh":"53392690"},"geometry":{"type":"LineString","coordinates":[[139.75097,35.57763],[139.75082,35.57759]]}},{"type":"Feature","properties":{"idx":100,"road":"","cls":"tertiary","shops":0,"st_km":0.2,"mesh":"53392651"},"geometry":{"type":"LineString","coordinates":[[139.76638,35.54723],[139.7671,35.54621]]}},{"type":"Feature","properties":{"idx":663,"road":"","cls":"tertiary","shops":1,"st_km":0.29,"mesh":"53392652"},"geometry":{"type":"LineString","coordinates":[[139.78624,35.54673],[139.78609,35.5469]]}},{"type":"Feature","properties":{"idx":395,"road":"","cls":"tertiary","shops":3,"st_km":0.11,"mesh":"53392653"},"geometry":{"type":"LineString","coordinates":[[139.78851,35.55005],[139.7888,35.54963]]}},{"type":"Feature","properties":{"idx":273,"road":"","cls":"tertiary","shops":2,"st_km":0.26,"mesh":"53392653"},"geometry":{"type":"LineString","coordinates":[[139.78934,35.54884],[139.7895,35.5486]]}},{"type":"Feature","properties":{"idx":527,"road":"","cls":"tertiary","shops":3,"st_km":0.2,"mesh":"53392662"},"geometry":{"type":"LineString","coordinates":[[139.78695,35.55231],[139.787,35.55226]]}},{"type":"Feature","properties":{"idx":2203,"road":"","cls":"tertiary","shops":7,"st_km":0.19,"mesh":"53392652"},"geometry":{"type":"LineString","coordinates":[[139.78602,35.54725],[139.78546,35.54808]]}},{"type":"Feature","properties":{"idx":825,"road":"","cls":"tertiary","shops":6,"st_km":0.22,"mesh":"53392662"},"geometry":{"type":"LineString","coordinates":[[139.78364,35.55064],[139.78339,35.55099]]}},{"type":"Feature","properties":{"idx":177,"road":"","cls":"tertiary","shops":0,"st_km":0.45,"mesh":"53392662"},"geometry":{"type":"LineString","coordinates":[[139.78342,35.55307],[139.78325,35.55334]]}},{"type":"Feature","properties":{"idx":56,"road":"","cls":"tertiary","shops":0,"st_km":3.06,"mesh":"53392692"},"geometry":{"type":"LineString","coordinates":[[139.78225,35.57903],[139.78287,35.57859],[139.78311,35.57857],[139.78332,35.57866]]}},{"type":"Feature","properties":{"idx":72,"road":"","cls":"tertiary","shops":0,"st_km":0.15,"mesh":"53392650"},"geometry":{"type":"LineString","coordinates":[[139.75397,35.5503],[139.75333,35.54837]]}},{"type":"Feature","properties":{"idx":642,"road":"","cls":"tertiary","shops":14,"st_km":0.04,"mesh":"53392650"},"geometry":{"type":"LineString","coordinates":[[139.75465,35.5478],[139.75353,35.5483]]}},{"type":"Feature","properties":{"idx":189,"road":"","cls":"tertiary","shops":3,"st_km":0.1,"mesh":"53392650"},"geometry":{"type":"LineString","coordinates":[[139.75333,35.54837],[139.75353,35.5483]]}},{"type":"Feature","properties":{"idx":72,"road":"","cls":"tertiary","shops":0,"st_km":0.15,"mesh":"53392650"},"geometry":{"type":"LineString","coordinates":[[139.75333,35.54837],[139.75283,35.54681]]}},{"type":"Feature","properties":{"idx":367,"road":"川崎3・3・15号浮島町線","cls":"tertiary","shops":0,"st_km":2.55,"mesh":"53392622"},"geometry":{"type":"LineString","coordinates":[[139.78726,35.51997],[139.78682,35.51965]]}},{"type":"Feature","properties":{"idx":611,"road":"","cls":"tertiary","shops":0,"st_km":3.44,"mesh":"53392612"},"geometry":{"type":"LineString","coordinates":[[139.77712,35.51055],[139.78113,35.51433]]}},{"type":"Feature","properties":{"idx":64,"road":"","cls":"tertiary","shops":0,"st_km":2.43,"mesh":"53392692"},"geometry":{"type":"LineString","coordinates":[[139.77662,35.57841],[139.77573,35.57832],[139.77475,35.57833]]}},{"type":"Feature","properties":{"idx":331,"road":"","cls":"tertiary","shops":1,"st_km":0.99,"mesh":"53392640"},"geometry":{"type":"LineString","coordinates":[[139.75825,35.5392],[139.75985,35.53864]]}},{"type":"Feature","properties":{"idx":536,"road":"殿町夜光線","cls":"tertiary","shops":1,"st_km":0.47,"mesh":"53392640"},"geometry":{"type":"LineString","coordinates":[[139.75077,35.53731],[139.75071,35.53873]]}},{"type":"Feature","properties":{"idx":306,"road":"殿町夜光線","cls":"tertiary","shops":0,"st_km":0.64,"mesh":"53392640"},"geometry":{"type":"LineString","coordinates":[[139.75071,35.53873],[139.75065,35.54084]]}},{"type":"Feature","properties":{"idx":311,"road":"","cls":"tertiary","shops":0,"st_km":0.62,"mesh":"53392640"},"geometry":{"type":"LineString","coordinates":[[139.75071,35.53873],[139.75168,35.53875],[139.75377,35.53868]]}},{"type":"Feature","properties":{"idx":564,"road":"","cls":"tertiary","shops":2,"st_km":0.73,"mesh":"53392640"},"geometry":{"type":"LineString","coordinates":[[139.75377,35.53868],[139.75403,35.53867]]}},{"type":"Feature","properties":{"idx":293,"road":"","cls":"tertiary","shops":0,"st_km":0.69,"mesh":"53392640"},"geometry":{"type":"LineString","coordinates":[[139.75406,35.53791],[139.75407,35.53772]]}},{"type":"Feature","properties":{"idx":203,"road":"川崎3・4・29号殿町羽田空港線","cls":"tertiary","shops":0,"st_km":1.1,"mesh":"53392640"},"geometry":{"type":"LineString","coordinates":[[139.75935,35.53747],[139.75924,35.53727]]}},{"type":"Feature","properties":{"idx":125,"road":"","cls":"tertiary","shops":0,"st_km":0.82,"mesh":"53392662"},"geometry":{"type":"LineString","coordinates":[[139.78229,35.55657],[139.78135,35.55607]]}},{"type":"Feature","properties":{"idx":126,"road":"","cls":"tertiary","shops":0,"st_km":0.82,"mesh":"53392662"},"geometry":{"type":"LineString","coordinates":[[139.78135,35.55607],[139.78126,35.55604]]}},{"type":"Feature","properties":{"idx":124,"road":"","cls":"tertiary","shops":0,"st_km":0.83,"mesh":"53392662"},"geometry":{"type":"LineString","coordinates":[[139.78233,35.55662],[139.78229,35.55657]]}}]}