{"type":"FeatureCollection","features":[{"type":"Feature","properties":{"idx":990,"road":"松戸草加線","cls":"primary","shops":0,"st_km":1.3,"mesh":"53395731"},"geometry":{"type":"LineString","coordinates":[[139.89008,35.77654],[139.88824,35.77885]]}},{"type":"Feature","properties":{"idx":988,"road":"松戸草加線","cls":"primary","shops":0,"st_km":1.3,"mesh":"53395731"},"geometry":{"type":"LineString","coordinates":[[139.88824,35.77885],[139.88811,35.77898]]}},{"type":"Feature","properties":{"idx":159,"road":"松戸三郷線","cls":"secondary","shops":0,"st_km":2.54,"mesh":"53395750"},"geometry":{"type":"LineString","coordinates":[[139.87727,35.79777],[139.87829,35.79822],[139.87887,35.79842]]}},{"type":"Feature","properties":{"idx":215,"road":NaN,"cls":"tertiary","shops":0,"st_km":1.28,"mesh":"53395740"},"geometry":{"type":"LineString","coordinates":[[139.88439,35.78556],[139.88471,35.78541],[139.88488,35.78538],[139.88569,35.78538],[139.8865,35.78547],[139.88762,35.78533],[139.88812,35.78542],[139.88892,35.78547]]}},{"type":"Feature","properties":{"idx":215,"road":NaN,"cls":"tertiary","shops":0,"st_km":0.68,"mesh":"53395710"},"geometry":{"type":"LineString","coordinates":[[139.8788,35.76562],[139.8776,35.76519],[139.87676,35.76523],[139.87531,35.76466],[139.87503,35.76512]]}},{"type":"Feature","properties":{"idx":514,"road":NaN,"cls":"tertiary","shops":4,"st_km":0.04,"mesh":"53395700"},"geometry":{"type":"LineString","coordinates":[[139.87875,35.75117],[139.87876,35.75123],[139.87933,35.75141],[139.87939,35.75131],[139.87937,35.75125],[139.87915,35.75115],[139.87902,35.75123],[139.87875,35.75117]]}},{"type":"Feature","properties":{"idx":326,"road":"柴又街道","cls":"secondary","shops":0,"st_km":0.31,"mesh":"53395710"},"geometry":{"type":"LineString","coordinates":[[139.87875,35.75117],[139.87748,35.75414],[139.87636,35.75758],[139.87532,35.75992],[139.87116,35.76688]]}},{"type":"Feature","properties":{"idx":146,"road":NaN,"cls":"tertiary","shops":0,"st_km":0.19,"mesh":"53395700"},"geometry":{"type":"LineString","coordinates":[[139.8768,35.75124],[139.87722,35.75201],[139.87768,35.75238],[139.88271,35.75431]]}},{"type":"Feature","properties":{"idx":2177,"road":"帝釈天参道","cls":"pedestrian","shops":20,"st_km":0.23,"mesh":"53395700"},"geometry":{"type":"LineString","coordinates":[[139.87773,35.75832],[139.87741,35.75819],[139.87721,35.75803],[139.8764,35.7576]]}},{"type":"Feature","properties":{"idx":283,"road":"松戸草加線","cls":"primary","shops":1,"st_km":1.86,"mesh":"53395740"},"geometry":{"type":"LineString","coordinates":[[139.8798,35.78997],[139.88036,35.78981],[139.88103,35.78943],[139.88244,35.78902]]}},{"type":"Feature","properties":{"idx":159,"road":NaN,"cls":"tertiary","shops":0,"st_km":1.76,"mesh":"53395740"},"geometry":{"type":"LineString","coordinates":[[139.88244,35.78902],[139.88234,35.78772],[139.88005,35.78789],[139.87943,35.78798]]}},{"type":"Feature","properties":{"idx":185,"road":"江戸川堤防線","cls":"secondary","shops":1,"st_km":0.51,"mesh":"53395700"},"geometry":{"type":"LineString","coordinates":[[139.88097,35.7571],[139.88073,35.75774]]}},{"type":"Feature","properties":{"idx":272,"road":"堀切橋金町浄水場線","cls":"tertiary","shops":0,"st_km":0.38,"mesh":"53395710"},"geometry":{"type":"LineString","coordinates":[[139.88035,35.75965],[139.87894,35.75897],[139.877,35.75845],[139.87618,35.75799]]}},{"type":"Feature","properties":{"idx":254,"road":"江戸川堤防線","cls":"secondary","shops":0,"st_km":0.57,"mesh":"53395710"},"geometry":{"type":"LineString","coordinates":[[139.88073,35.75774],[139.88065,35.75821],[139.88065,35.759],[139.88058,35.75958],[139.88046,35.76016],[139.88029,35.7606]]}},{"type":"Feature","properties":{"idx":235,"road":NaN,"cls":"tertiary","shops":1,"st_km":1.79,"mesh":"53395740"},"geometry":{"type":"LineString","coordinates":[[139.88131,35.78409],[139.88108,35.78408],[139.88077,35.78395]]}},{"type":"Feature","properties":{"idx":389,"road":NaN,"cls":"tertiary","shops":1,"st_km":2.51,"mesh":"53395760"},"geometry":{"type":"LineString","coordinates":[[139.87796,35.8023],[139.87823,35.80225],[139.87825,35.80199],[139.87833,35.80192],[139.88226,35.80194],[139.88418,35.80187]]}},{"type":"Feature","properties":{"idx":112,"road":"松戸草加線","cls":"primary","shops":0,"st_km":1.61,"mesh":"53395730"},"geometry":{"type":"LineString","coordinates":[[139.88128,35.78172],[139.8823,35.78042],[139.88281,35.7795],[139.88317,35.77843]]}},{"type":"Feature","properties":{"idx":129,"road":NaN,"cls":"tertiary","shops":0,"st_km":0.97,"mesh":"53395780"},"geometry":{"type":"LineString","coordinates":[[139.8855,35.81764],[139.88542,35.81812]]}},{"type":"Feature","properties":{"idx":166,"road":NaN,"cls":"tertiary","shops":0,"st_km":0.68,"mesh":"53395780"},"geometry":{"type":"LineString","coordinates":[[139.88539,35.81834],[139.88483,35.82201],[139.88458,35.82245],[139.88369,35.8244]]}},{"type":"Feature","properties":{"idx":779,"road":"三郷松伏線","cls":"primary","shops":2,"st_km":1.97,"mesh":"53395760"},"geometry":{"type":"LineString","coordinates":[[139.88359,35.81757],[139.88367,35.81641],[139.88376,35.81085],[139.88403,35.80326],[139.8842,35.80174],[139.88491,35.79856],[139.88486,35.79735],[139.885,35.79704]]}},{"type":"Feature","properties":{"idx":174,"road":"三郷松伏線","cls":"primary","shops":0,"st_km":0.88,"mesh":"53395780"},"geometry":{"type":"LineString","coordinates":[[139.88355,35.81804],[139.88359,35.81757]]}},{"type":"Feature","properties":{"idx":215,"road":NaN,"cls":"tertiary","shops":0,"st_km":0.4,"mesh":"53395780"},"geometry":{"type":"LineString","coordinates":[[139.88049,35.82198],[139.88315,35.82231]]}},{"type":"Feature","properties":{"idx":177,"road":NaN,"cls":"tertiary","shops":0,"st_km":0.61,"mesh":"53395780"},"geometry":{"type":"LineString","coordinates":[[139.88346,35.82232],[139.88574,35.82259]]}},{"type":"Feature","properties":{"idx":163,"road":NaN,"cls":"tertiary","shops":0,"st_km":2.12,"mesh":"53395750"},"geometry":{"type":"LineString","coordinates":[[139.87913,35.7947],[139.87928,35.79468],[139.87936,35.79461],[139.87984,35.79386],[139.87994,35.79357],[139.87997,35.79311],[139.87985,35.79195]]}},{"type":"Feature","properties":{"idx":171,"road":NaN,"cls":"tertiary","shops":0,"st_km":0.64,"mesh":"53395780"},"geometry":{"type":"LineString","coordinates":[[139.87585,35.81866],[139.87826,35.81893]]}},{"type":"Feature","properties":{"idx":179,"road":NaN,"cls":"tertiary","shops":0,"st_km":0.6,"mesh":"53395780"},"geometry":{"type":"LineString","coordinates":[[139.87585,35.81866],[139.87556,35.8205]]}},{"type":"Feature","properties":{"idx":292,"road":NaN,"cls":"tertiary","shops":0,"st_km":0.11,"mesh":"53395780"},"geometry":{"type":"LineString","coordinates":[[139.87693,35.82495],[139.87766,35.82319]]}},{"type":"Feature","properties":{"idx":671,"road":NaN,"cls":"tertiary","shops":1,"st_km":0.22,"mesh":"53395790"},"geometry":{"type":"LineString","coordinates":[[139.88064,35.82642],[139.87879,35.82577]]}},{"type":"Feature","properties":{"idx":154,"road":NaN,"cls":"tertiary","shops":0,"st_km":0.76,"mesh":"53395780"},"geometry":{"type":"LineString","coordinates":[[139.88063,35.8182],[139.88063,35.8175]]}},{"type":"Feature","properties":{"idx":464,"road":NaN,"cls":"tertiary","shops":1,"st_km":1.99,"mesh":"53395760"},"geometry":{"type":"LineString","coordinates":[[139.88063,35.8175],[139.88092,35.8004],[139.881,35.79994],[139.88118,35.79941],[139.88254,35.79676],[139.88271,35.796]]}},{"type":"Feature","properties":{"idx":176,"road":NaN,"cls":"tertiary","shops":0,"st_km":0.62,"mesh":"53395780"},"geometry":{"type":"LineString","coordinates":[[139.87826,35.81893],[139.87849,35.81895]]}},{"type":"Feature","properties":{"idx":391,"road":"上笹塚谷口線","cls":"secondary","shops":0,"st_km":0.47,"mesh":"53395790"},"geometry":{"type":"LineString","coordinates":[[139.87619,35.82838],[139.87505,35.82775]]}},{"type":"Feature","properties":{"idx":171,"road":NaN,"cls":"tertiary","shops":0,"st_km":0.65,"mesh":"53395780"},"geometry":{"type":"LineString","coordinates":[[139.87849,35.81895],[139.88195,35.81907],[139.88341,35.81907]]}},{"type":"Feature","properties":{"idx":225,"road":NaN,"cls":"tertiary","shops":0,"st_km":0.36,"mesh":"53395780"},"geometry":{"type":"LineString","coordinates":[[139.87729,35.8213],[139.87751,35.82138]]}},{"type":"Feature","properties":{"idx":238,"road":NaN,"cls":"tertiary","shops":0,"st_km":0.3,"mesh":"53395780"},"geometry":{"type":"LineString","coordinates":[[139.87827,35.82165],[139.87936,35.82187],[139.88039,35.82196]]}},{"type":"Feature","properties":{"idx":395,"road":NaN,"cls":"tertiary","shops":1,"st_km":0.2,"mesh":"53395780"},"geometry":{"type":"LineString","coordinates":[[139.87623,35.82466],[139.87602,35.82459]]}},{"type":"Feature","properties":{"idx":632,"road":NaN,"cls":"tertiary","shops":0,"st_km":1.59,"mesh":"53395770"},"geometry":{"type":"LineString","coordinates":[[139.87701,35.81022],[139.87718,35.81017]]}},{"type":"Feature","properties":{"idx":581,"road":NaN,"cls":"tertiary","shops":0,"st_km":1.74,"mesh":"53395770"},"geometry":{"type":"LineString","coordinates":[[139.87718,35.81017],[139.8797,35.80922],[139.88386,35.80751]]}},{"type":"Feature","properties":{"idx":681,"road":NaN,"cls":"tertiary","shops":3,"st_km":2.36,"mesh":"53395760"},"geometry":{"type":"LineString","coordinates":[[139.88451,35.80204],[139.88675,35.8022]]}},{"type":"Feature","properties":{"idx":475,"road":"金町線","cls":"secondary","shops":1,"st_km":0.81,"mesh":"53395720"},"geometry":{"type":"LineString","coordinates":[[139.87636,35.77143],[139.87821,35.77562],[139.87843,35.77595],[139.87888,35.77634]]}},{"type":"Feature","properties":{"idx":123,"road":NaN,"cls":"tertiary","shops":0,"st_km":2.29,"mesh":"53395740"},"geometry":{"type":"LineString","coordinates":[[139.87755,35.78519],[139.87716,35.78552],[139.87595,35.78683],[139.87573,35.78727],[139.8756,35.78766],[139.87559,35.78784],[139.87575,35.7888],[139.87593,35.78948],[139.87614,35.79143],[139.8764,35.79193],[139.87682,35.79218],[139.87732,35.79257],[139.8778,35.79332],[139.87786,35.7938],[139.87823,35.79402]]}},{"type":"Feature","properties":{"idx":644,"road":NaN,"cls":"tertiary","shops":0,"st_km":1.56,"mesh":"53395770"},"geometry":{"type":"LineString","coordinates":[[139.88068,35.81502],[139.87839,35.8097],[139.8769,35.80696],[139.87687,35.80686],[139.87709,35.80593]]}},{"type":"Feature","properties":{"idx":276,"road":NaN,"cls":"tertiary","shops":0,"st_km":0.83,"mesh":"53395720"},"geometry":{"type":"LineString","coordinates":[[139.87791,35.77157],[139.87832,35.77262],[139.87853,35.77283],[139.87959,35.77309],[139.88027,35.77339]]}},{"type":"Feature","properties":{"idx":136,"road":NaN,"cls":"tertiary","shops":0,"st_km":2.7,"mesh":"53395750"},"geometry":{"type":"LineString","coordinates":[[139.87744,35.79525],[139.87736,35.79548],[139.87667,35.79589],[139.87576,35.79656],[139.87546,35.79682],[139.87516,35.79722],[139.87436,35.79786],[139.87386,35.79808],[139.87308,35.79825],[139.87247,35.79833]]}},{"type":"Feature","properties":{"idx":131,"road":NaN,"cls":"tertiary","shops":0,"st_km":2.74,"mesh":"53395750"},"geometry":{"type":"LineString","coordinates":[[139.87325,35.801],[139.87389,35.80084],[139.87604,35.7993],[139.87653,35.79884],[139.87663,35.79867],[139.87659,35.79859]]}},{"type":"Feature","properties":{"idx":149,"road":NaN,"cls":"tertiary","shops":0,"st_km":2.36,"mesh":"53395750"},"geometry":{"type":"LineString","coordinates":[[139.87869,35.79551],[139.87845,35.796]]}},{"type":"Feature","properties":{"idx":342,"road":NaN,"cls":"tertiary","shops":0,"st_km":0.59,"mesh":"53395720"},"geometry":{"type":"LineString","coordinates":[[139.87643,35.77134],[139.87691,35.77086]]}},{"type":"Feature","properties":{"idx":100,"road":NaN,"cls":"tertiary","shops":0,"st_km":1.47,"mesh":"53395730"},"geometry":{"type":"LineString","coordinates":[[139.88571,35.7796],[139.88563,35.77976]]}},{"type":"Feature","properties":{"idx":214,"road":NaN,"cls":"pedestrian","shops":0,"st_km":1.8,"mesh":"53395740"},"geometry":{"type":"LineString","coordinates":[[139.88113,35.78767],[139.88122,35.78768],[139.88123,35.78774]]}},{"type":"Feature","properties":{"idx":168,"road":NaN,"cls":"tertiary","shops":0,"st_km":2.06,"mesh":"53395750"},"geometry":{"type":"LineString","coordinates":[[139.88271,35.796],[139.88272,35.79576]]}},{"type":"Feature","properties":{"idx":156,"road":NaN,"cls":"tertiary","shops":0,"st_km":2.24,"mesh":"53395750"},"geometry":{"type":"LineString","coordinates":[[139.87823,35.79402],[139.87827,35.79314],[139.87836,35.79277],[139.87886,35.79202]]}},{"type":"Feature","properties":{"idx":147,"road":NaN,"cls":"tertiary","shops":0,"st_km":2.41,"mesh":"53395750"},"geometry":{"type":"LineString","coordinates":[[139.87744,35.79525],[139.87749,35.79498]]}},{"type":"Feature","properties":{"idx":495,"road":NaN,"cls":"tertiary","shops":0,"st_km":0.12,"mesh":"53395790"},"geometry":{"type":"LineString","coordinates":[[139.87687,35.82503],[139.87867,35.82578]]}},{"type":"Feature","properties":{"idx":262,"road":NaN,"cls":"tertiary","shops":0,"st_km":0.21,"mesh":"53395780"},"geometry":{"type":"LineString","coordinates":[[139.87597,35.82467],[139.8762,35.82475]]}},{"type":"Feature","properties":{"idx":235,"road":NaN,"cls":"tertiary","shops":0,"st_km":0.31,"mesh":"53395780"},"geometry":{"type":"LineString","coordinates":[[139.88039,35.82196],[139.87993,35.82183],[139.87896,35.82171],[139.87831,35.82155]]}},{"type":"Feature","properties":{"idx":223,"road":NaN,"cls":"tertiary","shops":0,"st_km":0.37,"mesh":"53395780"},"geometry":{"type":"LineString","coordinates":[[139.87755,35.8213],[139.87733,35.82122]]}},{"type":"Feature","properties":{"idx":209,"road":NaN,"cls":"pedestrian","shops":0,"st_km":1.84,"mesh":"53395740"},"geometry":{"type":"LineString","coordinates":[[139.88092,35.78765],[139.88058,35.78771]]}},{"type":"Feature","properties":{"idx":706,"road":"王子金町市川線","cls":"primary","shops":1,"st_km":0.5,"mesh":"53395720"},"geometry":{"type":"LineString","coordinates":[[139.87643,35.77134],[139.87552,35.76929],[139.87523,35.76899],[139.87487,35.76878]]}},{"type":"Feature","properties":{"idx":711,"road":"王子金町市川線","cls":"primary","shops":1,"st_km":0.49,"mesh":"53395720"},"geometry":{"type":"LineString","coordinates":[[139.87481,35.76886],[139.87516,35.76907],[139.8754,35.76933],[139.87636,35.77143]]}},{"type":"Feature","properties":{"idx":305,"road":"松戸草加線","cls":"primary","shops":1,"st_km":1.72,"mesh":"53395740"},"geometry":{"type":"LineString","coordinates":[[139.88229,35.78457],[139.88131,35.78409]]}},{"type":"Feature","properties":{"idx":554,"road":"松戸草加線","cls":"primary","shops":3,"st_km":1.57,"mesh":"53395740"},"geometry":{"type":"LineString","coordinates":[[139.88439,35.78556],[139.88244,35.78464]]}},{"type":"Feature","properties":{"idx":131,"road":"松戸草加線","cls":"primary","shops":0,"st_km":1.41,"mesh":"53395730"},"geometry":{"type":"LineString","coordinates":[[139.88571,35.7796],[139.88648,35.77967],[139.88712,35.77954]]}},{"type":"Feature","properties":{"idx":116,"road":"松戸草加線","cls":"primary","shops":0,"st_km":1.6,"mesh":"53395730"},"geometry":{"type":"LineString","coordinates":[[139.88573,35.77955],[139.88533,35.77941],[139.88322,35.77836]]}},{"type":"Feature","properties":{"idx":971,"road":"松戸草加線","cls":"primary","shops":0,"st_km":1.33,"mesh":"53395731"},"geometry":{"type":"LineString","coordinates":[[139.88712,35.77954],[139.88764,35.77933],[139.88802,35.77908]]}},{"type":"Feature","properties":{"idx":969,"road":"松戸草加線","cls":"primary","shops":0,"st_km":1.33,"mesh":"53395731"},"geometry":{"type":"LineString","coordinates":[[139.88798,35.77905],[139.88764,35.77929],[139.88711,35.7795]]}},{"type":"Feature","properties":{"idx":132,"road":"江戸川堤防線","cls":"secondary","shops":0,"st_km":1.2,"mesh":"53395730"},"geometry":{"type":"LineString","coordinates":[[139.88811,35.77898],[139.88393,35.77664],[139.88264,35.77574],[139.88163,35.77489],[139.88057,35.77377],[139.87983,35.77277],[139.87903,35.77138],[139.87843,35.77007],[139.87798,35.76948]]}},{"type":"Feature","properties":{"idx":123,"road":"江戸川堤防線","cls":"secondary","shops":0,"st_km":0.49,"mesh":"53395700"},"geometry":{"type":"LineString","coordinates":[[139.89077,35.74651],[139.89055,35.74672],[139.88936,35.74745],[139.88809,35.7484],[139.88743,35.74893],[139.88669,35.74966],[139.88377,35.75317],[139.88121,35.75668],[139.88097,35.7571]]}},{"type":"Feature","properties":{"idx":475,"road":"金町線","cls":"secondary","shops":1,"st_km":0.81,"mesh":"53395720"},"geometry":{"type":"LineString","coordinates":[[139.87894,35.77628],[139.8786,35.776],[139.8783,35.77558],[139.87643,35.77134]]}},{"type":"Feature","properties":{"idx":349,"road":NaN,"cls":"tertiary","shops":2,"st_km":0.62,"mesh":"53395780"},"geometry":{"type":"LineString","coordinates":[[139.88063,35.8182],[139.88059,35.82017]]}},{"type":"Feature","properties":{"idx":282,"road":"三郷松伏線","cls":"primary","shops":0,"st_km":0.95,"mesh":"53395790"},"geometry":{"type":"LineString","coordinates":[[139.88215,35.8411],[139.88247,35.84062],[139.8827,35.84036],[139.88312,35.84005],[139.88355,35.8398],[139.88384,35.83954],[139.88405,35.83923],[139.88414,35.83884],[139.88355,35.8332],[139.88284,35.82723],[139.88286,35.82576],[139.88315,35.82231]]}},{"type":"Feature","properties":{"idx":501,"road":NaN,"cls":"tertiary","shops":0,"st_km":0.11,"mesh":"53395790"},"geometry":{"type":"LineString","coordinates":[[139.87879,35.82577],[139.87873,35.82568],[139.87736,35.82516],[139.87693,35.82495]]}},{"type":"Feature","properties":{"idx":225,"road":NaN,"cls":"pedestrian","shops":1,"st_km":1.31,"mesh":"53395730"},"geometry":{"type":"LineString","coordinates":[[139.87404,35.7807],[139.8751,35.78046],[139.87557,35.78049],[139.8763,35.78042],[139.877,35.78028],[139.87718,35.78034]]}},{"type":"Feature","properties":{"idx":125,"road":NaN,"cls":"pedestrian","shops":0,"st_km":1.59,"mesh":"53395730"},"geometry":{"type":"LineString","coordinates":[[139.87792,35.78063],[139.87784,35.7809],[139.88026,35.78145],[139.88037,35.78111],[139.87868,35.78063],[139.87866,35.7805],[139.87802,35.78055],[139.87792,35.78063]]}},{"type":"Feature","properties":{"idx":135,"road":NaN,"cls":"pedestrian","shops":0,"st_km":1.46,"mesh":"53395730"},"geometry":{"type":"LineString","coordinates":[[139.87854,35.78106],[139.87868,35.78063]]}},{"type":"Feature","properties":{"idx":131,"road":NaN,"cls":"pedestrian","shops":0,"st_km":1.51,"mesh":"53395730"},"geometry":{"type":"LineString","coordinates":[[139.87921,35.78121],[139.87937,35.78083]]}},{"type":"Feature","properties":{"idx":128,"road":NaN,"cls":"pedestrian","shops":0,"st_km":1.55,"mesh":"53395730"},"geometry":{"type":"LineString","coordinates":[[139.87979,35.78134],[139.87993,35.78099]]}},{"type":"Feature","properties":{"idx":123,"road":NaN,"cls":"pedestrian","shops":0,"st_km":1.61,"mesh":"53395730"},"geometry":{"type":"LineString","coordinates":[[139.88038,35.78169],[139.88045,35.78149],[139.88026,35.78145]]}},{"type":"Feature","properties":{"idx":125,"road":NaN,"cls":"pedestrian","shops":0,"st_km":1.59,"mesh":"53395730"},"geometry":{"type":"LineString","coordinates":[[139.88041,35.78148],[139.88046,35.78131],[139.88102,35.78072]]}},{"type":"Feature","properties":{"idx":126,"road":NaN,"cls":"pedestrian","shops":0,"st_km":1.58,"mesh":"53395730"},"geometry":{"type":"LineString","coordinates":[[139.88061,35.78116],[139.88037,35.78111]]}},{"type":"Feature","properties":{"idx":137,"road":NaN,"cls":"pedestrian","shops":0,"st_km":1.44,"mesh":"53395730"},"geometry":{"type":"LineString","coordinates":[[139.87866,35.7805],[139.87956,35.78034]]}},{"type":"Feature","properties":{"idx":129,"road":NaN,"cls":"pedestrian","shops":0,"st_km":1.53,"mesh":"53395730"},"geometry":{"type":"LineString","coordinates":[[139.88301,35.77855],[139.8824,35.77919],[139.88219,35.77919],[139.88171,35.77954],[139.8816,35.77984],[139.88143,35.78007],[139.88105,35.78032],[139.88074,35.78034],[139.88045,35.78042],[139.87956,35.78034]]}},{"type":"Feature","properties":{"idx":255,"road":"三郷松伏線","cls":"primary","shops":0,"st_km":1.67,"mesh":"53395750"},"geometry":{"type":"LineString","coordinates":[[139.88518,35.7968],[139.88529,35.79662],[139.88533,35.79642],[139.88519,35.79291],[139.88505,35.79164],[139.88455,35.78838]]}},{"type":"Feature","properties":{"idx":218,"road":"三郷松伏線","cls":"primary","shops":0,"st_km":1.97,"mesh":"53395750"},"geometry":{"type":"LineString","coordinates":[[139.885,35.79704],[139.88518,35.7968]]}},{"type":"Feature","properties":{"idx":668,"road":"上笹塚谷口線","cls":"secondary","shops":3,"st_km":0.89,"mesh":"53395790"},"geometry":{"type":"LineString","coordinates":[[139.87886,35.83641],[139.87869,35.83577],[139.87855,35.83484],[139.87814,35.83021],[139.87792,35.8297],[139.87771,35.82941],[139.8775,35.82919],[139.87705,35.82886]]}},{"type":"Feature","properties":{"idx":195,"road":NaN,"cls":"tertiary","shops":0,"st_km":0.5,"mesh":"53395780"},"geometry":{"type":"LineString","coordinates":[[139.87557,35.82064],[139.87556,35.8205]]}},{"type":"Feature","properties":{"idx":387,"road":"上笹塚谷口線","cls":"secondary","shops":0,"st_km":0.48,"mesh":"53395790"},"geometry":{"type":"LineString","coordinates":[[139.87619,35.82838],[139.87639,35.82849]]}},{"type":"Feature","properties":{"idx":388,"road":"上笹塚谷口線","cls":"secondary","shops":0,"st_km":0.47,"mesh":"53395790"},"geometry":{"type":"LineString","coordinates":[[139.87639,35.82849],[139.87619,35.82838]]}},{"type":"Feature","properties":{"idx":314,"road":NaN,"cls":"tertiary","shops":0,"st_km":0.57,"mesh":"53395790"},"geometry":{"type":"LineString","coordinates":[[139.88162,35.82891],[139.88151,35.82899]]}},{"type":"Feature","properties":{"idx":175,"road":NaN,"cls":"tertiary","shops":0,"st_km":1.6,"mesh":"53395740"},"geometry":{"type":"LineString","coordinates":[[139.88353,35.78722],[139.88353,35.78766],[139.88375,35.78766]]}},{"type":"Feature","properties":{"idx":144,"road":NaN,"cls":"tertiary","shops":0,"st_km":2.47,"mesh":"53395750"},"geometry":{"type":"LineString","coordinates":[[139.87962,35.79891],[139.87962,35.79852]]}},{"type":"Feature","properties":{"idx":161,"road":"松戸三郷線","cls":"secondary","shops":0,"st_km":2.5,"mesh":"53395750"},"geometry":{"type":"LineString","coordinates":[[139.87887,35.79842],[139.87898,35.79844]]}},{"type":"Feature","properties":{"idx":315,"road":NaN,"cls":"tertiary","shops":2,"st_km":0.84,"mesh":"53395730"},"geometry":{"type":"LineString","coordinates":[[139.87299,35.77473],[139.87319,35.77483],[139.87771,35.77616],[139.87888,35.77634]]}},{"type":"Feature","properties":{"idx":195,"road":NaN,"cls":"tertiary","shops":0,"st_km":0.5,"mesh":"53395780"},"geometry":{"type":"LineString","coordinates":[[139.87556,35.8205],[139.87546,35.82069]]}},{"type":"Feature","properties":{"idx":491,"road":"松戸草加線","cls":"primary","shops":1,"st_km":2.48,"mesh":"53395760"},"geometry":{"type":"LineString","coordinates":[[139.87796,35.8023],[139.87361,35.80224]]}},{"type":"Feature","properties":{"idx":573,"road":NaN,"cls":"tertiary","shops":2,"st_km":2.21,"mesh":"53395760"},"geometry":{"type":"LineString","coordinates":[[139.88675,35.8022],[139.88734,35.80185],[139.88795,35.80181]]}},{"type":"Feature","properties":{"idx":152,"road":NaN,"cls":"tertiary","shops":0,"st_km":2.32,"mesh":"53395750"},"geometry":{"type":"LineString","coordinates":[[139.8823,35.79994],[139.88346,35.79995],[139.88455,35.80015]]}},{"type":"Feature","properties":{"idx":758,"road":NaN,"cls":"tertiary","shops":0,"st_km":1.3,"mesh":"53395770"},"geometry":{"type":"LineString","coordinates":[[139.8855,35.81764],[139.88567,35.81658],[139.88574,35.81122],[139.8858,35.81113]]}},{"type":"Feature","properties":{"idx":328,"road":"松戸草加線","cls":"primary","shops":0,"st_km":2.47,"mesh":"53395760"},"geometry":{"type":"LineString","coordinates":[[139.87361,35.80232],[139.87744,35.80235],[139.87796,35.8023]]}},{"type":"Feature","properties":{"idx":136,"road":NaN,"cls":"tertiary","shops":0,"st_km":2.69,"mesh":"53395750"},"geometry":{"type":"LineString","coordinates":[[139.87694,35.79927],[139.87768,35.79975],[139.87781,35.79978]]}},{"type":"Feature","properties":{"idx":168,"road":NaN,"cls":"tertiary","shops":0,"st_km":2.06,"mesh":"53395750"},"geometry":{"type":"LineString","coordinates":[[139.87985,35.79195],[139.87981,35.7917]]}},{"type":"Feature","properties":{"idx":415,"road":NaN,"cls":"tertiary","shops":1,"st_km":2.29,"mesh":"53395760"},"geometry":{"type":"LineString","coordinates":[[139.87811,35.80391],[139.88402,35.80395]]}},{"type":"Feature","properties":{"idx":625,"road":"柴又街道","cls":"secondary","shops":5,"st_km":0.11,"mesh":"53395700"},"geometry":{"type":"LineString","coordinates":[[139.87875,35.75117],[139.87926,35.75001]]}},{"type":"Feature","properties":{"idx":336,"road":"松戸三郷線","cls":"secondary","shops":2,"st_km":2.36,"mesh":"53395750"},"geometry":{"type":"LineString","coordinates":[[139.87898,35.79844],[139.87962,35.79852],[139.88325,35.79857]]}},{"type":"Feature","properties":{"idx":93,"road":NaN,"cls":"tertiary","shops":0,"st_km":1.6,"mesh":"53395730"},"geometry":{"type":"LineString","coordinates":[[139.88408,35.78173],[139.88255,35.78387],[139.88253,35.78398],[139.88259,35.7841]]}},{"type":"Feature","properties":{"idx":144,"road":NaN,"cls":"tertiary","shops":0,"st_km":2.48,"mesh":"53395750"},"geometry":{"type":"LineString","coordinates":[[139.87727,35.79777],[139.87845,35.796]]}},{"type":"Feature","properties":{"idx":139,"road":NaN,"cls":"tertiary","shops":0,"st_km":0.27,"mesh":"53395700"},"geometry":{"type":"LineString","coordinates":[[139.87674,35.75641],[139.87443,35.75168]]}},{"type":"Feature","properties":{"idx":310,"road":NaN,"cls":"tertiary_link","shops":4,"st_km":0.07,"mesh":"53395700"},"geometry":{"type":"LineString","coordinates":[[139.87905,35.75122],[139.87907,35.75134]]}},{"type":"Feature","properties":{"idx":132,"road":NaN,"cls":"tertiary","shops":0,"st_km":0.29,"mesh":"53395700"},"geometry":{"type":"LineString","coordinates":[[139.87757,35.75232],[139.87745,35.75241],[139.87634,35.75278]]}},{"type":"Feature","properties":{"idx":292,"road":NaN,"cls":"tertiary","shops":2,"st_km":0.19,"mesh":"53395700"},"geometry":{"type":"LineString","coordinates":[[139.8778,35.75244],[139.87789,35.7523],[139.87814,35.75222],[139.87829,35.75224]]}},{"type":"Feature","properties":{"idx":986,"road":"松戸草加線","cls":"primary","shops":0,"st_km":1.31,"mesh":"53395731"},"geometry":{"type":"LineString","coordinates":[[139.88802,35.77908],[139.88811,35.77898]]}},{"type":"Feature","properties":{"idx":984,"road":"松戸草加線","cls":"primary","shops":0,"st_km":1.31,"mesh":"53395731"},"geometry":{"type":"LineString","coordinates":[[139.88811,35.77898],[139.88798,35.77905]]}},{"type":"Feature","properties":{"idx":203,"road":"江戸川堤防線","cls":"secondary","shops":0,"st_km":0.88,"mesh":"53395710"},"geometry":{"type":"LineString","coordinates":[[139.87787,35.76921],[139.87774,35.76822],[139.87794,35.76755],[139.87804,35.767],[139.87821,35.76661],[139.87895,35.76533],[139.87932,35.76451],[139.87947,35.7639],[139.87951,35.76289],[139.87957,35.7625],[139.87976,35.7619],[139.88029,35.7606]]}},{"type":"Feature","properties":{"idx":354,"road":"江戸川堤防線","cls":"secondary","shops":0,"st_km":0.68,"mesh":"53395720"},"geometry":{"type":"LineString","coordinates":[[139.87798,35.76948],[139.87793,35.76938]]}},{"type":"Feature","properties":{"idx":355,"road":"江戸川堤防線","cls":"secondary","shops":0,"st_km":0.68,"mesh":"53395720"},"geometry":{"type":"LineString","coordinates":[[139.87793,35.76938],[139.87791,35.76933]]}},{"type":"Feature","properties":{"idx":356,"road":"江戸川堤防線","cls":"secondary","shops":0,"st_km":0.68,"mesh":"53395720"},"geometry":{"type":"LineString","coordinates":[[139.87791,35.76933],[139.87787,35.76921]]}},{"type":"Feature","properties":{"idx":130,"road":NaN,"cls":"tertiary","shops":0,"st_km":2.81,"mesh":"53395750"},"geometry":{"type":"LineString","coordinates":[[139.87375,35.79942],[139.87465,35.79942],[139.8755,35.79923],[139.87611,35.79894],[139.87659,35.79859]]}},{"type":"Feature","properties":{"idx":1742,"road":"帝釈天参道","cls":"pedestrian","shops":14,"st_km":0.14,"mesh":"53395700"},"geometry":{"type":"LineString","coordinates":[[139.87632,35.75756],[139.87601,35.75739]]}},{"type":"Feature","properties":{"idx":207,"road":NaN,"cls":"tertiary","shops":1,"st_km":2.63,"mesh":"53395750"},"geometry":{"type":"LineString","coordinates":[[139.87659,35.79859],[139.87698,35.79819],[139.87727,35.79777]]}},{"type":"Feature","properties":{"idx":650,"road":"王子金町市川線","cls":"primary","shops":1,"st_km":0.58,"mesh":"53395720"},"geometry":{"type":"LineString","coordinates":[[139.87636,35.77143],[139.87643,35.77134]]}},{"type":"Feature","properties":{"idx":181,"road":NaN,"cls":"tertiary","shops":0,"st_km":0.59,"mesh":"53395780"},"geometry":{"type":"LineString","coordinates":[[139.87853,35.81895],[139.87831,35.81946]]}},{"type":"Feature","properties":{"idx":383,"road":NaN,"cls":"tertiary","shops":1,"st_km":0.23,"mesh":"53395780"},"geometry":{"type":"LineString","coordinates":[[139.87766,35.82319],[139.87827,35.82165]]}},{"type":"Feature","properties":{"idx":234,"road":NaN,"cls":"tertiary","shops":0,"st_km":0.32,"mesh":"53395780"},"geometry":{"type":"LineString","coordinates":[[139.87827,35.82165],[139.87831,35.82155]]}},{"type":"Feature","properties":{"idx":229,"road":NaN,"cls":"tertiary","shops":0,"st_km":0.34,"mesh":"53395780"},"geometry":{"type":"LineString","coordinates":[[139.87831,35.82155],[139.87755,35.8213]]}},{"type":"Feature","properties":{"idx":231,"road":NaN,"cls":"tertiary","shops":0,"st_km":0.33,"mesh":"53395780"},"geometry":{"type":"LineString","coordinates":[[139.87751,35.82138],[139.87827,35.82165]]}},{"type":"Feature","properties":{"idx":209,"road":NaN,"cls":"tertiary","shops":0,"st_km":0.43,"mesh":"53395780"},"geometry":{"type":"LineString","coordinates":[[139.87733,35.82122],[139.87557,35.82064]]}},{"type":"Feature","properties":{"idx":210,"road":NaN,"cls":"tertiary","shops":0,"st_km":0.43,"mesh":"53395780"},"geometry":{"type":"LineString","coordinates":[[139.87546,35.82069],[139.87729,35.8213]]}},{"type":"Feature","properties":{"idx":177,"road":"松戸草加線","cls":"primary","shops":1,"st_km":1.52,"mesh":"53395730"},"geometry":{"type":"LineString","coordinates":[[139.88317,35.77843],[139.88322,35.77836]]}},{"type":"Feature","properties":{"idx":282,"road":NaN,"cls":"tertiary","shops":0,"st_km":0.14,"mesh":"53395780"},"geometry":{"type":"LineString","coordinates":[[139.87879,35.82577],[139.88011,35.82313],[139.88035,35.82251],[139.88049,35.82198]]}},{"type":"Feature","properties":{"idx":284,"road":NaN,"cls":"tertiary","shops":0,"st_km":0.13,"mesh":"53395780"},"geometry":{"type":"LineString","coordinates":[[139.88039,35.82196],[139.88026,35.82249],[139.88001,35.8231],[139.87867,35.82578]]}},{"type":"Feature","properties":{"idx":949,"road":"上笹塚谷口線","cls":"secondary","shops":3,"st_km":0.5,"mesh":"53395790"},"geometry":{"type":"LineString","coordinates":[[139.87705,35.82886],[139.87697,35.82881]]}},{"type":"Feature","properties":{"idx":576,"road":"上笹塚谷口線","cls":"secondary","shops":1,"st_km":0.49,"mesh":"53395790"},"geometry":{"type":"LineString","coordinates":[[139.87697,35.82881],[139.87639,35.82849]]}},{"type":"Feature","properties":{"idx":420,"road":NaN,"cls":"tertiary","shops":1,"st_km":0.14,"mesh":"53395780"},"geometry":{"type":"LineString","coordinates":[[139.87687,35.82503],[139.87693,35.82495]]}},{"type":"Feature","properties":{"idx":408,"road":NaN,"cls":"tertiary","shops":1,"st_km":0.17,"mesh":"53395780"},"geometry":{"type":"LineString","coordinates":[[139.8762,35.82475],[139.87687,35.82503]]}},{"type":"Feature","properties":{"idx":548,"road":NaN,"cls":"tertiary","shops":2,"st_km":0.17,"mesh":"53395780"},"geometry":{"type":"LineString","coordinates":[[139.87693,35.82495],[139.87623,35.82466]]}},{"type":"Feature","properties":{"idx":403,"road":NaN,"cls":"tertiary","shops":0,"st_km":0.32,"mesh":"53395790"},"geometry":{"type":"LineString","coordinates":[[139.87867,35.82578],[139.87805,35.8271],[139.87697,35.82881]]}},{"type":"Feature","properties":{"idx":403,"road":NaN,"cls":"tertiary","shops":0,"st_km":0.32,"mesh":"53395790"},"geometry":{"type":"LineString","coordinates":[[139.87705,35.82886],[139.87806,35.82722],[139.87879,35.82577]]}},{"type":"Feature","properties":{"idx":131,"road":"松戸草加線","cls":"primary","shops":0,"st_km":1.41,"mesh":"53395730"},"geometry":{"type":"LineString","coordinates":[[139.88711,35.7795],[139.88649,35.77962],[139.88573,35.77955]]}},{"type":"Feature","properties":{"idx":116,"road":"松戸草加線","cls":"primary","shops":0,"st_km":1.6,"mesh":"53395730"},"geometry":{"type":"LineString","coordinates":[[139.88317,35.77843],[139.8853,35.77945],[139.88571,35.7796]]}},{"type":"Feature","properties":{"idx":210,"road":"松戸草加線","cls":"primary","shops":0,"st_km":1.67,"mesh":"53395740"},"geometry":{"type":"LineString","coordinates":[[139.88244,35.78464],[139.88229,35.78457]]}},{"type":"Feature","properties":{"idx":262,"road":NaN,"cls":"tertiary","shops":1,"st_km":1.6,"mesh":"53395740"},"geometry":{"type":"LineString","coordinates":[[139.88306,35.78494],[139.88306,35.78419],[139.88361,35.78338],[139.8835,35.78331]]}},{"type":"Feature","properties":{"idx":232,"road":"松戸草加線","cls":"primary","shops":0,"st_km":1.5,"mesh":"53395740"},"geometry":{"type":"LineString","coordinates":[[139.88455,35.78838],[139.88439,35.78556]]}},{"type":"Feature","properties":{"idx":100,"road":NaN,"cls":"tertiary","shops":0,"st_km":1.47,"mesh":"53395730"},"geometry":{"type":"LineString","coordinates":[[139.88573,35.77955],[139.88571,35.7796]]}},{"type":"Feature","properties":{"idx":194,"road":NaN,"cls":"tertiary","shops":0,"st_km":0.51,"mesh":"53395780"},"geometry":{"type":"LineString","coordinates":[[139.88321,35.82231],[139.88346,35.82232]]}},{"type":"Feature","properties":{"idx":196,"road":NaN,"cls":"tertiary","shops":0,"st_km":0.5,"mesh":"53395780"},"geometry":{"type":"LineString","coordinates":[[139.88315,35.82231],[139.88321,35.82231]]}},{"type":"Feature","properties":{"idx":214,"road":"三郷松伏線","cls":"primary","shops":0,"st_km":0.64,"mesh":"53395780"},"geometry":{"type":"LineString","coordinates":[[139.88315,35.82231],[139.88333,35.81984],[139.88352,35.81826]]}},{"type":"Feature","properties":{"idx":187,"road":NaN,"cls":"tertiary","shops":0,"st_km":1.83,"mesh":"53395750"},"geometry":{"type":"LineString","coordinates":[[139.88272,35.79576],[139.88299,35.79132],[139.88244,35.78902]]}},{"type":"Feature","properties":{"idx":214,"road":"松戸草加線","cls":"primary","shops":0,"st_km":1.63,"mesh":"53395740"},"geometry":{"type":"LineString","coordinates":[[139.88244,35.78902],[139.88455,35.78838]]}},{"type":"Feature","properties":{"idx":416,"road":NaN,"cls":"tertiary","shops":1,"st_km":0.71,"mesh":"53395790"},"geometry":{"type":"LineString","coordinates":[[139.87521,35.8324],[139.87545,35.83171],[139.87578,35.83093],[139.87705,35.82886]]}},{"type":"Feature","properties":{"idx":418,"road":NaN,"cls":"tertiary","shops":1,"st_km":0.7,"mesh":"53395790"},"geometry":{"type":"LineString","coordinates":[[139.87697,35.82881],[139.87571,35.83091],[139.87536,35.83168],[139.87514,35.83231]]}},{"type":"Feature","properties":{"idx":315,"road":NaN,"cls":"tertiary","shops":1,"st_km":0.43,"mesh":"53395780"},"geometry":{"type":"LineString","coordinates":[[139.88049,35.82198],[139.88059,35.82017]]}},{"type":"Feature","properties":{"idx":316,"road":NaN,"cls":"tertiary","shops":1,"st_km":0.42,"mesh":"53395780"},"geometry":{"type":"LineString","coordinates":[[139.88059,35.82017],[139.88039,35.82196]]}},{"type":"Feature","properties":{"idx":345,"road":NaN,"cls":"tertiary","shops":1,"st_km":0.34,"mesh":"53395780"},"geometry":{"type":"LineString","coordinates":[[139.88039,35.82196],[139.88049,35.82198]]}},{"type":"Feature","properties":{"idx":463,"road":NaN,"cls":"tertiary","shops":2,"st_km":0.92,"mesh":"53395790"},"geometry":{"type":"LineString","coordinates":[[139.87521,35.8324],[139.87514,35.83231]]}},{"type":"Feature","properties":{"idx":1086,"road":"江戸川堤防線","cls":"secondary","shops":0,"st_km":1.04,"mesh":"53395731"},"geometry":{"type":"LineString","coordinates":[[139.88967,35.78363],[139.8902,35.78189],[139.89022,35.78143],[139.89014,35.78109],[139.88973,35.78035],[139.88932,35.77983],[139.88895,35.7795],[139.88811,35.77898]]}},{"type":"Feature","properties":{"idx":11774,"road":NaN,"cls":"tertiary","shops":0,"st_km":1.03,"mesh":"53395741"},"geometry":{"type":"LineString","coordinates":[[139.88892,35.78547],[139.88924,35.7851],[139.88941,35.78475],[139.88967,35.78363]]}},{"type":"Feature","properties":{"idx":218,"road":"江戸川堤防線","cls":"tertiary","shops":0,"st_km":0.61,"mesh":"53395710"},"geometry":{"type":"LineString","coordinates":[[139.88029,35.7606],[139.88035,35.75965]]}},{"type":"Feature","properties":{"idx":639,"road":NaN,"cls":"tertiary","shops":0,"st_km":1.57,"mesh":"53395770"},"geometry":{"type":"LineString","coordinates":[[139.87343,35.81087],[139.87701,35.81022]]}},{"type":"Feature","properties":{"idx":129,"road":NaN,"cls":"tertiary","shops":0,"st_km":1.08,"mesh":"53395730"},"geometry":{"type":"LineString","coordinates":[[139.87888,35.77634],[139.87894,35.77628]]}},{"type":"Feature","properties":{"idx":185,"road":"金町線","cls":"secondary","shops":1,"st_km":1.3,"mesh":"53395730"},"geometry":{"type":"LineString","coordinates":[[139.88322,35.77836],[139.87894,35.77628]]}},{"type":"Feature","properties":{"idx":185,"road":"金町線","cls":"secondary","shops":1,"st_km":1.3,"mesh":"53395730"},"geometry":{"type":"LineString","coordinates":[[139.87888,35.77634],[139.88317,35.77843]]}},{"type":"Feature","properties":{"idx":150,"road":NaN,"cls":"tertiary","shops":0,"st_km":1.83,"mesh":"53395740"},"geometry":{"type":"LineString","coordinates":[[139.88077,35.78395],[139.88068,35.78401],[139.87939,35.78426],[139.87843,35.78466],[139.87755,35.78519]]}},{"type":"Feature","properties":{"idx":150,"road":NaN,"cls":"tertiary","shops":0,"st_km":2.34,"mesh":"53395750"},"geometry":{"type":"LineString","coordinates":[[139.87749,35.79498],[139.87765,35.79474],[139.87813,35.79429],[139.87823,35.79402]]}},{"type":"Feature","properties":{"idx":197,"road":"松戸草加線","cls":"primary","shops":0,"st_km":1.78,"mesh":"53395740"},"geometry":{"type":"LineString","coordinates":[[139.88131,35.78409],[139.88116,35.78387],[139.88107,35.78354]]}},{"type":"Feature","properties":{"idx":87,"road":NaN,"cls":"tertiary","shops":0,"st_km":1.65,"mesh":"53395730"},"geometry":{"type":"LineString","coordinates":[[139.88077,35.78395],[139.87983,35.78365],[139.87859,35.78316],[139.87607,35.78266],[139.87527,35.78308]]}},{"type":"Feature","properties":{"idx":104,"road":"松戸草加線","cls":"primary","shops":0,"st_km":1.75,"mesh":"53395730"},"geometry":{"type":"LineString","coordinates":[[139.88107,35.78354],[139.88102,35.78239],[139.88122,35.78181]]}},{"type":"Feature","properties":{"idx":162,"road":"松戸草加線","cls":"primary","shops":1,"st_km":1.68,"mesh":"53395730"},"geometry":{"type":"LineString","coordinates":[[139.88123,35.78179],[139.88128,35.78172]]}},{"type":"Feature","properties":{"idx":162,"road":"松戸草加線","cls":"primary","shops":1,"st_km":1.68,"mesh":"53395730"},"geometry":{"type":"LineString","coordinates":[[139.88122,35.78181],[139.88123,35.78179]]}},{"type":"Feature","properties":{"idx":98,"road":NaN,"cls":"tertiary","shops":0,"st_km":1.5,"mesh":"53395730"},"geometry":{"type":"LineString","coordinates":[[139.88563,35.77976],[139.88414,35.78165]]}},{"type":"Feature","properties":{"idx":144,"road":NaN,"cls":"tertiary","shops":1,"st_km":1.54,"mesh":"53395730"},"geometry":{"type":"LineString","coordinates":[[139.88414,35.78165],[139.88408,35.78173]]}},{"type":"Feature","properties":{"idx":102,"road":NaN,"cls":"tertiary","shops":0,"st_km":1.44,"mesh":"53395730"},"geometry":{"type":"LineString","coordinates":[[139.8849,35.7815],[139.88571,35.78047],[139.88572,35.7802],[139.88563,35.77976]]}},{"type":"Feature","properties":{"idx":100,"road":NaN,"cls":"tertiary","shops":0,"st_km":1.48,"mesh":"53395730"},"geometry":{"type":"LineString","coordinates":[[139.88483,35.78158],[139.8849,35.7815]]}},{"type":"Feature","properties":{"idx":131,"road":NaN,"cls":"tertiary","shops":0,"st_km":0.95,"mesh":"53395780"},"geometry":{"type":"LineString","coordinates":[[139.88542,35.81812],[139.88541,35.81821]]}},{"type":"Feature","properties":{"idx":133,"road":NaN,"cls":"tertiary","shops":0,"st_km":0.94,"mesh":"53395780"},"geometry":{"type":"LineString","coordinates":[[139.88541,35.81821],[139.88539,35.81834]]}},{"type":"Feature","properties":{"idx":180,"road":"三郷松伏線","cls":"primary","shops":0,"st_km":0.84,"mesh":"53395780"},"geometry":{"type":"LineString","coordinates":[[139.88352,35.81826],[139.88354,35.81811]]}},{"type":"Feature","properties":{"idx":178,"road":"三郷松伏線","cls":"primary","shops":0,"st_km":0.85,"mesh":"53395780"},"geometry":{"type":"LineString","coordinates":[[139.88354,35.81811],[139.88355,35.81804]]}},{"type":"Feature","properties":{"idx":324,"road":NaN,"cls":"tertiary","shops":3,"st_km":0.31,"mesh":"53395700"},"geometry":{"type":"LineString","coordinates":[[139.8766,35.75083],[139.87638,35.75037]]}},{"type":"Feature","properties":{"idx":333,"road":NaN,"cls":"tertiary","shops":3,"st_km":0.28,"mesh":"53395700"},"geometry":{"type":"LineString","coordinates":[[139.8766,35.75083],[139.8768,35.75124]]}},{"type":"Feature","properties":{"idx":481,"road":NaN,"cls":"tertiary","shops":0,"st_km":0.15,"mesh":"53395790"},"geometry":{"type":"LineString","coordinates":[[139.87867,35.82578],[139.87879,35.82577]]}}]}