{"type":"FeatureCollection","features":[{"type":"Feature","properties":{"idx":3,"road":"成木街道","cls":"primary","shops":0,"st_km":3.43,"mesh":"53395198"},"geometry":{"type":"LineString","coordinates":[[139.23166,35.83216],[139.23311,35.83168]]}},{"type":"Feature","properties":{"idx":296,"road":"吉野街道","cls":"primary","shops":0,"st_km":1.0,"mesh":"53395149"},"geometry":{"type":"LineString","coordinates":[[139.24787,35.78399],[139.24698,35.784]]}},{"type":"Feature","properties":{"idx":376,"road":"青梅あきる野線","cls":"primary","shops":0,"st_km":3.24,"mesh":"53395119"},"geometry":{"type":"LineString","coordinates":[[139.24216,35.75298],[139.24265,35.75329],[139.24302,35.75343],[139.24613,35.75398],[139.24642,35.75414],[139.24653,35.75427],[139.24661,35.75453],[139.24653,35.7548],[139.24629,35.75502],[139.24557,35.75546],[139.24535,35.75565],[139.24527,35.75579],[139.24521,35.75606],[139.24525,35.75634],[139.2456,35.75749],[139.2461,35.7583],[139.24629,35.75868],[139.24642,35.75991],[139.24648,35.76008],[139.24665,35.7603],[139.24683,35.7604],[139.24763,35.76064],[139.24966,35.76151],[139.25001,35.76151],[139.25099,35.76117],[139.25128,35.76116],[139.25155,35.76122],[139.25184,35.76139],[139.25247,35.76211],[139.25298,35.76239],[139.25348,35.76243],[139.25481,35.76226],[139.25525,35.76234]]}},{"type":"Feature","properties":{"idx":47,"road":"奥多摩青梅線","cls":"primary","shops":0,"st_km":0.13,"mesh":"53395173"},"geometry":{"type":"LineString","coordinates":[[139.16303,35.81316],[139.16314,35.81303]]}},{"type":"Feature","properties":{"idx":44,"road":"奥多摩青梅線","cls":"primary","shops":0,"st_km":0.19,"mesh":"53395173"},"geometry":{"type":"LineString","coordinates":[[139.16314,35.81303],[139.16489,35.81112]]}},{"type":"Feature","properties":{"idx":40,"road":"奥多摩青梅線","cls":"primary","shops":0,"st_km":0.31,"mesh":"53395173"},"geometry":{"type":"LineString","coordinates":[[139.16489,35.81112],[139.16498,35.81102]]}},{"type":"Feature","properties":{"idx":452,"road":"梅郷日向和田線","cls":"secondary","shops":1,"st_km":0.1,"mesh":"53395148"},"geometry":{"type":"LineString","coordinates":[[139.2289,35.78921],[139.22839,35.78929]]}},{"type":"Feature","properties":{"idx":2,"road":"十里木御嶽停車場線","cls":"secondary","shops":1,"st_km":3.71,"mesh":"53395113"},"geometry":{"type":"LineString","coordinates":[[139.17053,35.75936],[139.17039,35.75913],[139.17038,35.75878]]}},{"type":"Feature","properties":{"idx":23,"road":"成木街道","cls":"primary","shops":0,"st_km":3.34,"mesh":"53395189"},"geometry":{"type":"LineString","coordinates":[[139.24532,35.81905],[139.24606,35.8194],[139.24658,35.81989],[139.2468,35.8202],[139.24696,35.82052],[139.24701,35.82072],[139.24701,35.82134],[139.24711,35.82174],[139.24773,35.82255],[139.24845,35.82328]]}},{"type":"Feature","properties":{"idx":103,"road":"十里木御嶽停車場線","cls":"secondary","shops":8,"st_km":0.05,"mesh":"53395164"},"geometry":{"type":"LineString","coordinates":[[139.18311,35.80131],[139.1831,35.8012]]}},{"type":"Feature","properties":{"idx":3,"road":"十里木御嶽停車場線","cls":"secondary","shops":0,"st_km":0.88,"mesh":"53395153"},"geometry":{"type":"LineString","coordinates":[[139.17195,35.8008],[139.17148,35.80037],[139.17111,35.80013],[139.17077,35.79999],[139.17,35.79979],[139.1696,35.79957],[139.16911,35.7989],[139.16896,35.79831]]}},{"type":"Feature","properties":{"idx":37,"road":"十里木御嶽停車場線","cls":"secondary","shops":0,"st_km":0.2,"mesh":"53395142"},"geometry":{"type":"LineString","coordinates":[[139.15328,35.78997],[139.1534,35.78972],[139.15334,35.78959],[139.15334,35.78942],[139.15321,35.78904],[139.15291,35.78859],[139.15272,35.78853],[139.15248,35.78861],[139.15218,35.78859],[139.1517,35.78866],[139.15135,35.78842],[139.15133,35.78835],[139.15145,35.78821],[139.15146,35.78811],[139.15123,35.78786],[139.15088,35.78733],[139.15089,35.78722],[139.15108,35.7869]]}},{"type":"Feature","properties":{"idx":3,"road":"十里木御嶽停車場線","cls":"secondary","shops":0,"st_km":0.71,"mesh":"53395153"},"geometry":{"type":"LineString","coordinates":[[139.16894,35.79829],[139.16886,35.79823]]}},{"type":"Feature","properties":{"idx":5,"road":"十里木御嶽停車場線","cls":"secondary","shops":0,"st_km":0.31,"mesh":"53395153"},"geometry":{"type":"LineString","coordinates":[[139.16655,35.79716],[139.1656,35.79718],[139.1646,35.79711],[139.1629,35.79661]]}},{"type":"Feature","properties":{"idx":27,"road":"大久野青梅線","cls":"secondary","shops":0,"st_km":0.69,"mesh":"53395138"},"geometry":{"type":"LineString","coordinates":[[139.232,35.78186],[139.23262,35.78215],[139.23373,35.78222],[139.23419,35.78235],[139.23431,35.78244],[139.23447,35.78269],[139.23452,35.78312]]}},{"type":"Feature","properties":{"idx":109,"road":"梅郷日向和田線","cls":"secondary","shops":0,"st_km":0.45,"mesh":"53395147"},"geometry":{"type":"LineString","coordinates":[[139.22691,35.78966],[139.22648,35.78974],[139.22622,35.78972],[139.22498,35.78934],[139.22253,35.78816]]}},{"type":"Feature","properties":{"idx":24,"road":"大久野青梅線","cls":"secondary","shops":0,"st_km":0.84,"mesh":"53395138"},"geometry":{"type":"LineString","coordinates":[[139.22779,35.78105],[139.22796,35.78117],[139.22804,35.78118],[139.23032,35.78107],[139.23068,35.78118],[139.23107,35.78139]]}},{"type":"Feature","properties":{"idx":2,"road":"十里木御嶽停車場線","cls":"secondary","shops":0,"st_km":3.29,"mesh":"53395113"},"geometry":{"type":"LineString","coordinates":[[139.17175,35.76448],[139.17148,35.76401],[139.17144,35.76357],[139.17134,35.76347],[139.17095,35.76329],[139.17081,35.76315]]}},{"type":"Feature","properties":{"idx":4,"road":"松ノ木通り","cls":"tertiary","shops":0,"st_km":2.54,"mesh":"53395197"},"geometry":{"type":"LineString","coordinates":[[139.21643,35.82746],[139.21571,35.82797],[139.21535,35.82867],[139.21483,35.82902],[139.21454,35.82952],[139.21408,35.83015],[139.21383,35.83031],[139.21333,35.83054],[139.21261,35.83077],[139.21188,35.83133],[139.21162,35.83159]]}},{"type":"Feature","properties":{"idx":22,"road":"下畑軍畑線","cls":"secondary","shops":0,"st_km":2.92,"mesh":"53395189"},"geometry":{"type":"LineString","coordinates":[[139.24471,35.81845],[139.24381,35.81839],[139.24279,35.81851]]}},{"type":"Feature","properties":{"idx":11,"road":"松ノ木通り","cls":"tertiary","shops":0,"st_km":2.84,"mesh":"53395196"},"geometry":{"type":"LineString","coordinates":[[139.21162,35.83159],[139.20876,35.83465]]}},{"type":"Feature","properties":{"idx":41,"road":"上成木川井線","cls":"secondary","shops":0,"st_km":0.14,"mesh":"53395173"},"geometry":{"type":"LineString","coordinates":[[139.16303,35.81316],[139.16283,35.8135],[139.16278,35.81368],[139.16278,35.81394],[139.16295,35.81451],[139.16292,35.81478],[139.16284,35.81492],[139.16227,35.81533],[139.16224,35.81567]]}},{"type":"Feature","properties":{"idx":72,"road":"上成木川井線","cls":"secondary","shops":0,"st_km":1.08,"mesh":"53395183"},"geometry":{"type":"LineString","coordinates":[[139.16278,35.82526],[139.16279,35.8251],[139.16268,35.8249],[139.16266,35.82475],[139.16287,35.8244],[139.16328,35.82386],[139.16347,35.82349],[139.16346,35.82331],[139.16331,35.82295],[139.16289,35.82249],[139.16228,35.8222],[139.16212,35.82207]]}},{"type":"Feature","properties":{"idx":18,"road":"上成木川井線","cls":"secondary","shops":0,"st_km":0.92,"mesh":"53395182"},"geometry":{"type":"LineString","coordinates":[[139.162,35.82175],[139.16212,35.82207]]}},{"type":"Feature","properties":{"idx":16,"road":"上成木川井線","cls":"secondary","shops":0,"st_km":1.73,"mesh":"53395193"},"geometry":{"type":"LineString","coordinates":[[139.16546,35.82962],[139.16542,35.82913]]}},{"type":"Feature","properties":{"idx":16,"road":"上成木川井線","cls":"secondary","shops":0,"st_km":1.79,"mesh":"53395193"},"geometry":{"type":"LineString","coordinates":[[139.16535,35.83013],[139.16545,35.82986],[139.16546,35.82962]]}},{"type":"Feature","properties":{"idx":20,"road":"上成木川井線","cls":"secondary","shops":0,"st_km":0.69,"mesh":"53395182"},"geometry":{"type":"LineString","coordinates":[[139.16106,35.8178],[139.16119,35.81802],[139.1619,35.81851],[139.16198,35.81881],[139.16207,35.81944],[139.16205,35.81968],[139.16197,35.81978],[139.16144,35.81996],[139.16124,35.82027],[139.16132,35.82053],[139.16137,35.82098],[139.16178,35.8214]]}},{"type":"Feature","properties":{"idx":31,"road":"吉野街道","cls":"primary","shops":0,"st_km":0.69,"mesh":"53395173"},"geometry":{"type":"LineString","coordinates":[[139.16816,35.80816],[139.16798,35.80853]]}},{"type":"Feature","properties":{"idx":172,"road":"吉野街道","cls":"primary","shops":0,"st_km":0.84,"mesh":"53395162"},"geometry":{"type":"LineString","coordinates":[[139.1586,35.80775],[139.15818,35.80802]]}},{"type":"Feature","properties":{"idx":45,"road":"奥多摩あきる野線","cls":"secondary","shops":0,"st_km":3.23,"mesh":"53395116"},"geometry":{"type":"LineString","coordinates":[[139.21556,35.75921],[139.21489,35.75985],[139.21471,35.76012],[139.21462,35.76043],[139.21459,35.76118],[139.21422,35.76211],[139.213,35.76365],[139.21278,35.76387],[139.21225,35.76418],[139.21118,35.76454],[139.21083,35.76456],[139.21049,35.76451],[139.21035,35.76444],[139.20947,35.76371],[139.20934,35.76365],[139.2092,35.76367],[139.2091,35.76377],[139.20899,35.76434],[139.20883,35.76478],[139.20862,35.76511],[139.20738,35.76654],[139.20675,35.76682],[139.20659,35.76694],[139.20594,35.76787],[139.20574,35.76836],[139.20528,35.76876],[139.20473,35.76913]]}},{"type":"Feature","properties":{"idx":3,"road":"奥多摩あきる野線","cls":"secondary","shops":0,"st_km":3.11,"mesh":"53395126"},"geometry":{"type":"LineString","coordinates":[[139.20473,35.76913],[139.20465,35.7693],[139.20469,35.76947]]}},{"type":"Feature","properties":{"idx":4,"road":"奥多摩あきる野線","cls":"secondary","shops":0,"st_km":2.6,"mesh":"53395135"},"geometry":{"type":"LineString","coordinates":[[139.19042,35.77786],[139.18984,35.77818],[139.18938,35.77855],[139.18758,35.77881]]}},{"type":"Feature","properties":{"idx":5,"road":"奥多摩あきる野線","cls":"secondary","shops":1,"st_km":2.96,"mesh":"53395126"},"geometry":{"type":"LineString","coordinates":[[139.20485,35.76969],[139.20533,35.77028],[139.20555,35.77065],[139.20569,35.7711],[139.20564,35.77151]]}},{"type":"Feature","properties":{"idx":3,"road":NaN,"cls":"tertiary","shops":0,"st_km":2.69,"mesh":"53395135"},"geometry":{"type":"LineString","coordinates":[[139.19296,35.77735],[139.19283,35.77745],[139.19272,35.77764],[139.19271,35.77776],[139.19289,35.77812],[139.19282,35.77845],[139.19251,35.77919],[139.19254,35.77991]]}},{"type":"Feature","properties":{"idx":19,"road":NaN,"cls":"pedestrian","shops":0,"st_km":2.38,"mesh":"53395109"},"geometry":{"type":"LineString","coordinates":[[139.24032,35.75136],[139.24029,35.75127],[139.24052,35.75092]]}},{"type":"Feature","properties":{"idx":17,"road":"青梅あきる野線","cls":"primary","shops":0,"st_km":2.51,"mesh":"53395109"},"geometry":{"type":"LineString","coordinates":[[139.24111,35.75197],[139.2414,35.75225]]}},{"type":"Feature","properties":{"idx":5,"road":"下畑軍畑線","cls":"secondary","shops":0,"st_km":2.4,"mesh":"53395188"},"geometry":{"type":"LineString","coordinates":[[139.23748,35.81851],[139.23665,35.81878],[139.23526,35.81959],[139.2349,35.81975],[139.23454,35.81986],[139.23333,35.82011],[139.23286,35.82026],[139.23049,35.82142]]}},{"type":"Feature","properties":{"idx":25,"road":"下畑軍畑線","cls":"secondary","shops":1,"st_km":0.17,"mesh":"53395176"},"geometry":{"type":"LineString","coordinates":[[139.20967,35.809],[139.20955,35.809],[139.20918,35.80873],[139.20908,35.80857],[139.20903,35.80831],[139.20906,35.80803],[139.20911,35.80793],[139.20927,35.8079]]}},{"type":"Feature","properties":{"idx":13,"road":"下畑軍畑線","cls":"secondary","shops":0,"st_km":0.49,"mesh":"53395176"},"geometry":{"type":"LineString","coordinates":[[139.20839,35.81437],[139.20844,35.81407],[139.20869,35.81379],[139.20877,35.81357],[139.20867,35.81338],[139.20817,35.81302],[139.20816,35.81276],[139.20828,35.81255],[139.2092,35.81177],[139.20936,35.81053],[139.20968,35.81018],[139.20972,35.81002],[139.20969,35.80913],[139.20961,35.80881]]}},{"type":"Feature","properties":{"idx":59,"road":"下畑軍畑線","cls":"secondary","shops":0,"st_km":0.16,"mesh":"53395166"},"geometry":{"type":"LineString","coordinates":[[139.20872,35.80678],[139.20862,35.80662],[139.2082,35.80626],[139.20752,35.80601],[139.20744,35.80595],[139.20742,35.80585]]}},{"type":"Feature","properties":{"idx":11,"road":"下畑軍畑線","cls":"secondary","shops":0,"st_km":0.76,"mesh":"53395176"},"geometry":{"type":"LineString","coordinates":[[139.20839,35.81444],[139.20839,35.81437]]}},{"type":"Feature","properties":{"idx":31,"road":"下畑軍畑線","cls":"secondary","shops":1,"st_km":3.62,"mesh":"53395189"},"geometry":{"type":"LineString","coordinates":[[139.24847,35.82334],[139.24857,35.82334]]}},{"type":"Feature","properties":{"idx":16,"road":"下畑軍畑線","cls":"secondary","shops":0,"st_km":0.18,"mesh":"53395176"},"geometry":{"type":"LineString","coordinates":[[139.20928,35.80798],[139.20938,35.80834],[139.20961,35.80881]]}},{"type":"Feature","properties":{"idx":1,"road":"十里木御嶽停車場線","cls":"secondary","shops":0,"st_km":0.47,"mesh":"53395152"},"geometry":{"type":"LineString","coordinates":[[139.15204,35.7881],[139.15231,35.78807],[139.15255,35.7879],[139.15274,35.78785],[139.15338,35.78809],[139.1537,35.788],[139.15401,35.7881],[139.1544,35.78806],[139.15467,35.78809],[139.15479,35.78817],[139.15482,35.78827],[139.15451,35.78861],[139.1545,35.78874],[139.15473,35.78889],[139.15489,35.78912],[139.15499,35.78919],[139.15525,35.7893],[139.15552,35.78936],[139.15569,35.78955],[139.1557,35.78963],[139.15564,35.78977],[139.15542,35.78993],[139.15532,35.79024],[139.15536,35.79039],[139.15551,35.79056],[139.15586,35.79075],[139.15644,35.79096],[139.15626,35.7912],[139.15587,35.79152],[139.15577,35.79183],[139.15567,35.79196],[139.15566,35.79231],[139.1555,35.79247],[139.15559,35.79255],[139.15586,35.79252],[139.15588,35.79262],[139.1558,35.7927],[139.15544,35.79284],[139.15535,35.79293],[139.15536,35.79309],[139.15546,35.79321],[139.15561,35.79319],[139.15576,35.79308],[139.15583,35.7931],[139.15578,35.79328],[139.1556,35.79349],[139.15562,35.79364],[139.156,35.79343],[139.15669,35.7934],[139.15717,35.79344],[139.15755,35.79336],[139.15792,35.79317],[139.15812,35.79291],[139.15815,35.79333],[139.15782,35.79413],[139.15787,35.79415],[139.15822,35.79388],[139.1585,35.79373],[139.15832,35.79416],[139.15812,35.79441],[139.15821,35.79442],[139.15847,35.7943],[139.15867,35.79414],[139.15872,35.79415],[139.15877,35.79453],[139.15863,35.79475],[139.1586,35.79491],[139.15863,35.79496],[139.15869,35.79496],[139.15889,35.79478],[139.15895,35.79486],[139.15895,35.79497],[139.15885,35.7952],[139.15858,35.7954],[139.15871,35.79541],[139.15913,35.7953],[139.15926,35.79517],[139.15946,35.7951],[139.15953,35.79513],[139.15955,35.7952],[139.15934,35.79548],[139.15946,35.79546],[139.15974,35.79528],[139.1598,35.7953],[139.15978,35.79539],[139.1596,35.79563],[139.16057,35.79557],[139.16072,35.79567]]}},{"type":"Feature","properties":{"idx":83,"road":"吉野街道","cls":"primary","shops":0,"st_km":0.84,"mesh":"53395172"},"geometry":{"type":"LineString","coordinates":[[139.15818,35.80802],[139.15733,35.80873]]}},{"type":"Feature","properties":{"idx":71,"road":"吉野街道","cls":"primary","shops":0,"st_km":0.41,"mesh":"53395165"},"geometry":{"type":"LineString","coordinates":[[139.19361,35.80297],[139.19278,35.80323],[139.19166,35.80338],[139.18942,35.80412],[139.18868,35.80413],[139.18825,35.80408],[139.18786,35.80396],[139.18751,35.80376],[139.18718,35.80349],[139.18674,35.80305],[139.18655,35.80262],[139.18647,35.80227]]}},{"type":"Feature","properties":{"idx":91,"road":"吉野街道","cls":"primary","shops":5,"st_km":0.91,"mesh":"53395138"},"geometry":{"type":"LineString","coordinates":[[139.22957,35.77997],[139.22779,35.78105]]}},{"type":"Feature","properties":{"idx":11,"road":"吉野街道","cls":"primary","shops":2,"st_km":0.29,"mesh":"53395154"},"geometry":{"type":"LineString","coordinates":[[139.1821,35.79975],[139.18055,35.79979],[139.18005,35.79973],[139.17974,35.7996],[139.17855,35.79893]]}},{"type":"Feature","properties":{"idx":224,"road":"吉野街道","cls":"primary","shops":0,"st_km":0.64,"mesh":"53395148"},"geometry":{"type":"LineString","coordinates":[[139.22633,35.78289],[139.22603,35.78376],[139.22567,35.7844]]}},{"type":"Feature","properties":{"idx":154,"road":"吉野街道","cls":"primary","shops":0,"st_km":0.98,"mesh":"53395157"},"geometry":{"type":"LineString","coordinates":[[139.21499,35.7941],[139.21461,35.79436]]}},{"type":"Feature","properties":{"idx":5,"road":"吉野街道","cls":"primary","shops":0,"st_km":1.13,"mesh":"53395163"},"geometry":{"type":"LineString","coordinates":[[139.1748,35.80312],[139.17483,35.80403],[139.1747,35.8042],[139.17439,35.80447],[139.17399,35.80471],[139.17359,35.80485],[139.17311,35.80491],[139.17183,35.80472],[139.17118,35.80478],[139.17085,35.8049],[139.17,35.80544],[139.16907,35.80568],[139.16877,35.80583],[139.16847,35.80616],[139.16828,35.80671],[139.16823,35.80707],[139.16825,35.80787],[139.16816,35.80816]]}},{"type":"Feature","properties":{"idx":6,"road":"吉野街道","cls":"primary","shops":0,"st_km":0.71,"mesh":"53395163"},"geometry":{"type":"LineString","coordinates":[[139.17561,35.7993],[139.17505,35.79998],[139.17488,35.80033],[139.17471,35.80205]]}},{"type":"Feature","properties":{"idx":25,"road":"大久野青梅線","cls":"secondary","shops":0,"st_km":0.8,"mesh":"53395138"},"geometry":{"type":"LineString","coordinates":[[139.23107,35.78139],[139.232,35.78186]]}},{"type":"Feature","properties":{"idx":18,"road":"吉野街道","cls":"primary","shops":0,"st_km":0.32,"mesh":"53395164"},"geometry":{"type":"LineString","coordinates":[[139.18624,35.8013],[139.18618,35.80106]]}},{"type":"Feature","properties":{"idx":6,"road":"吉野街道","cls":"primary","shops":0,"st_km":0.73,"mesh":"53395163"},"geometry":{"type":"LineString","coordinates":[[139.17477,35.80268],[139.1748,35.80312]]}},{"type":"Feature","properties":{"idx":117,"road":"吉野街道","cls":"primary","shops":6,"st_km":0.71,"mesh":"53395138"},"geometry":{"type":"LineString","coordinates":[[139.2264,35.78267],[139.22633,35.78289]]}},{"type":"Feature","properties":{"idx":157,"road":"吉野街道","cls":"primary","shops":0,"st_km":0.94,"mesh":"53395157"},"geometry":{"type":"LineString","coordinates":[[139.21572,35.79364],[139.21504,35.79407]]}},{"type":"Feature","properties":{"idx":18,"road":"吉野街道","cls":"primary","shops":0,"st_km":0.33,"mesh":"53395164"},"geometry":{"type":"LineString","coordinates":[[139.18627,35.80145],[139.18624,35.8013]]}},{"type":"Feature","properties":{"idx":64,"road":"吉野街道","cls":"primary","shops":0,"st_km":0.55,"mesh":"53395165"},"geometry":{"type":"LineString","coordinates":[[139.19892,35.80341],[139.19839,35.80338]]}},{"type":"Feature","properties":{"idx":60,"road":"奥多摩青梅線","cls":"primary","shops":0,"st_km":0.26,"mesh":"53395166"},"geometry":{"type":"LineString","coordinates":[[139.20747,35.80575],[139.20806,35.80471]]}},{"type":"Feature","properties":{"idx":25,"road":"吉野街道","cls":"primary","shops":0,"st_km":0.97,"mesh":"53395138"},"geometry":{"type":"LineString","coordinates":[[139.23451,35.77923],[139.2341,35.77921]]}},{"type":"Feature","properties":{"idx":18,"road":"吉野街道","cls":"primary","shops":0,"st_km":0.34,"mesh":"53395164"},"geometry":{"type":"LineString","coordinates":[[139.18647,35.80227],[139.18627,35.80145]]}},{"type":"Feature","properties":{"idx":4,"road":"吉野街道","cls":"primary","shops":0,"st_km":0.67,"mesh":"53395154"},"geometry":{"type":"LineString","coordinates":[[139.17573,35.79917],[139.17561,35.7993]]}},{"type":"Feature","properties":{"idx":177,"road":"柚木二俣尾線","cls":"secondary","shops":0,"st_km":0.58,"mesh":"53395157"},"geometry":{"type":"LineString","coordinates":[[139.21414,35.79975],[139.21259,35.79872]]}},{"type":"Feature","properties":{"idx":329,"road":"柚木二俣尾線","cls":"secondary","shops":0,"st_km":0.19,"mesh":"53395167"},"geometry":{"type":"LineString","coordinates":[[139.21652,35.80332],[139.21602,35.80278],[139.21579,35.80246],[139.21575,35.80228],[139.21575,35.80217],[139.21621,35.80132],[139.2162,35.80121],[139.2161,35.80111]]}},{"type":"Feature","properties":{"idx":279,"road":"柚木二俣尾線","cls":"secondary","shops":0,"st_km":0.4,"mesh":"53395167"},"geometry":{"type":"LineString","coordinates":[[139.21414,35.79975],[139.2161,35.80111]]}},{"type":"Feature","properties":{"idx":280,"road":"梅郷日向和田線","cls":"secondary","shops":0,"st_km":0.19,"mesh":"53395148"},"geometry":{"type":"LineString","coordinates":[[139.22691,35.78966],[139.22839,35.78929]]}},{"type":"Feature","properties":{"idx":44,"road":"奥多摩青梅線","cls":"primary_link","shops":0,"st_km":0.2,"mesh":"53395166"},"geometry":{"type":"LineString","coordinates":[[139.20747,35.80575],[139.20742,35.80585]]}},{"type":"Feature","properties":{"idx":3,"road":"青梅日の出線","cls":"secondary","shops":0,"st_km":1.88,"mesh":"53395127"},"geometry":{"type":"LineString","coordinates":[[139.22269,35.76912],[139.22215,35.76994],[139.22184,35.77082],[139.2215,35.77113],[139.22116,35.77161],[139.22075,35.77178],[139.22058,35.77198],[139.22007,35.77304],[139.2198,35.77383],[139.21972,35.77443],[139.21951,35.77496],[139.21931,35.77509],[139.21876,35.77509],[139.21867,35.77513],[139.21818,35.77567],[139.21806,35.77573],[139.21763,35.77576],[139.21749,35.77589],[139.21746,35.77604],[139.21758,35.7765],[139.21753,35.77701],[139.21759,35.77725],[139.21774,35.77752]]}},{"type":"Feature","properties":{"idx":15,"road":"青梅日の出線","cls":"secondary","shops":0,"st_km":2.43,"mesh":"53395109"},"geometry":{"type":"LineString","coordinates":[[139.24059,35.75116],[139.23987,35.75176],[139.23904,35.75227],[139.23856,35.75341]]}},{"type":"Feature","properties":{"idx":36,"road":"吉野街道","cls":"primary","shops":0,"st_km":0.46,"mesh":"53395173"},"geometry":{"type":"LineString","coordinates":[[139.16798,35.80853],[139.16757,35.80917],[139.16602,35.81082],[139.16571,35.81102],[139.16526,35.81108],[139.16487,35.81096],[139.16461,35.81073],[139.16346,35.80906],[139.16256,35.80788],[139.16229,35.80766],[139.16194,35.80753],[139.16156,35.80751],[139.15904,35.80767],[139.1586,35.80775]]}},{"type":"Feature","properties":{"idx":271,"road":"吉野街道","cls":"primary","shops":2,"st_km":0.16,"mesh":"53395172"},"geometry":{"type":"LineString","coordinates":[[139.15249,35.81482],[139.15215,35.81573]]}},{"type":"Feature","properties":{"idx":124,"road":"吉野街道","cls":"primary","shops":0,"st_km":0.27,"mesh":"53395172"},"geometry":{"type":"LineString","coordinates":[[139.15293,35.81376],[139.15249,35.81482]]}},{"type":"Feature","properties":{"idx":22,"road":"奥多摩あきる野線","cls":"secondary","shops":0,"st_km":2.4,"mesh":"53395107"},"geometry":{"type":"LineString","coordinates":[[139.23121,35.74588],[139.23077,35.74606],[139.22995,35.74627],[139.22856,35.74698],[139.22824,35.74729],[139.22742,35.75062],[139.22762,35.75154],[139.22763,35.75181],[139.22749,35.75216],[139.22724,35.75247],[139.22669,35.75277],[139.22514,35.75326],[139.22493,35.75353],[139.2246,35.75452],[139.22417,35.75498],[139.2238,35.75519],[139.2233,35.75538],[139.2225,35.75545],[139.22206,35.75557],[139.22171,35.75583],[139.22145,35.75629],[139.22127,35.75648],[139.22059,35.75691],[139.22034,35.75701],[139.21997,35.75709],[139.21929,35.75711],[139.21715,35.75741],[139.21686,35.75751],[139.21578,35.75844],[139.2157,35.75867],[139.21568,35.75902],[139.21556,35.75921]]}},{"type":"Feature","properties":{"idx":30,"road":"十里木御嶽停車場線","cls":"secondary","shops":1,"st_km":0.07,"mesh":"53395164"},"geometry":{"type":"LineString","coordinates":[[139.1831,35.8012],[139.18298,35.80049]]}},{"type":"Feature","properties":{"idx":28,"road":"十里木御嶽停車場線","cls":"secondary","shops":1,"st_km":0.14,"mesh":"53395164"},"geometry":{"type":"LineString","coordinates":[[139.18298,35.80049],[139.18292,35.79989]]}},{"type":"Feature","properties":{"idx":238,"road":NaN,"cls":"pedestrian","shops":3,"st_km":0.98,"mesh":"53395147"},"geometry":{"type":"LineString","coordinates":[[139.21898,35.78642],[139.21898,35.7863],[139.21923,35.78632],[139.21923,35.78618]]}},{"type":"Feature","properties":{"idx":2,"road":"上養沢橋","cls":"secondary","shops":0,"st_km":3.35,"mesh":"53395113"},"geometry":{"type":"LineString","coordinates":[[139.17068,35.76285],[139.1706,35.76272]]}},{"type":"Feature","properties":{"idx":2,"road":"上の橋","cls":"secondary","shops":0,"st_km":3.32,"mesh":"53395113"},"geometry":{"type":"LineString","coordinates":[[139.17081,35.76315],[139.17076,35.76305]]}},{"type":"Feature","properties":{"idx":2,"road":"十里木御嶽停車場線","cls":"secondary","shops":0,"st_km":3.33,"mesh":"53395113"},"geometry":{"type":"LineString","coordinates":[[139.17076,35.76305],[139.17068,35.76285]]}},{"type":"Feature","properties":{"idx":2,"road":"十里木御嶽停車場線","cls":"secondary","shops":0,"st_km":3.56,"mesh":"53395113"},"geometry":{"type":"LineString","coordinates":[[139.1706,35.76272],[139.17056,35.76194],[139.17063,35.76173],[139.17089,35.76134],[139.17146,35.76068],[139.17156,35.76046],[139.17153,35.76031],[139.17053,35.75936]]}},{"type":"Feature","properties":{"idx":53,"road":"奥多摩青梅線","cls":"primary","shops":0,"st_km":0.41,"mesh":"53395166"},"geometry":{"type":"LineString","coordinates":[[139.20807,35.80311],[139.20827,35.80346],[139.20834,35.80385],[139.20826,35.8043],[139.20806,35.80471]]}},{"type":"Feature","properties":{"idx":129,"road":"多摩川南岸道路","cls":"primary","shops":0,"st_km":0.57,"mesh":"53395170"},"geometry":{"type":"LineString","coordinates":[[139.1342,35.81173],[139.13456,35.81192],[139.1347,35.81208],[139.13476,35.81224],[139.13477,35.81251],[139.1345,35.81339],[139.13463,35.81357],[139.13493,35.81369],[139.13494,35.8138],[139.13477,35.81391]]}},{"type":"Feature","properties":{"idx":11,"road":"下畑軍畑線","cls":"secondary","shops":0,"st_km":1.34,"mesh":"53395186"},"geometry":{"type":"LineString","coordinates":[[139.21125,35.82425],[139.21096,35.82379],[139.2109,35.82348],[139.21062,35.82308],[139.21033,35.82218],[139.20986,35.82172],[139.20972,35.82152],[139.20973,35.82108],[139.20967,35.82087],[139.20953,35.82075],[139.20903,35.82064],[139.2089,35.8205],[139.20899,35.82035],[139.20928,35.8202],[139.20933,35.82006],[139.20927,35.81994],[139.20891,35.81982],[139.20882,35.81972],[139.20884,35.81962],[139.20909,35.8194],[139.20914,35.81928],[139.2091,35.81918],[139.20873,35.81889],[139.20865,35.81874],[139.20868,35.81856],[139.20889,35.81828],[139.2089,35.81816],[139.20848,35.81737],[139.20837,35.81659],[139.20787,35.8158],[139.20792,35.81549],[139.20838,35.81478],[139.20839,35.81444]]}},{"type":"Feature","properties":{"idx":47,"road":"吉野街道","cls":"primary","shops":0,"st_km":0.6,"mesh":"53395166"},"geometry":{"type":"LineString","coordinates":[[139.20718,35.80348],[139.20647,35.80374],[139.20525,35.80385],[139.19892,35.80341]]}},{"type":"Feature","properties":{"idx":6,"road":"十里木御嶽停車場線","cls":"secondary","shops":0,"st_km":4.79,"mesh":"53395104"},"geometry":{"type":"LineString","coordinates":[[139.1798,35.75343],[139.17988,35.75326],[139.18038,35.75285],[139.18072,35.75271],[139.18109,35.75263],[139.18144,35.75247],[139.18158,35.75231],[139.18212,35.75148]]}},{"type":"Feature","properties":{"idx":6,"road":"神谷橋","cls":"secondary","shops":0,"st_km":4.65,"mesh":"53395104"},"geometry":{"type":"LineString","coordinates":[[139.17979,35.75359],[139.1798,35.75343]]}},{"type":"Feature","properties":{"idx":6,"road":"木和田平橋","cls":"secondary","shops":0,"st_km":4.67,"mesh":"53395104"},"geometry":{"type":"LineString","coordinates":[[139.18212,35.75148],[139.18215,35.75122]]}},{"type":"Feature","properties":{"idx":11,"road":"高橋","cls":"secondary","shops":1,"st_km":4.15,"mesh":"53395103"},"geometry":{"type":"LineString","coordinates":[[139.17194,35.75542],[139.17202,35.75527]]}},{"type":"Feature","properties":{"idx":2,"road":"大岳橋","cls":"secondary","shops":1,"st_km":3.75,"mesh":"53395113"},"geometry":{"type":"LineString","coordinates":[[139.17038,35.75878],[139.17041,35.75862]]}},{"type":"Feature","properties":{"idx":9,"road":"十里木御嶽停車場線","cls":"secondary","shops":1,"st_km":4.39,"mesh":"53395104"},"geometry":{"type":"LineString","coordinates":[[139.17202,35.75527],[139.17218,35.75508],[139.17234,35.75501],[139.1731,35.75496],[139.17343,35.75484],[139.17353,35.75469],[139.17359,35.75383],[139.17367,35.75367],[139.17383,35.75356],[139.17445,35.75351],[139.17502,35.75359],[139.17518,35.75375],[139.1758,35.75462],[139.17602,35.75481],[139.17641,35.75495],[139.177,35.755],[139.17743,35.75516],[139.17774,35.75519],[139.17825,35.75513],[139.17883,35.75485],[139.17979,35.75359]]}},{"type":"Feature","properties":{"idx":8,"road":"十里木御嶽停車場線","cls":"secondary","shops":0,"st_km":3.94,"mesh":"53395103"},"geometry":{"type":"LineString","coordinates":[[139.17043,35.75856],[139.17072,35.75814],[139.17154,35.7577],[139.17156,35.75756],[139.17123,35.75712],[139.17118,35.75693],[139.17124,35.75676],[139.17133,35.75668],[139.17183,35.75642],[139.17201,35.75627],[139.17205,35.75583],[139.17191,35.75551],[139.17194,35.75542]]}},{"type":"Feature","properties":{"idx":3,"road":"奥多摩あきる野線","cls":"secondary","shops":0,"st_km":3.01,"mesh":"53395126"},"geometry":{"type":"LineString","coordinates":[[139.20096,35.77475],[139.20087,35.77474]]}},{"type":"Feature","properties":{"idx":3,"road":"奥多摩あきる野線","cls":"secondary","shops":0,"st_km":3.08,"mesh":"53395126"},"geometry":{"type":"LineString","coordinates":[[139.20469,35.76947],[139.20485,35.76969]]}},{"type":"Feature","properties":{"idx":5,"road":"不動橋","cls":"secondary","shops":0,"st_km":2.45,"mesh":"53395134"},"geometry":{"type":"LineString","coordinates":[[139.18414,35.77934],[139.18407,35.77933]]}},{"type":"Feature","properties":{"idx":3,"road":"成木街道","cls":"primary","shops":0,"st_km":3.44,"mesh":"53395198"},"geometry":{"type":"LineString","coordinates":[[139.23319,35.83165],[139.23311,35.83168]]}},{"type":"Feature","properties":{"idx":1,"road":"成木街道","cls":"primary","shops":0,"st_km":3.6,"mesh":"53395199"},"geometry":{"type":"LineString","coordinates":[[139.24643,35.82503],[139.24622,35.82513]]}},{"type":"Feature","properties":{"idx":3,"road":"成木街道","cls":"primary","shops":0,"st_km":3.44,"mesh":"53395198"},"geometry":{"type":"LineString","coordinates":[[139.23338,35.83158],[139.23319,35.83165]]}},{"type":"Feature","properties":{"idx":2,"road":"成木街道","cls":"primary","shops":1,"st_km":3.52,"mesh":"53395199"},"geometry":{"type":"LineString","coordinates":[[139.24454,35.82566],[139.24436,35.8257]]}},{"type":"Feature","properties":{"idx":1,"road":"成木街道","cls":"primary","shops":0,"st_km":3.5,"mesh":"53395199"},"geometry":{"type":"LineString","coordinates":[[139.24254,35.82775],[139.24199,35.82795],[139.24117,35.82811],[139.24077,35.82824],[139.24036,35.8285],[139.2392,35.8295],[139.23853,35.82985],[139.23773,35.83002]]}},{"type":"Feature","properties":{"idx":1,"road":"成木街道","cls":"primary","shops":0,"st_km":3.58,"mesh":"53395199"},"geometry":{"type":"LineString","coordinates":[[139.24622,35.82513],[139.24558,35.82542]]}},{"type":"Feature","properties":{"idx":5,"road":"下畑軍畑線","cls":"secondary","shops":0,"st_km":2.34,"mesh":"53395188"},"geometry":{"type":"LineString","coordinates":[[139.22988,35.82183],[139.22973,35.82194]]}},{"type":"Feature","properties":{"idx":103,"road":"青梅日の出線","cls":"secondary","shops":0,"st_km":2.61,"mesh":"53395108"},"geometry":{"type":"LineString","coordinates":[[139.23743,35.75434],[139.23736,35.75445]]}},{"type":"Feature","properties":{"idx":25,"road":"青梅日の出線","cls":"secondary","shops":0,"st_km":3.02,"mesh":"53395118"},"geometry":{"type":"LineString","coordinates":[[139.23455,35.75782],[139.23428,35.75805],[139.23242,35.75902],[139.2322,35.75918],[139.23162,35.76008],[139.2314,35.76056],[139.23089,35.76088],[139.23045,35.76103],[139.22995,35.76142],[139.22983,35.76152],[139.22966,35.76208],[139.22958,35.7622],[139.22947,35.7623],[139.22918,35.76245],[139.22838,35.76305],[139.22832,35.76339],[139.22796,35.76383],[139.22783,35.76427]]}},{"type":"Feature","properties":{"idx":3,"road":"奥多摩あきる野線","cls":"secondary","shops":0,"st_km":2.82,"mesh":"53395126"},"geometry":{"type":"LineString","coordinates":[[139.20474,35.77318],[139.20465,35.77333]]}},{"type":"Feature","properties":{"idx":3,"road":"奥多摩あきる野線","cls":"secondary","shops":0,"st_km":2.97,"mesh":"53395126"},"geometry":{"type":"LineString","coordinates":[[139.20465,35.77333],[139.2043,35.7738],[139.20402,35.77391],[139.20376,35.77384],[139.2031,35.77332],[139.20296,35.77326],[139.2027,35.77328],[139.20251,35.77343],[139.20221,35.774],[139.20197,35.7743],[139.20136,35.77464],[139.20096,35.77475]]}},{"type":"Feature","properties":{"idx":128,"road":"多摩川南岸道路","cls":"primary","shops":0,"st_km":0.58,"mesh":"53395170"},"geometry":{"type":"LineString","coordinates":[[139.1342,35.81173],[139.13308,35.81129]]}},{"type":"Feature","properties":{"idx":2,"road":"十里木御嶽停車場線","cls":"secondary","shops":1,"st_km":3.76,"mesh":"53395113"},"geometry":{"type":"LineString","coordinates":[[139.17041,35.75862],[139.17043,35.75856]]}},{"type":"Feature","properties":{"idx":85,"road":"奥多摩あきる野線","cls":"secondary","shops":5,"st_km":0.66,"mesh":"53395142"},"geometry":{"type":"LineString","coordinates":[[139.15192,35.78429],[139.15209,35.78396],[139.15196,35.78381],[139.15141,35.78397]]}},{"type":"Feature","properties":{"idx":103,"road":NaN,"cls":"pedestrian","shops":0,"st_km":0.84,"mesh":"53395147"},"geometry":{"type":"LineString","coordinates":[[139.2189,35.79069],[139.2199,35.79105]]}},{"type":"Feature","properties":{"idx":6,"road":"吉野街道","cls":"primary","shops":0,"st_km":0.72,"mesh":"53395163"},"geometry":{"type":"LineString","coordinates":[[139.17471,35.80205],[139.17473,35.8022]]}},{"type":"Feature","properties":{"idx":6,"road":"吉野街道","cls":"primary","shops":0,"st_km":0.72,"mesh":"53395163"},"geometry":{"type":"LineString","coordinates":[[139.17473,35.80224],[139.17477,35.80268]]}},{"type":"Feature","properties":{"idx":26,"road":"青梅日の出線","cls":"secondary","shops":0,"st_km":2.63,"mesh":"53395118"},"geometry":{"type":"LineString","coordinates":[[139.22695,35.76498],[139.22665,35.76506]]}},{"type":"Feature","properties":{"idx":3,"road":"成木街道","cls":"primary","shops":0,"st_km":3.5,"mesh":"53395198"},"geometry":{"type":"LineString","coordinates":[[139.23589,35.83109],[139.23574,35.83115]]}},{"type":"Feature","properties":{"idx":3,"road":"成木街道","cls":"primary","shops":0,"st_km":3.48,"mesh":"53395198"},"geometry":{"type":"LineString","coordinates":[[139.23574,35.83115],[139.2352,35.8313],[139.234,35.83142]]}},{"type":"Feature","properties":{"idx":340,"road":"吉野街道","cls":"primary","shops":0,"st_km":0.76,"mesh":"53395149"},"geometry":{"type":"LineString","coordinates":[[139.24537,35.78385],[139.24388,35.78355],[139.24288,35.78316]]}},{"type":"Feature","properties":{"idx":459,"road":"吉野街道","cls":"primary","shops":1,"st_km":0.93,"mesh":"53395149"},"geometry":{"type":"LineString","coordinates":[[139.24698,35.784],[139.24636,35.78399]]}},{"type":"Feature","properties":{"idx":34,"road":"吉野街道","cls":"primary","shops":0,"st_km":0.73,"mesh":"53395139"},"geometry":{"type":"LineString","coordinates":[[139.24035,35.78204],[139.23802,35.78064],[139.2374,35.78017]]}},{"type":"Feature","properties":{"idx":53,"road":"吉野街道","cls":"primary","shops":1,"st_km":0.66,"mesh":"53395139"},"geometry":{"type":"LineString","coordinates":[[139.24168,35.78275],[139.24148,35.78269]]}},{"type":"Feature","properties":{"idx":26,"road":"吉野街道","cls":"primary","shops":0,"st_km":0.92,"mesh":"53395138"},"geometry":{"type":"LineString","coordinates":[[139.23637,35.77946],[139.23598,35.77937],[139.23523,35.77929]]}},{"type":"Feature","properties":{"idx":38,"road":"吉野街道","cls":"primary","shops":1,"st_km":0.95,"mesh":"53395138"},"geometry":{"type":"LineString","coordinates":[[139.23523,35.77929],[139.23451,35.77923]]}},{"type":"Feature","properties":{"idx":232,"road":"吉野街道","cls":"primary","shops":0,"st_km":0.58,"mesh":"53395148"},"geometry":{"type":"LineString","coordinates":[[139.22567,35.7844],[139.2255,35.78462]]}},{"type":"Feature","properties":{"idx":164,"road":"吉野街道","cls":"primary","shops":0,"st_km":0.87,"mesh":"53395157"},"geometry":{"type":"LineString","coordinates":[[139.21767,35.79249],[139.21572,35.79364]]}},{"type":"Feature","properties":{"idx":47,"road":"吉野街道","cls":"primary","shops":0,"st_km":0.6,"mesh":"53395166"},"geometry":{"type":"LineString","coordinates":[[139.21175,35.79965],[139.21093,35.80057],[139.21012,35.80179],[139.20955,35.80228]]}},{"type":"Feature","properties":{"idx":138,"road":"吉野街道","cls":"primary","shops":1,"st_km":0.67,"mesh":"53395172"},"geometry":{"type":"LineString","coordinates":[[139.15733,35.80873],[139.15466,35.81099],[139.15444,35.81129],[139.15392,35.81236],[139.15327,35.81297],[139.15293,35.81376]]}},{"type":"Feature","properties":{"idx":35,"road":"成木街道","cls":"primary","shops":1,"st_km":3.62,"mesh":"53395189"},"geometry":{"type":"LineString","coordinates":[[139.24845,35.82328],[139.24847,35.82334]]}},{"type":"Feature","properties":{"idx":24,"road":"成木街道","cls":"primary","shops":0,"st_km":3.06,"mesh":"53395189"},"geometry":{"type":"LineString","coordinates":[[139.24523,35.81902],[139.24532,35.81905]]}},{"type":"Feature","properties":{"idx":24,"road":"成木街道","cls":"primary","shops":0,"st_km":3.03,"mesh":"53395189"},"geometry":{"type":"LineString","coordinates":[[139.2447,35.8187],[139.24485,35.81887],[139.24523,35.81902]]}},{"type":"Feature","properties":{"idx":22,"road":"下畑軍畑線","cls":"secondary","shops":0,"st_km":2.53,"mesh":"53395189"},"geometry":{"type":"LineString","coordinates":[[139.23786,35.81856],[139.23748,35.81851]]}},{"type":"Feature","properties":{"idx":22,"road":"下畑軍畑線","cls":"secondary","shops":0,"st_km":2.69,"mesh":"53395189"},"geometry":{"type":"LineString","coordinates":[[139.24165,35.81865],[139.23937,35.81855],[139.23834,35.81865],[139.23812,35.81862]]}},{"type":"Feature","properties":{"idx":24,"road":"成木街道","cls":"primary","shops":0,"st_km":2.99,"mesh":"53395189"},"geometry":{"type":"LineString","coordinates":[[139.24471,35.81845],[139.24471,35.81858]]}},{"type":"Feature","properties":{"idx":4,"road":"成木街道","cls":"primary","shops":0,"st_km":3.13,"mesh":"53395197"},"geometry":{"type":"LineString","coordinates":[[139.21973,35.83473],[139.21994,35.83459],[139.22085,35.83422],[139.22203,35.83319],[139.22232,35.83308],[139.22252,35.83305],[139.2245,35.83314]]}},{"type":"Feature","properties":{"idx":4,"road":"成木街道","cls":"primary","shops":0,"st_km":3.22,"mesh":"53395197"},"geometry":{"type":"LineString","coordinates":[[139.2245,35.83314],[139.22454,35.83314]]}},{"type":"Feature","properties":{"idx":3,"road":"成木街道","cls":"primary","shops":0,"st_km":3.18,"mesh":"53395198"},"geometry":{"type":"LineString","coordinates":[[139.22454,35.83314],[139.22485,35.83314],[139.22512,35.83303],[139.22528,35.83289],[139.22537,35.83274],[139.2254,35.83245],[139.22551,35.83225],[139.22636,35.8319],[139.22697,35.83154],[139.22774,35.83144],[139.22866,35.83115],[139.22915,35.8311],[139.22975,35.83122],[139.23013,35.8315]]}},{"type":"Feature","properties":{"idx":3,"road":"成木街道","cls":"primary","shops":0,"st_km":3.32,"mesh":"53395198"},"geometry":{"type":"LineString","coordinates":[[139.23013,35.8315],[139.23034,35.83174]]}},{"type":"Feature","properties":{"idx":3,"road":"成木街道","cls":"primary","shops":0,"st_km":3.42,"mesh":"53395198"},"geometry":{"type":"LineString","coordinates":[[139.23093,35.83214],[139.23126,35.8322],[139.23166,35.83216]]}},{"type":"Feature","properties":{"idx":1,"road":"成木街道","cls":"primary","shops":0,"st_km":3.48,"mesh":"53395199"},"geometry":{"type":"LineString","coordinates":[[139.23773,35.83002],[139.23741,35.83009]]}},{"type":"Feature","properties":{"idx":3,"road":"成木街道","cls":"primary","shops":0,"st_km":3.49,"mesh":"53395198"},"geometry":{"type":"LineString","coordinates":[[139.23741,35.83009],[139.23713,35.8302],[139.23635,35.83082],[139.23589,35.83109]]}},{"type":"Feature","properties":{"idx":1,"road":"成木街道","cls":"primary","shops":0,"st_km":3.56,"mesh":"53395199"},"geometry":{"type":"LineString","coordinates":[[139.24276,35.82764],[139.24254,35.82775]]}},{"type":"Feature","properties":{"idx":1,"road":"成木街道","cls":"primary","shops":0,"st_km":3.53,"mesh":"53395199"},"geometry":{"type":"LineString","coordinates":[[139.24436,35.8257],[139.24411,35.82577],[139.24388,35.82597],[139.24353,35.82702],[139.24324,35.82735],[139.24298,35.82751]]}},{"type":"Feature","properties":{"idx":21,"road":"下畑軍畑線","cls":"secondary","shops":0,"st_km":3.66,"mesh":"53395189"},"geometry":{"type":"LineString","coordinates":[[139.24871,35.82335],[139.24926,35.82328],[139.24975,35.82312]]}},{"type":"Feature","properties":{"idx":1,"road":"成木街道","cls":"primary","shops":0,"st_km":3.57,"mesh":"53395199"},"geometry":{"type":"LineString","coordinates":[[139.24558,35.82542],[139.24543,35.82547]]}},{"type":"Feature","properties":{"idx":2,"road":"成木街道","cls":"primary","shops":1,"st_km":3.54,"mesh":"53395199"},"geometry":{"type":"LineString","coordinates":[[139.24543,35.82547],[139.24454,35.82566]]}},{"type":"Feature","properties":{"idx":23,"road":"成木街道","cls":"primary","shops":0,"st_km":3.63,"mesh":"53395189"},"geometry":{"type":"LineString","coordinates":[[139.24847,35.82334],[139.24813,35.82385]]}},{"type":"Feature","properties":{"idx":23,"road":"成木街道","cls":"primary","shops":0,"st_km":3.64,"mesh":"53395189"},"geometry":{"type":"LineString","coordinates":[[139.24813,35.82385],[139.2478,35.82432],[139.24765,35.82446],[139.24643,35.82503]]}},{"type":"Feature","properties":{"idx":10,"road":"下畑軍畑線","cls":"secondary","shops":2,"st_km":2.34,"mesh":"53395188"},"geometry":{"type":"LineString","coordinates":[[139.23049,35.82142],[139.22988,35.82183]]}},{"type":"Feature","properties":{"idx":24,"road":"成木街道","cls":"primary","shops":0,"st_km":3.0,"mesh":"53395189"},"geometry":{"type":"LineString","coordinates":[[139.24471,35.81858],[139.2447,35.8187]]}},{"type":"Feature","properties":{"idx":36,"road":"成木街道","cls":"primary","shops":1,"st_km":2.98,"mesh":"53395189"},"geometry":{"type":"LineString","coordinates":[[139.2452,35.81816],[139.24471,35.81845]]}},{"type":"Feature","properties":{"idx":22,"road":"下畑軍畑線","cls":"secondary","shops":0,"st_km":2.84,"mesh":"53395189"},"geometry":{"type":"LineString","coordinates":[[139.24219,35.81859],[139.24165,35.81865]]}},{"type":"Feature","properties":{"idx":22,"road":"下畑軍畑線","cls":"secondary","shops":0,"st_km":2.88,"mesh":"53395189"},"geometry":{"type":"LineString","coordinates":[[139.24279,35.81851],[139.24219,35.81859]]}},{"type":"Feature","properties":{"idx":6,"road":"吉野街道","cls":"primary","shops":0,"st_km":0.18,"mesh":"53395154"},"geometry":{"type":"LineString","coordinates":[[139.18292,35.79989],[139.18249,35.79975],[139.1821,35.79975]]}},{"type":"Feature","properties":{"idx":2,"road":"十里木御嶽停車場線","cls":"secondary","shops":0,"st_km":0.05,"mesh":"53395152"},"geometry":{"type":"LineString","coordinates":[[139.1629,35.79661],[139.16251,35.79648],[139.16167,35.79588],[139.16139,35.79582],[139.16111,35.79583]]}},{"type":"Feature","properties":{"idx":3,"road":"十里木御嶽停車場線","cls":"secondary","shops":0,"st_km":0.71,"mesh":"53395153"},"geometry":{"type":"LineString","coordinates":[[139.16896,35.79831],[139.16894,35.79829]]}},{"type":"Feature","properties":{"idx":5,"road":"十里木御嶽停車場線","cls":"secondary","shops":0,"st_km":0.73,"mesh":"53395163"},"geometry":{"type":"LineString","coordinates":[[139.17471,35.80205],[139.17455,35.80214]]}},{"type":"Feature","properties":{"idx":5,"road":"吉野街道","cls":"primary","shops":0,"st_km":0.59,"mesh":"53395154"},"geometry":{"type":"LineString","coordinates":[[139.17855,35.79893],[139.17802,35.79867],[139.17778,35.79861],[139.17744,35.7986],[139.17623,35.79883],[139.17596,35.79897],[139.17573,35.79917]]}},{"type":"Feature","properties":{"idx":6,"road":"吉野街道","cls":"primary","shops":0,"st_km":0.3,"mesh":"53395154"},"geometry":{"type":"LineString","coordinates":[[139.18618,35.80106],[139.18606,35.80062],[139.18593,35.80037],[139.18567,35.80006],[139.18533,35.79983],[139.18501,35.79969],[139.18474,35.79965],[139.18367,35.79978]]}},{"type":"Feature","properties":{"idx":93,"road":"吉野街道","cls":"primary","shops":2,"st_km":0.6,"mesh":"53395166"},"geometry":{"type":"LineString","coordinates":[[139.20955,35.80228],[139.20923,35.80253]]}},{"type":"Feature","properties":{"idx":49,"road":"吉野街道","cls":"primary","shops":0,"st_km":0.53,"mesh":"53395166"},"geometry":{"type":"LineString","coordinates":[[139.20905,35.80265],[139.20807,35.80311]]}},{"type":"Feature","properties":{"idx":276,"road":"吉野街道","cls":"primary","shops":0,"st_km":0.63,"mesh":"53395156"},"geometry":{"type":"LineString","coordinates":[[139.21203,35.79934],[139.21175,35.79965]]}},{"type":"Feature","properties":{"idx":181,"road":"吉野街道","cls":"primary","shops":0,"st_km":0.7,"mesh":"53395157"},"geometry":{"type":"LineString","coordinates":[[139.21363,35.7968],[139.2135,35.79743],[139.21327,35.79794],[139.21203,35.79934]]}},{"type":"Feature","properties":{"idx":158,"road":"吉野街道","cls":"primary","shops":0,"st_km":0.93,"mesh":"53395157"},"geometry":{"type":"LineString","coordinates":[[139.21427,35.79485],[139.21392,35.79557],[139.21363,35.7968]]}},{"type":"Feature","properties":{"idx":152,"road":"吉野街道","cls":"primary","shops":0,"st_km":1.0,"mesh":"53395157"},"geometry":{"type":"LineString","coordinates":[[139.21461,35.79436],[139.21427,35.79485]]}},{"type":"Feature","properties":{"idx":155,"road":"吉野街道","cls":"primary","shops":0,"st_km":0.96,"mesh":"53395157"},"geometry":{"type":"LineString","coordinates":[[139.21504,35.79407],[139.21499,35.7941]]}},{"type":"Feature","properties":{"idx":169,"road":"吉野街道","cls":"primary","shops":0,"st_km":0.82,"mesh":"53395157"},"geometry":{"type":"LineString","coordinates":[[139.21845,35.79204],[139.21767,35.79249]]}},{"type":"Feature","properties":{"idx":144,"road":"吉野街道","cls":"primary","shops":1,"st_km":0.79,"mesh":"53395147"},"geometry":{"type":"LineString","coordinates":[[139.22063,35.79025],[139.21987,35.79109],[139.21953,35.79138],[139.21845,35.79204]]}},{"type":"Feature","properties":{"idx":154,"road":"吉野街道","cls":"primary","shops":1,"st_km":0.69,"mesh":"53395147"},"geometry":{"type":"LineString","coordinates":[[139.2232,35.78742],[139.22149,35.78936],[139.22063,35.79025]]}},{"type":"Feature","properties":{"idx":223,"road":"吉野街道","cls":"primary","shops":2,"st_km":0.56,"mesh":"53395147"},"geometry":{"type":"LineString","coordinates":[[139.22435,35.78605],[139.2232,35.78742]]}},{"type":"Feature","properties":{"idx":234,"road":"吉野街道","cls":"primary","shops":0,"st_km":0.57,"mesh":"53395148"},"geometry":{"type":"LineString","coordinates":[[139.22539,35.78475],[139.22527,35.78491]]}},{"type":"Feature","properties":{"idx":233,"road":"吉野街道","cls":"primary","shops":0,"st_km":0.57,"mesh":"53395148"},"geometry":{"type":"LineString","coordinates":[[139.2255,35.78462],[139.22539,35.78475]]}},{"type":"Feature","properties":{"idx":83,"road":"吉野街道","cls":"primary","shops":4,"st_km":0.82,"mesh":"53395138"},"geometry":{"type":"LineString","coordinates":[[139.22779,35.78105],[139.22691,35.78179],[139.22662,35.78211]]}},{"type":"Feature","properties":{"idx":57,"road":"吉野街道","cls":"primary","shops":2,"st_km":0.75,"mesh":"53395138"},"geometry":{"type":"LineString","coordinates":[[139.22662,35.78211],[139.2264,35.78267]]}},{"type":"Feature","properties":{"idx":36,"road":"吉野街道","cls":"primary","shops":1,"st_km":1.07,"mesh":"53395138"},"geometry":{"type":"LineString","coordinates":[[139.23355,35.77919],[139.23199,35.77913],[139.23133,35.77917],[139.23058,35.7794],[139.22957,35.77997]]}},{"type":"Feature","properties":{"idx":25,"road":"吉野街道","cls":"primary","shops":0,"st_km":0.98,"mesh":"53395138"},"geometry":{"type":"LineString","coordinates":[[139.2341,35.77921],[139.23355,35.77919]]}},{"type":"Feature","properties":{"idx":27,"road":"吉野街道","cls":"primary","shops":0,"st_km":0.87,"mesh":"53395138"},"geometry":{"type":"LineString","coordinates":[[139.2374,35.78017],[139.23675,35.77966],[139.23637,35.77946]]}},{"type":"Feature","properties":{"idx":53,"road":"吉野街道","cls":"primary","shops":1,"st_km":0.66,"mesh":"53395139"},"geometry":{"type":"LineString","coordinates":[[139.24148,35.78269],[139.24035,35.78204]]}},{"type":"Feature","properties":{"idx":53,"road":"吉野街道","cls":"primary","shops":1,"st_km":0.68,"mesh":"53395139"},"geometry":{"type":"LineString","coordinates":[[139.24288,35.78316],[139.24168,35.78275]]}},{"type":"Feature","properties":{"idx":319,"road":"吉野街道","cls":"primary","shops":0,"st_km":0.86,"mesh":"53395149"},"geometry":{"type":"LineString","coordinates":[[139.24605,35.78396],[139.24537,35.78385]]}},{"type":"Feature","properties":{"idx":468,"road":"吉野街道","cls":"primary","shops":1,"st_km":0.9,"mesh":"53395149"},"geometry":{"type":"LineString","coordinates":[[139.24636,35.78399],[139.24605,35.78396]]}},{"type":"Feature","properties":{"idx":286,"road":"吉野街道","cls":"primary","shops":0,"st_km":1.06,"mesh":"53395149"},"geometry":{"type":"LineString","coordinates":[[139.24855,35.78396],[139.24787,35.78399]]}},{"type":"Feature","properties":{"idx":71,"road":"吉野街道","cls":"primary","shops":1,"st_km":0.57,"mesh":"53395166"},"geometry":{"type":"LineString","coordinates":[[139.20923,35.80253],[139.20905,35.80265]]}},{"type":"Feature","properties":{"idx":102,"road":"吉野街道","cls":"primary","shops":2,"st_km":0.48,"mesh":"53395166"},"geometry":{"type":"LineString","coordinates":[[139.20807,35.80311],[139.20718,35.80348]]}},{"type":"Feature","properties":{"idx":67,"road":"吉野街道","cls":"primary","shops":0,"st_km":0.49,"mesh":"53395165"},"geometry":{"type":"LineString","coordinates":[[139.19839,35.80338],[139.1976,35.80327],[139.19709,35.80312]]}},{"type":"Feature","properties":{"idx":105,"road":"吉野街道","cls":"primary","shops":1,"st_km":0.42,"mesh":"53395165"},"geometry":{"type":"LineString","coordinates":[[139.19709,35.80312],[139.19605,35.80267],[139.19537,35.80254],[139.19484,35.80259],[139.19361,35.80297]]}},{"type":"Feature","properties":{"idx":6,"road":"吉野街道","cls":"primary","shops":0,"st_km":0.18,"mesh":"53395154"},"geometry":{"type":"LineString","coordinates":[[139.18367,35.79978],[139.18292,35.79989]]}},{"type":"Feature","properties":{"idx":16,"road":"上成木川井線","cls":"secondary","shops":0,"st_km":1.68,"mesh":"53395193"},"geometry":{"type":"LineString","coordinates":[[139.1654,35.82893],[139.1654,35.82888]]}},{"type":"Feature","properties":{"idx":16,"road":"上成木川井線","cls":"secondary","shops":0,"st_km":1.7,"mesh":"53395193"},"geometry":{"type":"LineString","coordinates":[[139.16542,35.82913],[139.1654,35.82893]]}},{"type":"Feature","properties":{"idx":17,"road":"上成木川井線","cls":"secondary","shops":0,"st_km":1.58,"mesh":"53395193"},"geometry":{"type":"LineString","coordinates":[[139.1654,35.82888],[139.16528,35.8286],[139.16473,35.82804],[139.16438,35.82729],[139.16423,35.82713]]}},{"type":"Feature","properties":{"idx":18,"road":"上成木川井線","cls":"secondary","shops":0,"st_km":1.4,"mesh":"53395193"},"geometry":{"type":"LineString","coordinates":[[139.16423,35.82713],[139.16393,35.82692],[139.16347,35.82678],[139.16333,35.82661],[139.16274,35.82619],[139.16261,35.82598],[139.16258,35.82579],[139.16262,35.82557],[139.16278,35.82526]]}},{"type":"Feature","properties":{"idx":18,"road":"上成木川井線","cls":"secondary","shops":0,"st_km":0.89,"mesh":"53395182"},"geometry":{"type":"LineString","coordinates":[[139.16178,35.8214],[139.162,35.82175]]}},{"type":"Feature","properties":{"idx":100,"road":"上成木川井線","cls":"secondary","shops":0,"st_km":0.41,"mesh":"53395172"},"geometry":{"type":"LineString","coordinates":[[139.16224,35.81567],[139.16222,35.81591],[139.16152,35.81636],[139.1609,35.81712],[139.1609,35.81727],[139.16106,35.8178]]}},{"type":"Feature","properties":{"idx":21,"road":"下畑軍畑線","cls":"secondary","shops":0,"st_km":3.63,"mesh":"53395189"},"geometry":{"type":"LineString","coordinates":[[139.24857,35.82334],[139.24871,35.82335]]}},{"type":"Feature","properties":{"idx":145,"road":NaN,"cls":"pedestrian","shops":1,"st_km":0.94,"mesh":"53395147"},"geometry":{"type":"LineString","coordinates":[[139.21912,35.78609],[139.21923,35.78618],[139.21973,35.78611],[139.22005,35.78621]]}},{"type":"Feature","properties":{"idx":95,"road":NaN,"cls":"pedestrian","shops":0,"st_km":0.97,"mesh":"53395147"},"geometry":{"type":"LineString","coordinates":[[139.21973,35.78611],[139.2196,35.78571],[139.2196,35.78551],[139.21927,35.78525],[139.21908,35.785],[139.21883,35.78482],[139.21867,35.78441],[139.21878,35.78437],[139.21886,35.78441],[139.2189,35.78456],[139.21902,35.78468],[139.21929,35.78467],[139.21941,35.78482],[139.21955,35.78481],[139.2197,35.78501],[139.22006,35.78498],[139.22025,35.7851],[139.2203,35.78526],[139.2204,35.78531],[139.22067,35.7851],[139.2207,35.78491],[139.22081,35.78484],[139.2208,35.78476],[139.22055,35.78444],[139.22039,35.78408],[139.22045,35.78408],[139.2208,35.78449],[139.22128,35.78483]]}},{"type":"Feature","properties":{"idx":3,"road":"大久野青梅線","cls":"secondary","shops":0,"st_km":2.85,"mesh":"53395126"},"geometry":{"type":"LineString","coordinates":[[139.20564,35.77151],[139.20641,35.77159]]}},{"type":"Feature","properties":{"idx":25,"road":"大久野青梅線","cls":"secondary","shops":0,"st_km":1.57,"mesh":"53395137"},"geometry":{"type":"LineString","coordinates":[[139.21724,35.77848],[139.21803,35.77827]]}},{"type":"Feature","properties":{"idx":7,"road":"十里木御嶽停車場線","cls":"secondary","shops":6,"st_km":0.06,"mesh":"53395152"},"geometry":{"type":"LineString","coordinates":[[139.16088,35.79578],[139.16094,35.79585]]}},{"type":"Feature","properties":{"idx":10,"road":"十里木御嶽停車場線","cls":"secondary","shops":9,"st_km":0.05,"mesh":"53395152"},"geometry":{"type":"LineString","coordinates":[[139.16096,35.79587],[139.16111,35.79583]]}},{"type":"Feature","properties":{"idx":4,"road":"十里木御嶽停車場線","cls":"secondary","shops":2,"st_km":0.08,"mesh":"53395152"},"geometry":{"type":"LineString","coordinates":[[139.16072,35.79567],[139.16088,35.79578]]}},{"type":"Feature","properties":{"idx":4,"road":"十里木御嶽停車場線","cls":"secondary","shops":0,"st_km":0.59,"mesh":"53395153"},"geometry":{"type":"LineString","coordinates":[[139.16886,35.79823],[139.16829,35.7978],[139.16777,35.79761],[139.16736,35.79735],[139.1667,35.79717]]}},{"type":"Feature","properties":{"idx":4,"road":"十里木御嶽停車場線","cls":"secondary","shops":0,"st_km":0.48,"mesh":"53395153"},"geometry":{"type":"LineString","coordinates":[[139.1667,35.79717],[139.16655,35.79716]]}},{"type":"Feature","properties":{"idx":8,"road":"十里木御嶽停車場線","cls":"secondary","shops":7,"st_km":0.06,"mesh":"53395152"},"geometry":{"type":"LineString","coordinates":[[139.16094,35.79585],[139.16096,35.79587]]}},{"type":"Feature","properties":{"idx":5,"road":"十里木御嶽停車場線","cls":"secondary","shops":0,"st_km":0.88,"mesh":"53395163"},"geometry":{"type":"LineString","coordinates":[[139.17455,35.80214],[139.17429,35.80226],[139.17371,35.80231],[139.17345,35.80228],[139.17298,35.80211],[139.17257,35.8018],[139.17198,35.80082]]}},{"type":"Feature","properties":{"idx":5,"road":"十里木御嶽停車場線","cls":"secondary","shops":0,"st_km":0.97,"mesh":"53395163"},"geometry":{"type":"LineString","coordinates":[[139.17198,35.80082],[139.17195,35.8008]]}},{"type":"Feature","properties":{"idx":6,"road":"吉野街道","cls":"primary","shops":0,"st_km":0.72,"mesh":"53395163"},"geometry":{"type":"LineString","coordinates":[[139.17473,35.8022],[139.17473,35.80224]]}},{"type":"Feature","properties":{"idx":1,"road":"十里木御嶽停車場線","cls":"secondary","shops":0,"st_km":0.27,"mesh":"53395152"},"geometry":{"type":"LineString","coordinates":[[139.15893,35.79501],[139.15891,35.79483]]}},{"type":"Feature","properties":{"idx":32,"road":"十里木御嶽停車場線","cls":"secondary","shops":0,"st_km":0.35,"mesh":"53395142"},"geometry":{"type":"LineString","coordinates":[[139.15108,35.7869],[139.1511,35.78703],[139.15097,35.78725],[139.15103,35.7874],[139.15109,35.78744],[139.15109,35.78726],[139.15136,35.78713],[139.1515,35.787],[139.15149,35.78709],[139.15132,35.78726],[139.15132,35.78734],[139.15158,35.78765],[139.15186,35.78777],[139.15201,35.78807]]}},{"type":"Feature","properties":{"idx":36,"road":"十里木御嶽停車場線","cls":"secondary","shops":0,"st_km":0.23,"mesh":"53395142"},"geometry":{"type":"LineString","coordinates":[[139.15201,35.78807],[139.15204,35.7881]]}},{"type":"Feature","properties":{"idx":29,"road":"大久野青梅線","cls":"secondary","shops":0,"st_km":1.16,"mesh":"53395137"},"geometry":{"type":"LineString","coordinates":[[139.2197,35.77978],[139.22041,35.78023],[139.22065,35.78029],[139.2216,35.78035],[139.2225,35.78083],[139.22366,35.78105]]}},{"type":"Feature","properties":{"idx":25,"road":"青梅日の出線","cls":"secondary","shops":0,"st_km":1.63,"mesh":"53395137"},"geometry":{"type":"LineString","coordinates":[[139.21774,35.77752],[139.21778,35.77759]]}},{"type":"Feature","properties":{"idx":26,"road":"大久野青梅線","cls":"secondary","shops":0,"st_km":1.44,"mesh":"53395137"},"geometry":{"type":"LineString","coordinates":[[139.21803,35.77827],[139.21828,35.77881],[139.2189,35.77942],[139.21964,35.77975]]}},{"type":"Feature","properties":{"idx":27,"road":"大久野青梅線","cls":"secondary","shops":0,"st_km":1.33,"mesh":"53395137"},"geometry":{"type":"LineString","coordinates":[[139.21964,35.77975],[139.2197,35.77978]]}},{"type":"Feature","properties":{"idx":3,"road":"青梅日の出線","cls":"secondary","shops":0,"st_km":2.45,"mesh":"53395127"},"geometry":{"type":"LineString","coordinates":[[139.2254,35.76605],[139.22488,35.76653],[139.22472,35.76686],[139.22403,35.76768],[139.22385,35.76784]]}},{"type":"Feature","properties":{"idx":3,"road":"青梅日の出線","cls":"secondary","shops":0,"st_km":2.36,"mesh":"53395127"},"geometry":{"type":"LineString","coordinates":[[139.22385,35.76784],[139.22366,35.76797]]}},{"type":"Feature","properties":{"idx":25,"road":"大久野青梅線","cls":"secondary","shops":0,"st_km":0.8,"mesh":"53395138"},"geometry":{"type":"LineString","coordinates":[[139.22567,35.78172],[139.22589,35.7818],[139.22615,35.78202],[139.22662,35.78211]]}},{"type":"Feature","properties":{"idx":24,"road":"大久野青梅線","cls":"secondary","shops":0,"st_km":0.85,"mesh":"53395138"},"geometry":{"type":"LineString","coordinates":[[139.2256,35.78171],[139.22567,35.78172]]}},{"type":"Feature","properties":{"idx":26,"road":"青梅日の出線","cls":"secondary","shops":0,"st_km":2.58,"mesh":"53395118"},"geometry":{"type":"LineString","coordinates":[[139.22665,35.76506],[139.22649,35.76514],[139.22604,35.76559],[139.22549,35.76597]]}},{"type":"Feature","properties":{"idx":26,"road":"青梅日の出線","cls":"secondary","shops":0,"st_km":2.54,"mesh":"53395118"},"geometry":{"type":"LineString","coordinates":[[139.22549,35.76597],[139.2254,35.76605]]}},{"type":"Feature","properties":{"idx":3,"road":"青梅日の出線","cls":"secondary","shops":0,"st_km":2.31,"mesh":"53395127"},"geometry":{"type":"LineString","coordinates":[[139.22366,35.76797],[139.22344,35.76817],[139.22275,35.76904]]}},{"type":"Feature","properties":{"idx":3,"road":"青梅日の出線","cls":"secondary","shops":0,"st_km":2.26,"mesh":"53395127"},"geometry":{"type":"LineString","coordinates":[[139.22275,35.76904],[139.22269,35.76912]]}},{"type":"Feature","properties":{"idx":33,"road":"大久野青梅線","cls":"secondary","shops":0,"st_km":0.91,"mesh":"53395137"},"geometry":{"type":"LineString","coordinates":[[139.22374,35.78108],[139.2243,35.78146],[139.2256,35.78171]]}},{"type":"Feature","properties":{"idx":32,"road":"大久野青梅線","cls":"secondary","shops":0,"st_km":0.99,"mesh":"53395137"},"geometry":{"type":"LineString","coordinates":[[139.22366,35.78105],[139.22374,35.78108]]}},{"type":"Feature","properties":{"idx":112,"road":"吉野街道","cls":"primary","shops":0,"st_km":0.55,"mesh":"53395147"},"geometry":{"type":"LineString","coordinates":[[139.22527,35.78491],[139.22446,35.78591]]}},{"type":"Feature","properties":{"idx":112,"road":"吉野街道","cls":"primary","shops":0,"st_km":0.55,"mesh":"53395147"},"geometry":{"type":"LineString","coordinates":[[139.22446,35.78591],[139.22435,35.78605]]}},{"type":"Feature","properties":{"idx":25,"road":"青梅あきる野線","cls":"primary","shops":1,"st_km":2.58,"mesh":"53395109"},"geometry":{"type":"LineString","coordinates":[[139.2414,35.75225],[139.2421,35.75292]]}},{"type":"Feature","properties":{"idx":24,"road":"青梅あきる野線","cls":"primary","shops":1,"st_km":2.63,"mesh":"53395109"},"geometry":{"type":"LineString","coordinates":[[139.2421,35.75292],[139.24216,35.75298]]}},{"type":"Feature","properties":{"idx":102,"road":"青梅日の出線","cls":"secondary","shops":0,"st_km":2.66,"mesh":"53395108"},"geometry":{"type":"LineString","coordinates":[[139.23736,35.75445],[139.23647,35.75553]]}},{"type":"Feature","properties":{"idx":97,"road":"青梅日の出線","cls":"secondary","shops":0,"st_km":2.91,"mesh":"53395108"},"geometry":{"type":"LineString","coordinates":[[139.23461,35.75777],[139.23455,35.75782]]}},{"type":"Feature","properties":{"idx":26,"road":"青梅日の出線","cls":"secondary","shops":0,"st_km":2.66,"mesh":"53395118"},"geometry":{"type":"LineString","coordinates":[[139.22781,35.76433],[139.22772,35.76451],[139.22695,35.76498]]}},{"type":"Feature","properties":{"idx":26,"road":"青梅日の出線","cls":"secondary","shops":0,"st_km":2.71,"mesh":"53395118"},"geometry":{"type":"LineString","coordinates":[[139.22783,35.76427],[139.22781,35.76433]]}},{"type":"Feature","properties":{"idx":35,"road":"青梅あきる野線","cls":"primary","shops":2,"st_km":2.32,"mesh":"53395109"},"geometry":{"type":"LineString","coordinates":[[139.24111,35.75197],[139.24078,35.75159],[139.24067,35.75137],[139.24033,35.75022],[139.24025,35.74965],[139.24037,35.74901]]}},{"type":"Feature","properties":{"idx":98,"road":"青梅日の出線","cls":"secondary","shops":0,"st_km":2.84,"mesh":"53395108"},"geometry":{"type":"LineString","coordinates":[[139.23571,35.75632],[139.23545,35.7565],[139.23539,35.7566],[139.23534,35.75696],[139.23519,35.75726],[139.23461,35.75777]]}},{"type":"Feature","properties":{"idx":100,"road":"青梅日の出線","cls":"secondary","shops":0,"st_km":2.77,"mesh":"53395108"},"geometry":{"type":"LineString","coordinates":[[139.2358,35.75626],[139.23571,35.75632]]}},{"type":"Feature","properties":{"idx":100,"road":"青梅日の出線","cls":"secondary","shops":0,"st_km":2.74,"mesh":"53395108"},"geometry":{"type":"LineString","coordinates":[[139.23642,35.7556],[139.23599,35.75611],[139.2358,35.75626]]}},{"type":"Feature","properties":{"idx":101,"road":"青梅日の出線","cls":"secondary","shops":0,"st_km":2.71,"mesh":"53395108"},"geometry":{"type":"LineString","coordinates":[[139.23647,35.75553],[139.23642,35.7556]]}},{"type":"Feature","properties":{"idx":15,"road":"青梅日の出線","cls":"secondary","shops":0,"st_km":2.57,"mesh":"53395109"},"geometry":{"type":"LineString","coordinates":[[139.23853,35.7535],[139.2385,35.75358],[139.23766,35.75412],[139.23743,35.75434]]}},{"type":"Feature","properties":{"idx":15,"road":"青梅日の出線","cls":"secondary","shops":0,"st_km":2.55,"mesh":"53395109"},"geometry":{"type":"LineString","coordinates":[[139.23856,35.75341],[139.23853,35.7535]]}},{"type":"Feature","properties":{"idx":1,"road":"成木街道","cls":"primary","shops":0,"st_km":3.56,"mesh":"53395199"},"geometry":{"type":"LineString","coordinates":[[139.24295,35.82754],[139.2428,35.82762]]}},{"type":"Feature","properties":{"idx":3,"road":"成木街道","cls":"primary","shops":0,"st_km":3.44,"mesh":"53395198"},"geometry":{"type":"LineString","coordinates":[[139.23379,35.83146],[139.23338,35.83158]]}},{"type":"Feature","properties":{"idx":3,"road":"成木街道","cls":"primary","shops":0,"st_km":3.45,"mesh":"53395198"},"geometry":{"type":"LineString","coordinates":[[139.234,35.83142],[139.23379,35.83146]]}},{"type":"Feature","properties":{"idx":3,"road":"成木街道","cls":"primary","shops":0,"st_km":3.36,"mesh":"53395198"},"geometry":{"type":"LineString","coordinates":[[139.23034,35.83174],[139.23051,35.83194],[139.2307,35.83205]]}},{"type":"Feature","properties":{"idx":3,"road":"成木街道","cls":"primary","shops":0,"st_km":3.39,"mesh":"53395198"},"geometry":{"type":"LineString","coordinates":[[139.2307,35.83205],[139.23093,35.83214]]}},{"type":"Feature","properties":{"idx":1,"road":"成木街道","cls":"primary","shops":0,"st_km":3.57,"mesh":"53395199"},"geometry":{"type":"LineString","coordinates":[[139.24298,35.82751],[139.24295,35.82754]]}},{"type":"Feature","properties":{"idx":1,"road":"成木街道","cls":"primary","shops":0,"st_km":3.56,"mesh":"53395199"},"geometry":{"type":"LineString","coordinates":[[139.2428,35.82762],[139.24276,35.82764]]}},{"type":"Feature","properties":{"idx":5,"road":"下畑軍畑線","cls":"secondary","shops":0,"st_km":2.46,"mesh":"53395188"},"geometry":{"type":"LineString","coordinates":[[139.22973,35.82194],[139.22929,35.82227],[139.2292,35.82238],[139.2292,35.82324],[139.22906,35.82366],[139.22893,35.82378],[139.22872,35.82382],[139.228,35.82357],[139.22743,35.82367],[139.22705,35.82355],[139.22687,35.82355],[139.22662,35.82362],[139.22652,35.8237],[139.22635,35.82413],[139.22622,35.82431],[139.22598,35.8245],[139.22553,35.82475],[139.2246,35.82495],[139.22404,35.82487],[139.2239,35.82493],[139.2237,35.82513],[139.22357,35.82517],[139.22278,35.82516],[139.22221,35.82525],[139.22188,35.82539],[139.22096,35.82589],[139.2203,35.82605],[139.21996,35.82649],[139.21984,35.82659],[139.21964,35.82666]]}},{"type":"Feature","properties":{"idx":4,"road":"下畑軍畑線","cls":"secondary","shops":0,"st_km":2.38,"mesh":"53395197"},"geometry":{"type":"LineString","coordinates":[[139.21964,35.82666],[139.21945,35.82669]]}},{"type":"Feature","properties":{"idx":4,"road":"下畑軍畑線","cls":"secondary","shops":0,"st_km":2.25,"mesh":"53395197"},"geometry":{"type":"LineString","coordinates":[[139.21945,35.82669],[139.21916,35.82677],[139.21865,35.8271],[139.21793,35.82721],[139.21692,35.82762],[139.21654,35.82754],[139.21618,35.82716],[139.21604,35.82708],[139.21585,35.82707],[139.21539,35.82723],[139.2152,35.82724],[139.2144,35.82678],[139.21375,35.82687],[139.21356,35.82685],[139.21331,35.82669],[139.21292,35.82656],[139.21259,35.82618],[139.21224,35.82594],[139.212,35.82541],[139.21154,35.82494],[139.21147,35.82459],[139.21131,35.82433]]}},{"type":"Feature","properties":{"idx":9,"road":"下畑軍畑線","cls":"secondary","shops":0,"st_km":1.88,"mesh":"53395186"},"geometry":{"type":"LineString","coordinates":[[139.21131,35.82433],[139.21125,35.82425]]}},{"type":"Feature","properties":{"idx":130,"road":"多摩川南岸道路","cls":"primary","shops":0,"st_km":0.56,"mesh":"53395170"},"geometry":{"type":"LineString","coordinates":[[139.13308,35.81129],[139.13263,35.81111]]}},{"type":"Feature","properties":{"idx":22,"road":"下畑軍畑線","cls":"secondary","shops":0,"st_km":2.56,"mesh":"53395189"},"geometry":{"type":"LineString","coordinates":[[139.23812,35.81862],[139.23793,35.81858]]}},{"type":"Feature","properties":{"idx":22,"road":"下畑軍畑線","cls":"secondary","shops":0,"st_km":2.55,"mesh":"53395189"},"geometry":{"type":"LineString","coordinates":[[139.23793,35.81858],[139.23786,35.81856]]}},{"type":"Feature","properties":{"idx":25,"road":"青梅日の出線","cls":"secondary","shops":0,"st_km":1.59,"mesh":"53395137"},"geometry":{"type":"LineString","coordinates":[[139.21778,35.77759],[139.21803,35.77827]]}},{"type":"Feature","properties":{"idx":5,"road":"奥多摩あきる野線","cls":"secondary","shops":0,"st_km":2.45,"mesh":"53395134"},"geometry":{"type":"LineString","coordinates":[[139.18431,35.77933],[139.18414,35.77934]]}},{"type":"Feature","properties":{"idx":5,"road":"奥多摩あきる野線","cls":"secondary","shops":0,"st_km":2.46,"mesh":"53395134"},"geometry":{"type":"LineString","coordinates":[[139.18444,35.77931],[139.18431,35.77933]]}},{"type":"Feature","properties":{"idx":5,"road":"奥多摩あきる野線","cls":"secondary","shops":0,"st_km":2.49,"mesh":"53395134"},"geometry":{"type":"LineString","coordinates":[[139.18745,35.77883],[139.18667,35.77896],[139.18576,35.7792],[139.1853,35.77919],[139.18444,35.77931]]}},{"type":"Feature","properties":{"idx":4,"road":"奥多摩あきる野線","cls":"secondary","shops":0,"st_km":2.55,"mesh":"53395135"},"geometry":{"type":"LineString","coordinates":[[139.18758,35.77881],[139.18745,35.77883]]}},{"type":"Feature","properties":{"idx":5,"road":"奥多摩あきる野線","cls":"secondary","shops":1,"st_km":2.82,"mesh":"53395135"},"geometry":{"type":"LineString","coordinates":[[139.19296,35.77735],[139.1928,35.77739]]}},{"type":"Feature","properties":{"idx":5,"road":"奥多摩あきる野線","cls":"secondary","shops":1,"st_km":2.82,"mesh":"53395135"},"geometry":{"type":"LineString","coordinates":[[139.1928,35.77739],[139.19273,35.77741]]}},{"type":"Feature","properties":{"idx":4,"road":"奥多摩あきる野線","cls":"secondary","shops":0,"st_km":2.76,"mesh":"53395135"},"geometry":{"type":"LineString","coordinates":[[139.19164,35.77739],[139.19146,35.77739],[139.19122,35.77746],[139.1905,35.77782]]}},{"type":"Feature","properties":{"idx":4,"road":"奥多摩あきる野線","cls":"secondary","shops":0,"st_km":2.71,"mesh":"53395135"},"geometry":{"type":"LineString","coordinates":[[139.1905,35.77782],[139.19042,35.77786]]}},{"type":"Feature","properties":{"idx":4,"road":"奥多摩あきる野線","cls":"secondary","shops":0,"st_km":2.79,"mesh":"53395135"},"geometry":{"type":"LineString","coordinates":[[139.19273,35.77741],[139.19235,35.77747],[139.19174,35.77742]]}},{"type":"Feature","properties":{"idx":4,"road":"奥多摩あきる野線","cls":"secondary","shops":0,"st_km":2.79,"mesh":"53395135"},"geometry":{"type":"LineString","coordinates":[[139.19174,35.77742],[139.19164,35.77739]]}},{"type":"Feature","properties":{"idx":60,"road":"下畑軍畑線","cls":"secondary","shops":0,"st_km":0.14,"mesh":"53395166"},"geometry":{"type":"LineString","coordinates":[[139.20928,35.80798],[139.2092,35.80756],[139.20885,35.80723],[139.20877,35.80707]]}},{"type":"Feature","properties":{"idx":60,"road":"下畑軍畑線","cls":"secondary","shops":0,"st_km":0.12,"mesh":"53395166"},"geometry":{"type":"LineString","coordinates":[[139.20877,35.80707],[139.20872,35.80678]]}},{"type":"Feature","properties":{"idx":4,"road":"奥多摩あきる野線","cls":"secondary","shops":0,"st_km":2.99,"mesh":"53395135"},"geometry":{"type":"LineString","coordinates":[[139.1955,35.77522],[139.19464,35.77547],[139.19442,35.77559],[139.19416,35.7759],[139.19411,35.77629],[139.19398,35.77653],[139.19356,35.77696],[139.19296,35.77735]]}},{"type":"Feature","properties":{"idx":3,"road":"奥多摩あきる野線","cls":"secondary","shops":0,"st_km":2.86,"mesh":"53395126"},"geometry":{"type":"LineString","coordinates":[[139.20564,35.77151],[139.20504,35.77237],[139.20474,35.77318]]}},{"type":"Feature","properties":{"idx":24,"road":"奥多摩あきる野線","cls":"secondary","shops":0,"st_km":0.66,"mesh":"53395142"},"geometry":{"type":"LineString","coordinates":[[139.15386,35.78362],[139.15337,35.78366],[139.15304,35.78351],[139.15289,35.78372],[139.15263,35.78389],[139.15215,35.78405],[139.15192,35.78429]]}},{"type":"Feature","properties":{"idx":104,"road":"十里木御嶽停車場線","cls":"secondary","shops":5,"st_km":0.43,"mesh":"53395142"},"geometry":{"type":"LineString","coordinates":[[139.15118,35.78621],[139.15106,35.78626],[139.15094,35.7866],[139.15108,35.7869]]}},{"type":"Feature","properties":{"idx":44,"road":"十里木御嶽停車場線","cls":"secondary","shops":1,"st_km":0.43,"mesh":"53395142"},"geometry":{"type":"LineString","coordinates":[[139.15159,35.78603],[139.15153,35.78625],[139.15123,35.7861],[139.15118,35.78621]]}},{"type":"Feature","properties":{"idx":27,"road":"奥多摩あきる野線","cls":"secondary","shops":0,"st_km":0.52,"mesh":"53395142"},"geometry":{"type":"LineString","coordinates":[[139.15192,35.78429],[139.15185,35.78439],[139.15199,35.78454],[139.15191,35.78507],[139.15178,35.7853],[139.15182,35.78557],[139.15178,35.7859],[139.15159,35.78603]]}}]}