{"type":"FeatureCollection","features":[{"type":"Feature","properties":{"idx":3,"road":"山北藤野線","cls":"primary","shops":0,"st_km":11.95,"mesh":"53392007"},"geometry":{"type":"LineString","coordinates":[[139.09165,35.50489],[139.09201,35.50482],[139.09243,35.50441],[139.09278,35.5044],[139.09311,35.50449],[139.09387,35.50495],[139.09436,35.5051],[139.09513,35.5056],[139.09581,35.50583],[139.0962,35.50608],[139.09643,35.50648],[139.09689,35.50703],[139.0976,35.50766],[139.09796,35.50779],[139.09888,35.5088],[139.09891,35.50927],[139.09883,35.5095],[139.0972,35.51029],[139.09706,35.51043],[139.09702,35.51053],[139.09702,35.51088],[139.09725,35.51125],[139.0974,35.5122],[139.09728,35.51238],[139.0969,35.51275],[139.09672,35.51378],[139.09636,35.51451]]}},{"type":"Feature","properties":{"idx":3,"road":"山北藤野線","cls":"primary","shops":0,"st_km":12.22,"mesh":"53392007"},"geometry":{"type":"LineString","coordinates":[[139.09058,35.50474],[139.09056,35.50497]]}},{"type":"Feature","properties":{"idx":3,"road":"山北藤野線","cls":"primary","shops":0,"st_km":12.25,"mesh":"53392007"},"geometry":{"type":"LineString","coordinates":[[139.09058,35.50474],[139.09074,35.50446]]}},{"type":"Feature","properties":{"idx":3,"road":"山北藤野線","cls":"primary","shops":0,"st_km":12.2,"mesh":"53392007"},"geometry":{"type":"LineString","coordinates":[[139.09056,35.50497],[139.09067,35.50508],[139.0908,35.5051],[139.09122,35.50506],[139.09165,35.50489]]}},{"type":"Feature","properties":{"idx":8,"road":"折花橋","cls":"primary","shops":0,"st_km":10.88,"mesh":"53392027"},"geometry":{"type":"LineString","coordinates":[[139.09634,35.51767],[139.09676,35.51807]]}},{"type":"Feature","properties":{"idx":4,"road":"山北藤野線","cls":"primary","shops":0,"st_km":10.32,"mesh":"53392028"},"geometry":{"type":"LineString","coordinates":[[139.10065,35.52247],[139.10119,35.52264],[139.10153,35.52283],[139.1018,35.52338],[139.10196,35.52357],[139.10219,35.52368],[139.10252,35.52375],[139.10297,35.52395],[139.10311,35.52413],[139.10318,35.52443],[139.1034,35.52463],[139.10357,35.52465],[139.10432,35.52452],[139.10482,35.52458],[139.10551,35.52475],[139.10624,35.52469],[139.10654,35.52471]]}},{"type":"Feature","properties":{"idx":8,"road":"山北藤野線","cls":"primary","shops":0,"st_km":10.7,"mesh":"53392027"},"geometry":{"type":"LineString","coordinates":[[139.09676,35.51807],[139.09737,35.51825],[139.09754,35.51835],[139.09804,35.51913],[139.09837,35.51948],[139.09853,35.51979],[139.09909,35.52039],[139.09946,35.52094],[139.09952,35.52122],[139.10021,35.52192]]}},{"type":"Feature","properties":{"idx":4,"road":"小瀬戸トンネル","cls":"primary","shops":0,"st_km":10.48,"mesh":"53392028"},"geometry":{"type":"LineString","coordinates":[[139.10021,35.52192],[139.10065,35.52247]]}},{"type":"Feature","properties":{"idx":21,"road":"高瀬野橋","cls":"primary","shops":0,"st_km":9.01,"mesh":"53392049"},"geometry":{"type":"LineString","coordinates":[[139.12405,35.53745],[139.12405,35.53768]]}},{"type":"Feature","properties":{"idx":21,"road":"山北藤野線","cls":"primary","shops":0,"st_km":8.84,"mesh":"53392049"},"geometry":{"type":"LineString","coordinates":[[139.12405,35.53768],[139.12412,35.53784],[139.12443,35.53794],[139.12449,35.53803],[139.1245,35.53814],[139.12438,35.53841],[139.12435,35.53875],[139.12448,35.53891],[139.12461,35.53952],[139.12472,35.53965],[139.12491,35.53974],[139.12517,35.53972],[139.12553,35.53916],[139.12565,35.53909]]}},{"type":"Feature","properties":{"idx":8,"road":"山北藤野線","cls":"primary","shops":0,"st_km":10.99,"mesh":"53392027"},"geometry":{"type":"LineString","coordinates":[[139.09583,35.51557],[139.09548,35.51629],[139.09543,35.51648],[139.09544,35.51669],[139.09561,35.51695],[139.09634,35.51767]]}},{"type":"Feature","properties":{"idx":10,"road":"大瀬戸トンネル","cls":"primary","shops":0,"st_km":11.18,"mesh":"53392017"},"geometry":{"type":"LineString","coordinates":[[139.09636,35.51451],[139.09583,35.51557]]}},{"type":"Feature","properties":{"idx":21,"road":"山北藤野線","cls":"primary","shops":0,"st_km":8.78,"mesh":"53392049"},"geometry":{"type":"LineString","coordinates":[[139.11489,35.53667],[139.11527,35.53701],[139.11544,35.53726],[139.11536,35.53743],[139.11489,35.53773],[139.11485,35.53782],[139.11494,35.538],[139.11513,35.53809],[139.11546,35.53836],[139.11529,35.53872],[139.1154,35.53894],[139.11582,35.53917],[139.11618,35.53925],[139.11637,35.53924],[139.11654,35.53916],[139.11679,35.53893],[139.11697,35.53865],[139.11713,35.53862],[139.11727,35.53871],[139.11733,35.53904],[139.11751,35.53922],[139.11872,35.53978],[139.1189,35.53976],[139.119,35.53964],[139.1192,35.53913],[139.11931,35.53907],[139.1197,35.53899],[139.11992,35.53866],[139.12006,35.53859],[139.1209,35.53876],[139.12141,35.539],[139.12199,35.53904],[139.12235,35.53928],[139.12251,35.53933],[139.12264,35.5393],[139.12291,35.53895],[139.12289,35.53851],[139.12307,35.53814],[139.12324,35.53746],[139.12349,35.53724],[139.12353,35.53692],[139.12364,35.53679],[139.12384,35.53673],[139.12402,35.53682],[139.12405,35.53745]]}},{"type":"Feature","properties":{"idx":21,"road":"京田橋","cls":"primary","shops":0,"st_km":9.08,"mesh":"53392049"},"geometry":{"type":"LineString","coordinates":[[139.11452,35.53662],[139.1147,35.53661],[139.11489,35.53667]]}},{"type":"Feature","properties":{"idx":21,"road":"山北藤野線","cls":"primary","shops":0,"st_km":9.19,"mesh":"53392049"},"geometry":{"type":"LineString","coordinates":[[139.1121,35.53391],[139.1121,35.53423],[139.11222,35.53438],[139.11254,35.53465],[139.113,35.53487],[139.11309,35.53499],[139.11293,35.53542],[139.11289,35.53597],[139.11295,35.53609],[139.11307,35.53618],[139.11376,35.53639],[139.11392,35.53676],[139.11402,35.53682],[139.11415,35.53683],[139.11452,35.53662]]}},{"type":"Feature","properties":{"idx":41,"road":"みょうが沢橋","cls":"primary","shops":0,"st_km":9.4,"mesh":"53392048"},"geometry":{"type":"LineString","coordinates":[[139.11213,35.53356],[139.1121,35.53391]]}},{"type":"Feature","properties":{"idx":10,"road":"山北藤野線","cls":"primary","shops":0,"st_km":9.61,"mesh":"53392038"},"geometry":{"type":"LineString","coordinates":[[139.11003,35.53131],[139.11036,35.53132],[139.11042,35.53123],[139.11045,35.53096],[139.11053,35.53081],[139.11063,35.53078],[139.11076,35.53086],[139.11079,35.53112],[139.11098,35.53142],[139.11104,35.53194],[139.11116,35.53203],[139.11141,35.53203],[139.11153,35.53208],[139.11157,35.53218],[139.11157,35.53251],[139.11196,35.53272],[139.11213,35.53293],[139.11213,35.53356]]}},{"type":"Feature","properties":{"idx":10,"road":"室窪小橋","cls":"primary","shops":0,"st_km":9.68,"mesh":"53392038"},"geometry":{"type":"LineString","coordinates":[[139.10977,35.53126],[139.11003,35.53131]]}},{"type":"Feature","properties":{"idx":10,"road":"山北藤野線","cls":"primary","shops":0,"st_km":9.71,"mesh":"53392038"},"geometry":{"type":"LineString","coordinates":[[139.10824,35.52852],[139.10799,35.52874],[139.10753,35.52887],[139.10729,35.52919],[139.10737,35.52995],[139.10706,35.53058],[139.1071,35.53101],[139.10739,35.53139],[139.1075,35.5317],[139.10763,35.53179],[139.10781,35.53176],[139.10893,35.53117],[139.10913,35.53115],[139.10977,35.53126]]}},{"type":"Feature","properties":{"idx":10,"road":"社宮司橋","cls":"primary","shops":0,"st_km":10.0,"mesh":"53392038"},"geometry":{"type":"LineString","coordinates":[[139.10831,35.52844],[139.10824,35.52852]]}},{"type":"Feature","properties":{"idx":10,"road":"山北藤野線","cls":"primary","shops":0,"st_km":10.17,"mesh":"53392038"},"geometry":{"type":"LineString","coordinates":[[139.10651,35.52511],[139.10608,35.52537],[139.10601,35.52553],[139.10604,35.52564],[139.10655,35.52614],[139.10753,35.52694],[139.10779,35.52735],[139.10796,35.52811],[139.10834,35.5283],[139.10831,35.52844]]}},{"type":"Feature","properties":{"idx":4,"road":"エビラ沢橋","cls":"primary","shops":0,"st_km":10.34,"mesh":"53392028"},"geometry":{"type":"LineString","coordinates":[[139.10654,35.52471],[139.10665,35.5248],[139.10667,35.52495],[139.10651,35.52511]]}}]}