{"type":"FeatureCollection","features":[{"type":"Feature","properties":{"idx":143,"road":"","cls":"tertiary","shops":6,"st_km":0.19,"mesh":"53396710"},"geometry":{"type":"LineString","coordinates":[[139.88537,35.84542],[139.88479,35.84569],[139.88477,35.84585],[139.88483,35.84595]]}},{"type":"Feature","properties":{"idx":48,"road":"三郷松伏線","cls":"primary","shops":1,"st_km":0.53,"mesh":"53396710"},"geometry":{"type":"LineString","coordinates":[[139.88112,35.84693],[139.88099,35.84601],[139.88098,35.84446],[139.88103,35.84408],[139.88129,35.84352],[139.88131,35.84312]]}},{"type":"Feature","properties":{"idx":31,"road":"三郷松伏線","cls":"primary","shops":0,"st_km":0.58,"mesh":"53396710"},"geometry":{"type":"LineString","coordinates":[[139.88126,35.84275],[139.88119,35.84205]]}},{"type":"Feature","properties":{"idx":114,"road":"第1仁蔵ガード","cls":"tertiary","shops":0,"st_km":1.05,"mesh":"53396720"},"geometry":{"type":"LineString","coordinates":[[139.87746,35.85046],[139.87808,35.85097]]}},{"type":"Feature","properties":{"idx":129,"road":"","cls":"tertiary","shops":0,"st_km":0.9,"mesh":"53396720"},"geometry":{"type":"LineString","coordinates":[[139.87656,35.8526],[139.8767,35.85284]]}},{"type":"Feature","properties":{"idx":18,"road":"","cls":"tertiary","shops":0,"st_km":0.94,"mesh":"53396710"},"geometry":{"type":"LineString","coordinates":[[139.87906,35.84808],[139.87839,35.84867],[139.87649,35.84999]]}},{"type":"Feature","properties":{"idx":113,"road":"","cls":"tertiary","shops":0,"st_km":1.06,"mesh":"53396720"},"geometry":{"type":"LineString","coordinates":[[139.87669,35.84984],[139.87746,35.85046]]}},{"type":"Feature","properties":{"idx":71,"road":"","cls":"tertiary_link","shops":0,"st_km":1.06,"mesh":"53396720"},"geometry":{"type":"LineString","coordinates":[[139.87617,35.85025],[139.87597,35.85041],[139.87578,35.85034]]}},{"type":"Feature","properties":{"idx":253,"road":"","cls":"tertiary","shops":2,"st_km":0.92,"mesh":"53396720"},"geometry":{"type":"LineString","coordinates":[[139.8788,35.85416],[139.88964,35.85152]]}},{"type":"Feature","properties":{"idx":32,"road":"","cls":"tertiary","shops":0,"st_km":0.29,"mesh":"53396710"},"geometry":{"type":"LineString","coordinates":[[139.88218,35.84606],[139.88278,35.84574],[139.88358,35.84538],[139.88429,35.84514],[139.88534,35.84486]]}},{"type":"Feature","properties":{"idx":72,"road":"","cls":"tertiary_link","shops":0,"st_km":1.04,"mesh":"53396720"},"geometry":{"type":"LineString","coordinates":[[139.87587,35.85072],[139.87587,35.85056],[139.87578,35.85034]]}},{"type":"Feature","properties":{"idx":151,"road":"加藤平沼線","cls":"secondary","shops":0,"st_km":2.83,"mesh":"53396760"},"geometry":{"type":"LineString","coordinates":[[139.88118,35.89011],[139.88094,35.88995],[139.88088,35.88975],[139.8813,35.88737],[139.88143,35.8862]]}},{"type":"Feature","properties":{"idx":185,"road":"三郷松伏線旧道","cls":"tertiary","shops":0,"st_km":2.43,"mesh":"53396750"},"geometry":{"type":"LineString","coordinates":[[139.88143,35.8862],[139.88216,35.88507],[139.88228,35.88467],[139.88238,35.88408],[139.8826,35.88351],[139.88276,35.88323],[139.88315,35.88281],[139.88438,35.88178],[139.88455,35.88142],[139.88455,35.88064],[139.88427,35.87808],[139.88439,35.8765],[139.88406,35.87502],[139.88393,35.8735],[139.88398,35.87287],[139.88443,35.87149],[139.88469,35.87088],[139.88573,35.8698],[139.88722,35.86844],[139.88779,35.86774],[139.88816,35.86769]]}},{"type":"Feature","properties":{"idx":565,"road":"","cls":"tertiary","shops":0,"st_km":1.19,"mesh":"53396721"},"geometry":{"type":"LineString","coordinates":[[139.88536,35.85785],[139.88566,35.85769],[139.89221,35.8561]]}},{"type":"Feature","properties":{"idx":640,"road":"","cls":"tertiary","shops":7,"st_km":0.78,"mesh":"53396720"},"geometry":{"type":"LineString","coordinates":[[139.87929,35.85146],[139.88506,35.85006]]}},{"type":"Feature","properties":{"idx":113,"road":"","cls":"tertiary","shops":0,"st_km":1.06,"mesh":"53396720"},"geometry":{"type":"LineString","coordinates":[[139.87929,35.85146],[139.88213,35.85947]]}},{"type":"Feature","properties":{"idx":418,"road":"","cls":"tertiary","shops":1,"st_km":0.54,"mesh":"53396700"},"geometry":{"type":"LineString","coordinates":[[139.88573,35.84133],[139.8853,35.83877]]}},{"type":"Feature","properties":{"idx":169,"road":"","cls":"tertiary","shops":1,"st_km":1.06,"mesh":"53396720"},"geometry":{"type":"LineString","coordinates":[[139.87784,35.85139],[139.87801,35.85146],[139.87883,35.85147]]}},{"type":"Feature","properties":{"idx":24,"road":"","cls":"tertiary","shops":0,"st_km":0.59,"mesh":"53396710"},"geometry":{"type":"LineString","coordinates":[[139.87947,35.84782],[139.88023,35.84736],[139.88218,35.84606]]}},{"type":"Feature","properties":{"idx":19,"road":"","cls":"tertiary","shops":0,"st_km":0.88,"mesh":"53396710"},"geometry":{"type":"LineString","coordinates":[[139.8793,35.84996],[139.8794,35.84986]]}},{"type":"Feature","properties":{"idx":22,"road":"","cls":"tertiary","shops":0,"st_km":0.72,"mesh":"53396710"},"geometry":{"type":"LineString","coordinates":[[139.87978,35.84949],[139.88052,35.84868],[139.88127,35.84796]]}},{"type":"Feature","properties":{"idx":536,"road":"","cls":"tertiary","shops":2,"st_km":0.59,"mesh":"53396700"},"geometry":{"type":"LineString","coordinates":[[139.88228,35.84115],[139.88215,35.8411]]}},{"type":"Feature","properties":{"idx":171,"road":"","cls":"tertiary","shops":9,"st_km":0.33,"mesh":"53396710"},"geometry":{"type":"LineString","coordinates":[[139.88551,35.84433],[139.88521,35.8434],[139.88491,35.84295],[139.88357,35.84172],[139.88319,35.84148],[139.88265,35.84128]]}},{"type":"Feature","properties":{"idx":73,"road":"小谷堀橋","cls":"primary","shops":0,"st_km":1.06,"mesh":"53396730"},"geometry":{"type":"LineString","coordinates":[[139.87944,35.86338],[139.87972,35.8634]]}},{"type":"Feature","properties":{"idx":60,"road":"","cls":"tertiary","shops":0,"st_km":1.04,"mesh":"53396730"},"geometry":{"type":"LineString","coordinates":[[139.88038,35.86119],[139.88059,35.86162]]}},{"type":"Feature","properties":{"idx":55,"road":"","cls":"tertiary","shops":0,"st_km":1.14,"mesh":"53396730"},"geometry":{"type":"LineString","coordinates":[[139.88059,35.86162],[139.88157,35.86352]]}},{"type":"Feature","properties":{"idx":173,"road":"","cls":"tertiary","shops":0,"st_km":1.11,"mesh":"53396700"},"geometry":{"type":"LineString","coordinates":[[139.87886,35.83641],[139.87521,35.8324]]}},{"type":"Feature","properties":{"idx":62,"road":"草加流山線","cls":"primary","shops":2,"st_km":0.57,"mesh":"53396710"},"geometry":{"type":"LineString","coordinates":[[139.88244,35.84605],[139.88101,35.84617],[139.87918,35.84644]]}},{"type":"Feature","properties":{"idx":66,"road":"越谷流山線","cls":"primary","shops":0,"st_km":1.21,"mesh":"53396730"},"geometry":{"type":"LineString","coordinates":[[139.87972,35.8634],[139.88114,35.86355],[139.88157,35.86352],[139.88212,35.86332],[139.88289,35.86293]]}},{"type":"Feature","properties":{"idx":17,"road":"","cls":"tertiary","shops":0,"st_km":0.99,"mesh":"53396710"},"geometry":{"type":"LineString","coordinates":[[139.87635,35.84222],[139.87631,35.84231]]}},{"type":"Feature","properties":{"idx":130,"road":"","cls":"tertiary","shops":0,"st_km":0.89,"mesh":"53396720"},"geometry":{"type":"LineString","coordinates":[[139.87903,35.85645],[139.87924,35.85643]]}},{"type":"Feature","properties":{"idx":98,"road":"","cls":"tertiary","shops":0,"st_km":1.25,"mesh":"53396720"},"geometry":{"type":"LineString","coordinates":[[139.8796,35.85638],[139.88098,35.85617],[139.88272,35.85583],[139.88681,35.85483]]}},{"type":"Feature","properties":{"idx":136,"road":"","cls":"tertiary","shops":0,"st_km":0.84,"mesh":"53396720"},"geometry":{"type":"LineString","coordinates":[[139.8767,35.85284],[139.8773,35.85397],[139.87834,35.8565]]}},{"type":"Feature","properties":{"idx":191,"road":"","cls":"tertiary","shops":0,"st_km":2.73,"mesh":"53396770"},"geometry":{"type":"LineString","coordinates":[[139.87845,35.89406],[139.87854,35.89411],[139.87881,35.89395],[139.87921,35.89384],[139.88033,35.89378],[139.88055,35.89366],[139.8806,35.89349],[139.88073,35.89156],[139.88067,35.89146],[139.88047,35.89139]]}},{"type":"Feature","properties":{"idx":105,"road":"","cls":"tertiary_link","shops":7,"st_km":0.15,"mesh":"53396710"},"geometry":{"type":"LineString","coordinates":[[139.88537,35.84542],[139.88534,35.84549],[139.88549,35.84559]]}},{"type":"Feature","properties":{"idx":290,"road":"","cls":"tertiary","shops":13,"st_km":0.12,"mesh":"53396710"},"geometry":{"type":"LineString","coordinates":[[139.88549,35.84559],[139.88561,35.84562],[139.88597,35.84558],[139.88607,35.8455],[139.88605,35.84539]]}},{"type":"Feature","properties":{"idx":151,"road":"加藤平沼線","cls":"secondary","shops":0,"st_km":2.79,"mesh":"53396760"},"geometry":{"type":"LineString","coordinates":[[139.88143,35.8862],[139.88107,35.88651],[139.88081,35.88666],[139.88055,35.88675],[139.87972,35.88689],[139.87928,35.88704],[139.87672,35.8884],[139.87323,35.88994],[139.87272,35.89012],[139.87145,35.89045],[139.871,35.89049],[139.86993,35.89039],[139.86886,35.89008]]}},{"type":"Feature","properties":{"idx":180,"road":"三郷松伏線","cls":"primary","shops":0,"st_km":1.99,"mesh":"53396741"},"geometry":{"type":"LineString","coordinates":[[139.88816,35.86769],[139.88816,35.86914],[139.88822,35.8694],[139.88837,35.86971],[139.88874,35.87007],[139.89038,35.87104],[139.89059,35.87123],[139.89085,35.87156],[139.89098,35.87202],[139.89094,35.87239],[139.89079,35.87271],[139.88969,35.87422],[139.88915,35.87514]]}},{"type":"Feature","properties":{"idx":54,"road":"越谷流山線","cls":"primary","shops":0,"st_km":1.49,"mesh":"53396730"},"geometry":{"type":"LineString","coordinates":[[139.88382,35.86247],[139.88511,35.86175],[139.88736,35.86016]]}},{"type":"Feature","properties":{"idx":37,"road":"大広戸ガード","cls":"primary","shops":0,"st_km":0.38,"mesh":"53396710"},"geometry":{"type":"LineString","coordinates":[[139.88345,35.84601],[139.88244,35.84605]]}},{"type":"Feature","properties":{"idx":134,"road":"越谷流山線バイパス","cls":"tertiary","shops":0,"st_km":0.85,"mesh":"53396720"},"geometry":{"type":"LineString","coordinates":[[139.88506,35.85006],[139.88681,35.85483]]}},{"type":"Feature","properties":{"idx":59,"road":"草加流山線","cls":"primary","shops":1,"st_km":0.32,"mesh":"53396710"},"geometry":{"type":"LineString","coordinates":[[139.88367,35.84599],[139.88345,35.84601]]}},{"type":"Feature","properties":{"idx":30,"road":"第2仁蔵ガード","cls":"primary","shops":0,"st_km":0.58,"mesh":"53396710"},"geometry":{"type":"LineString","coordinates":[[139.88123,35.84777],[139.88112,35.84693]]}},{"type":"Feature","properties":{"idx":194,"road":"草加流山線","cls":"primary","shops":6,"st_km":0.12,"mesh":"53396710"},"geometry":{"type":"LineString","coordinates":[[139.88838,35.8458],[139.88498,35.84595]]}},{"type":"Feature","properties":{"idx":117,"road":"","cls":"tertiary","shops":0,"st_km":1.02,"mesh":"53396720"},"geometry":{"type":"LineString","coordinates":[[139.87883,35.85147],[139.8792,35.85147]]}},{"type":"Feature","properties":{"idx":114,"road":"","cls":"tertiary","shops":0,"st_km":1.04,"mesh":"53396720"},"geometry":{"type":"LineString","coordinates":[[139.87808,35.85097],[139.87818,35.85105]]}},{"type":"Feature","properties":{"idx":19,"road":"","cls":"tertiary","shops":0,"st_km":0.85,"mesh":"53396710"},"geometry":{"type":"LineString","coordinates":[[139.8794,35.84986],[139.87978,35.84949]]}},{"type":"Feature","properties":{"idx":13,"road":"","cls":"living_street","shops":0,"st_km":0.98,"mesh":"53396710"},"geometry":{"type":"LineString","coordinates":[[139.87816,35.85023],[139.87771,35.84992],[139.87816,35.84958],[139.87796,35.84934]]}},{"type":"Feature","properties":{"idx":21,"road":"","cls":"tertiary","shops":0,"st_km":0.77,"mesh":"53396710"},"geometry":{"type":"LineString","coordinates":[[139.87906,35.84808],[139.87947,35.84782]]}},{"type":"Feature","properties":{"idx":88,"road":"","cls":"tertiary","shops":0,"st_km":1.25,"mesh":"53396731"},"geometry":{"type":"LineString","coordinates":[[139.88856,35.85918],[139.88907,35.86]]}},{"type":"Feature","properties":{"idx":1592,"road":"越谷流山線","cls":"primary","shops":0,"st_km":0.4,"mesh":"53396711"},"geometry":{"type":"LineString","coordinates":[[139.89001,35.85405],[139.88986,35.85326],[139.88977,35.85171],[139.88901,35.85065],[139.88855,35.84974],[139.88817,35.84845],[139.88801,35.84736],[139.88413,35.84685],[139.88288,35.84646],[139.88367,35.84599]]}},{"type":"Feature","properties":{"idx":68,"road":"","cls":"tertiary","shops":0,"st_km":0.88,"mesh":"53396730"},"geometry":{"type":"LineString","coordinates":[[139.87834,35.8565],[139.87979,35.86002],[139.88038,35.86119]]}},{"type":"Feature","properties":{"idx":181,"road":"","cls":"tertiary","shops":0,"st_km":1.05,"mesh":"53396700"},"geometry":{"type":"LineString","coordinates":[[139.87845,35.83394],[139.88039,35.83383]]}},{"type":"Feature","properties":{"idx":248,"road":"","cls":"tertiary","shops":0,"st_km":0.67,"mesh":"53396700"},"geometry":{"type":"LineString","coordinates":[[139.88154,35.84158],[139.88117,35.84106],[139.88095,35.84057],[139.88097,35.84046],[139.88107,35.84037]]}},{"type":"Feature","properties":{"idx":330,"road":"三郷松伏線","cls":"primary","shops":0,"st_km":0.6,"mesh":"53396700"},"geometry":{"type":"LineString","coordinates":[[139.88195,35.84129],[139.88139,35.8417],[139.88124,35.84186],[139.88119,35.84205]]}},{"type":"Feature","properties":{"idx":667,"road":"三郷松伏線","cls":"primary","shops":2,"st_km":0.59,"mesh":"53396700"},"geometry":{"type":"LineString","coordinates":[[139.88195,35.84129],[139.88215,35.8411]]}},{"type":"Feature","properties":{"idx":332,"road":"三郷松伏線","cls":"primary","shops":0,"st_km":0.59,"mesh":"53396700"},"geometry":{"type":"LineString","coordinates":[[139.88119,35.84205],[139.88139,35.84179],[139.88195,35.84129]]}},{"type":"Feature","properties":{"idx":194,"road":"","cls":"pedestrian","shops":7,"st_km":0.32,"mesh":"53396710"},"geometry":{"type":"LineString","coordinates":[[139.88412,35.8461],[139.88347,35.84667]]}},{"type":"Feature","properties":{"idx":173,"road":"","cls":"tertiary","shops":0,"st_km":0.57,"mesh":"53396720"},"geometry":{"type":"LineString","coordinates":[[139.87278,35.85584],[139.87767,35.85643]]}},{"type":"Feature","properties":{"idx":239,"road":"","cls":"tertiary","shops":10,"st_km":0.09,"mesh":"53396710"},"geometry":{"type":"LineString","coordinates":[[139.88569,35.84475],[139.88582,35.84471],[139.88581,35.84461]]}},{"type":"Feature","properties":{"idx":302,"road":"三郷松伏線","cls":"primary","shops":2,"st_km":0.97,"mesh":"53396720"},"geometry":{"type":"LineString","coordinates":[[139.88123,35.84777],[139.88135,35.84862],[139.88168,35.85035],[139.88235,35.85156],[139.8825,35.85235],[139.88338,35.85468],[139.88364,35.85529],[139.88423,35.85627],[139.88536,35.85785]]}},{"type":"Feature","properties":{"idx":26,"road":"","cls":"tertiary","shops":0,"st_km":0.51,"mesh":"53396710"},"geometry":{"type":"LineString","coordinates":[[139.88126,35.84791],[139.88207,35.8471],[139.88288,35.84646]]}},{"type":"Feature","properties":{"idx":215,"road":"三郷松伏線","cls":"primary","shops":0,"st_km":2.74,"mesh":"53396750"},"geometry":{"type":"LineString","coordinates":[[139.88915,35.87514],[139.88819,35.87701],[139.88785,35.87795],[139.88726,35.88083],[139.88696,35.88263],[139.88664,35.88368],[139.88614,35.88465],[139.8841,35.88749]]}},{"type":"Feature","properties":{"idx":352,"road":"","cls":"tertiary","shops":16,"st_km":0.11,"mesh":"53396710"},"geometry":{"type":"LineString","coordinates":[[139.88569,35.84475],[139.88561,35.84451]]}},{"type":"Feature","properties":{"idx":121,"road":"三郷流山橋有料道路","cls":"primary","shops":0,"st_km":1.1,"mesh":"53396731"},"geometry":{"type":"LineString","coordinates":[[139.89559,35.86481],[139.9006,35.86572]]}},{"type":"Feature","properties":{"idx":230,"road":"草加流山線","cls":"primary","shops":9,"st_km":0.26,"mesh":"53396710"},"geometry":{"type":"LineString","coordinates":[[139.88498,35.84595],[139.88367,35.84599]]}},{"type":"Feature","properties":{"idx":106,"road":"三郷流山橋有料道路","cls":"primary","shops":0,"st_km":1.3,"mesh":"53396731"},"geometry":{"type":"LineString","coordinates":[[139.89241,35.86426],[139.89086,35.86398]]}},{"type":"Feature","properties":{"idx":1659,"road":"草加流山線","cls":"primary","shops":0,"st_km":0.36,"mesh":"53396711"},"geometry":{"type":"LineString","coordinates":[[139.89299,35.8456],[139.88838,35.8458]]}},{"type":"Feature","properties":{"idx":440,"road":"","cls":"tertiary","shops":21,"st_km":0.13,"mesh":"53396710"},"geometry":{"type":"LineString","coordinates":[[139.88551,35.84433],[139.88543,35.84455]]}},{"type":"Feature","properties":{"idx":32,"road":"三郷松伏線","cls":"primary","shops":0,"st_km":0.54,"mesh":"53396710"},"geometry":{"type":"LineString","coordinates":[[139.88131,35.84312],[139.88126,35.84275]]}},{"type":"Feature","properties":{"idx":547,"road":"","cls":"tertiary","shops":2,"st_km":0.56,"mesh":"53396700"},"geometry":{"type":"LineString","coordinates":[[139.88265,35.84128],[139.88228,35.84115]]}},{"type":"Feature","properties":{"idx":266,"road":"","cls":"tertiary","shops":12,"st_km":0.14,"mesh":"53396710"},"geometry":{"type":"LineString","coordinates":[[139.88534,35.84486],[139.88535,35.8448]]}},{"type":"Feature","properties":{"idx":40,"road":"草加流山線","cls":"primary","shops":1,"st_km":0.73,"mesh":"53396710"},"geometry":{"type":"LineString","coordinates":[[139.87918,35.84644],[139.8788,35.8465]]}},{"type":"Feature","properties":{"idx":290,"road":"","cls":"tertiary","shops":13,"st_km":0.12,"mesh":"53396710"},"geometry":{"type":"LineString","coordinates":[[139.88535,35.8448],[139.88569,35.84475]]}},{"type":"Feature","properties":{"idx":441,"road":"","cls":"tertiary","shops":21,"st_km":0.13,"mesh":"53396710"},"geometry":{"type":"LineString","coordinates":[[139.88557,35.84438],[139.88551,35.84433]]}},{"type":"Feature","properties":{"idx":483,"road":"","cls":"tertiary","shops":23,"st_km":0.12,"mesh":"53396710"},"geometry":{"type":"LineString","coordinates":[[139.88561,35.84451],[139.88557,35.84438]]}},{"type":"Feature","properties":{"idx":172,"road":"","cls":"tertiary","shops":7,"st_km":0.13,"mesh":"53396710"},"geometry":{"type":"LineString","coordinates":[[139.8855,35.84536],[139.88534,35.84486]]}},{"type":"Feature","properties":{"idx":459,"road":"上笹塚谷口線","cls":"secondary","shops":2,"st_km":0.89,"mesh":"53396700"},"geometry":{"type":"LineString","coordinates":[[139.88215,35.8411],[139.88159,35.84081],[139.88127,35.84055],[139.88085,35.84016],[139.8804,35.83962],[139.87947,35.83804],[139.87886,35.83641]]}},{"type":"Feature","properties":{"idx":267,"road":"","cls":"tertiary","shops":12,"st_km":0.13,"mesh":"53396710"},"geometry":{"type":"LineString","coordinates":[[139.88539,35.84466],[139.88535,35.8448]]}},{"type":"Feature","properties":{"idx":91,"road":"三郷松伏線","cls":"primary","shops":0,"st_km":1.56,"mesh":"53396731"},"geometry":{"type":"LineString","coordinates":[[139.88814,35.86542],[139.88795,35.86309]]}},{"type":"Feature","properties":{"idx":59,"road":"越谷流山線","cls":"primary","shops":0,"st_km":1.36,"mesh":"53396730"},"geometry":{"type":"LineString","coordinates":[[139.88363,35.86282],[139.88368,35.86262],[139.88382,35.86247]]}},{"type":"Feature","properties":{"idx":42,"road":"","cls":"tertiary","shops":0,"st_km":1.54,"mesh":"53396730"},"geometry":{"type":"LineString","coordinates":[[139.88481,35.86451],[139.88532,35.86394]]}},{"type":"Feature","properties":{"idx":60,"road":"越谷流山線","cls":"primary","shops":0,"st_km":1.33,"mesh":"53396730"},"geometry":{"type":"LineString","coordinates":[[139.88289,35.86293],[139.88363,35.86282]]}},{"type":"Feature","properties":{"idx":98,"road":"三郷松伏線","cls":"primary","shops":0,"st_km":1.42,"mesh":"53396731"},"geometry":{"type":"LineString","coordinates":[[139.88736,35.86016],[139.88771,35.86059],[139.88782,35.86085],[139.88781,35.86114],[139.88758,35.86191],[139.88763,35.86226],[139.88785,35.86276]]}},{"type":"Feature","properties":{"idx":114,"road":"三郷流山橋有料道路","cls":"primary","shops":0,"st_km":1.19,"mesh":"53396731"},"geometry":{"type":"LineString","coordinates":[[139.89366,35.86448],[139.89507,35.86472]]}},{"type":"Feature","properties":{"idx":117,"road":"三郷流山橋有料道路","cls":"primary","shops":0,"st_km":1.16,"mesh":"53396731"},"geometry":{"type":"LineString","coordinates":[[139.89507,35.86472],[139.89559,35.86481]]}},{"type":"Feature","properties":{"idx":42,"road":"","cls":"tertiary","shops":0,"st_km":1.54,"mesh":"53396730"},"geometry":{"type":"LineString","coordinates":[[139.88567,35.86307],[139.88579,35.86269]]}},{"type":"Feature","properties":{"idx":448,"road":"","cls":"tertiary","shops":21,"st_km":0.11,"mesh":"53396710"},"geometry":{"type":"LineString","coordinates":[[139.88577,35.84448],[139.88572,35.8444],[139.88557,35.84438]]}},{"type":"Feature","properties":{"idx":401,"road":"","cls":"tertiary","shops":19,"st_km":0.13,"mesh":"53396710"},"geometry":{"type":"LineString","coordinates":[[139.88543,35.84455],[139.88539,35.84466]]}},{"type":"Feature","properties":{"idx":190,"road":"","cls":"tertiary","shops":1,"st_km":0.92,"mesh":"53396720"},"geometry":{"type":"LineString","coordinates":[[139.87866,35.84846],[139.87901,35.84882],[139.87914,35.84928],[139.87906,35.84959],[139.87877,35.85],[139.87727,35.85154],[139.87591,35.85285],[139.87251,35.85573]]}},{"type":"Feature","properties":{"idx":59,"road":"越谷流山線","cls":"primary","shops":0,"st_km":1.37,"mesh":"53396730"},"geometry":{"type":"LineString","coordinates":[[139.88363,35.86282],[139.88385,35.86284]]}},{"type":"Feature","properties":{"idx":53,"road":"越谷流山線","cls":"primary","shops":0,"st_km":1.54,"mesh":"53396730"},"geometry":{"type":"LineString","coordinates":[[139.88385,35.86284],[139.88567,35.86307],[139.88723,35.86333]]}},{"type":"Feature","properties":{"idx":95,"road":"三郷松伏線","cls":"primary","shops":0,"st_km":1.49,"mesh":"53396731"},"geometry":{"type":"LineString","coordinates":[[139.88795,35.86309],[139.88785,35.86276]]}},{"type":"Feature","properties":{"idx":42,"road":"","cls":"tertiary","shops":0,"st_km":1.55,"mesh":"53396730"},"geometry":{"type":"LineString","coordinates":[[139.88567,35.86307],[139.88545,35.86375],[139.88532,35.86394]]}},{"type":"Feature","properties":{"idx":174,"road":"三郷松伏線","cls":"primary","shops":0,"st_km":2.66,"mesh":"53396760"},"geometry":{"type":"LineString","coordinates":[[139.8841,35.88749],[139.88349,35.88834],[139.8831,35.88878],[139.88265,35.88914],[139.88157,35.88979],[139.88118,35.89011]]}},{"type":"Feature","properties":{"idx":644,"road":"","cls":"tertiary","shops":0,"st_km":1.0,"mesh":"53396721"},"geometry":{"type":"LineString","coordinates":[[139.89001,35.85405],[139.8913,35.85374]]}},{"type":"Feature","properties":{"idx":668,"road":"","cls":"tertiary","shops":0,"st_km":1.08,"mesh":"53396721"},"geometry":{"type":"LineString","coordinates":[[139.88681,35.85483],[139.89001,35.85405]]}},{"type":"Feature","properties":{"idx":157,"road":"越谷流山線","cls":"primary","shops":1,"st_km":1.32,"mesh":"53396731"},"geometry":{"type":"LineString","coordinates":[[139.88736,35.86016],[139.88807,35.85964],[139.88856,35.85918]]}},{"type":"Feature","properties":{"idx":200,"road":"三郷松伏線","cls":"primary","shops":0,"st_km":1.74,"mesh":"53396741"},"geometry":{"type":"LineString","coordinates":[[139.88815,35.86592],[139.88816,35.86769]]}},{"type":"Feature","properties":{"idx":1154,"road":"越谷流山線","cls":"primary","shops":1,"st_km":1.07,"mesh":"53396721"},"geometry":{"type":"LineString","coordinates":[[139.89001,35.85405],[139.89015,35.85481],[139.89018,35.85535],[139.8901,35.85685],[139.89001,35.85726],[139.88977,35.85782],[139.88957,35.85812],[139.88856,35.85918]]}},{"type":"Feature","properties":{"idx":357,"road":"","cls":"tertiary","shops":16,"st_km":0.1,"mesh":"53396710"},"geometry":{"type":"LineString","coordinates":[[139.88605,35.84539],[139.88597,35.84532],[139.88585,35.84531]]}},{"type":"Feature","properties":{"idx":395,"road":"","cls":"tertiary","shops":18,"st_km":0.1,"mesh":"53396710"},"geometry":{"type":"LineString","coordinates":[[139.88581,35.84461],[139.88577,35.84448]]}},{"type":"Feature","properties":{"idx":18,"road":"","cls":"tertiary","shops":0,"st_km":0.91,"mesh":"53396710"},"geometry":{"type":"LineString","coordinates":[[139.88119,35.84205],[139.88098,35.84205],[139.88038,35.84245],[139.88017,35.84252],[139.8784,35.84297],[139.87817,35.84298],[139.8779,35.84291],[139.87654,35.84229],[139.87528,35.84191],[139.87396,35.8414],[139.87348,35.84127],[139.8731,35.84123]]}},{"type":"Feature","properties":{"idx":155,"road":"","cls":"tertiary","shops":6,"st_km":0.12,"mesh":"53396710"},"geometry":{"type":"LineString","coordinates":[[139.88585,35.84531],[139.8855,35.84536]]}},{"type":"Feature","properties":{"idx":527,"road":"越谷流山線バイパス","cls":"tertiary","shops":0,"st_km":1.29,"mesh":"53396721"},"geometry":{"type":"LineString","coordinates":[[139.88681,35.85483],[139.88802,35.85815],[139.8883,35.85876],[139.88856,35.85918]]}},{"type":"Feature","properties":{"idx":127,"road":"","cls":"tertiary","shops":0,"st_km":0.92,"mesh":"53396720"},"geometry":{"type":"LineString","coordinates":[[139.87924,35.85643],[139.8796,35.85638]]}},{"type":"Feature","properties":{"idx":135,"road":"","cls":"tertiary","shops":0,"st_km":0.85,"mesh":"53396720"},"geometry":{"type":"LineString","coordinates":[[139.87278,35.85584],[139.87576,35.85338],[139.8793,35.84996]]}},{"type":"Feature","properties":{"idx":23,"road":"草加流山線","cls":"primary","shops":0,"st_km":0.91,"mesh":"53396710"},"geometry":{"type":"LineString","coordinates":[[139.87531,35.84706],[139.8788,35.8465]]}},{"type":"Feature","properties":{"idx":52,"road":"三郷松伏線","cls":"primary","shops":0,"st_km":1.45,"mesh":"53396730"},"geometry":{"type":"LineString","coordinates":[[139.88536,35.85785],[139.88646,35.8592],[139.88736,35.86016]]}},{"type":"Feature","properties":{"idx":50,"road":"","cls":"tertiary","shops":0,"st_km":1.29,"mesh":"53396730"},"geometry":{"type":"LineString","coordinates":[[139.88223,35.85953],[139.88536,35.85785]]}},{"type":"Feature","properties":{"idx":177,"road":"","cls":"tertiary","shops":1,"st_km":1.01,"mesh":"53396720"},"geometry":{"type":"LineString","coordinates":[[139.8792,35.85147],[139.87929,35.85146]]}},{"type":"Feature","properties":{"idx":26,"road":"","cls":"tertiary","shops":0,"st_km":0.53,"mesh":"53396710"},"geometry":{"type":"LineString","coordinates":[[139.88506,35.85006],[139.88838,35.84925]]}},{"type":"Feature","properties":{"idx":146,"road":"越谷流山線バイパス","cls":"tertiary","shops":8,"st_km":0.39,"mesh":"53396710"},"geometry":{"type":"LineString","coordinates":[[139.88483,35.84595],[139.88489,35.84911],[139.88506,35.85006]]}},{"type":"Feature","properties":{"idx":130,"road":"三郷松伏線","cls":"primary","shops":1,"st_km":1.65,"mesh":"53396731"},"geometry":{"type":"LineString","coordinates":[[139.88814,35.86542],[139.88815,35.86592]]}},{"type":"Feature","properties":{"idx":126,"road":"","cls":"tertiary","shops":5,"st_km":0.19,"mesh":"53396710"},"geometry":{"type":"LineString","coordinates":[[139.88483,35.84595],[139.88492,35.84575],[139.88549,35.84559]]}},{"type":"Feature","properties":{"idx":151,"road":"","cls":"tertiary","shops":6,"st_km":0.14,"mesh":"53396710"},"geometry":{"type":"LineString","coordinates":[[139.8855,35.84536],[139.88537,35.84542]]}},{"type":"Feature","properties":{"idx":73,"road":"","cls":"tertiary","shops":0,"st_km":1.54,"mesh":"53396731"},"geometry":{"type":"LineString","coordinates":[[139.88822,35.86491],[139.88843,35.86407],[139.88842,35.8638]]}},{"type":"Feature","properties":{"idx":92,"road":"越谷流山線","cls":"primary","shops":0,"st_km":1.54,"mesh":"53396731"},"geometry":{"type":"LineString","coordinates":[[139.88723,35.86333],[139.888,35.86347]]}},{"type":"Feature","properties":{"idx":56,"road":"","cls":"pedestrian","shops":1,"st_km":0.47,"mesh":"53396710"},"geometry":{"type":"LineString","coordinates":[[139.88175,35.84618],[139.882,35.84594]]}},{"type":"Feature","properties":{"idx":42,"road":"","cls":"tertiary","shops":0,"st_km":1.54,"mesh":"53396730"},"geometry":{"type":"LineString","coordinates":[[139.88532,35.86394],[139.88496,35.86412]]}},{"type":"Feature","properties":{"idx":95,"road":"三郷流山橋有料道路","cls":"primary","shops":0,"st_km":1.49,"mesh":"53396731"},"geometry":{"type":"LineString","coordinates":[[139.888,35.86347],[139.88881,35.86361]]}},{"type":"Feature","properties":{"idx":99,"road":"三郷流山橋有料道路","cls":"primary","shops":0,"st_km":1.42,"mesh":"53396731"},"geometry":{"type":"LineString","coordinates":[[139.88881,35.86361],[139.89024,35.86387]]}},{"type":"Feature","properties":{"idx":102,"road":"三郷流山橋有料道路","cls":"primary","shops":0,"st_km":1.36,"mesh":"53396731"},"geometry":{"type":"LineString","coordinates":[[139.89024,35.86387],[139.89086,35.86398]]}},{"type":"Feature","properties":{"idx":110,"road":"三郷流山橋有料道路","cls":"primary","shops":0,"st_km":1.24,"mesh":"53396731"},"geometry":{"type":"LineString","coordinates":[[139.89241,35.86426],[139.89366,35.86448]]}},{"type":"Feature","properties":{"idx":105,"road":"三郷流山橋有料道路","cls":"primary","shops":0,"st_km":1.31,"mesh":"53396731"},"geometry":{"type":"LineString","coordinates":[[139.89086,35.86398],[139.8912,35.86413],[139.89205,35.86428],[139.89241,35.86426]]}},{"type":"Feature","properties":{"idx":112,"road":"","cls":"tertiary","shops":0,"st_km":1.08,"mesh":"53396720"},"geometry":{"type":"LineString","coordinates":[[139.87649,35.84999],[139.87626,35.85014],[139.87587,35.85072]]}},{"type":"Feature","properties":{"idx":113,"road":"","cls":"tertiary","shops":0,"st_km":1.07,"mesh":"53396720"},"geometry":{"type":"LineString","coordinates":[[139.87585,35.85086],[139.87625,35.85023],[139.87649,35.84999]]}},{"type":"Feature","properties":{"idx":242,"road":"","cls":"pedestrian","shops":1,"st_km":1.01,"mesh":"53396720"},"geometry":{"type":"LineString","coordinates":[[139.87626,35.85124],[139.87656,35.85108]]}},{"type":"Feature","properties":{"idx":85,"road":"","cls":"living_street","shops":0,"st_km":1.06,"mesh":"53396720"},"geometry":{"type":"LineString","coordinates":[[139.87658,35.8511],[139.87691,35.85083],[139.87695,35.85078],[139.87692,35.85075]]}},{"type":"Feature","properties":{"idx":159,"road":"","cls":"pedestrian","shops":0,"st_km":1.03,"mesh":"53396720"},"geometry":{"type":"LineString","coordinates":[[139.8773,35.85064],[139.87761,35.85041],[139.8777,35.85013],[139.87783,35.85]]}},{"type":"Feature","properties":{"idx":25,"road":"","cls":"pedestrian","shops":0,"st_km":0.9,"mesh":"53396710"},"geometry":{"type":"LineString","coordinates":[[139.87813,35.84952],[139.87835,35.84942],[139.87842,35.84923],[139.87853,35.84917],[139.87868,35.8488]]}},{"type":"Feature","properties":{"idx":251,"road":"","cls":"pedestrian","shops":1,"st_km":0.97,"mesh":"53396720"},"geometry":{"type":"LineString","coordinates":[[139.87587,35.85181],[139.87621,35.85161],[139.87625,35.85146],[139.87615,35.8513],[139.87626,35.85124]]}},{"type":"Feature","properties":{"idx":101,"road":"","cls":"living_street","shops":0,"st_km":0.85,"mesh":"53396720"},"geometry":{"type":"LineString","coordinates":[[139.8756,35.85203],[139.87519,35.85239],[139.87489,35.85222]]}},{"type":"Feature","properties":{"idx":157,"road":"","cls":"pedestrian","shops":0,"st_km":1.05,"mesh":"53396720"},"geometry":{"type":"LineString","coordinates":[[139.87752,35.85049],[139.87756,35.85057],[139.87792,35.85081]]}},{"type":"Feature","properties":{"idx":179,"road":"","cls":"tertiary","shops":0,"st_km":1.06,"mesh":"53396700"},"geometry":{"type":"LineString","coordinates":[[139.88039,35.83383],[139.88147,35.83378]]}}]}