{"type":"FeatureCollection","features":[{"type":"Feature","properties":{"idx":84,"road":"鳥屋川尻線","cls":"secondary","shops":0,"st_km":7.39,"mesh":"53392179"},"geometry":{"type":"LineString","coordinates":[[139.24162,35.56595],[139.24028,35.56572],[139.23989,35.56559],[139.23971,35.56547],[139.23825,35.56439],[139.23746,35.56344],[139.23688,35.56283]]}},{"type":"Feature","properties":{"idx":38,"road":NaN,"cls":"tertiary","shops":0,"st_km":9.18,"mesh":"53392147"},"geometry":{"type":"LineString","coordinates":[[139.22038,35.53858],[139.2215,35.53914],[139.22205,35.53935]]}},{"type":"Feature","properties":{"idx":47,"road":"伊勢原津久井線","cls":"primary","shops":0,"st_km":9.32,"mesh":"53392147"},"geometry":{"type":"LineString","coordinates":[[139.22038,35.53858],[139.21783,35.53722],[139.21721,35.53683],[139.21614,35.53598],[139.21592,35.5357],[139.21576,35.5354],[139.21571,35.53513],[139.21572,35.53482],[139.21579,35.53459],[139.21602,35.53423],[139.21658,35.53381]]}},{"type":"Feature","properties":{"idx":41,"road":"宮ヶ瀬虹の大橋","cls":"primary","shops":0,"st_km":9.73,"mesh":"53392137"},"geometry":{"type":"LineString","coordinates":[[139.21658,35.53381],[139.21944,35.53215]]}},{"type":"Feature","properties":{"idx":40,"road":"伊勢原津久井線","cls":"primary","shops":0,"st_km":10.4,"mesh":"53392137"},"geometry":{"type":"LineString","coordinates":[[139.21944,35.53215],[139.22105,35.5312],[139.22148,35.53082],[139.22295,35.52867],[139.22333,35.52758],[139.2239,35.52697],[139.22397,35.52681],[139.22397,35.52656],[139.22392,35.52643],[139.22328,35.52563],[139.2231,35.5252],[139.22307,35.52483],[139.22311,35.5237],[139.2232,35.52307]]}},{"type":"Feature","properties":{"idx":40,"road":"春の木丸トンネル","cls":"primary","shops":0,"st_km":10.05,"mesh":"53392127"},"geometry":{"type":"LineString","coordinates":[[139.22439,35.52133],[139.22367,35.52211]]}},{"type":"Feature","properties":{"idx":40,"road":"伊勢原津久井線","cls":"primary","shops":0,"st_km":10.0,"mesh":"53392127"},"geometry":{"type":"LineString","coordinates":[[139.22439,35.52133],[139.22451,35.52123]]}},{"type":"Feature","properties":{"idx":17,"road":"秦野清川線","cls":"primary","shops":0,"st_km":9.57,"mesh":"53392128"},"geometry":{"type":"LineString","coordinates":[[139.23096,35.51877],[139.23108,35.51848],[139.23124,35.51762],[139.23142,35.51739],[139.23175,35.51722]]}},{"type":"Feature","properties":{"idx":17,"road":"春の木丸橋","cls":"primary","shops":0,"st_km":9.8,"mesh":"53392128"},"geometry":{"type":"LineString","coordinates":[[139.22595,35.51999],[139.22677,35.51934]]}},{"type":"Feature","properties":{"idx":17,"road":"伊勢原津久井線","cls":"primary","shops":0,"st_km":9.73,"mesh":"53392128"},"geometry":{"type":"LineString","coordinates":[[139.22677,35.51934],[139.2274,35.51885]]}},{"type":"Feature","properties":{"idx":17,"road":"及沢橋","cls":"primary","shops":0,"st_km":9.66,"mesh":"53392128"},"geometry":{"type":"LineString","coordinates":[[139.2274,35.51885],[139.22785,35.51852],[139.22839,35.51829]]}},{"type":"Feature","properties":{"idx":17,"road":"伊勢原津久井線","cls":"primary","shops":0,"st_km":9.63,"mesh":"53392128"},"geometry":{"type":"LineString","coordinates":[[139.22839,35.51829],[139.2288,35.51828]]}},{"type":"Feature","properties":{"idx":17,"road":"及沢一号橋","cls":"primary","shops":0,"st_km":9.63,"mesh":"53392128"},"geometry":{"type":"LineString","coordinates":[[139.2288,35.51828],[139.23006,35.51845]]}},{"type":"Feature","properties":{"idx":17,"road":"伊勢原津久井線","cls":"primary","shops":0,"st_km":9.92,"mesh":"53392128"},"geometry":{"type":"LineString","coordinates":[[139.23006,35.51845],[139.23059,35.51857],[139.23096,35.51877],[139.23119,35.51901],[139.23139,35.51942],[139.23141,35.51963],[139.23138,35.52002],[139.23103,35.52197],[139.23104,35.5223],[139.23115,35.52263],[139.23133,35.52289],[139.2317,35.5232],[139.23269,35.52365]]}},{"type":"Feature","properties":{"idx":11,"road":"宮ヶ瀬愛川線","cls":"secondary","shops":0,"st_km":10.35,"mesh":"53392138"},"geometry":{"type":"LineString","coordinates":[[139.23551,35.52483],[139.23524,35.52524]]}},{"type":"Feature","properties":{"idx":11,"road":"鷲ヶ沢橋","cls":"secondary","shops":0,"st_km":10.6,"mesh":"53392138"},"geometry":{"type":"LineString","coordinates":[[139.23548,35.52691],[139.23608,35.52769]]}},{"type":"Feature","properties":{"idx":11,"road":"宮ヶ瀬愛川線","cls":"secondary","shops":0,"st_km":10.65,"mesh":"53392138"},"geometry":{"type":"LineString","coordinates":[[139.23608,35.52769],[139.23628,35.52793]]}},{"type":"Feature","properties":{"idx":3,"road":"宮ヶ瀬トンネル","cls":"secondary","shops":0,"st_km":10.68,"mesh":"53392139"},"geometry":{"type":"LineString","coordinates":[[139.23628,35.52793],[139.23924,35.53174]]}},{"type":"Feature","properties":{"idx":4,"road":"下山橋","cls":"secondary","shops":0,"st_km":10.44,"mesh":"53392149"},"geometry":{"type":"LineString","coordinates":[[139.24044,35.53312],[139.24126,35.53378]]}},{"type":"Feature","properties":{"idx":4,"road":"宮ヶ瀬愛川線","cls":"secondary","shops":0,"st_km":10.37,"mesh":"53392149"},"geometry":{"type":"LineString","coordinates":[[139.24126,35.53378],[139.24144,35.53396],[139.24166,35.53429],[139.24195,35.53518],[139.24213,35.53552]]}},{"type":"Feature","properties":{"idx":3,"road":"スズタケ橋","cls":"secondary","shops":0,"st_km":10.53,"mesh":"53392139"},"geometry":{"type":"LineString","coordinates":[[139.23924,35.53174],[139.23961,35.5322]]}},{"type":"Feature","properties":{"idx":3,"road":"宮ヶ瀬愛川線","cls":"secondary","shops":0,"st_km":10.51,"mesh":"53392139"},"geometry":{"type":"LineString","coordinates":[[139.23961,35.5322],[139.23972,35.53232]]}},{"type":"Feature","properties":{"idx":3,"road":"楢の木橋","cls":"secondary","shops":0,"st_km":10.49,"mesh":"53392139"},"geometry":{"type":"LineString","coordinates":[[139.23972,35.53232],[139.24007,35.53277]]}},{"type":"Feature","properties":{"idx":3,"road":"宮ヶ瀬愛川線","cls":"secondary","shops":0,"st_km":10.47,"mesh":"53392139"},"geometry":{"type":"LineString","coordinates":[[139.24007,35.53277],[139.24044,35.53312]]}},{"type":"Feature","properties":{"idx":4,"road":"梅の木トンネル","cls":"secondary","shops":0,"st_km":10.2,"mesh":"53392149"},"geometry":{"type":"LineString","coordinates":[[139.24267,35.53618],[139.24353,35.5376]]}},{"type":"Feature","properties":{"idx":4,"road":"宮ヶ瀬愛川線","cls":"secondary","shops":0,"st_km":10.11,"mesh":"53392149"},"geometry":{"type":"LineString","coordinates":[[139.24353,35.5376],[139.24417,35.53839],[139.24449,35.53864],[139.24469,35.53872]]}},{"type":"Feature","properties":{"idx":4,"road":"梅の木橋","cls":"secondary","shops":0,"st_km":10.11,"mesh":"53392149"},"geometry":{"type":"LineString","coordinates":[[139.24469,35.53872],[139.24519,35.5388],[139.24569,35.53876]]}},{"type":"Feature","properties":{"idx":4,"road":"石小屋トンネル","cls":"secondary","shops":0,"st_km":10.27,"mesh":"53392149"},"geometry":{"type":"LineString","coordinates":[[139.24569,35.53876],[139.24639,35.53865],[139.24961,35.53791]]}},{"type":"Feature","properties":{"idx":17,"road":"宮ヶ瀬やまびこ大橋","cls":"primary","shops":0,"st_km":10.26,"mesh":"53392128"},"geometry":{"type":"LineString","coordinates":[[139.23269,35.52365],[139.23539,35.52477]]}},{"type":"Feature","properties":{"idx":17,"road":"伊勢原津久井線","cls":"primary","shops":0,"st_km":10.32,"mesh":"53392128"},"geometry":{"type":"LineString","coordinates":[[139.23539,35.52477],[139.23551,35.52483]]}},{"type":"Feature","properties":{"idx":7,"road":"道志みち","cls":"tertiary","shops":0,"st_km":8.3,"mesh":"53392150"},"geometry":{"type":"LineString","coordinates":[[139.12349,35.5421],[139.12351,35.54253],[139.12357,35.54264],[139.12436,35.54317],[139.12469,35.54385],[139.12477,35.54395],[139.1249,35.54401],[139.12569,35.54409],[139.12702,35.54446],[139.12715,35.54445],[139.12735,35.54427],[139.12746,35.54394],[139.12781,35.54348],[139.12792,35.54338],[139.12803,35.54338]]}},{"type":"Feature","properties":{"idx":1,"road":"吹風トンネル","cls":"primary","shops":0,"st_km":8.89,"mesh":"53392118"},"geometry":{"type":"LineString","coordinates":[[139.23155,35.51282],[139.23143,35.51223],[139.2313,35.51064]]}},{"type":"Feature","properties":{"idx":4,"road":"向山トンネル","cls":"primary","shops":0,"st_km":9.95,"mesh":"53392129"},"geometry":{"type":"LineString","coordinates":[[139.23887,35.52214],[139.24027,35.52085]]}},{"type":"Feature","properties":{"idx":4,"road":"伊勢原津久井線","cls":"primary","shops":0,"st_km":9.88,"mesh":"53392129"},"geometry":{"type":"LineString","coordinates":[[139.24027,35.52085],[139.24034,35.52076]]}},{"type":"Feature","properties":{"idx":38,"road":NaN,"cls":"tertiary","shops":0,"st_km":9.2,"mesh":"53392147"},"geometry":{"type":"LineString","coordinates":[[139.21639,35.5362],[139.21603,35.53648],[139.21565,35.53658],[139.21556,35.53665],[139.21551,35.5368],[139.21564,35.5371],[139.21566,35.53726],[139.21539,35.53775],[139.21525,35.53789],[139.21501,35.53794],[139.21439,35.53764],[139.21404,35.53764]]}},{"type":"Feature","properties":{"idx":38,"road":NaN,"cls":"tertiary","shops":0,"st_km":9.26,"mesh":"53392147"},"geometry":{"type":"LineString","coordinates":[[139.21404,35.53764],[139.21396,35.53744],[139.21364,35.53711],[139.21356,35.53693],[139.21359,35.53671],[139.21373,35.53644],[139.21373,35.53597],[139.21391,35.53543],[139.21374,35.53506]]}},{"type":"Feature","properties":{"idx":38,"road":"北岸林道","cls":"tertiary","shops":0,"st_km":9.18,"mesh":"53392147"},"geometry":{"type":"LineString","coordinates":[[139.22205,35.53935],[139.22271,35.53954],[139.22326,35.53959],[139.22365,35.5395],[139.22416,35.53917]]}},{"type":"Feature","properties":{"idx":1,"road":"北岸林道","cls":"tertiary","shops":0,"st_km":9.82,"mesh":"53392148"},"geometry":{"type":"LineString","coordinates":[[139.22871,35.53523],[139.22901,35.5351]]}},{"type":"Feature","properties":{"idx":1,"road":"落合トンネル","cls":"tertiary","shops":0,"st_km":9.69,"mesh":"53392148"},"geometry":{"type":"LineString","coordinates":[[139.22561,35.53645],[139.22666,35.53615],[139.22871,35.53523]]}},{"type":"Feature","properties":{"idx":3,"road":"北岸林道","cls":"tertiary","shops":0,"st_km":9.81,"mesh":"53392149"},"geometry":{"type":"LineString","coordinates":[[139.23793,35.5385],[139.23809,35.53894]]}},{"type":"Feature","properties":{"idx":1,"road":"ナラサストンネル","cls":"tertiary","shops":0,"st_km":9.95,"mesh":"53392148"},"geometry":{"type":"LineString","coordinates":[[139.23048,35.53459],[139.23176,35.53476]]}},{"type":"Feature","properties":{"idx":1,"road":"ナラサス橋","cls":"tertiary","shops":0,"st_km":9.97,"mesh":"53392148"},"geometry":{"type":"LineString","coordinates":[[139.2319,35.53477],[139.23229,35.53478]]}},{"type":"Feature","properties":{"idx":3,"road":"南山橋","cls":"tertiary","shops":0,"st_km":9.85,"mesh":"53392149"},"geometry":{"type":"LineString","coordinates":[[139.23769,35.53783],[139.23793,35.5385]]}},{"type":"Feature","properties":{"idx":5,"road":"北岸林道","cls":"tertiary","shops":0,"st_km":9.59,"mesh":"53392159"},"geometry":{"type":"LineString","coordinates":[[139.2469,35.54495],[139.24709,35.54494],[139.24754,35.54508]]}},{"type":"Feature","properties":{"idx":5,"road":"青山トンネル","cls":"tertiary","shops":0,"st_km":9.45,"mesh":"53392159"},"geometry":{"type":"LineString","coordinates":[[139.24257,35.54559],[139.24492,35.54557],[139.24556,35.54546],[139.2469,35.54495]]}},{"type":"Feature","properties":{"idx":5,"road":"韮尾根トンネル","cls":"tertiary","shops":0,"st_km":9.34,"mesh":"53392159"},"geometry":{"type":"LineString","coordinates":[[139.24754,35.54508],[139.24852,35.54554],[139.24898,35.54592],[139.2494,35.54637],[139.25167,35.54945]]}},{"type":"Feature","properties":{"idx":2,"road":"東沢橋","cls":"primary","shops":0,"st_km":8.95,"mesh":"53392119"},"geometry":{"type":"LineString","coordinates":[[139.24634,35.51248],[139.24729,35.51173]]}},{"type":"Feature","properties":{"idx":2,"road":"石転橋","cls":"primary","shops":0,"st_km":9.09,"mesh":"53392119"},"geometry":{"type":"LineString","coordinates":[[139.24496,35.51371],[139.24548,35.51322]]}},{"type":"Feature","properties":{"idx":17,"road":"向橋","cls":"primary","shops":0,"st_km":10.21,"mesh":"53392128"},"geometry":{"type":"LineString","coordinates":[[139.2359,35.52451],[139.23765,35.52309]]}},{"type":"Feature","properties":{"idx":17,"road":"春の木丸一号橋","cls":"primary","shops":0,"st_km":9.93,"mesh":"53392128"},"geometry":{"type":"LineString","coordinates":[[139.22451,35.52123],[139.22563,35.52026]]}},{"type":"Feature","properties":{"idx":2,"road":"湯場橋","cls":"primary","shops":0,"st_km":8.84,"mesh":"53392119"},"geometry":{"type":"LineString","coordinates":[[139.24867,35.51104],[139.2492,35.51084],[139.24947,35.51066]]}},{"type":"Feature","properties":{"idx":2,"road":"タケ橋","cls":"primary","shops":0,"st_km":9.18,"mesh":"53392119"},"geometry":{"type":"LineString","coordinates":[[139.24419,35.51464],[139.24428,35.51444],[139.2446,35.51405]]}},{"type":"Feature","properties":{"idx":4,"road":"大棚澤橋","cls":"primary","shops":0,"st_km":9.71,"mesh":"53392129"},"geometry":{"type":"LineString","coordinates":[[139.24034,35.52076],[139.24114,35.51929],[139.24121,35.51885],[139.24122,35.51822],[139.24139,35.51769]]}},{"type":"Feature","properties":{"idx":4,"road":"山吹橋","cls":"secondary","shops":0,"st_km":10.28,"mesh":"53392149"},"geometry":{"type":"LineString","coordinates":[[139.24213,35.53552],[139.2424,35.53587]]}},{"type":"Feature","properties":{"idx":11,"road":"岩沢橋","cls":"secondary","shops":0,"st_km":10.41,"mesh":"53392138"},"geometry":{"type":"LineString","coordinates":[[139.23524,35.52524],[139.23509,35.52579],[139.23508,35.52597]]}},{"type":"Feature","properties":{"idx":1,"road":"吹風橋","cls":"primary","shops":0,"st_km":9.02,"mesh":"53392118"},"geometry":{"type":"LineString","coordinates":[[139.2317,35.51314],[139.23155,35.51282]]}},{"type":"Feature","properties":{"idx":17,"road":"熊野橋","cls":"primary","shops":0,"st_km":9.48,"mesh":"53392128"},"geometry":{"type":"LineString","coordinates":[[139.23175,35.51722],[139.23229,35.51694]]}},{"type":"Feature","properties":{"idx":1,"road":"釜田川橋","cls":"primary","shops":0,"st_km":8.64,"mesh":"53392118"},"geometry":{"type":"LineString","coordinates":[[139.23113,35.50904],[139.23121,35.50994]]}},{"type":"Feature","properties":{"idx":1,"road":"橋の沢橋","cls":"primary","shops":0,"st_km":9.12,"mesh":"53392118"},"geometry":{"type":"LineString","coordinates":[[139.23237,35.51414],[139.23198,35.51357]]}},{"type":"Feature","properties":{"idx":3,"road":"大門橋","cls":"primary","shops":0,"st_km":8.04,"mesh":"53392108"},"geometry":{"type":"LineString","coordinates":[[139.22973,35.50354],[139.22948,35.50434]]}},{"type":"Feature","properties":{"idx":1,"road":"山の神橋","cls":"primary","shops":0,"st_km":9.35,"mesh":"53392118"},"geometry":{"type":"LineString","coordinates":[[139.23268,35.51629],[139.23289,35.51576]]}},{"type":"Feature","properties":{"idx":3,"road":"御殿橋","cls":"primary","shops":0,"st_km":8.4,"mesh":"53392108"},"geometry":{"type":"LineString","coordinates":[[139.23095,35.50714],[139.23098,35.50755]]}},{"type":"Feature","properties":{"idx":1,"road":"山王橋","cls":"primary","shops":0,"st_km":9.23,"mesh":"53392118"},"geometry":{"type":"LineString","coordinates":[[139.23302,35.51517],[139.23293,35.51494],[139.23272,35.51463]]}},{"type":"Feature","properties":{"idx":1,"road":"タラの芽橋","cls":"tertiary","shops":0,"st_km":9.85,"mesh":"53392148"},"geometry":{"type":"LineString","coordinates":[[139.22901,35.5351],[139.22937,35.53485]]}},{"type":"Feature","properties":{"idx":1,"road":"青葉橋","cls":"tertiary","shops":0,"st_km":9.89,"mesh":"53392148"},"geometry":{"type":"LineString","coordinates":[[139.22942,35.5348],[139.22969,35.53458]]}},{"type":"Feature","properties":{"idx":4,"road":"宮ヶ瀬愛川線","cls":"secondary","shops":0,"st_km":10.26,"mesh":"53392149"},"geometry":{"type":"LineString","coordinates":[[139.2424,35.53587],[139.24267,35.53618]]}},{"type":"Feature","properties":{"idx":11,"road":"宮ヶ瀬愛川線","cls":"secondary","shops":0,"st_km":10.51,"mesh":"53392138"},"geometry":{"type":"LineString","coordinates":[[139.23508,35.52597],[139.23513,35.52636],[139.23548,35.52691]]}},{"type":"Feature","properties":{"idx":17,"road":"伊勢原津久井線","cls":"primary","shops":0,"st_km":9.86,"mesh":"53392128"},"geometry":{"type":"LineString","coordinates":[[139.22563,35.52026],[139.22595,35.51999]]}},{"type":"Feature","properties":{"idx":4,"road":"岩道一号橋","cls":"primary","shops":0,"st_km":10.09,"mesh":"53392129"},"geometry":{"type":"LineString","coordinates":[[139.23798,35.52282],[139.23821,35.52263]]}},{"type":"Feature","properties":{"idx":2,"road":"伊勢原津久井線","cls":"primary","shops":0,"st_km":9.13,"mesh":"53392119"},"geometry":{"type":"LineString","coordinates":[[139.2446,35.51405],[139.24496,35.51371]]}},{"type":"Feature","properties":{"idx":2,"road":"伊勢原津久井線","cls":"primary","shops":0,"st_km":9.23,"mesh":"53392119"},"geometry":{"type":"LineString","coordinates":[[139.24415,35.515],[139.24419,35.51464]]}},{"type":"Feature","properties":{"idx":2,"road":"伊勢原津久井線","cls":"primary","shops":0,"st_km":9.02,"mesh":"53392119"},"geometry":{"type":"LineString","coordinates":[[139.24548,35.51322],[139.24634,35.51248]]}},{"type":"Feature","properties":{"idx":2,"road":"伊勢原津久井線","cls":"primary","shops":0,"st_km":8.78,"mesh":"53392119"},"geometry":{"type":"LineString","coordinates":[[139.24947,35.51066],[139.25012,35.50984]]}},{"type":"Feature","properties":{"idx":2,"road":"伊勢原津久井線","cls":"primary","shops":0,"st_km":8.87,"mesh":"53392119"},"geometry":{"type":"LineString","coordinates":[[139.24729,35.51173],[139.24795,35.5113],[139.24867,35.51104]]}},{"type":"Feature","properties":{"idx":1,"road":"秦野清川線","cls":"primary","shops":0,"st_km":9.06,"mesh":"53392118"},"geometry":{"type":"LineString","coordinates":[[139.23198,35.51357],[139.2317,35.51314]]}},{"type":"Feature","properties":{"idx":4,"road":"秦野清川線","cls":"primary","shops":1,"st_km":8.51,"mesh":"53392108"},"geometry":{"type":"LineString","coordinates":[[139.23098,35.50755],[139.23113,35.50904]]}},{"type":"Feature","properties":{"idx":1,"road":"秦野清川線","cls":"primary","shops":0,"st_km":8.73,"mesh":"53392118"},"geometry":{"type":"LineString","coordinates":[[139.23121,35.50994],[139.2313,35.51064]]}},{"type":"Feature","properties":{"idx":1,"road":"秦野清川線","cls":"primary","shops":0,"st_km":9.17,"mesh":"53392118"},"geometry":{"type":"LineString","coordinates":[[139.23272,35.51463],[139.23237,35.51414]]}},{"type":"Feature","properties":{"idx":1,"road":"秦野清川線","cls":"primary","shops":0,"st_km":9.42,"mesh":"53392118"},"geometry":{"type":"LineString","coordinates":[[139.23229,35.51694],[139.2325,35.51671],[139.23268,35.51629]]}},{"type":"Feature","properties":{"idx":1,"road":"秦野清川線","cls":"primary","shops":0,"st_km":9.29,"mesh":"53392118"},"geometry":{"type":"LineString","coordinates":[[139.23289,35.51576],[139.23302,35.51538],[139.23302,35.51517]]}},{"type":"Feature","properties":{"idx":3,"road":"大門桟道","cls":"primary","shops":0,"st_km":8.23,"mesh":"53392108"},"geometry":{"type":"LineString","coordinates":[[139.22933,35.50483],[139.22932,35.50511],[139.22944,35.50535],[139.23068,35.50634]]}},{"type":"Feature","properties":{"idx":53,"road":"伊勢原津久井線","cls":"primary","shops":0,"st_km":8.15,"mesh":"53392157"},"geometry":{"type":"LineString","coordinates":[[139.21852,35.54817],[139.21885,35.54803]]}},{"type":"Feature","properties":{"idx":53,"road":"伊勢原津久井線","cls":"primary","shops":0,"st_km":8.36,"mesh":"53392157"},"geometry":{"type":"LineString","coordinates":[[139.21972,35.54642],[139.21958,35.54642]]}},{"type":"Feature","properties":{"idx":79,"road":"伊勢原津久井線","cls":"primary","shops":1,"st_km":8.31,"mesh":"53392157"},"geometry":{"type":"LineString","coordinates":[[139.22055,35.54715],[139.22068,35.54708]]}},{"type":"Feature","properties":{"idx":34,"road":"山北藤野線","cls":"primary","shops":0,"st_km":3.94,"mesh":"53392192"},"geometry":{"type":"LineString","coordinates":[[139.15068,35.57971],[139.15065,35.58027],[139.15036,35.58083],[139.15027,35.58116]]}},{"type":"Feature","properties":{"idx":4,"road":"山北藤野線","cls":"primary","shops":0,"st_km":6.29,"mesh":"53392171"},"geometry":{"type":"LineString","coordinates":[[139.14213,35.55972],[139.14242,35.55978],[139.1435,35.55963],[139.14395,35.55975],[139.14416,35.55975],[139.14493,35.55947],[139.14583,35.55934],[139.14602,35.5594],[139.14625,35.55978],[139.14657,35.55995],[139.14671,35.56022]]}},{"type":"Feature","properties":{"idx":4,"road":"大羽橋","cls":"primary","shops":0,"st_km":5.5,"mesh":"53392171"},"geometry":{"type":"LineString","coordinates":[[139.14657,35.56635],[139.14628,35.56682]]}},{"type":"Feature","properties":{"idx":4,"road":"菅井隧道","cls":"primary","shops":0,"st_km":6.14,"mesh":"53392171"},"geometry":{"type":"LineString","coordinates":[[139.14671,35.56022],[139.14697,35.56125]]}},{"type":"Feature","properties":{"idx":4,"road":"天神隧道","cls":"primary","shops":0,"st_km":6.33,"mesh":"53392171"},"geometry":{"type":"LineString","coordinates":[[139.14078,35.55925],[139.14213,35.55972]]}},{"type":"Feature","properties":{"idx":4,"road":"山北藤野線","cls":"primary","shops":0,"st_km":5.86,"mesh":"53392171"},"geometry":{"type":"LineString","coordinates":[[139.14697,35.56125],[139.14719,35.56167],[139.14756,35.56175],[139.1481,35.56171],[139.14817,35.56174],[139.14818,35.56182],[139.14807,35.56188],[139.14745,35.56196],[139.14719,35.56207],[139.14716,35.5622],[139.14719,35.56224],[139.14756,35.56242],[139.14768,35.56284],[139.14751,35.56294],[139.14727,35.56287],[139.14712,35.56292],[139.14699,35.56332],[139.14651,35.56362],[139.1463,35.56393],[139.14626,35.56415],[139.14633,35.5643],[139.14649,35.56438],[139.14719,35.56455],[139.14738,35.56472],[139.14746,35.56496],[139.14731,35.56591],[139.14718,35.56604],[139.14672,35.56621],[139.14657,35.56635]]}},{"type":"Feature","properties":{"idx":70,"road":"藤野津久井線","cls":"secondary","shops":0,"st_km":5.63,"mesh":"53392186"},"geometry":{"type":"LineString","coordinates":[[139.20428,35.56863],[139.20518,35.56803]]}},{"type":"Feature","properties":{"idx":27,"road":NaN,"cls":"tertiary","shops":0,"st_km":4.14,"mesh":"53392192"},"geometry":{"type":"LineString","coordinates":[[139.15661,35.57971],[139.15668,35.57938],[139.15664,35.57915],[139.1563,35.57882],[139.1562,35.57856],[139.15624,35.57838],[139.15649,35.57802]]}},{"type":"Feature","properties":{"idx":10,"road":"市道橋津原平丸線","cls":"tertiary","shops":0,"st_km":7.91,"mesh":"53392151"},"geometry":{"type":"LineString","coordinates":[[139.1396,35.54573],[139.13853,35.54533],[139.13825,35.54528],[139.13806,35.54533],[139.1376,35.54568],[139.1373,35.54572],[139.13716,35.54565],[139.13667,35.54515],[139.13639,35.54497],[139.13614,35.54487]]}},{"type":"Feature","properties":{"idx":27,"road":NaN,"cls":"tertiary","shops":0,"st_km":3.93,"mesh":"53392192"},"geometry":{"type":"LineString","coordinates":[[139.15597,35.58169],[139.15618,35.58153],[139.15635,35.58098],[139.15662,35.58072],[139.15665,35.5806],[139.1565,35.58031],[139.15664,35.58]]}},{"type":"Feature","properties":{"idx":11,"road":"市道伏馬田菅井線","cls":"tertiary","shops":0,"st_km":6.44,"mesh":"53392173"},"geometry":{"type":"LineString","coordinates":[[139.16902,35.5597],[139.16846,35.55955],[139.16803,35.55935],[139.16759,35.55926],[139.16649,35.55946],[139.16631,35.55956],[139.16618,35.5597],[139.16587,35.56042],[139.16572,35.5606]]}},{"type":"Feature","properties":{"idx":7,"road":"横山沢橋","cls":"tertiary","shops":0,"st_km":8.01,"mesh":"53392150"},"geometry":{"type":"LineString","coordinates":[[139.13614,35.54487],[139.13593,35.54488]]}},{"type":"Feature","properties":{"idx":10,"road":"市道荒井平丸線","cls":"tertiary","shops":0,"st_km":7.64,"mesh":"53392151"},"geometry":{"type":"LineString","coordinates":[[139.14184,35.54756],[139.14177,35.54754]]}},{"type":"Feature","properties":{"idx":27,"road":NaN,"cls":"tertiary","shops":0,"st_km":4.04,"mesh":"53392192"},"geometry":{"type":"LineString","coordinates":[[139.15664,35.58],[139.15661,35.57971]]}},{"type":"Feature","properties":{"idx":27,"road":NaN,"cls":"tertiary","shops":0,"st_km":4.41,"mesh":"53392192"},"geometry":{"type":"LineString","coordinates":[[139.15656,35.5776],[139.15649,35.57697],[139.15611,35.57634],[139.15611,35.5761],[139.15598,35.57537],[139.15598,35.57517]]}},{"type":"Feature","properties":{"idx":3,"road":"大茅橋","cls":"tertiary","shops":0,"st_km":9.77,"mesh":"53392149"},"geometry":{"type":"LineString","coordinates":[[139.23809,35.53894],[139.23821,35.53927]]}},{"type":"Feature","properties":{"idx":1,"road":"北岸林道","cls":"tertiary","shops":0,"st_km":10.0,"mesh":"53392148"},"geometry":{"type":"LineString","coordinates":[[139.23518,35.53563],[139.23537,35.53567]]}},{"type":"Feature","properties":{"idx":3,"road":"北岸林道","cls":"tertiary","shops":0,"st_km":9.89,"mesh":"53392149"},"geometry":{"type":"LineString","coordinates":[[139.23759,35.53754],[139.23769,35.53783]]}},{"type":"Feature","properties":{"idx":1,"road":"北岸林道","cls":"tertiary","shops":0,"st_km":9.98,"mesh":"53392148"},"geometry":{"type":"LineString","coordinates":[[139.23398,35.53536],[139.23426,35.53542]]}},{"type":"Feature","properties":{"idx":10,"road":"市道橋津原平丸線","cls":"tertiary","shops":0,"st_km":7.65,"mesh":"53392151"},"geometry":{"type":"LineString","coordinates":[[139.14165,35.5475],[139.14149,35.54745]]}},{"type":"Feature","properties":{"idx":27,"road":NaN,"cls":"tertiary","shops":0,"st_km":4.26,"mesh":"53392192"},"geometry":{"type":"LineString","coordinates":[[139.15649,35.57802],[139.15656,35.5776]]}},{"type":"Feature","properties":{"idx":11,"road":"市道上野東野線","cls":"tertiary","shops":1,"st_km":8.17,"mesh":"53392150"},"geometry":{"type":"LineString","coordinates":[[139.12676,35.54559],[139.12637,35.54539],[139.12541,35.54521],[139.12484,35.54503],[139.12471,35.54493],[139.12476,35.54479]]}},{"type":"Feature","properties":{"idx":54,"road":NaN,"cls":"tertiary","shops":0,"st_km":4.59,"mesh":"53392182"},"geometry":{"type":"LineString","coordinates":[[139.15598,35.57517],[139.15605,35.57481],[139.15601,35.57442],[139.15607,35.57428],[139.15619,35.57418],[139.15633,35.57422],[139.15666,35.57473],[139.15693,35.57501],[139.15711,35.57511],[139.15733,35.57504],[139.15754,35.57476],[139.15766,35.57468],[139.15873,35.57471]]}},{"type":"Feature","properties":{"idx":38,"road":"鳥居原橋","cls":"tertiary","shops":0,"st_km":9.27,"mesh":"53392147"},"geometry":{"type":"LineString","coordinates":[[139.22438,35.53893],[139.22416,35.53917]]}},{"type":"Feature","properties":{"idx":71,"road":NaN,"cls":"tertiary","shops":0,"st_km":6.37,"mesh":"53392174"},"geometry":{"type":"LineString","coordinates":[[139.18121,35.56086],[139.18119,35.56052],[139.18123,35.56015],[139.1811,35.55989],[139.18108,35.55967]]}},{"type":"Feature","properties":{"idx":1,"road":"胡桃橋","cls":"tertiary","shops":0,"st_km":10.01,"mesh":"53392148"},"geometry":{"type":"LineString","coordinates":[[139.23537,35.53567],[139.23606,35.53585]]}},{"type":"Feature","properties":{"idx":10,"road":"中沢トンネル","cls":"tertiary","shops":0,"st_km":7.67,"mesh":"53392151"},"geometry":{"type":"LineString","coordinates":[[139.14149,35.54745],[139.14103,35.54734],[139.14089,35.5472]]}},{"type":"Feature","properties":{"idx":38,"road":"大沢橋","cls":"tertiary","shops":0,"st_km":9.34,"mesh":"53392147"},"geometry":{"type":"LineString","coordinates":[[139.22469,35.53834],[139.22458,35.53861]]}},{"type":"Feature","properties":{"idx":38,"road":"芋窪橋","cls":"tertiary","shops":0,"st_km":9.4,"mesh":"53392147"},"geometry":{"type":"LineString","coordinates":[[139.22476,35.53773],[139.22475,35.53808]]}},{"type":"Feature","properties":{"idx":3,"road":"北岸林道","cls":"tertiary","shops":0,"st_km":9.63,"mesh":"53392149"},"geometry":{"type":"LineString","coordinates":[[139.23861,35.5408],[139.23937,35.54108]]}},{"type":"Feature","properties":{"idx":1,"road":"北岸林道","cls":"tertiary","shops":0,"st_km":9.96,"mesh":"53392148"},"geometry":{"type":"LineString","coordinates":[[139.23717,35.53673],[139.23731,35.53691]]}},{"type":"Feature","properties":{"idx":1,"road":"北岸林道","cls":"tertiary","shops":0,"st_km":10.01,"mesh":"53392148"},"geometry":{"type":"LineString","coordinates":[[139.23606,35.53585],[139.23632,35.53601]]}},{"type":"Feature","properties":{"idx":1,"road":"栗ノ木橋","cls":"tertiary","shops":0,"st_km":9.99,"mesh":"53392148"},"geometry":{"type":"LineString","coordinates":[[139.23426,35.53542],[139.23518,35.53563]]}},{"type":"Feature","properties":{"idx":5,"road":"北岸林道","cls":"tertiary","shops":0,"st_km":9.69,"mesh":"53392159"},"geometry":{"type":"LineString","coordinates":[[139.23971,35.54106],[139.24003,35.54086],[139.24029,35.5408],[139.24052,35.54088],[139.24085,35.54109],[139.24114,35.54119],[139.24177,35.54108],[139.24197,35.54112],[139.24215,35.54123],[139.24247,35.54175],[139.243,35.54236],[139.24307,35.54255],[139.24306,35.54277],[139.24288,35.54314],[139.24271,35.5433],[139.24217,35.54354],[139.24185,35.54376],[139.24144,35.5442],[139.24139,35.54442]]}},{"type":"Feature","properties":{"idx":10,"road":"亀見橋","cls":"tertiary","shops":0,"st_km":6.47,"mesh":"53392173"},"geometry":{"type":"LineString","coordinates":[[139.16902,35.5597],[139.1693,35.55969],[139.17017,35.5595]]}},{"type":"Feature","properties":{"idx":1,"road":"想い出橋","cls":"tertiary","shops":0,"st_km":9.99,"mesh":"53392148"},"geometry":{"type":"LineString","coordinates":[[139.23632,35.53601],[139.23717,35.53673]]}},{"type":"Feature","properties":{"idx":5,"road":"青山橋","cls":"tertiary","shops":0,"st_km":9.38,"mesh":"53392159"},"geometry":{"type":"LineString","coordinates":[[139.24139,35.54442],[139.24156,35.54484]]}},{"type":"Feature","properties":{"idx":14,"road":"青根6号","cls":"tertiary","shops":2,"st_km":7.63,"mesh":"53392150"},"geometry":{"type":"LineString","coordinates":[[139.13497,35.54842],[139.13555,35.54844],[139.13613,35.54853]]}},{"type":"Feature","properties":{"idx":1,"road":"猿渡橋","cls":"tertiary","shops":0,"st_km":9.93,"mesh":"53392148"},"geometry":{"type":"LineString","coordinates":[[139.23731,35.53691],[139.23759,35.53754]]}},{"type":"Feature","properties":{"idx":1,"road":"落合橋","cls":"tertiary","shops":0,"st_km":9.93,"mesh":"53392148"},"geometry":{"type":"LineString","coordinates":[[139.23001,35.53451],[139.23042,35.53458]]}},{"type":"Feature","properties":{"idx":7,"road":"市道上野東野線","cls":"tertiary","shops":0,"st_km":8.09,"mesh":"53392150"},"geometry":{"type":"LineString","coordinates":[[139.12689,35.54599],[139.12687,35.54579]]}},{"type":"Feature","properties":{"idx":3,"road":"北岸林道","cls":"tertiary","shops":0,"st_km":9.72,"mesh":"53392149"},"geometry":{"type":"LineString","coordinates":[[139.23821,35.53927],[139.23827,35.53958],[139.23819,35.54007]]}},{"type":"Feature","properties":{"idx":129,"road":NaN,"cls":"tertiary","shops":0,"st_km":6.1,"mesh":"53392175"},"geometry":{"type":"LineString","coordinates":[[139.20073,35.56137],[139.20069,35.56158],[139.2009,35.56176],[139.20102,35.56195],[139.20114,35.56256],[139.20138,35.56296],[139.20129,35.56316],[139.20093,35.56336],[139.20077,35.56335],[139.20039,35.56317],[139.19964,35.56313],[139.19921,35.563],[139.19871,35.56293],[139.19744,35.56292],[139.197,35.56307],[139.19588,35.56297],[139.19493,35.56252],[139.19307,35.56216],[139.19245,35.56213]]}},{"type":"Feature","properties":{"idx":1,"road":"北岸林道","cls":"tertiary","shops":0,"st_km":10.01,"mesh":"53392148"},"geometry":{"type":"LineString","coordinates":[[139.23286,35.53473],[139.23314,35.53474],[139.23333,35.53482],[139.23377,35.53525]]}},{"type":"Feature","properties":{"idx":3,"road":"永峰橋","cls":"tertiary","shops":0,"st_km":9.64,"mesh":"53392149"},"geometry":{"type":"LineString","coordinates":[[139.23819,35.54007],[139.23819,35.54029],[139.23827,35.5405],[139.2384,35.54065],[139.23861,35.5408]]}},{"type":"Feature","properties":{"idx":5,"road":"北岸林道","cls":"tertiary","shops":0,"st_km":9.33,"mesh":"53392159"},"geometry":{"type":"LineString","coordinates":[[139.24156,35.54484],[139.24189,35.54542],[139.24204,35.54551],[139.24231,35.54558]]}},{"type":"Feature","properties":{"idx":7,"road":"市道橋津原平丸線","cls":"tertiary","shops":0,"st_km":7.95,"mesh":"53392150"},"geometry":{"type":"LineString","coordinates":[[139.13593,35.54488],[139.13579,35.54494],[139.13566,35.54511],[139.13563,35.5457],[139.13559,35.54583],[139.13528,35.54606]]}},{"type":"Feature","properties":{"idx":12,"road":"鳥屋川尻線","cls":"secondary","shops":0,"st_km":7.8,"mesh":"53392168"},"geometry":{"type":"LineString","coordinates":[[139.23019,35.55582],[139.23,35.55564]]}},{"type":"Feature","properties":{"idx":7,"road":"鳥屋川尻線","cls":"secondary","shops":0,"st_km":7.75,"mesh":"53392178"},"geometry":{"type":"LineString","coordinates":[[139.23561,35.55908],[139.23562,35.55888]]}},{"type":"Feature","properties":{"idx":7,"road":"鳥屋川尻線","cls":"secondary","shops":0,"st_km":7.47,"mesh":"53392178"},"geometry":{"type":"LineString","coordinates":[[139.23688,35.56283],[139.23668,35.56261]]}},{"type":"Feature","properties":{"idx":7,"road":"鳥屋川尻線","cls":"secondary","shops":0,"st_km":7.6,"mesh":"53392178"},"geometry":{"type":"LineString","coordinates":[[139.23668,35.56261],[139.23645,35.56194],[139.23603,35.56134],[139.23598,35.56115],[139.23598,35.56037],[139.23561,35.55964],[139.23561,35.55908]]}},{"type":"Feature","properties":{"idx":12,"road":"鳥屋川尻線","cls":"secondary","shops":0,"st_km":7.89,"mesh":"53392168"},"geometry":{"type":"LineString","coordinates":[[139.23562,35.55888],[139.23543,35.55794],[139.2352,35.5575],[139.23479,35.55717],[139.23371,35.55649],[139.23257,35.55607],[139.23218,35.55604],[139.23135,35.55619],[139.23088,35.55617],[139.2306,35.5561],[139.23019,35.55582]]}},{"type":"Feature","properties":{"idx":20,"road":"鳥屋川尻線","cls":"secondary","shops":0,"st_km":8.12,"mesh":"53392167"},"geometry":{"type":"LineString","coordinates":[[139.22655,35.55293],[139.22641,35.55291],[139.22586,35.55264],[139.22551,35.5523],[139.22535,35.55178],[139.22513,35.55134],[139.22498,35.55079],[139.2247,35.55035],[139.2244,35.55014],[139.22375,35.55004],[139.22351,35.5499],[139.22267,35.54881],[139.22164,35.54722],[139.22097,35.5469]]}},{"type":"Feature","properties":{"idx":53,"road":"藤野津久井線","cls":"secondary","shops":0,"st_km":5.95,"mesh":"53392176"},"geometry":{"type":"LineString","coordinates":[[139.20518,35.56803],[139.20571,35.56734],[139.20808,35.56641],[139.20842,35.56616],[139.20858,35.56592],[139.20859,35.56577],[139.20854,35.56562],[139.20746,35.56415],[139.20723,35.56394],[139.20655,35.56359]]}},{"type":"Feature","properties":{"idx":53,"road":"伊勢原津久井線","cls":"primary","shops":0,"st_km":8.55,"mesh":"53392157"},"geometry":{"type":"LineString","coordinates":[[139.21958,35.54642],[139.21907,35.5464],[139.21886,35.54632],[139.21808,35.54527],[139.21746,35.54415],[139.21739,35.54394],[139.21743,35.54375],[139.21766,35.54318],[139.2177,35.54267],[139.21765,35.54242],[139.2174,35.54191],[139.2171,35.54162],[139.21656,35.54121],[139.21649,35.54107],[139.21649,35.54096]]}},{"type":"Feature","properties":{"idx":79,"road":"伊勢原津久井線","cls":"primary","shops":1,"st_km":8.33,"mesh":"53392157"},"geometry":{"type":"LineString","coordinates":[[139.22068,35.54708],[139.22097,35.5469]]}},{"type":"Feature","properties":{"idx":4,"road":"岩道橋","cls":"primary","shops":0,"st_km":10.04,"mesh":"53392129"},"geometry":{"type":"LineString","coordinates":[[139.23838,35.5225],[139.23887,35.52214]]}},{"type":"Feature","properties":{"idx":10,"road":"市道荒井平丸線","cls":"tertiary","shops":0,"st_km":7.59,"mesh":"53392151"},"geometry":{"type":"LineString","coordinates":[[139.14406,35.54822],[139.14402,35.54829],[139.14389,35.5483],[139.14366,35.54816],[139.14184,35.54756]]}},{"type":"Feature","properties":{"idx":7,"road":"青根6号","cls":"tertiary","shops":0,"st_km":7.58,"mesh":"53392150"},"geometry":{"type":"LineString","coordinates":[[139.1343,35.54991],[139.13443,35.54977],[139.13445,35.54863],[139.13452,35.54854],[139.13497,35.54842]]}},{"type":"Feature","properties":{"idx":9,"road":"山北藤野線","cls":"primary","shops":0,"st_km":7.78,"mesh":"53392150"},"geometry":{"type":"LineString","coordinates":[[139.12838,35.54473],[139.12834,35.54513],[139.12841,35.54533],[139.12864,35.54551],[139.12891,35.54591],[139.12907,35.54598],[139.13013,35.54628],[139.13052,35.54649],[139.13077,35.54655],[139.13116,35.54621],[139.13137,35.54612],[139.13165,35.54612],[139.13185,35.54621],[139.13196,35.5463],[139.13221,35.5467],[139.13234,35.54711],[139.13215,35.54794],[139.13225,35.54808],[139.13259,35.54825],[139.1328,35.54827],[139.13298,35.54812],[139.13316,35.54745],[139.13335,35.54708],[139.1334,35.5468],[139.13347,35.54669],[139.13358,35.5466],[139.13397,35.5465],[139.13432,35.54618],[139.13474,35.5461],[139.13493,35.54613],[139.13492,35.54622],[139.13447,35.54636],[139.13429,35.54649],[139.13395,35.54682],[139.13369,35.54725],[139.1336,35.5476],[139.13363,35.54807],[139.13376,35.54838],[139.13406,35.54875],[139.13413,35.5489],[139.13431,35.54981],[139.13425,35.55004],[139.13408,35.55018],[139.13388,35.55023],[139.13354,35.55019],[139.13349,35.55024]]}},{"type":"Feature","properties":{"idx":38,"road":"北岸林道","cls":"tertiary","shops":0,"st_km":9.3,"mesh":"53392147"},"geometry":{"type":"LineString","coordinates":[[139.22438,35.53893],[139.22458,35.53861]]}},{"type":"Feature","properties":{"idx":38,"road":"北岸林道","cls":"tertiary","shops":0,"st_km":9.51,"mesh":"53392147"},"geometry":{"type":"LineString","coordinates":[[139.22476,35.53773],[139.22467,35.53712],[139.22477,35.53688],[139.22497,35.53669],[139.22561,35.53645]]}},{"type":"Feature","properties":{"idx":38,"road":"北岸林道","cls":"tertiary","shops":0,"st_km":9.37,"mesh":"53392147"},"geometry":{"type":"LineString","coordinates":[[139.22469,35.53834],[139.22475,35.53808]]}},{"type":"Feature","properties":{"idx":53,"road":"伊勢原津久井線","cls":"primary","shops":0,"st_km":8.37,"mesh":"53392157"},"geometry":{"type":"LineString","coordinates":[[139.22097,35.5469],[139.22062,35.54657],[139.22045,35.54648],[139.21972,35.54642]]}},{"type":"Feature","properties":{"idx":40,"road":"伊勢原津久井線","cls":"primary","shops":0,"st_km":10.15,"mesh":"53392127"},"geometry":{"type":"LineString","coordinates":[[139.2232,35.52307],[139.22344,35.52244],[139.22367,35.52211]]}},{"type":"Feature","properties":{"idx":9,"road":"山北藤野線","cls":"primary","shops":0,"st_km":8.22,"mesh":"53392150"},"geometry":{"type":"LineString","coordinates":[[139.12841,35.5439],[139.12832,35.5441],[139.12838,35.54473]]}},{"type":"Feature","properties":{"idx":7,"road":"長又第一橋","cls":"primary","shops":0,"st_km":7.45,"mesh":"53392160"},"geometry":{"type":"LineString","coordinates":[[139.13349,35.55024],[139.13332,35.5507]]}},{"type":"Feature","properties":{"idx":6,"road":"山北藤野線","cls":"primary","shops":0,"st_km":7.19,"mesh":"53392161"},"geometry":{"type":"LineString","coordinates":[[139.13371,35.55094],[139.13408,35.55088],[139.13455,35.5509],[139.13491,35.55071],[139.13541,35.55064],[139.13568,35.55026],[139.1358,35.5502],[139.13594,35.55022],[139.13651,35.55044],[139.13686,35.55087],[139.13753,35.55127],[139.13836,35.55142],[139.13855,35.55182],[139.13944,35.55265],[139.13976,35.5528],[139.14028,35.55294],[139.14039,35.55302],[139.14043,35.55321],[139.14032,35.5534],[139.14025,35.55346],[139.13998,35.55351],[139.13987,35.55366],[139.13935,35.55408],[139.13921,35.55436],[139.13883,35.55465],[139.13842,35.55472],[139.13817,35.55487],[139.13802,35.55501],[139.13777,35.55539]]}},{"type":"Feature","properties":{"idx":17,"road":"伊勢原津久井線","cls":"primary","shops":0,"st_km":10.3,"mesh":"53392128"},"geometry":{"type":"LineString","coordinates":[[139.23551,35.52483],[139.2359,35.52451]]}},{"type":"Feature","properties":{"idx":53,"road":"伊勢原津久井線","cls":"primary","shops":0,"st_km":8.23,"mesh":"53392157"},"geometry":{"type":"LineString","coordinates":[[139.21885,35.54803],[139.21933,35.54784],[139.22055,35.54715]]}},{"type":"Feature","properties":{"idx":56,"road":"藤野津久井線","cls":"secondary","shops":0,"st_km":4.9,"mesh":"53392185"},"geometry":{"type":"LineString","coordinates":[[139.18729,35.57679],[139.18746,35.57672],[139.18815,35.57606],[139.18861,35.57575],[139.18897,35.57536],[139.18918,35.57528],[139.18967,35.57523],[139.19007,35.57512],[139.19031,35.57495],[139.19096,35.57428],[139.19111,35.57419],[139.19127,35.57417],[139.19167,35.57434],[139.1919,35.57436],[139.19245,35.57419],[139.19259,35.57419],[139.1927,35.57432],[139.19253,35.57465],[139.19256,35.57484],[139.19279,35.57496],[139.19296,35.57498],[139.19347,35.57482],[139.1936,35.57473],[139.19375,35.57452],[139.19403,35.57373],[139.19412,35.57363],[139.19423,35.57362],[139.19433,35.57369],[139.19438,35.57379],[139.1944,35.57406],[139.19448,35.57414],[139.1946,35.57416],[139.19475,35.5741],[139.19556,35.57349],[139.19569,35.57322],[139.19556,35.57276],[139.19562,35.5726],[139.1958,35.57258],[139.19642,35.57265],[139.19715,35.57239],[139.19773,35.57228],[139.19791,35.57216],[139.19833,35.57164],[139.19861,35.57153],[139.19879,35.57153],[139.19896,35.57161],[139.19909,35.57184],[139.19924,35.57193],[139.1993,35.5719],[139.19933,35.57179],[139.19927,35.57146],[139.1993,35.57136],[139.19978,35.57091],[139.20075,35.57056],[139.20132,35.57008],[139.20197,35.56998],[139.20267,35.56965],[139.20428,35.56863]]}},{"type":"Feature","properties":{"idx":68,"road":"山北藤野線","cls":"primary","shops":0,"st_km":4.81,"mesh":"53392182"},"geometry":{"type":"LineString","coordinates":[[139.14628,35.56682],[139.14626,35.56694],[139.1464,35.56716],[139.14654,35.56727],[139.14702,35.56738],[139.14734,35.56771],[139.14755,35.56783],[139.14766,35.56796],[139.14772,35.56811],[139.14768,35.56833],[139.14755,35.56839],[139.14722,35.56836],[139.14706,35.5684],[139.14699,35.56852],[139.14706,35.56869],[139.14731,35.5688],[139.14777,35.56915],[139.14799,35.56924],[139.14872,35.56939],[139.14898,35.5698],[139.14923,35.57003],[139.14924,35.57027],[139.14914,35.57044],[139.14889,35.5707],[139.14887,35.57083],[139.14897,35.57095],[139.14973,35.57129],[139.15005,35.57201],[139.15009,35.57234],[139.15002,35.57266],[139.15017,35.57297],[139.15014,35.57311],[139.14965,35.57337],[139.14955,35.57348],[139.14932,35.57381],[139.14926,35.57415],[139.14914,35.57434],[139.149,35.57441],[139.14834,35.57448],[139.1483,35.57453],[139.14837,35.57462],[139.14871,35.57469],[139.14886,35.5748],[139.14991,35.57646],[139.15042,35.57775],[139.1507,35.57883],[139.15068,35.57971]]}},{"type":"Feature","properties":{"idx":3,"road":"藤野津久井線","cls":"secondary","shops":0,"st_km":4.5,"mesh":"53392194"},"geometry":{"type":"LineString","coordinates":[[139.18099,35.57758],[139.18133,35.57738],[139.18181,35.57729],[139.18211,35.57704],[139.18231,35.57701],[139.1824,35.57702],[139.18274,35.57728],[139.18364,35.57718],[139.18387,35.57729],[139.18403,35.5773]]}},{"type":"Feature","properties":{"idx":3,"road":"藤野津久井線","cls":"secondary","shops":0,"st_km":4.22,"mesh":"53392194"},"geometry":{"type":"LineString","coordinates":[[139.1753,35.58421],[139.17563,35.58414],[139.17624,35.58363],[139.17652,35.58322],[139.17726,35.58157],[139.17743,35.58143],[139.17795,35.58129],[139.17813,35.58116],[139.17841,35.58066],[139.17872,35.58031],[139.17872,35.58004],[139.17887,35.58],[139.17891,35.58024],[139.17919,35.58029],[139.17985,35.57996],[139.18032,35.57982],[139.18065,35.57946],[139.18112,35.57918],[139.18132,35.57883],[139.18145,35.57825],[139.1818,35.57814],[139.18188,35.57806],[139.18179,35.57796],[139.18145,35.57799],[139.18128,35.57796],[139.18097,35.57774],[139.18093,35.57765],[139.18099,35.57758]]}},{"type":"Feature","properties":{"idx":7,"road":"市道上野東野線","cls":"tertiary","shops":0,"st_km":7.85,"mesh":"53392150"},"geometry":{"type":"LineString","coordinates":[[139.12689,35.54599],[139.12702,35.54636],[139.12715,35.54657],[139.12777,35.5472],[139.12816,35.54743],[139.12872,35.5475],[139.1305,35.54758],[139.13079,35.54754],[139.13098,35.54746],[139.13121,35.54727],[139.13133,35.54699],[139.13132,35.54672],[139.13116,35.54621]]}},{"type":"Feature","properties":{"idx":2,"road":"上村橋","cls":"primary","shops":0,"st_km":9.31,"mesh":"53392119"},"geometry":{"type":"LineString","coordinates":[[139.24337,35.5159],[139.24361,35.51582],[139.24393,35.5156],[139.24411,35.51533],[139.24415,35.515]]}},{"type":"Feature","properties":{"idx":2,"road":"伊勢原津久井線","cls":"primary","shops":1,"st_km":9.41,"mesh":"53392119"},"geometry":{"type":"LineString","coordinates":[[139.24139,35.51769],[139.24177,35.51686],[139.24208,35.51645],[139.24254,35.51618],[139.24337,35.5159]]}},{"type":"Feature","properties":{"idx":7,"road":"青根24号","cls":"tertiary","shops":0,"st_km":8.06,"mesh":"53392150"},"geometry":{"type":"LineString","coordinates":[[139.12626,35.54593],[139.12598,35.54599],[139.12548,35.54632],[139.12538,35.54648],[139.12537,35.5466],[139.12549,35.54687]]}},{"type":"Feature","properties":{"idx":7,"road":"道志みち","cls":"tertiary","shops":0,"st_km":8.09,"mesh":"53392150"},"geometry":{"type":"LineString","coordinates":[[139.12885,35.54482],[139.12877,35.54502],[139.12913,35.54531],[139.12956,35.54553],[139.12991,35.54561],[139.13003,35.54553]]}},{"type":"Feature","properties":{"idx":193,"road":NaN,"cls":"tertiary","shops":1,"st_km":6.13,"mesh":"53392175"},"geometry":{"type":"LineString","coordinates":[[139.19245,35.56213],[139.19228,35.56213]]}},{"type":"Feature","properties":{"idx":193,"road":NaN,"cls":"tertiary","shops":1,"st_km":6.18,"mesh":"53392175"},"geometry":{"type":"LineString","coordinates":[[139.19228,35.56213],[139.19074,35.56212],[139.1881,35.5615],[139.18598,35.5614],[139.18558,35.56131],[139.18533,35.56131]]}},{"type":"Feature","properties":{"idx":47,"road":NaN,"cls":"tertiary","shops":0,"st_km":6.31,"mesh":"53392176"},"geometry":{"type":"LineString","coordinates":[[139.20079,35.5613],[139.20073,35.56137]]}},{"type":"Feature","properties":{"idx":47,"road":NaN,"cls":"tertiary","shops":0,"st_km":6.24,"mesh":"53392176"},"geometry":{"type":"LineString","coordinates":[[139.20492,35.56383],[139.20444,35.56277],[139.20435,35.56266],[139.20324,35.56249],[139.20285,35.5621],[139.2023,35.56204],[139.20192,35.56171],[139.20112,35.56131],[139.20092,35.56126],[139.20079,35.5613]]}},{"type":"Feature","properties":{"idx":13,"road":"山北藤野線","cls":"primary","shops":1,"st_km":8.32,"mesh":"53392150"},"geometry":{"type":"LineString","coordinates":[[139.1288,35.54325],[139.12879,35.54333]]}},{"type":"Feature","properties":{"idx":9,"road":"山北藤野線","cls":"primary","shops":0,"st_km":8.29,"mesh":"53392150"},"geometry":{"type":"LineString","coordinates":[[139.12879,35.54333],[139.12863,35.54369],[139.12841,35.5439]]}},{"type":"Feature","properties":{"idx":7,"road":"山北藤野線","cls":"primary","shops":0,"st_km":8.59,"mesh":"53392140"},"geometry":{"type":"LineString","coordinates":[[139.12578,35.5392],[139.12576,35.53956],[139.12582,35.54],[139.12568,35.54048],[139.12571,35.5406],[139.12581,35.54067],[139.1264,35.54093],[139.12688,35.54088],[139.12738,35.54137],[139.12773,35.54162],[139.12789,35.5416],[139.12828,35.54136],[139.1286,35.54145],[139.12881,35.54142],[139.12891,35.54134],[139.12893,35.54109],[139.1291,35.54103],[139.1292,35.54108],[139.12936,35.54135],[139.12935,35.54152]]}},{"type":"Feature","properties":{"idx":7,"road":"道志みち","cls":"tertiary","shops":0,"st_km":8.29,"mesh":"53392150"},"geometry":{"type":"LineString","coordinates":[[139.12837,35.54363],[139.1284,35.54374]]}},{"type":"Feature","properties":{"idx":7,"road":"道志みち","cls":"tertiary","shops":0,"st_km":8.27,"mesh":"53392150"},"geometry":{"type":"LineString","coordinates":[[139.1284,35.54374],[139.12841,35.5439]]}},{"type":"Feature","properties":{"idx":6,"road":"山北藤野線","cls":"primary","shops":0,"st_km":6.6,"mesh":"53392161"},"geometry":{"type":"LineString","coordinates":[[139.13778,35.55546],[139.138,35.55558],[139.13842,35.55545],[139.13858,35.5555],[139.13882,35.55602],[139.13925,35.55653],[139.13943,35.55688],[139.13952,35.55718],[139.13931,35.55748],[139.13932,35.55756],[139.13944,35.55763],[139.13978,35.55754],[139.14,35.55766],[139.14015,35.55786],[139.14045,35.55845],[139.14038,35.55902],[139.14051,35.55915],[139.14078,35.55925]]}},{"type":"Feature","properties":{"idx":6,"road":"山北藤野線","cls":"primary","shops":0,"st_km":6.83,"mesh":"53392161"},"geometry":{"type":"LineString","coordinates":[[139.13777,35.55539],[139.13778,35.55546]]}},{"type":"Feature","properties":{"idx":7,"road":"青根24号","cls":"tertiary","shops":0,"st_km":7.98,"mesh":"53392150"},"geometry":{"type":"LineString","coordinates":[[139.1257,35.547],[139.12597,35.54708],[139.12654,35.54709]]}},{"type":"Feature","properties":{"idx":7,"road":"紅葉橋","cls":"tertiary","shops":0,"st_km":7.99,"mesh":"53392150"},"geometry":{"type":"LineString","coordinates":[[139.12549,35.54687],[139.1257,35.547]]}},{"type":"Feature","properties":{"idx":7,"road":"東野小橋","cls":"tertiary","shops":0,"st_km":8.09,"mesh":"53392150"},"geometry":{"type":"LineString","coordinates":[[139.12654,35.54609],[139.12639,35.54597],[139.12626,35.54593]]}},{"type":"Feature","properties":{"idx":7,"road":"青根24号","cls":"tertiary","shops":0,"st_km":8.05,"mesh":"53392150"},"geometry":{"type":"LineString","coordinates":[[139.12698,35.54627],[139.12668,35.54629],[139.12654,35.54609]]}},{"type":"Feature","properties":{"idx":7,"road":"市道上野東野線","cls":"tertiary","shops":0,"st_km":8.12,"mesh":"53392150"},"geometry":{"type":"LineString","coordinates":[[139.12679,35.54562],[139.12676,35.54559]]}},{"type":"Feature","properties":{"idx":7,"road":"唐沢橋","cls":"tertiary","shops":0,"st_km":8.11,"mesh":"53392150"},"geometry":{"type":"LineString","coordinates":[[139.12687,35.54579],[139.12679,35.54562]]}},{"type":"Feature","properties":{"idx":9,"road":"山北藤野線","cls":"primary","shops":0,"st_km":8.42,"mesh":"53392150"},"geometry":{"type":"LineString","coordinates":[[139.12933,35.54156],[139.12883,35.5421],[139.12863,35.54261],[139.12874,35.54285],[139.12872,35.5431],[139.1288,35.54325]]}},{"type":"Feature","properties":{"idx":10,"road":"山北藤野線","cls":"primary","shops":1,"st_km":8.5,"mesh":"53392140"},"geometry":{"type":"LineString","coordinates":[[139.12935,35.54152],[139.12933,35.54156]]}},{"type":"Feature","properties":{"idx":11,"road":"道志みち","cls":"tertiary","shops":1,"st_km":8.31,"mesh":"53392150"},"geometry":{"type":"LineString","coordinates":[[139.12812,35.54339],[139.12831,35.5435],[139.12837,35.54363]]}},{"type":"Feature","properties":{"idx":11,"road":"道志みち","cls":"tertiary","shops":1,"st_km":8.33,"mesh":"53392150"},"geometry":{"type":"LineString","coordinates":[[139.12803,35.54338],[139.12812,35.54339]]}},{"type":"Feature","properties":{"idx":7,"road":"裾野沢橋","cls":"primary","shops":0,"st_km":8.84,"mesh":"53392140"},"geometry":{"type":"LineString","coordinates":[[139.12565,35.53909],[139.12578,35.5392]]}},{"type":"Feature","properties":{"idx":5,"road":"北岸林道","cls":"tertiary","shops":0,"st_km":9.34,"mesh":"53392159"},"geometry":{"type":"LineString","coordinates":[[139.24255,35.54559],[139.24257,35.54559]]}},{"type":"Feature","properties":{"idx":5,"road":"山芋橋","cls":"tertiary","shops":0,"st_km":9.34,"mesh":"53392159"},"geometry":{"type":"LineString","coordinates":[[139.24231,35.54558],[139.24255,35.54559]]}},{"type":"Feature","properties":{"idx":3,"road":"ワラビ橋","cls":"tertiary","shops":0,"st_km":9.64,"mesh":"53392149"},"geometry":{"type":"LineString","coordinates":[[139.23937,35.54108],[139.23971,35.54106]]}},{"type":"Feature","properties":{"idx":1,"road":"紅葉橋","cls":"tertiary","shops":0,"st_km":9.98,"mesh":"53392148"},"geometry":{"type":"LineString","coordinates":[[139.23377,35.53525],[139.23398,35.53536]]}},{"type":"Feature","properties":{"idx":1,"road":"ツツジ橋","cls":"tertiary","shops":0,"st_km":10.0,"mesh":"53392148"},"geometry":{"type":"LineString","coordinates":[[139.23254,35.53477],[139.23286,35.53473]]}},{"type":"Feature","properties":{"idx":1,"road":"北岸林道","cls":"tertiary","shops":0,"st_km":9.98,"mesh":"53392148"},"geometry":{"type":"LineString","coordinates":[[139.23229,35.53478],[139.23254,35.53477]]}},{"type":"Feature","properties":{"idx":1,"road":"北岸林道","cls":"tertiary","shops":0,"st_km":9.96,"mesh":"53392148"},"geometry":{"type":"LineString","coordinates":[[139.23176,35.53476],[139.2319,35.53477]]}},{"type":"Feature","properties":{"idx":1,"road":"北岸林道","cls":"tertiary","shops":0,"st_km":9.93,"mesh":"53392148"},"geometry":{"type":"LineString","coordinates":[[139.23042,35.53458],[139.23048,35.53459]]}},{"type":"Feature","properties":{"idx":1,"road":"北岸林道","cls":"tertiary","shops":0,"st_km":9.92,"mesh":"53392148"},"geometry":{"type":"LineString","coordinates":[[139.22969,35.53458],[139.23001,35.53451]]}},{"type":"Feature","properties":{"idx":1,"road":"北岸林道","cls":"tertiary","shops":0,"st_km":9.87,"mesh":"53392148"},"geometry":{"type":"LineString","coordinates":[[139.22937,35.53485],[139.22942,35.5348]]}},{"type":"Feature","properties":{"idx":47,"road":"伊勢原津久井線","cls":"primary","shops":0,"st_km":8.98,"mesh":"53392147"},"geometry":{"type":"LineString","coordinates":[[139.21651,35.54086],[139.2166,35.54067],[139.21681,35.54056],[139.21735,35.54051],[139.21828,35.54053],[139.21861,35.5404],[139.21914,35.54],[139.21968,35.53916],[139.22038,35.53858]]}},{"type":"Feature","properties":{"idx":47,"road":"伊勢原津久井線","cls":"primary","shops":0,"st_km":8.85,"mesh":"53392147"},"geometry":{"type":"LineString","coordinates":[[139.21649,35.54096],[139.21651,35.54086]]}},{"type":"Feature","properties":{"idx":7,"road":"青根24号","cls":"tertiary","shops":0,"st_km":7.95,"mesh":"53392150"},"geometry":{"type":"LineString","coordinates":[[139.12721,35.54722],[139.12654,35.54709]]}},{"type":"Feature","properties":{"idx":84,"road":"鳥屋川尻線","cls":"secondary","shops":0,"st_km":7.3,"mesh":"53392179"},"geometry":{"type":"LineString","coordinates":[[139.24555,35.56618],[139.24541,35.56603],[139.24534,35.56602],[139.24301,35.5661],[139.24162,35.56595]]}},{"type":"Feature","properties":{"idx":12,"road":"鳥屋川尻線","cls":"secondary","shops":0,"st_km":7.85,"mesh":"53392168"},"geometry":{"type":"LineString","coordinates":[[139.23,35.55564],[139.22959,35.55537],[139.22891,35.55524],[139.22867,35.55515],[139.22836,35.55491],[139.22783,35.55436],[139.22758,35.5539],[139.22741,35.55271],[139.22733,35.55263],[139.22722,35.55259],[139.227,35.55263],[139.22655,35.55293]]}},{"type":"Feature","properties":{"idx":7,"road":"市道橋津原平丸線","cls":"tertiary","shops":0,"st_km":7.89,"mesh":"53392150"},"geometry":{"type":"LineString","coordinates":[[139.13507,35.54617],[139.13495,35.54619]]}},{"type":"Feature","properties":{"idx":7,"road":"中津橋","cls":"tertiary","shops":0,"st_km":7.89,"mesh":"53392150"},"geometry":{"type":"LineString","coordinates":[[139.13528,35.54606],[139.13507,35.54617]]}},{"type":"Feature","properties":{"idx":10,"road":"市道橋津原平丸線","cls":"tertiary","shops":0,"st_km":7.75,"mesh":"53392151"},"geometry":{"type":"LineString","coordinates":[[139.14089,35.5472],[139.14083,35.54709],[139.14082,35.54693],[139.14101,35.5464],[139.14097,35.54626],[139.14083,35.54615]]}},{"type":"Feature","properties":{"idx":10,"road":"ヤマセミ橋","cls":"tertiary","shops":0,"st_km":7.85,"mesh":"53392151"},"geometry":{"type":"LineString","coordinates":[[139.14019,35.54593],[139.1396,35.54573]]}},{"type":"Feature","properties":{"idx":10,"road":"市道橋津原平丸線","cls":"tertiary","shops":0,"st_km":7.83,"mesh":"53392151"},"geometry":{"type":"LineString","coordinates":[[139.14053,35.54604],[139.14019,35.54593]]}},{"type":"Feature","properties":{"idx":10,"road":"カワセミ橋","cls":"tertiary","shops":0,"st_km":7.82,"mesh":"53392151"},"geometry":{"type":"LineString","coordinates":[[139.14083,35.54615],[139.14053,35.54604]]}},{"type":"Feature","properties":{"idx":10,"road":"市道荒井平丸線","cls":"tertiary","shops":0,"st_km":7.65,"mesh":"53392151"},"geometry":{"type":"LineString","coordinates":[[139.14177,35.54754],[139.14165,35.5475]]}},{"type":"Feature","properties":{"idx":7,"road":"山北藤野線","cls":"primary","shops":0,"st_km":7.42,"mesh":"53392160"},"geometry":{"type":"LineString","coordinates":[[139.13332,35.5507],[139.13349,35.55083]]}},{"type":"Feature","properties":{"idx":7,"road":"長又第二橋","cls":"primary","shops":0,"st_km":7.4,"mesh":"53392160"},"geometry":{"type":"LineString","coordinates":[[139.13349,35.55083],[139.13371,35.55094]]}},{"type":"Feature","properties":{"idx":4,"road":"伊勢原津久井線","cls":"primary","shops":0,"st_km":10.11,"mesh":"53392129"},"geometry":{"type":"LineString","coordinates":[[139.23765,35.52309],[139.23798,35.52282]]}},{"type":"Feature","properties":{"idx":4,"road":"伊勢原津久井線","cls":"primary","shops":0,"st_km":10.07,"mesh":"53392129"},"geometry":{"type":"LineString","coordinates":[[139.23821,35.52263],[139.23838,35.5225]]}},{"type":"Feature","properties":{"idx":3,"road":"秦野清川線","cls":"primary","shops":0,"st_km":8.33,"mesh":"53392108"},"geometry":{"type":"LineString","coordinates":[[139.23068,35.50634],[139.23088,35.50667],[139.23095,35.50714]]}},{"type":"Feature","properties":{"idx":3,"road":"秦野清川線","cls":"primary","shops":0,"st_km":8.11,"mesh":"53392108"},"geometry":{"type":"LineString","coordinates":[[139.22948,35.50434],[139.22933,35.50483]]}},{"type":"Feature","properties":{"idx":3,"road":"藤野津久井線","cls":"secondary","shops":0,"st_km":4.65,"mesh":"53392194"},"geometry":{"type":"LineString","coordinates":[[139.18403,35.5773],[139.18433,35.57718],[139.1848,35.5769],[139.18531,35.5765],[139.18575,35.57632],[139.18588,35.57618],[139.18626,35.57542],[139.18634,35.57537],[139.18682,35.57543],[139.18728,35.57527],[139.18742,35.57535],[139.18765,35.57563],[139.18766,35.57591],[139.18754,35.57625],[139.18716,35.57657],[139.18716,35.57671],[139.18722,35.57679]]}},{"type":"Feature","properties":{"idx":3,"road":"藤野津久井線","cls":"secondary","shops":0,"st_km":4.5,"mesh":"53392194"},"geometry":{"type":"LineString","coordinates":[[139.18722,35.57679],[139.18729,35.57679]]}},{"type":"Feature","properties":{"idx":53,"road":"伊勢原津久井線（切り回し区間）","cls":"primary","shops":0,"st_km":7.98,"mesh":"53392157"},"geometry":{"type":"LineString","coordinates":[[139.21526,35.55007],[139.21564,35.54992],[139.21617,35.54955],[139.218,35.54885],[139.2182,35.54869],[139.21834,35.54831],[139.21852,35.54817]]}}]}