{"type":"FeatureCollection","features":[{"type":"Feature","properties":{"idx":213,"road":"青梅あきる野線","cls":"primary","shops":0,"st_km":1.94,"mesh":"53394199"},"geometry":{"type":"LineString","coordinates":[[139.24039,35.74893],[139.24084,35.74735],[139.24084,35.74709],[139.24072,35.74679],[139.2404,35.74651],[139.23829,35.74522],[139.23808,35.74514],[139.23762,35.74506]]}},{"type":"Feature","properties":{"idx":281,"road":"八王子五日市線","cls":"primary","shops":1,"st_km":0.27,"mesh":"53394178"},"geometry":{"type":"LineString","coordinates":[[139.22588,35.73023],[139.22579,35.73063],[139.22561,35.73081]]}},{"type":"Feature","properties":{"idx":208,"road":"八王子五日市線","cls":"primary","shops":0,"st_km":0.17,"mesh":"53394178"},"geometry":{"type":"LineString","coordinates":[[139.22685,35.73097],[139.22733,35.73081]]}},{"type":"Feature","properties":{"idx":209,"road":"八王子五日市線","cls":"primary","shops":0,"st_km":0.16,"mesh":"53394178"},"geometry":{"type":"LineString","coordinates":[[139.22733,35.73081],[139.22769,35.7307],[139.22785,35.7306]]}},{"type":"Feature","properties":{"idx":69,"road":"八王子五日市線","cls":"primary","shops":0,"st_km":1.87,"mesh":"53394158"},"geometry":{"type":"LineString","coordinates":[[139.23188,35.71829],[139.2308,35.71676],[139.23059,35.71638],[139.23048,35.7161],[139.23041,35.71556],[139.23052,35.71493],[139.23088,35.71435],[139.23131,35.71387],[139.23255,35.71285]]}},{"type":"Feature","properties":{"idx":56,"road":"八王子五日市線","cls":"primary","shops":0,"st_km":2.52,"mesh":"53394158"},"geometry":{"type":"LineString","coordinates":[[139.23255,35.71285],[139.23281,35.71259],[139.23345,35.71225],[139.23441,35.71197],[139.23554,35.71141],[139.23792,35.71059],[139.24043,35.70961],[139.24064,35.7095],[139.24146,35.70887],[139.24236,35.70842]]}},{"type":"Feature","properties":{"idx":5,"road":"陣馬街道","cls":"secondary","shops":0,"st_km":6.06,"mesh":"53394106"},"geometry":{"type":"LineString","coordinates":[[139.21093,35.67138],[139.21089,35.67136]]}},{"type":"Feature","properties":{"idx":29,"road":"","cls":"tertiary","shops":0,"st_km":3.19,"mesh":"53394148"},"geometry":{"type":"LineString","coordinates":[[139.22459,35.70385],[139.22483,35.70362],[139.22518,35.70348],[139.22531,35.70346],[139.22577,35.70357],[139.22631,35.7034],[139.227,35.70343],[139.22802,35.70338],[139.22887,35.70317],[139.22913,35.70322],[139.22949,35.70344],[139.22966,35.70346],[139.23011,35.70306]]}},{"type":"Feature","properties":{"idx":46,"road":"山田宮の前線（支線）","cls":"primary","shops":0,"st_km":1.65,"mesh":"53394169"},"geometry":{"type":"LineString","coordinates":[[139.25041,35.72047],[139.24341,35.72029],[139.24233,35.7204],[139.24118,35.72067],[139.24017,35.72105],[139.23959,35.72144],[139.23861,35.7223],[139.2382,35.72255],[139.23783,35.7227]]}},{"type":"Feature","properties":{"idx":77,"road":"山田宮の前線（支線）","cls":"primary","shops":0,"st_km":1.3,"mesh":"53394168"},"geometry":{"type":"LineString","coordinates":[[139.23783,35.7227],[139.23723,35.72284],[139.23684,35.72284],[139.2358,35.72256]]}},{"type":"Feature","properties":{"idx":53,"road":"","cls":"tertiary","shops":0,"st_km":1.54,"mesh":"53394168"},"geometry":{"type":"LineString","coordinates":[[139.23595,35.72301],[139.23633,35.72238],[139.23623,35.72186],[139.23588,35.72068],[139.23586,35.72046],[139.23589,35.72027],[139.23629,35.71956],[139.23653,35.71925],[139.2367,35.71874],[139.23729,35.7183],[139.23758,35.71788],[139.23755,35.71776],[139.23739,35.71771],[139.23715,35.71791],[139.23702,35.71791],[139.23692,35.71783],[139.23694,35.71768]]}},{"type":"Feature","properties":{"idx":153,"road":"奥多摩あきる野線","cls":"secondary","shops":0,"st_km":1.49,"mesh":"53394198"},"geometry":{"type":"LineString","coordinates":[[139.23287,35.74436],[139.23246,35.74509],[139.23151,35.74574]]}},{"type":"Feature","properties":{"idx":156,"road":"","cls":"tertiary","shops":0,"st_km":1.15,"mesh":"53394179"},"geometry":{"type":"LineString","coordinates":[[139.23729,35.72841],[139.23755,35.72842],[139.23774,35.72835],[139.23792,35.72821],[139.238,35.72805],[139.23824,35.72694],[139.23816,35.7265],[139.23813,35.72591],[139.23793,35.72546],[139.23687,35.72401],[139.23607,35.7231],[139.23565,35.72286]]}},{"type":"Feature","properties":{"idx":204,"road":"","cls":"tertiary","shops":0,"st_km":1.12,"mesh":"53394177"},"geometry":{"type":"LineString","coordinates":[[139.21642,35.72769],[139.21639,35.72782],[139.21644,35.72824],[139.21652,35.72835],[139.21672,35.72845],[139.21682,35.7286],[139.21702,35.72871],[139.21703,35.72878],[139.21682,35.72894]]}},{"type":"Feature","properties":{"idx":65,"road":"","cls":"tertiary","shops":0,"st_km":1.09,"mesh":"53394167"},"geometry":{"type":"LineString","coordinates":[[139.22094,35.7245],[139.22077,35.72408]]}},{"type":"Feature","properties":{"idx":104,"road":"八王子五日市線","cls":"primary","shops":0,"st_km":0.89,"mesh":"53394168"},"geometry":{"type":"LineString","coordinates":[[139.22835,35.73017],[139.22856,35.72988],[139.22927,35.72783],[139.22952,35.72679],[139.22949,35.72614],[139.22957,35.7259],[139.2305,35.72502],[139.23076,35.72493],[139.23148,35.72491],[139.23178,35.72484],[139.23208,35.72463],[139.23227,35.72433],[139.23227,35.72391],[139.23177,35.72103],[139.23182,35.72076],[139.23203,35.72031],[139.23209,35.71973],[139.23229,35.7194],[139.23234,35.71917],[139.23188,35.71829]]}},{"type":"Feature","properties":{"idx":224,"road":"","cls":"tertiary","shops":0,"st_km":1.0,"mesh":"53394177"},"geometry":{"type":"LineString","coordinates":[[139.22128,35.72512],[139.22126,35.72509]]}},{"type":"Feature","properties":{"idx":243,"road":"五日市街道","cls":"primary","shops":1,"st_km":0.42,"mesh":"53394178"},"geometry":{"type":"LineString","coordinates":[[139.22837,35.73164],[139.23047,35.73092],[139.23507,35.72943],[139.23563,35.72928],[139.23613,35.7292]]}},{"type":"Feature","properties":{"idx":203,"road":"八王子五日市線","cls":"primary","shops":0,"st_km":0.19,"mesh":"53394178"},"geometry":{"type":"LineString","coordinates":[[139.22785,35.7306],[139.22835,35.73017]]}},{"type":"Feature","properties":{"idx":241,"road":"","cls":"tertiary","shops":0,"st_km":0.91,"mesh":"53394177"},"geometry":{"type":"LineString","coordinates":[[139.22057,35.72734],[139.22103,35.72685],[139.22111,35.72668],[139.22119,35.72617],[139.22142,35.7256],[139.22128,35.72512]]}},{"type":"Feature","properties":{"idx":58,"road":"水根本宿線","cls":"secondary","shops":0,"st_km":6.79,"mesh":"53394171"},"geometry":{"type":"LineString","coordinates":[[139.14366,35.72997],[139.14365,35.72972],[139.14371,35.7296],[139.14439,35.72905],[139.14473,35.72892],[139.14569,35.72886],[139.14605,35.72868],[139.1468,35.72769],[139.14741,35.72658]]}},{"type":"Feature","properties":{"idx":87,"road":"水根本宿線","cls":"secondary","shops":1,"st_km":6.65,"mesh":"53394171"},"geometry":{"type":"LineString","coordinates":[[139.14374,35.73051],[139.14366,35.72997]]}},{"type":"Feature","properties":{"idx":58,"road":"水根本宿線","cls":"secondary","shops":0,"st_km":6.35,"mesh":"53394171"},"geometry":{"type":"LineString","coordinates":[[139.14512,35.73535],[139.14515,35.73466],[139.14474,35.73374],[139.14464,35.73355],[139.14408,35.73288],[139.14362,35.73218],[139.14362,35.73196],[139.14379,35.73108],[139.14374,35.73051]]}},{"type":"Feature","properties":{"idx":28,"road":"水根本宿線","cls":"secondary","shops":0,"st_km":5.69,"mesh":"53394181"},"geometry":{"type":"LineString","coordinates":[[139.14341,35.73919],[139.14353,35.73905],[139.14357,35.73886]]}},{"type":"Feature","properties":{"idx":47,"road":"","cls":"tertiary","shops":0,"st_km":4.11,"mesh":"53394139"},"geometry":{"type":"LineString","coordinates":[[139.24113,35.69559],[139.24121,35.69653]]}},{"type":"Feature","properties":{"idx":47,"road":"","cls":"tertiary","shops":0,"st_km":4.04,"mesh":"53394139"},"geometry":{"type":"LineString","coordinates":[[139.24121,35.69653],[139.24231,35.69647]]}},{"type":"Feature","properties":{"idx":47,"road":"","cls":"tertiary","shops":0,"st_km":4.0,"mesh":"53394139"},"geometry":{"type":"LineString","coordinates":[[139.24121,35.69653],[139.24131,35.69767]]}},{"type":"Feature","properties":{"idx":47,"road":"","cls":"tertiary","shops":0,"st_km":4.07,"mesh":"53394139"},"geometry":{"type":"LineString","coordinates":[[139.24121,35.69653],[139.24008,35.69661],[139.24019,35.69773]]}},{"type":"Feature","properties":{"idx":180,"road":"五日市街道","cls":"primary","shops":0,"st_km":1.24,"mesh":"53394179"},"geometry":{"type":"LineString","coordinates":[[139.24239,35.72854],[139.24357,35.72842]]}},{"type":"Feature","properties":{"idx":111,"road":"五日市橋","cls":"primary","shops":0,"st_km":0.84,"mesh":"53394178"},"geometry":{"type":"LineString","coordinates":[[139.23613,35.7292],[139.23707,35.7291]]}},{"type":"Feature","properties":{"idx":250,"road":"五日市街道","cls":"primary","shops":0,"st_km":0.81,"mesh":"53394179"},"geometry":{"type":"LineString","coordinates":[[139.24357,35.72842],[139.24433,35.72824],[139.2453,35.72779],[139.24616,35.72748],[139.24765,35.72709],[139.24869,35.7269],[139.25244,35.72638],[139.25313,35.72641],[139.25459,35.72669]]}},{"type":"Feature","properties":{"idx":106,"road":"五日市街道","cls":"primary","shops":0,"st_km":0.89,"mesh":"53394178"},"geometry":{"type":"LineString","coordinates":[[139.23707,35.7291],[139.23741,35.72906]]}},{"type":"Feature","properties":{"idx":231,"road":"伊奈福生線","cls":"secondary","shops":0,"st_km":0.77,"mesh":"53394179"},"geometry":{"type":"LineString","coordinates":[[139.24524,35.7303],[139.24604,35.73025],[139.24693,35.73014],[139.2483,35.73037],[139.24889,35.73033],[139.24997,35.73044],[139.2503,35.73033]]}},{"type":"Feature","properties":{"idx":181,"road":"伊奈福生線","cls":"secondary","shops":0,"st_km":1.08,"mesh":"53394179"},"geometry":{"type":"LineString","coordinates":[[139.24392,35.72836],[139.24433,35.72898],[139.24456,35.72951],[139.24511,35.7301],[139.24524,35.7303]]}},{"type":"Feature","properties":{"idx":215,"road":"","cls":"tertiary","shops":0,"st_km":0.72,"mesh":"53394179"},"geometry":{"type":"LineString","coordinates":[[139.24555,35.73185],[139.24748,35.73182],[139.24832,35.73194],[139.24895,35.73218],[139.25094,35.73327]]}},{"type":"Feature","properties":{"idx":48,"road":"","cls":"tertiary","shops":0,"st_km":1.73,"mesh":"53394168"},"geometry":{"type":"LineString","coordinates":[[139.23578,35.71857],[139.23591,35.71763],[139.23584,35.71759],[139.23465,35.71747],[139.23459,35.71752],[139.23428,35.71949]]}},{"type":"Feature","properties":{"idx":59,"road":"","cls":"tertiary","shops":0,"st_km":1.36,"mesh":"53394168"},"geometry":{"type":"LineString","coordinates":[[139.23562,35.71964],[139.23554,35.71997],[139.23536,35.72019],[139.23439,35.72078],[139.23407,35.72091],[139.2337,35.72095],[139.23275,35.72085],[139.23224,35.72078],[139.23187,35.72066]]}},{"type":"Feature","properties":{"idx":75,"road":"小峰トンネル","cls":"pedestrian","shops":0,"st_km":1.91,"mesh":"53394158"},"geometry":{"type":"LineString","coordinates":[[139.23282,35.71495],[139.23204,35.71556]]}},{"type":"Feature","properties":{"idx":51,"road":"","cls":"tertiary","shops":0,"st_km":1.6,"mesh":"53394168"},"geometry":{"type":"LineString","coordinates":[[139.23562,35.71964],[139.23578,35.71857]]}},{"type":"Feature","properties":{"idx":67,"road":"","cls":"pedestrian","shops":0,"st_km":1.71,"mesh":"53394168"},"geometry":{"type":"LineString","coordinates":[[139.23204,35.71556],[139.23189,35.71574],[139.23194,35.71589],[139.2319,35.71604],[139.23175,35.71607],[139.23135,35.71591],[139.231,35.716],[139.23095,35.71605],[139.23095,35.71616],[139.23115,35.71635],[139.23177,35.71673],[139.2318,35.7168],[139.23163,35.71701],[139.23165,35.71716],[139.23202,35.71728],[139.23283,35.71793],[139.23357,35.71825],[139.23381,35.7186],[139.23383,35.71881]]}},{"type":"Feature","properties":{"idx":55,"road":"","cls":"tertiary","shops":0,"st_km":1.49,"mesh":"53394168"},"geometry":{"type":"LineString","coordinates":[[139.23234,35.71927],[139.23428,35.71949]]}},{"type":"Feature","properties":{"idx":53,"road":"","cls":"tertiary","shops":0,"st_km":1.53,"mesh":"53394168"},"geometry":{"type":"LineString","coordinates":[[139.23428,35.71949],[139.23562,35.71964]]}},{"type":"Feature","properties":{"idx":49,"road":"","cls":"tertiary","shops":0,"st_km":1.67,"mesh":"53394168"},"geometry":{"type":"LineString","coordinates":[[139.23673,35.71871],[139.23654,35.71864],[139.23578,35.71857]]}},{"type":"Feature","properties":{"idx":423,"road":"","cls":"tertiary","shops":1,"st_km":0.72,"mesh":"53394177"},"geometry":{"type":"LineString","coordinates":[[139.22156,35.72882],[139.22185,35.72791]]}},{"type":"Feature","properties":{"idx":284,"road":"","cls":"tertiary","shops":0,"st_km":0.71,"mesh":"53394177"},"geometry":{"type":"LineString","coordinates":[[139.22091,35.72922],[139.2213,35.72931]]}},{"type":"Feature","properties":{"idx":60,"road":"沢戸橋","cls":"tertiary","shops":0,"st_km":1.99,"mesh":"53394176"},"geometry":{"type":"LineString","coordinates":[[139.20718,35.72488],[139.20856,35.72535]]}},{"type":"Feature","properties":{"idx":57,"road":"本郷通り","cls":"tertiary","shops":0,"st_km":2.11,"mesh":"53394176"},"geometry":{"type":"LineString","coordinates":[[139.20558,35.72692],[139.20643,35.72507],[139.20653,35.72495],[139.20676,35.72484],[139.20718,35.72488]]}},{"type":"Feature","properties":{"idx":86,"road":"本郷通り","cls":"tertiary","shops":1,"st_km":2.13,"mesh":"53394176"},"geometry":{"type":"LineString","coordinates":[[139.20558,35.72692],[139.20504,35.72794]]}},{"type":"Feature","properties":{"idx":96,"road":"本郷通り","cls":"tertiary","shops":1,"st_km":1.84,"mesh":"53394176"},"geometry":{"type":"LineString","coordinates":[[139.20993,35.72622],[139.20993,35.72606],[139.20958,35.72572],[139.20856,35.72535]]}},{"type":"Feature","properties":{"idx":53,"road":"上野原あきる野線旧","cls":"tertiary","shops":0,"st_km":2.38,"mesh":"53394176"},"geometry":{"type":"LineString","coordinates":[[139.20325,35.72933],[139.20328,35.72947],[139.20314,35.72982],[139.20275,35.73034],[139.20214,35.73081],[139.20147,35.73111],[139.2011,35.73115],[139.20036,35.73107],[139.19972,35.73055],[139.19969,35.73042]]}},{"type":"Feature","properties":{"idx":11,"road":"宮尾橋","cls":"secondary","shops":0,"st_km":5.71,"mesh":"53394107"},"geometry":{"type":"LineString","coordinates":[[139.21514,35.67013],[139.21486,35.67024]]}},{"type":"Feature","properties":{"idx":11,"road":"高留橋","cls":"secondary","shops":0,"st_km":5.84,"mesh":"53394107"},"geometry":{"type":"LineString","coordinates":[[139.21399,35.6709],[139.21392,35.67098]]}},{"type":"Feature","properties":{"idx":99,"road":"駒木野橋","cls":"secondary","shops":0,"st_km":4.52,"mesh":"53394108"},"geometry":{"type":"LineString","coordinates":[[139.23464,35.66782],[139.23439,35.66782]]}},{"type":"Feature","properties":{"idx":97,"road":"陣馬街道","cls":"secondary","shops":0,"st_km":5.29,"mesh":"53394108"},"geometry":{"type":"LineString","coordinates":[[139.23171,35.67149],[139.23058,35.67193],[139.22945,35.67251],[139.22919,35.67258],[139.22867,35.6726],[139.22834,35.67248],[139.22754,35.6717],[139.2271,35.67143],[139.22646,35.67127],[139.22598,35.67124],[139.22562,35.67127],[139.22458,35.6716],[139.22345,35.67216],[139.22321,35.67234],[139.22319,35.67254],[139.22355,35.67334],[139.22362,35.6738],[139.22353,35.67415],[139.22337,35.67453],[139.22323,35.67471],[139.22299,35.67482],[139.22272,35.67484],[139.22119,35.67444],[139.22094,35.67432]]}},{"type":"Feature","properties":{"idx":11,"road":"陣馬街道","cls":"secondary","shops":2,"st_km":5.94,"mesh":"53394106"},"geometry":{"type":"LineString","coordinates":[[139.21392,35.67098],[139.21379,35.67103],[139.21239,35.67101],[139.2116,35.67115],[139.21093,35.67138]]}},{"type":"Feature","properties":{"idx":11,"road":"陣馬街道","cls":"secondary","shops":0,"st_km":5.78,"mesh":"53394107"},"geometry":{"type":"LineString","coordinates":[[139.21486,35.67024],[139.21442,35.67044],[139.21399,35.6709]]}},{"type":"Feature","properties":{"idx":218,"road":"奥多摩あきる野線","cls":"secondary","shops":0,"st_km":1.66,"mesh":"53394199"},"geometry":{"type":"LineString","coordinates":[[139.23762,35.74506],[139.23814,35.74434],[139.23871,35.74392],[139.23921,35.74366],[139.24014,35.74338],[139.24072,35.74331],[139.24216,35.74333],[139.2425,35.74343],[139.24311,35.74373],[139.24353,35.74379]]}},{"type":"Feature","properties":{"idx":286,"road":"青梅あきる野線","cls":"primary","shops":0,"st_km":0.8,"mesh":"53394188"},"geometry":{"type":"LineString","coordinates":[[139.23287,35.74436],[139.23202,35.74402],[139.23041,35.74305],[139.23007,35.74274],[139.22945,35.74201],[139.22926,35.74172],[139.22918,35.74149],[139.22919,35.74113],[139.22948,35.74],[139.22949,35.7396],[139.22938,35.73925],[139.22869,35.73837],[139.2286,35.73819],[139.22855,35.73795],[139.22856,35.73764],[139.22884,35.73651],[139.22907,35.73605],[139.22948,35.73553],[139.23017,35.73495],[139.23072,35.73436],[139.2308,35.73414],[139.23079,35.73395],[139.2307,35.73378],[139.23054,35.73362]]}},{"type":"Feature","properties":{"idx":257,"road":"青梅あきる野線","cls":"primary","shops":1,"st_km":1.48,"mesh":"53394198"},"geometry":{"type":"LineString","coordinates":[[139.2337,35.74459],[139.23403,35.74462]]}},{"type":"Feature","properties":{"idx":148,"road":"奥多摩あきる野線","cls":"secondary","shops":0,"st_km":1.54,"mesh":"53394198"},"geometry":{"type":"LineString","coordinates":[[139.23151,35.74574],[139.23121,35.74588]]}},{"type":"Feature","properties":{"idx":8,"road":"モリアオガエルの道","cls":"tertiary","shops":0,"st_km":5.49,"mesh":"53394119"},"geometry":{"type":"LineString","coordinates":[[139.23233,35.67859],[139.23306,35.67844],[139.23379,35.67841],[139.2346,35.6786],[139.23537,35.67906],[139.23557,35.6791],[139.23626,35.67907],[139.23664,35.67902],[139.23689,35.6789],[139.23764,35.67868],[139.23811,35.67841],[139.23884,35.67816],[139.2392,35.67815],[139.24012,35.67837],[139.24071,35.67834],[139.24114,35.67828],[139.24236,35.67796],[139.24431,35.67772]]}},{"type":"Feature","properties":{"idx":138,"road":"","cls":"tertiary","shops":1,"st_km":0.8,"mesh":"53394178"},"geometry":{"type":"LineString","coordinates":[[139.23584,35.72953],[139.23567,35.72935],[139.23564,35.72919],[139.23586,35.72889],[139.23598,35.72851],[139.23618,35.72837],[139.2366,35.72837]]}},{"type":"Feature","properties":{"idx":156,"road":"","cls":"tertiary","shops":0,"st_km":1.16,"mesh":"53394179"},"geometry":{"type":"LineString","coordinates":[[139.24375,35.7284],[139.24376,35.72857],[139.24354,35.72898],[139.24344,35.7298],[139.24315,35.73026],[139.24293,35.73047],[139.24274,35.73057],[139.24179,35.73076],[139.24144,35.73078],[139.24084,35.73066],[139.23862,35.73068],[139.23722,35.73029],[139.23634,35.72993],[139.23605,35.72973]]}},{"type":"Feature","properties":{"idx":84,"road":"高尾橋","cls":"tertiary","shops":0,"st_km":0.9,"mesh":"53394178"},"geometry":{"type":"LineString","coordinates":[[139.23729,35.72841],[139.2366,35.72837]]}},{"type":"Feature","properties":{"idx":95,"road":"","cls":"tertiary","shops":0,"st_km":0.76,"mesh":"53394178"},"geometry":{"type":"LineString","coordinates":[[139.23605,35.72973],[139.23584,35.72953]]}},{"type":"Feature","properties":{"idx":17,"road":"下養沢橋","cls":"secondary","shops":1,"st_km":3.76,"mesh":"53394195"},"geometry":{"type":"LineString","coordinates":[[139.18905,35.74381],[139.18913,35.74371]]}},{"type":"Feature","properties":{"idx":8,"road":"十里木御嶽停車場線","cls":"secondary","shops":1,"st_km":3.64,"mesh":"53394185"},"geometry":{"type":"LineString","coordinates":[[139.18845,35.73731],[139.18838,35.7374]]}},{"type":"Feature","properties":{"idx":5,"road":"十里木御嶽停車場線","cls":"secondary","shops":0,"st_km":3.56,"mesh":"53394185"},"geometry":{"type":"LineString","coordinates":[[139.18827,35.73752],[139.18807,35.7377],[139.18773,35.73788],[139.18756,35.73808],[139.18757,35.7383],[139.18787,35.73892],[139.18816,35.7392],[139.18988,35.74001],[139.19003,35.74019],[139.19014,35.74059],[139.19016,35.74085],[139.19008,35.74125],[139.18989,35.74169],[139.18955,35.74291],[139.1894,35.74326],[139.18913,35.74371]]}},{"type":"Feature","properties":{"idx":12,"road":"十里木御嶽停車場線","cls":"secondary","shops":0,"st_km":3.87,"mesh":"53394195"},"geometry":{"type":"LineString","coordinates":[[139.18666,35.7458],[139.18696,35.74578],[139.18756,35.74604],[139.18784,35.74608],[139.18822,35.74601],[139.1885,35.74585],[139.18913,35.74498],[139.18913,35.74465],[139.18898,35.74412],[139.18898,35.74399],[139.18905,35.74381]]}},{"type":"Feature","properties":{"idx":5,"road":"海入道橋","cls":"secondary","shops":0,"st_km":4.06,"mesh":"53394194"},"geometry":{"type":"LineString","coordinates":[[139.18629,35.74591],[139.18666,35.7458]]}},{"type":"Feature","properties":{"idx":8,"road":"曽利郷橋","cls":"secondary","shops":1,"st_km":3.65,"mesh":"53394185"},"geometry":{"type":"LineString","coordinates":[[139.18838,35.7374],[139.18827,35.73752]]}},{"type":"Feature","properties":{"idx":69,"road":"","cls":"pedestrian","shops":0,"st_km":2.14,"mesh":"53394158"},"geometry":{"type":"LineString","coordinates":[[139.23502,35.71252],[139.23505,35.71264],[139.23497,35.71272],[139.23483,35.71273],[139.23456,35.71252],[139.23441,35.71248],[139.2338,35.71277],[139.23368,35.71294],[139.23368,35.71302],[139.23411,35.71365],[139.23402,35.71416],[139.23388,35.71421],[139.23364,35.71411],[139.23354,35.71414],[139.23342,35.71424],[139.23327,35.7146],[139.23282,35.71495]]}},{"type":"Feature","properties":{"idx":50,"road":"栗瀬橋","cls":"tertiary","shops":0,"st_km":4.56,"mesh":"53394129"},"geometry":{"type":"LineString","coordinates":[[139.24565,35.69077],[139.24584,35.69072]]}},{"type":"Feature","properties":{"idx":50,"road":"","cls":"tertiary","shops":0,"st_km":4.59,"mesh":"53394129"},"geometry":{"type":"LineString","coordinates":[[139.24584,35.69072],[139.2471,35.69021],[139.24788,35.69018],[139.24866,35.69],[139.2492,35.68981],[139.25035,35.6893]]}},{"type":"Feature","properties":{"idx":79,"road":"山田宮の前線（支線）","cls":"primary","shops":0,"st_km":1.25,"mesh":"53394168"},"geometry":{"type":"LineString","coordinates":[[139.23489,35.72227],[139.23459,35.72217]]}},{"type":"Feature","properties":{"idx":80,"road":"山田宮の前線（支線）","cls":"primary","shops":0,"st_km":1.24,"mesh":"53394168"},"geometry":{"type":"LineString","coordinates":[[139.23459,35.72217],[139.23307,35.7217],[139.23243,35.72158],[139.23186,35.72153]]}},{"type":"Feature","properties":{"idx":249,"road":"","cls":"tertiary","shops":0,"st_km":0.86,"mesh":"53394177"},"geometry":{"type":"LineString","coordinates":[[139.22057,35.72734],[139.22049,35.72745],[139.22043,35.72769]]}},{"type":"Feature","properties":{"idx":47,"road":"","cls":"tertiary","shops":0,"st_km":3.96,"mesh":"53394139"},"geometry":{"type":"LineString","coordinates":[[139.23938,35.69708],[139.23952,35.69719],[139.23958,35.6973],[139.23961,35.69765],[139.23975,35.69772],[139.24176,35.69764],[139.24211,35.69762],[139.24226,35.69754],[139.24232,35.69566],[139.24227,35.69558],[139.24213,35.69555],[139.24089,35.69558],[139.24029,35.69538]]}},{"type":"Feature","properties":{"idx":50,"road":"","cls":"tertiary","shops":0,"st_km":4.49,"mesh":"53394129"},"geometry":{"type":"LineString","coordinates":[[139.244,35.6926],[139.24451,35.69182],[139.2453,35.69097],[139.24545,35.69085],[139.24565,35.69077]]}},{"type":"Feature","properties":{"idx":46,"road":"瀬東橋","cls":"tertiary","shops":0,"st_km":4.39,"mesh":"53394139"},"geometry":{"type":"LineString","coordinates":[[139.24391,35.69271],[139.244,35.6926]]}},{"type":"Feature","properties":{"idx":47,"road":"","cls":"tertiary","shops":0,"st_km":4.22,"mesh":"53394139"},"geometry":{"type":"LineString","coordinates":[[139.23797,35.69872],[139.23885,35.69783],[139.23908,35.69745],[139.23988,35.69646],[139.24,35.69622],[139.24012,35.6957],[139.24022,35.69547],[139.24166,35.69361],[139.24215,35.69335],[139.24339,35.69314],[139.24391,35.69271]]}},{"type":"Feature","properties":{"idx":48,"road":"仲井橋","cls":"tertiary","shops":0,"st_km":3.81,"mesh":"53394139"},"geometry":{"type":"LineString","coordinates":[[139.23782,35.69884],[139.23797,35.69872]]}},{"type":"Feature","properties":{"idx":28,"road":"","cls":"tertiary","shops":0,"st_km":3.58,"mesh":"53394148"},"geometry":{"type":"LineString","coordinates":[[139.23288,35.70217],[139.23315,35.70182],[139.23331,35.70128],[139.23351,35.70104],[139.23455,35.70053],[139.23526,35.70034],[139.23653,35.69977],[139.23687,35.69958],[139.23782,35.69884]]}},{"type":"Feature","properties":{"idx":29,"road":"地蔵橋","cls":"tertiary","shops":0,"st_km":3.35,"mesh":"53394148"},"geometry":{"type":"LineString","coordinates":[[139.2327,35.70225],[139.23288,35.70217]]}},{"type":"Feature","properties":{"idx":84,"road":"","cls":"tertiary","shops":0,"st_km":1.8,"mesh":"53394159"},"geometry":{"type":"LineString","coordinates":[[139.24729,35.71593],[139.24793,35.71599],[139.24827,35.71607],[139.24851,35.71628],[139.24873,35.71656],[139.24896,35.71668]]}},{"type":"Feature","properties":{"idx":8,"road":"上野原あきる野線","cls":"primary","shops":0,"st_km":7.43,"mesh":"53394151"},"geometry":{"type":"LineString","coordinates":[[139.149,35.71325],[139.1493,35.71421]]}},{"type":"Feature","properties":{"idx":15,"road":"上野原あきる野線","cls":"primary","shops":0,"st_km":7.21,"mesh":"53394161"},"geometry":{"type":"LineString","coordinates":[[139.14976,35.71476],[139.15025,35.71496],[139.1505,35.71511],[139.15142,35.71587],[139.15162,35.71616],[139.15163,35.71641],[139.15156,35.71658],[139.15029,35.71779],[139.1501,35.71812],[139.15003,35.71839],[139.15005,35.71877],[139.15012,35.71892],[139.15034,35.71916],[139.15072,35.71937],[139.15084,35.71952],[139.1508,35.71983],[139.15054,35.7202],[139.15009,35.72069],[139.14881,35.72195],[139.14863,35.72201],[139.14843,35.72197],[139.14831,35.72187],[139.14811,35.72156],[139.14782,35.72146],[139.1473,35.7215],[139.1469,35.72161],[139.14675,35.72175],[139.14671,35.72191],[139.14671,35.72205],[139.14692,35.72247],[139.14696,35.72266],[139.14692,35.72283],[139.1468,35.72299],[139.14641,35.72321],[139.14518,35.7234],[139.14494,35.72355],[139.14485,35.72378],[139.14482,35.72408],[139.14501,35.72466],[139.14511,35.72481],[139.14529,35.7249],[139.14564,35.72491],[139.14599,35.72486],[139.14636,35.72472]]}},{"type":"Feature","properties":{"idx":317,"road":"上野原あきる野線","cls":"primary","shops":0,"st_km":6.34,"mesh":"53394172"},"geometry":{"type":"LineString","coordinates":[[139.14797,35.72662],[139.14844,35.72666],[139.1487,35.72663],[139.15262,35.7258],[139.15455,35.72564],[139.15526,35.72565],[139.15641,35.72586],[139.15743,35.7259],[139.15821,35.72569],[139.15844,35.7255],[139.15851,35.72536],[139.15852,35.72517],[139.1583,35.72437],[139.15841,35.72409],[139.15868,35.72392],[139.16145,35.72352],[139.16275,35.7236],[139.16308,35.72355],[139.16325,35.72347],[139.16339,35.72331],[139.16347,35.72259],[139.16374,35.72244],[139.16482,35.72228],[139.16556,35.72225],[139.16701,35.72243]]}},{"type":"Feature","properties":{"idx":42,"road":"水根本宿線","cls":"secondary","shops":1,"st_km":5.79,"mesh":"53394190"},"geometry":{"type":"LineString","coordinates":[[139.12504,35.74279],[139.12565,35.74293]]}},{"type":"Feature","properties":{"idx":28,"road":"水根本宿線","cls":"secondary","shops":0,"st_km":5.77,"mesh":"53394181"},"geometry":{"type":"LineString","coordinates":[[139.13866,35.73988],[139.13882,35.73965],[139.13889,35.73928],[139.13902,35.73908],[139.13932,35.73895],[139.14038,35.73873],[139.14086,35.73868],[139.14111,35.73871],[139.1417,35.73891],[139.14229,35.73923],[139.14285,35.73938],[139.14316,35.73935],[139.14341,35.73919]]}},{"type":"Feature","properties":{"idx":42,"road":"十里木御嶽停車場線","cls":"secondary","shops":0,"st_km":3.78,"mesh":"53394184"},"geometry":{"type":"LineString","coordinates":[[139.18291,35.7326],[139.18286,35.73275],[139.18299,35.73337],[139.18331,35.7337],[139.18392,35.73393],[139.18437,35.73399],[139.18508,35.73391],[139.18576,35.73404],[139.18594,35.73412],[139.18628,35.73453],[139.18659,35.73514],[139.18656,35.73545],[139.18641,35.73606],[139.18641,35.7362],[139.18649,35.73635],[139.18675,35.73664],[139.1871,35.73673],[139.18823,35.73654],[139.18859,35.73656],[139.18875,35.73675],[139.18876,35.73694],[139.18845,35.73731]]}},{"type":"Feature","properties":{"idx":40,"road":"新橋","cls":"secondary","shops":0,"st_km":4.09,"mesh":"53394174"},"geometry":{"type":"LineString","coordinates":[[139.18299,35.73248],[139.18291,35.7326]]}},{"type":"Feature","properties":{"idx":65,"road":"","cls":"tertiary","shops":0,"st_km":1.21,"mesh":"53394168"},"geometry":{"type":"LineString","coordinates":[[139.23206,35.72264],[139.22972,35.72239],[139.22948,35.72222],[139.22882,35.7214],[139.22839,35.72106],[139.22804,35.72092],[139.2275,35.72078],[139.22728,35.72077],[139.22703,35.72084],[139.22635,35.72132],[139.22622,35.72148],[139.22606,35.72199],[139.22594,35.7221],[139.2246,35.72243],[139.22303,35.72328],[139.22223,35.72385],[139.22077,35.72408]]}},{"type":"Feature","properties":{"idx":350,"road":"奥多摩あきる野線","cls":"secondary","shops":1,"st_km":1.51,"mesh":"53394199"},"geometry":{"type":"LineString","coordinates":[[139.2553,35.74244],[139.25478,35.74235],[139.25442,35.74235],[139.25199,35.74279],[139.25032,35.74316],[139.24796,35.74387],[139.24628,35.74414],[139.24569,35.74412],[139.24426,35.7438],[139.24395,35.74377]]}},{"type":"Feature","properties":{"idx":263,"road":"上野原あきる野線","cls":"primary","shops":0,"st_km":8.06,"mesh":"53394141"},"geometry":{"type":"LineString","coordinates":[[139.13147,35.70353],[139.13214,35.7025],[139.13289,35.70169],[139.13318,35.70156],[139.13353,35.7016],[139.13388,35.70183],[139.13412,35.70188],[139.13503,35.70192],[139.13568,35.70188],[139.13582,35.70192],[139.13589,35.702],[139.13589,35.7021],[139.13545,35.70269],[139.13537,35.70292],[139.1354,35.70306],[139.13552,35.70318],[139.13585,35.70323],[139.13688,35.70321],[139.1372,35.70316],[139.13755,35.70291],[139.13812,35.70239],[139.13873,35.70169],[139.13898,35.70157],[139.13917,35.70156],[139.13946,35.70164],[139.14059,35.70236],[139.14178,35.70272],[139.14221,35.70327],[139.14262,35.70362],[139.14305,35.70412],[139.1433,35.7043],[139.14352,35.70469],[139.14364,35.70479],[139.14434,35.70494],[139.147,35.70571],[139.14776,35.70624],[139.14801,35.70635],[139.14974,35.70624],[139.15289,35.70572],[139.15321,35.70579],[139.15331,35.70587],[139.15338,35.70603],[139.15344,35.70644],[139.15341,35.7066],[139.15311,35.70718],[139.15253,35.70785],[139.15248,35.70802],[139.15255,35.70841],[139.15253,35.70868],[139.15241,35.70888],[139.152,35.7093],[139.15152,35.71036],[139.15132,35.71054],[139.15107,35.7106],[139.15081,35.71054],[139.15046,35.71031],[139.15008,35.71032],[139.14964,35.71057],[139.14934,35.71087],[139.14918,35.7112],[139.149,35.71187],[139.14893,35.71262],[139.14894,35.71305],[139.149,35.71325]]}},{"type":"Feature","properties":{"idx":64,"road":"天王橋","cls":"tertiary","shops":0,"st_km":1.23,"mesh":"53394168"},"geometry":{"type":"LineString","coordinates":[[139.23565,35.72286],[139.23513,35.72267]]}},{"type":"Feature","properties":{"idx":67,"road":"","cls":"tertiary","shops":0,"st_km":1.17,"mesh":"53394168"},"geometry":{"type":"LineString","coordinates":[[139.23513,35.72267],[139.23477,35.72254],[139.23457,35.72252],[139.23206,35.72264]]}},{"type":"Feature","properties":{"idx":79,"road":"山田宮の前線（支線）","cls":"primary","shops":0,"st_km":1.26,"mesh":"53394168"},"geometry":{"type":"LineString","coordinates":[[139.23518,35.72236],[139.23489,35.72227]]}},{"type":"Feature","properties":{"idx":79,"road":"山田宮の前線（支線）","cls":"primary","shops":0,"st_km":1.26,"mesh":"53394168"},"geometry":{"type":"LineString","coordinates":[[139.2358,35.72256],[139.23518,35.72236]]}},{"type":"Feature","properties":{"idx":67,"road":"小和田橋","cls":"tertiary","shops":0,"st_km":1.03,"mesh":"53394167"},"geometry":{"type":"LineString","coordinates":[[139.22126,35.72509],[139.22094,35.7245]]}},{"type":"Feature","properties":{"idx":22,"road":"八王子五日市線","cls":"primary","shops":0,"st_km":2.93,"mesh":"53394149"},"geometry":{"type":"LineString","coordinates":[[139.24668,35.70528],[139.24734,35.70527],[139.24817,35.7051],[139.24861,35.70507],[139.2498,35.70513],[139.25131,35.70509],[139.25164,35.705],[139.25219,35.70463],[139.25251,35.7045]]}},{"type":"Feature","properties":{"idx":22,"road":"八王子五日市線","cls":"primary","shops":0,"st_km":2.98,"mesh":"53394149"},"geometry":{"type":"LineString","coordinates":[[139.24656,35.7053],[139.24668,35.70528]]}},{"type":"Feature","properties":{"idx":60,"road":"十里木御嶽停車場線","cls":"secondary","shops":1,"st_km":4.03,"mesh":"53394174"},"geometry":{"type":"LineString","coordinates":[[139.18641,35.73039],[139.18543,35.73041],[139.18399,35.7303],[139.18367,35.73037],[139.18324,35.731],[139.18318,35.73144],[139.18301,35.73166],[139.18298,35.73197],[139.18303,35.73228],[139.18299,35.73248]]}},{"type":"Feature","properties":{"idx":111,"road":"上野原あきる野線","cls":"primary","shops":0,"st_km":2.6,"mesh":"53394175"},"geometry":{"type":"LineString","coordinates":[[139.19125,35.72809],[139.19218,35.72814],[139.19242,35.72822],[139.19308,35.72884],[139.19342,35.72899],[139.19415,35.72893],[139.19582,35.72917],[139.19604,35.7293],[139.19658,35.7298],[139.19685,35.72994],[139.20028,35.73052],[139.20077,35.73053],[139.2013,35.73039],[139.20313,35.72943],[139.20341,35.72914],[139.20389,35.72836],[139.20407,35.72822],[139.20597,35.72767],[139.20642,35.72727],[139.20692,35.72706]]}},{"type":"Feature","properties":{"idx":44,"road":"上野原あきる野線","cls":"primary","shops":0,"st_km":4.18,"mesh":"53394174"},"geometry":{"type":"LineString","coordinates":[[139.18198,35.7261],[139.18238,35.72632],[139.18294,35.72646]]}},{"type":"Feature","properties":{"idx":131,"road":"落合橋","cls":"secondary","shops":1,"st_km":3.53,"mesh":"53394175"},"geometry":{"type":"LineString","coordinates":[[139.18952,35.7291],[139.18905,35.72928]]}},{"type":"Feature","properties":{"idx":176,"road":"十里木御嶽停車場線","cls":"secondary","shops":2,"st_km":3.46,"mesh":"53394175"},"geometry":{"type":"LineString","coordinates":[[139.19125,35.72809],[139.19107,35.72827],[139.19095,35.72832],[139.19033,35.72824],[139.1901,35.7283],[139.1899,35.72851],[139.18974,35.72891],[139.18952,35.7291]]}},{"type":"Feature","properties":{"idx":44,"road":"上野原あきる野線","cls":"primary","shops":0,"st_km":4.27,"mesh":"53394174"},"geometry":{"type":"LineString","coordinates":[[139.18141,35.72523],[139.18165,35.72575],[139.18198,35.7261]]}},{"type":"Feature","properties":{"idx":41,"road":"上野原あきる野線","cls":"primary","shops":0,"st_km":4.31,"mesh":"53394164"},"geometry":{"type":"LineString","coordinates":[[139.18108,35.72461],[139.18121,35.72479],[139.18141,35.72523]]}},{"type":"Feature","properties":{"idx":8,"road":"十里木御嶽停車場線","cls":"secondary","shops":1,"st_km":4.41,"mesh":"53394194"},"geometry":{"type":"LineString","coordinates":[[139.18215,35.75122],[139.18218,35.75051],[139.18221,35.75023],[139.1823,35.75002],[139.18263,35.7497],[139.18321,35.74896],[139.18424,35.74842],[139.1848,35.74792],[139.18521,35.74738],[139.18526,35.74701],[139.18522,35.7464],[139.18526,35.74631],[139.18542,35.74622]]}},{"type":"Feature","properties":{"idx":5,"road":"落合橋","cls":"secondary","shops":0,"st_km":6.06,"mesh":"53394106"},"geometry":{"type":"LineString","coordinates":[[139.21089,35.67136],[139.2108,35.6713]]}},{"type":"Feature","properties":{"idx":16,"road":"陣馬街道","cls":"secondary","shops":1,"st_km":5.89,"mesh":"53394107"},"geometry":{"type":"LineString","coordinates":[[139.22085,35.67426],[139.22022,35.6739],[139.22002,35.67384],[139.21907,35.67396],[139.21827,35.674],[139.21762,35.67416],[139.21723,35.67406],[139.21664,35.67376],[139.21622,35.67335],[139.21615,35.67306],[139.21631,35.67198],[139.21651,35.67171],[139.21691,35.67133],[139.21699,35.67117],[139.21675,35.67007],[139.21652,35.66982],[139.21618,35.66975],[139.21514,35.67013]]}},{"type":"Feature","properties":{"idx":11,"road":"力石橋","cls":"secondary","shops":0,"st_km":5.76,"mesh":"53394107"},"geometry":{"type":"LineString","coordinates":[[139.22094,35.67432],[139.22085,35.67426]]}},{"type":"Feature","properties":{"idx":8,"road":"熊野橋","cls":"tertiary","shops":0,"st_km":5.23,"mesh":"53394119"},"geometry":{"type":"LineString","coordinates":[[139.24431,35.67772],[139.24455,35.67766]]}},{"type":"Feature","properties":{"idx":8,"road":"モリアオガエルの道","cls":"tertiary","shops":0,"st_km":4.94,"mesh":"53394119"},"geometry":{"type":"LineString","coordinates":[[139.24455,35.67766],[139.24486,35.67756],[139.2453,35.67718],[139.24552,35.67708],[139.24687,35.67684],[139.2497,35.67693],[139.25006,35.67704],[139.25098,35.67764],[139.25162,35.6778]]}},{"type":"Feature","properties":{"idx":279,"road":"","cls":"tertiary","shops":0,"st_km":0.73,"mesh":"53394177"},"geometry":{"type":"LineString","coordinates":[[139.22091,35.72922],[139.22082,35.72931],[139.22031,35.73021]]}},{"type":"Feature","properties":{"idx":288,"road":"","cls":"tertiary","shops":0,"st_km":0.69,"mesh":"53394177"},"geometry":{"type":"LineString","coordinates":[[139.22156,35.72882],[139.2213,35.72931]]}},{"type":"Feature","properties":{"idx":5,"road":"陣馬街道","cls":"secondary","shops":0,"st_km":5.78,"mesh":"53394106"},"geometry":{"type":"LineString","coordinates":[[139.2108,35.6713],[139.20996,35.67095],[139.20936,35.67085],[139.20893,35.6705],[139.2087,35.67039],[139.20774,35.67013],[139.20694,35.67009],[139.20649,35.66985],[139.20589,35.66979],[139.20443,35.66932],[139.20417,35.66916],[139.20373,35.66871],[139.20354,35.66858],[139.20239,35.6682],[139.20145,35.66827],[139.20083,35.66815],[139.20059,35.66803],[139.20036,35.66802],[139.20026,35.66812],[139.20009,35.66878],[139.19998,35.66893],[139.1998,35.66899],[139.19888,35.66844],[139.19865,35.66838],[139.19844,35.6685],[139.19787,35.66922],[139.19771,35.66928],[139.19753,35.66923],[139.19657,35.66842],[139.1963,35.6684],[139.19537,35.66876],[139.19516,35.66869],[139.19474,35.66834]]}},{"type":"Feature","properties":{"idx":28,"road":"水根本宿線","cls":"secondary","shops":0,"st_km":5.69,"mesh":"53394190"},"geometry":{"type":"LineString","coordinates":[[139.12565,35.74293],[139.12618,35.74305],[139.1268,35.74328],[139.12796,35.74385]]}},{"type":"Feature","properties":{"idx":28,"road":"水根本宿線","cls":"secondary","shops":0,"st_km":5.56,"mesh":"53394190"},"geometry":{"type":"LineString","coordinates":[[139.12879,35.74378],[139.1293,35.74363]]}},{"type":"Feature","properties":{"idx":98,"road":"黒沢田橋","cls":"secondary","shops":0,"st_km":4.99,"mesh":"53394108"},"geometry":{"type":"LineString","coordinates":[[139.23192,35.67139],[139.23171,35.67149]]}},{"type":"Feature","properties":{"idx":98,"road":"陣馬街道","cls":"secondary","shops":0,"st_km":4.75,"mesh":"53394108"},"geometry":{"type":"LineString","coordinates":[[139.23439,35.66782],[139.23418,35.66786],[139.234,35.66803],[139.23401,35.66888],[139.23395,35.66963],[139.2332,35.67029],[139.23298,35.6708],[139.23278,35.67102],[139.23259,35.67114],[139.23192,35.67139]]}},{"type":"Feature","properties":{"idx":209,"road":"青梅あきる野線","cls":"primary","shops":0,"st_km":0.16,"mesh":"53394178"},"geometry":{"type":"LineString","coordinates":[[139.22837,35.73164],[139.22823,35.73152],[139.22588,35.73023]]}},{"type":"Feature","properties":{"idx":298,"road":"奥多摩あきる野線","cls":"secondary","shops":1,"st_km":1.82,"mesh":"53394199"},"geometry":{"type":"LineString","coordinates":[[139.24395,35.74377],[139.24353,35.74379]]}},{"type":"Feature","properties":{"idx":78,"road":"八王子五日市線","cls":"primary","shops":0,"st_km":2.8,"mesh":"53394159"},"geometry":{"type":"LineString","coordinates":[[139.24236,35.70842],[139.24247,35.70834]]}},{"type":"Feature","properties":{"idx":22,"road":"八王子五日市線","cls":"primary","shops":0,"st_km":2.95,"mesh":"53394149"},"geometry":{"type":"LineString","coordinates":[[139.24247,35.70834],[139.24274,35.70805],[139.24373,35.70653],[139.24397,35.70629],[139.2446,35.70594],[139.24656,35.7053]]}},{"type":"Feature","properties":{"idx":202,"road":"八王子五日市線","cls":"primary","shops":0,"st_km":0.2,"mesh":"53394178"},"geometry":{"type":"LineString","coordinates":[[139.22584,35.73119],[139.22616,35.73111],[139.22657,35.73112],[139.22685,35.73097]]}},{"type":"Feature","properties":{"idx":184,"road":"八王子五日市線","cls":"primary","shops":0,"st_km":0.29,"mesh":"53394178"},"geometry":{"type":"LineString","coordinates":[[139.22561,35.73081],[139.22512,35.73113],[139.22507,35.73123],[139.2251,35.73136],[139.22524,35.73145],[139.2254,35.73146],[139.22584,35.73119]]}},{"type":"Feature","properties":{"idx":185,"road":"八王子五日市線","cls":"primary","shops":0,"st_km":0.28,"mesh":"53394178"},"geometry":{"type":"LineString","coordinates":[[139.22584,35.73119],[139.22538,35.7314],[139.22527,35.7314],[139.22517,35.73133],[139.22514,35.73125],[139.22519,35.73116],[139.22561,35.73081]]}},{"type":"Feature","properties":{"idx":29,"road":"","cls":"tertiary","shops":0,"st_km":3.24,"mesh":"53394148"},"geometry":{"type":"LineString","coordinates":[[139.23011,35.70306],[139.23021,35.70288]]}},{"type":"Feature","properties":{"idx":29,"road":"","cls":"tertiary","shops":0,"st_km":3.33,"mesh":"53394148"},"geometry":{"type":"LineString","coordinates":[[139.23021,35.70288],[139.23036,35.70264],[139.23051,35.70252],[139.23115,35.70235],[139.23172,35.70211],[139.23203,35.70213],[139.23251,35.70225],[139.2327,35.70225]]}},{"type":"Feature","properties":{"idx":219,"road":"陣馬街道","cls":"secondary","shops":0,"st_km":4.4,"mesh":"53394109"},"geometry":{"type":"LineString","coordinates":[[139.24737,35.66665],[139.24684,35.66662],[139.24628,35.66698],[139.24615,35.66714],[139.24591,35.66779],[139.24558,35.66839],[139.24537,35.6686],[139.24481,35.66896],[139.24455,35.66919],[139.24428,35.66931],[139.24389,35.66931],[139.24054,35.6688],[139.23975,35.66845],[139.23886,35.66793],[139.23729,35.66754],[139.23692,35.66756],[139.23578,35.66779],[139.23464,35.66782]]}},{"type":"Feature","properties":{"idx":162,"road":"青梅あきる野線","cls":"primary","shops":0,"st_km":1.57,"mesh":"53394198"},"geometry":{"type":"LineString","coordinates":[[139.23762,35.74506],[139.23403,35.74462]]}},{"type":"Feature","properties":{"idx":434,"road":"青梅あきる野線","cls":"primary","shops":2,"st_km":0.13,"mesh":"53394178"},"geometry":{"type":"LineString","coordinates":[[139.23047,35.73357],[139.23005,35.73322],[139.22837,35.73164]]}},{"type":"Feature","properties":{"idx":469,"road":"青梅あきる野線","cls":"primary","shops":0,"st_km":0.27,"mesh":"53394188"},"geometry":{"type":"LineString","coordinates":[[139.23054,35.73362],[139.23047,35.73357]]}},{"type":"Feature","properties":{"idx":397,"road":"五日市街道","cls":"primary","shops":2,"st_km":1.13,"mesh":"53394179"},"geometry":{"type":"LineString","coordinates":[[139.23741,35.72906],[139.24239,35.72854]]}},{"type":"Feature","properties":{"idx":382,"road":"上野原あきる野線","cls":"primary","shops":1,"st_km":1.12,"mesh":"53394177"},"geometry":{"type":"LineString","coordinates":[[139.20742,35.72687],[139.20921,35.72626],[139.2098,35.72621],[139.21285,35.72714],[139.21367,35.72733],[139.2178,35.72786],[139.21838,35.72789],[139.21959,35.72772],[139.22043,35.72769],[139.22209,35.72794],[139.22259,35.72808],[139.22308,35.72832],[139.22435,35.72939],[139.2249,35.72974],[139.22588,35.73023]]}},{"type":"Feature","properties":{"idx":75,"road":"上野原あきる野線","cls":"primary","shops":0,"st_km":1.98,"mesh":"53394176"},"geometry":{"type":"LineString","coordinates":[[139.20692,35.72706],[139.20742,35.72687]]}},{"type":"Feature","properties":{"idx":5,"road":"上野原あきる野線","cls":"primary","shops":0,"st_km":9.45,"mesh":"53394140"},"geometry":{"type":"LineString","coordinates":[[139.12523,35.70327],[139.12549,35.70313]]}},{"type":"Feature","properties":{"idx":5,"road":"上野原あきる野線","cls":"primary","shops":0,"st_km":9.45,"mesh":"53394140"},"geometry":{"type":"LineString","coordinates":[[139.12549,35.70313],[139.1258,35.70301],[139.12606,35.70301],[139.12659,35.70314],[139.12705,35.70347],[139.12735,35.70358]]}},{"type":"Feature","properties":{"idx":5,"road":"上野原あきる野線","cls":"primary","shops":0,"st_km":9.51,"mesh":"53394140"},"geometry":{"type":"LineString","coordinates":[[139.12735,35.70358],[139.12746,35.70359]]}},{"type":"Feature","properties":{"idx":28,"road":"水根本宿線","cls":"secondary","shops":0,"st_km":5.57,"mesh":"53394190"},"geometry":{"type":"LineString","coordinates":[[139.12807,35.74388],[139.1283,35.74389],[139.12879,35.74378]]}},{"type":"Feature","properties":{"idx":28,"road":"水根本宿線","cls":"secondary","shops":0,"st_km":5.59,"mesh":"53394190"},"geometry":{"type":"LineString","coordinates":[[139.12796,35.74385],[139.12807,35.74388]]}},{"type":"Feature","properties":{"idx":28,"road":"水根本宿線","cls":"secondary","shops":0,"st_km":5.65,"mesh":"53394190"},"geometry":{"type":"LineString","coordinates":[[139.1293,35.74363],[139.13075,35.74305],[139.13128,35.74272],[139.13202,35.74198],[139.13232,35.74116],[139.1326,35.74094],[139.13373,35.74032],[139.13391,35.74031],[139.13477,35.74044]]}},{"type":"Feature","properties":{"idx":10,"road":"水根本宿線","cls":"secondary","shops":0,"st_km":5.72,"mesh":"53394180"},"geometry":{"type":"LineString","coordinates":[[139.13477,35.74044],[139.13486,35.74043]]}},{"type":"Feature","properties":{"idx":96,"road":"上野原あきる野線","cls":"primary","shops":1,"st_km":7.01,"mesh":"53394171"},"geometry":{"type":"LineString","coordinates":[[139.14754,35.72659],[139.14797,35.72662]]}},{"type":"Feature","properties":{"idx":64,"road":"上野原あきる野線","cls":"primary","shops":0,"st_km":7.02,"mesh":"53394171"},"geometry":{"type":"LineString","coordinates":[[139.14741,35.72658],[139.14754,35.72659]]}},{"type":"Feature","properties":{"idx":10,"road":"水根本宿線","cls":"secondary","shops":0,"st_km":5.7,"mesh":"53394180"},"geometry":{"type":"LineString","coordinates":[[139.13486,35.74043],[139.13535,35.74026],[139.13646,35.74035],[139.13709,35.74033],[139.13745,35.74027]]}},{"type":"Feature","properties":{"idx":28,"road":"水根本宿線","cls":"secondary","shops":0,"st_km":5.68,"mesh":"53394181"},"geometry":{"type":"LineString","coordinates":[[139.13855,35.73996],[139.13866,35.73988]]}},{"type":"Feature","properties":{"idx":23,"road":"上野原あきる野線","cls":"primary","shops":0,"st_km":5.08,"mesh":"53394163"},"geometry":{"type":"LineString","coordinates":[[139.16724,35.72246],[139.16769,35.72257],[139.16872,35.72292],[139.16899,35.72309],[139.16907,35.72327],[139.16912,35.72358],[139.16884,35.72454],[139.16889,35.72471],[139.1691,35.72485],[139.16937,35.72481],[139.1701,35.72455],[139.17135,35.72443],[139.17173,35.72433],[139.17217,35.7241],[139.17333,35.72322],[139.17357,35.72312],[139.17575,35.72299],[139.17659,35.72311],[139.17931,35.72393],[139.18077,35.7244],[139.18108,35.72461]]}},{"type":"Feature","properties":{"idx":23,"road":"上野原あきる野線","cls":"primary","shops":0,"st_km":5.62,"mesh":"53394163"},"geometry":{"type":"LineString","coordinates":[[139.16701,35.72243],[139.16724,35.72246]]}},{"type":"Feature","properties":{"idx":8,"road":"上野原あきる野線","cls":"primary","shops":0,"st_km":7.4,"mesh":"53394151"},"geometry":{"type":"LineString","coordinates":[[139.1493,35.71421],[139.14939,35.71445]]}},{"type":"Feature","properties":{"idx":8,"road":"上野原あきる野線","cls":"primary","shops":0,"st_km":7.37,"mesh":"53394151"},"geometry":{"type":"LineString","coordinates":[[139.14939,35.71445],[139.14957,35.71467],[139.14976,35.71476]]}},{"type":"Feature","properties":{"idx":28,"road":"水根本宿線","cls":"secondary","shops":0,"st_km":5.68,"mesh":"53394181"},"geometry":{"type":"LineString","coordinates":[[139.13756,35.74023],[139.13855,35.73996]]}},{"type":"Feature","properties":{"idx":28,"road":"水根本宿線","cls":"secondary","shops":0,"st_km":5.67,"mesh":"53394181"},"geometry":{"type":"LineString","coordinates":[[139.13745,35.74027],[139.13756,35.74023]]}},{"type":"Feature","properties":{"idx":10,"road":"水根本宿線","cls":"secondary","shops":0,"st_km":6.58,"mesh":"53394180"},"geometry":{"type":"LineString","coordinates":[[139.12598,35.73477],[139.12602,35.73482]]}},{"type":"Feature","properties":{"idx":5,"road":"上野原あきる野線","cls":"primary","shops":0,"st_km":9.49,"mesh":"53394140"},"geometry":{"type":"LineString","coordinates":[[139.12746,35.70359],[139.12772,35.70358],[139.12787,35.70348],[139.12791,35.70329],[139.12786,35.70293]]}},{"type":"Feature","properties":{"idx":5,"road":"上野原あきる野線","cls":"primary","shops":0,"st_km":9.44,"mesh":"53394140"},"geometry":{"type":"LineString","coordinates":[[139.12786,35.70293],[139.12779,35.70268],[139.1278,35.7025],[139.12793,35.70237],[139.12819,35.70233],[139.12887,35.70272],[139.12971,35.70347],[139.13035,35.70391]]}},{"type":"Feature","properties":{"idx":5,"road":"上野原あきる野線","cls":"primary","shops":0,"st_km":9.29,"mesh":"53394140"},"geometry":{"type":"LineString","coordinates":[[139.13035,35.70391],[139.13085,35.70427],[139.13107,35.70433],[139.13129,35.70432],[139.13141,35.70426],[139.13148,35.70412],[139.13144,35.70366],[139.13147,35.70353]]}},{"type":"Feature","properties":{"idx":96,"road":"上野原あきる野線","cls":"primary","shops":1,"st_km":7.11,"mesh":"53394171"},"geometry":{"type":"LineString","coordinates":[[139.14707,35.72493],[139.14732,35.72573],[139.14741,35.72658]]}},{"type":"Feature","properties":{"idx":15,"road":"上野原あきる野線","cls":"primary","shops":0,"st_km":7.24,"mesh":"53394161"},"geometry":{"type":"LineString","coordinates":[[139.14636,35.72472],[139.14656,35.72465],[139.14682,35.72466],[139.14695,35.72473],[139.14707,35.72493]]}},{"type":"Feature","properties":{"idx":28,"road":"水根本宿線","cls":"secondary","shops":0,"st_km":5.9,"mesh":"53394181"},"geometry":{"type":"LineString","coordinates":[[139.14357,35.73886],[139.14348,35.73808],[139.14356,35.73776],[139.14405,35.73707],[139.14425,35.73667],[139.14433,35.73636],[139.14485,35.73576],[139.14505,35.7356],[139.14512,35.73541]]}},{"type":"Feature","properties":{"idx":28,"road":"水根本宿線","cls":"secondary","shops":0,"st_km":6.07,"mesh":"53394181"},"geometry":{"type":"LineString","coordinates":[[139.14512,35.73541],[139.14512,35.73535]]}},{"type":"Feature","properties":{"idx":194,"road":"青梅あきる野線","cls":"primary","shops":0,"st_km":2.17,"mesh":"53394199"},"geometry":{"type":"LineString","coordinates":[[139.24037,35.74901],[139.24039,35.74893]]}},{"type":"Feature","properties":{"idx":15,"road":"椚沢橋","cls":"secondary","shops":0,"st_km":5.68,"mesh":"53394105"},"geometry":{"type":"LineString","coordinates":[[139.19474,35.66834],[139.19462,35.66823]]}},{"type":"Feature","properties":{"idx":82,"road":"十里木御嶽停車場線","cls":"secondary","shops":2,"st_km":3.7,"mesh":"53394174"},"geometry":{"type":"LineString","coordinates":[[139.18905,35.72928],[139.18833,35.72953],[139.18812,35.7295],[139.18772,35.72928],[139.18759,35.72926],[139.18734,35.72933],[139.18725,35.72939],[139.18716,35.72956],[139.18728,35.73],[139.18726,35.73009],[139.18696,35.73027],[139.18641,35.73039]]}},{"type":"Feature","properties":{"idx":5,"road":"十里木御嶽停車場線","cls":"secondary","shops":0,"st_km":4.12,"mesh":"53394194"},"geometry":{"type":"LineString","coordinates":[[139.18542,35.74622],[139.18629,35.74591]]}},{"type":"Feature","properties":{"idx":174,"road":"青梅あきる野線","cls":"primary","shops":0,"st_km":1.45,"mesh":"53394198"},"geometry":{"type":"LineString","coordinates":[[139.2337,35.74459],[139.23287,35.74436]]}},{"type":"Feature","properties":{"idx":96,"road":"上野原あきる野線","cls":"primary","shops":0,"st_km":3.69,"mesh":"53394175"},"geometry":{"type":"LineString","coordinates":[[139.18294,35.72646],[139.18534,35.72672],[139.18891,35.7261],[139.18978,35.72603],[139.1901,35.72606],[139.19064,35.7264],[139.19085,35.72665],[139.19094,35.72702],[139.19098,35.72779],[139.19107,35.72796],[139.19125,35.72809]]}}]}