{"type":"FeatureCollection","features":[{"type":"Feature","properties":{"idx":621,"road":NaN,"cls":"tertiary","shops":0,"st_km":1.35,"mesh":"53393780"},"geometry":{"type":"LineString","coordinates":[[139.88146,35.65911],[139.88012,35.65125],[139.87967,35.64756]]}},{"type":"Feature","properties":{"idx":275,"road":NaN,"cls":"tertiary","shops":0,"st_km":1.07,"mesh":"53393770"},"geometry":{"type":"LineString","coordinates":[[139.87841,35.6445],[139.87904,35.64519],[139.87921,35.64549],[139.87933,35.64585],[139.87943,35.64665]]}},{"type":"Feature","properties":{"idx":507,"road":"旧 新荒川葛西堤防線","cls":"tertiary","shops":1,"st_km":0.81,"mesh":"53393770"},"geometry":{"type":"LineString","coordinates":[[139.87216,35.64176],[139.87228,35.64167],[139.87236,35.64167],[139.876,35.64287],[139.87611,35.64293],[139.87613,35.64298],[139.876,35.64321],[139.87607,35.64334],[139.87615,35.64338],[139.87798,35.64395],[139.87944,35.64453]]}},{"type":"Feature","properties":{"idx":887,"road":"新田仲町通り","cls":"tertiary","shops":0,"st_km":0.89,"mesh":"53393780"},"geometry":{"type":"LineString","coordinates":[[139.8729,35.65915],[139.87455,35.65836],[139.87599,35.65792],[139.88416,35.65583],[139.88434,35.65584]]}},{"type":"Feature","properties":{"idx":490,"road":"葛西橋通り","cls":"primary","shops":0,"st_km":0.72,"mesh":"53393790"},"geometry":{"type":"LineString","coordinates":[[139.88343,35.666],[139.88441,35.66584],[139.88671,35.66568],[139.88725,35.6656]]}},{"type":"Feature","properties":{"idx":489,"road":"葛西橋通り","cls":"primary","shops":0,"st_km":0.72,"mesh":"53393790"},"geometry":{"type":"LineString","coordinates":[[139.88723,35.66546],[139.88567,35.66557],[139.88341,35.66593]]}},{"type":"Feature","properties":{"idx":321,"road":NaN,"cls":"tertiary","shops":0,"st_km":0.87,"mesh":"53393770"},"geometry":{"type":"LineString","coordinates":[[139.87432,35.64285],[139.87613,35.64367]]}},{"type":"Feature","properties":{"idx":1142,"road":NaN,"cls":"tertiary","shops":1,"st_km":1.07,"mesh":"53393780"},"geometry":{"type":"LineString","coordinates":[[139.87833,35.65734],[139.87764,35.6561],[139.87675,35.65423],[139.87646,35.65351],[139.87636,35.65312],[139.87627,35.6518]]}},{"type":"Feature","properties":{"idx":349,"road":NaN,"cls":"tertiary","shops":1,"st_km":1.36,"mesh":"53393770"},"geometry":{"type":"LineString","coordinates":[[139.87189,35.64852],[139.87958,35.64782]]}},{"type":"Feature","properties":{"idx":1456,"road":NaN,"cls":"tertiary","shops":3,"st_km":1.44,"mesh":"53393780"},"geometry":{"type":"LineString","coordinates":[[139.88031,35.65314],[139.88076,35.6531],[139.88124,35.65348],[139.88146,35.65349],[139.88299,35.65321],[139.88314,35.65309],[139.8831,35.65277],[139.88316,35.65265],[139.88337,35.65256],[139.88384,35.6525]]}},{"type":"Feature","properties":{"idx":541,"road":NaN,"cls":"tertiary","shops":0,"st_km":1.57,"mesh":"53393780"},"geometry":{"type":"LineString","coordinates":[[139.88005,35.65076],[139.88058,35.65081],[139.88128,35.65067],[139.8818,35.65038],[139.88197,35.65],[139.88247,35.64971],[139.88278,35.64975],[139.8832,35.64996],[139.88357,35.65008]]}},{"type":"Feature","properties":{"idx":875,"road":NaN,"cls":"tertiary","shops":0,"st_km":0.9,"mesh":"53393780"},"geometry":{"type":"LineString","coordinates":[[139.87712,35.65501],[139.87461,35.65608],[139.8734,35.65645]]}},{"type":"Feature","properties":{"idx":547,"road":NaN,"cls":"tertiary","shops":0,"st_km":1.54,"mesh":"53393780"},"geometry":{"type":"LineString","coordinates":[[139.87993,35.65074],[139.87936,35.65065],[139.87914,35.65068],[139.87901,35.65075],[139.87865,35.65121],[139.87854,35.65144]]}},{"type":"Feature","properties":{"idx":848,"road":NaN,"cls":"tertiary","shops":0,"st_km":0.94,"mesh":"53393780"},"geometry":{"type":"LineString","coordinates":[[139.87823,35.65716],[139.8792,35.65692],[139.87931,35.65697],[139.87947,35.65725]]}},{"type":"Feature","properties":{"idx":399,"road":NaN,"cls":"tertiary","shops":0,"st_km":0.71,"mesh":"53393790"},"geometry":{"type":"LineString","coordinates":[[139.87359,35.65983],[139.87486,35.65924],[139.88107,35.65755]]}},{"type":"Feature","properties":{"idx":702,"road":NaN,"cls":"tertiary","shops":1,"st_km":0.54,"mesh":"53393790"},"geometry":{"type":"LineString","coordinates":[[139.87643,35.6588],[139.87847,35.66299],[139.88103,35.66641]]}},{"type":"Feature","properties":{"idx":1741,"road":NaN,"cls":"tertiary","shops":5,"st_km":0.47,"mesh":"53393790"},"geometry":{"type":"LineString","coordinates":[[139.88146,35.6608],[139.87907,35.66144],[139.8779,35.66181],[139.87324,35.66208],[139.87293,35.66214]]}},{"type":"Feature","properties":{"idx":331,"road":NaN,"cls":"tertiary","shops":0,"st_km":0.91,"mesh":"53393790"},"geometry":{"type":"LineString","coordinates":[[139.88188,35.66465],[139.88488,35.66425]]}},{"type":"Feature","properties":{"idx":358,"road":"葛西橋通り","cls":"primary_link","shops":0,"st_km":0.67,"mesh":"53393790"},"geometry":{"type":"LineString","coordinates":[[139.8861,35.66566],[139.88561,35.66564]]}},{"type":"Feature","properties":{"idx":369,"road":"葛西橋通り","cls":"primary_link","shops":0,"st_km":0.63,"mesh":"53393790"},"geometry":{"type":"LineString","coordinates":[[139.8861,35.66566],[139.88636,35.66564]]}},{"type":"Feature","properties":{"idx":397,"road":"葛西橋通り","cls":"primary_link","shops":0,"st_km":0.56,"mesh":"53393790"},"geometry":{"type":"LineString","coordinates":[[139.88752,35.66543],[139.88662,35.66556]]}},{"type":"Feature","properties":{"idx":390,"road":"葛西橋通り","cls":"primary_link","shops":0,"st_km":0.58,"mesh":"53393790"},"geometry":{"type":"LineString","coordinates":[[139.88662,35.66563],[139.88711,35.66562]]}},{"type":"Feature","properties":{"idx":356,"road":"葛西橋通り","cls":"primary_link","shops":0,"st_km":0.67,"mesh":"53393790"},"geometry":{"type":"LineString","coordinates":[[139.88551,35.66571],[139.8861,35.66566]]}},{"type":"Feature","properties":{"idx":379,"road":NaN,"cls":"tertiary","shops":0,"st_km":0.76,"mesh":"53393790"},"geometry":{"type":"LineString","coordinates":[[139.87792,35.66377],[139.87823,35.66407],[139.87907,35.66376],[139.87989,35.66362],[139.88179,35.66333],[139.88421,35.6631]]}},{"type":"Feature","properties":{"idx":1195,"road":NaN,"cls":"tertiary","shops":3,"st_km":0.51,"mesh":"53393790"},"geometry":{"type":"LineString","coordinates":[[139.87342,35.66631],[139.87856,35.66543],[139.88006,35.66509],[139.88113,35.66478],[139.88188,35.66465]]}},{"type":"Feature","properties":{"idx":840,"road":NaN,"cls":"tertiary","shops":1,"st_km":0.35,"mesh":"53393790"},"geometry":{"type":"LineString","coordinates":[[139.87853,35.66307],[139.87851,35.66315],[139.87792,35.66377],[139.87763,35.664],[139.87664,35.66455],[139.87581,35.66474],[139.87365,35.6654],[139.87331,35.66545]]}},{"type":"Feature","properties":{"idx":631,"road":NaN,"cls":"tertiary","shops":0,"st_km":1.32,"mesh":"53393780"},"geometry":{"type":"LineString","coordinates":[[139.87822,35.65157],[139.87813,35.65212],[139.87789,35.65276],[139.87727,35.65322],[139.87718,35.65325]]}},{"type":"Feature","properties":{"idx":1083,"road":NaN,"cls":"tertiary","shops":1,"st_km":1.14,"mesh":"53393780"},"geometry":{"type":"LineString","coordinates":[[139.87696,35.65467],[139.8773,35.65433],[139.8773,35.65413],[139.87715,35.65409],[139.87718,35.65325]]}},{"type":"Feature","properties":{"idx":380,"road":NaN,"cls":"tertiary","shops":0,"st_km":0.75,"mesh":"53393790"},"geometry":{"type":"LineString","coordinates":[[139.88508,35.66557],[139.88483,35.66563]]}},{"type":"Feature","properties":{"idx":826,"road":NaN,"cls":"tertiary","shops":1,"st_km":0.37,"mesh":"53393790"},"geometry":{"type":"LineString","coordinates":[[139.87487,35.66503],[139.87493,35.66507],[139.87552,35.66728]]}},{"type":"Feature","properties":{"idx":178,"road":NaN,"cls":"tertiary_link","shops":0,"st_km":1.02,"mesh":"53393770"},"geometry":{"type":"LineString","coordinates":[[139.87939,35.64553],[139.87943,35.64544],[139.87936,35.64472],[139.87944,35.64453]]}},{"type":"Feature","properties":{"idx":366,"road":"葛西橋通り","cls":"primary_link","shops":0,"st_km":0.65,"mesh":"53393790"},"geometry":{"type":"LineString","coordinates":[[139.88595,35.6656],[139.88582,35.66558],[139.88583,35.6655],[139.88641,35.66544],[139.88649,35.66549],[139.88652,35.66563]]}},{"type":"Feature","properties":{"idx":380,"road":NaN,"cls":"tertiary","shops":0,"st_km":0.75,"mesh":"53393790"},"geometry":{"type":"LineString","coordinates":[[139.88508,35.66557],[139.88538,35.66521],[139.88578,35.6633],[139.88583,35.66232],[139.88577,35.66018]]}},{"type":"Feature","properties":{"idx":276,"road":NaN,"cls":"tertiary","shops":0,"st_km":1.07,"mesh":"53393770"},"geometry":{"type":"LineString","coordinates":[[139.87955,35.64663],[139.87945,35.64577],[139.8793,35.64533],[139.8789,35.64482],[139.87856,35.64456],[139.87841,35.6445]]}},{"type":"Feature","properties":{"idx":626,"road":NaN,"cls":"tertiary","shops":0,"st_km":1.34,"mesh":"53393780"},"geometry":{"type":"LineString","coordinates":[[139.87958,35.64782],[139.87999,35.65126],[139.88132,35.65896]]}},{"type":"Feature","properties":{"idx":493,"road":NaN,"cls":"tertiary","shops":2,"st_km":1.22,"mesh":"53393770"},"geometry":{"type":"LineString","coordinates":[[139.87943,35.64665],[139.87947,35.64701]]}},{"type":"Feature","properties":{"idx":369,"road":NaN,"cls":"tertiary","shops":1,"st_km":1.22,"mesh":"53393770"},"geometry":{"type":"LineString","coordinates":[[139.8796,35.64706],[139.87955,35.64663]]}},{"type":"Feature","properties":{"idx":424,"road":NaN,"cls":"tertiary","shops":1,"st_km":1.15,"mesh":"53393770"},"geometry":{"type":"LineString","coordinates":[[139.87955,35.64663],[139.88023,35.64657],[139.8809,35.6462],[139.88177,35.6456]]}},{"type":"Feature","properties":{"idx":315,"road":NaN,"cls":"tertiary","shops":0,"st_km":0.97,"mesh":"53393790"},"geometry":{"type":"LineString","coordinates":[[139.88335,35.66588],[139.88357,35.66442],[139.88359,35.66319],[139.88336,35.65867]]}},{"type":"Feature","properties":{"idx":336,"road":"旧 新荒川葛西堤防線","cls":"tertiary","shops":1,"st_km":1.49,"mesh":"53393770"},"geometry":{"type":"LineString","coordinates":[[139.87944,35.64453],[139.88168,35.64554],[139.8819,35.64571],[139.88227,35.64614],[139.88266,35.64667],[139.8831,35.64851],[139.88357,35.64999],[139.88355,35.65129],[139.88394,35.65301],[139.88424,35.65399],[139.88451,35.65459],[139.88442,35.65575],[139.88434,35.65584]]}},{"type":"Feature","properties":{"idx":378,"road":"葛西橋通り","cls":"primary_link","shops":0,"st_km":0.61,"mesh":"53393790"},"geometry":{"type":"LineString","coordinates":[[139.88662,35.66556],[139.88638,35.66558]]}},{"type":"Feature","properties":{"idx":367,"road":"葛西橋通り","cls":"primary_link","shops":0,"st_km":0.64,"mesh":"53393790"},"geometry":{"type":"LineString","coordinates":[[139.88638,35.66558],[139.88595,35.6656]]}},{"type":"Feature","properties":{"idx":376,"road":"葛西橋通り","cls":"primary_link","shops":0,"st_km":0.62,"mesh":"53393790"},"geometry":{"type":"LineString","coordinates":[[139.88636,35.66564],[139.88652,35.66563]]}},{"type":"Feature","properties":{"idx":341,"road":"葛西橋通り","cls":"primary_link","shops":0,"st_km":0.72,"mesh":"53393790"},"geometry":{"type":"LineString","coordinates":[[139.88501,35.6658],[139.88551,35.66571]]}},{"type":"Feature","properties":{"idx":342,"road":"葛西橋通り","cls":"primary_link","shops":0,"st_km":0.72,"mesh":"53393790"},"geometry":{"type":"LineString","coordinates":[[139.88561,35.66564],[139.88499,35.66567]]}},{"type":"Feature","properties":{"idx":378,"road":"葛西橋通り","cls":"primary_link","shops":0,"st_km":0.61,"mesh":"53393790"},"geometry":{"type":"LineString","coordinates":[[139.88638,35.66558],[139.88662,35.66563]]}},{"type":"Feature","properties":{"idx":300,"road":NaN,"cls":"tertiary","shops":0,"st_km":0.96,"mesh":"53393770"},"geometry":{"type":"LineString","coordinates":[[139.87559,35.64474],[139.87613,35.64367]]}},{"type":"Feature","properties":{"idx":236,"road":NaN,"cls":"tertiary","shops":0,"st_km":1.28,"mesh":"53393770"},"geometry":{"type":"LineString","coordinates":[[139.87967,35.64756],[139.87962,35.64721]]}},{"type":"Feature","properties":{"idx":256,"road":NaN,"cls":"tertiary","shops":0,"st_km":1.29,"mesh":"53393770"},"geometry":{"type":"LineString","coordinates":[[139.88007,35.64778],[139.88288,35.64753]]}},{"type":"Feature","properties":{"idx":229,"road":NaN,"cls":"tertiary","shops":0,"st_km":1.33,"mesh":"53393770"},"geometry":{"type":"LineString","coordinates":[[139.87958,35.64782],[139.88007,35.64778]]}},{"type":"Feature","properties":{"idx":583,"road":NaN,"cls":"tertiary","shops":0,"st_km":1.44,"mesh":"53393780"},"geometry":{"type":"LineString","coordinates":[[139.88012,35.65125],[139.87626,35.6517]]}},{"type":"Feature","properties":{"idx":587,"road":NaN,"cls":"tertiary","shops":0,"st_km":1.43,"mesh":"53393780"},"geometry":{"type":"LineString","coordinates":[[139.87627,35.6518],[139.88014,35.65134]]}},{"type":"Feature","properties":{"idx":236,"road":NaN,"cls":"tertiary","shops":0,"st_km":1.29,"mesh":"53393770"},"geometry":{"type":"LineString","coordinates":[[139.87947,35.64701],[139.87958,35.64782]]}},{"type":"Feature","properties":{"idx":310,"road":NaN,"cls":"tertiary","shops":0,"st_km":0.92,"mesh":"53393770"},"geometry":{"type":"LineString","coordinates":[[139.87613,35.64367],[139.87841,35.6445]]}},{"type":"Feature","properties":{"idx":490,"road":"清砂大橋通り","cls":"secondary","shops":0,"st_km":0.61,"mesh":"53393790"},"geometry":{"type":"LineString","coordinates":[[139.88132,35.65896],[139.87298,35.66022]]}},{"type":"Feature","properties":{"idx":493,"road":"清砂大橋通り","cls":"secondary","shops":0,"st_km":0.6,"mesh":"53393790"},"geometry":{"type":"LineString","coordinates":[[139.87299,35.66037],[139.88146,35.65911]]}},{"type":"Feature","properties":{"idx":333,"road":NaN,"cls":"tertiary","shops":1,"st_km":1.44,"mesh":"53393770"},"geometry":{"type":"LineString","coordinates":[[139.87626,35.6517],[139.87582,35.64698]]}},{"type":"Feature","properties":{"idx":1232,"road":NaN,"cls":"tertiary","shops":2,"st_km":1.36,"mesh":"53393780"},"geometry":{"type":"LineString","coordinates":[[139.87627,35.6518],[139.87626,35.6517]]}},{"type":"Feature","properties":{"idx":380,"road":"新荒川葛西堤防線","cls":"secondary","shops":0,"st_km":0.88,"mesh":"53393790"},"geometry":{"type":"LineString","coordinates":[[139.8845,35.6585],[139.88465,35.66169],[139.88479,35.66285],[139.88488,35.66425],[139.8849,35.66491],[139.88483,35.66563]]}},{"type":"Feature","properties":{"idx":361,"road":NaN,"cls":"tertiary","shops":1,"st_km":1.26,"mesh":"53393770"},"geometry":{"type":"LineString","coordinates":[[139.87962,35.64721],[139.8796,35.64706]]}},{"type":"Feature","properties":{"idx":500,"road":NaN,"cls":"tertiary","shops":2,"st_km":1.2,"mesh":"53393770"},"geometry":{"type":"LineString","coordinates":[[139.87943,35.64665],[139.87955,35.64663]]}},{"type":"Feature","properties":{"idx":987,"road":"旧 新荒川葛西堤防線","cls":"tertiary","shops":1,"st_km":1.25,"mesh":"53393780"},"geometry":{"type":"LineString","coordinates":[[139.88434,35.65584],[139.8845,35.6585]]}},{"type":"Feature","properties":{"idx":358,"road":NaN,"cls":"tertiary","shops":0,"st_km":0.83,"mesh":"53393790"},"geometry":{"type":"LineString","coordinates":[[139.88146,35.6608],[139.88189,35.66626]]}},{"type":"Feature","properties":{"idx":262,"road":NaN,"cls":"tertiary","shops":0,"st_km":1.14,"mesh":"53393770"},"geometry":{"type":"LineString","coordinates":[[139.87582,35.64698],[139.87559,35.64474]]}},{"type":"Feature","properties":{"idx":371,"road":NaN,"cls":"tertiary","shops":1,"st_km":1.22,"mesh":"53393770"},"geometry":{"type":"LineString","coordinates":[[139.87582,35.64698],[139.87943,35.64665]]}},{"type":"Feature","properties":{"idx":354,"road":NaN,"cls":"tertiary","shops":0,"st_km":0.84,"mesh":"53393790"},"geometry":{"type":"LineString","coordinates":[[139.882,35.66625],[139.88146,35.65911]]}},{"type":"Feature","properties":{"idx":488,"road":"清砂大橋通り","cls":"secondary","shops":1,"st_km":1.08,"mesh":"53393790"},"geometry":{"type":"LineString","coordinates":[[139.88146,35.65911],[139.88451,35.65867]]}},{"type":"Feature","properties":{"idx":650,"road":"清砂大橋通り","cls":"secondary","shops":2,"st_km":1.08,"mesh":"53393790"},"geometry":{"type":"LineString","coordinates":[[139.8845,35.6585],[139.88132,35.65896]]}},{"type":"Feature","properties":{"idx":335,"road":NaN,"cls":"tertiary","shops":0,"st_km":0.9,"mesh":"53393790"},"geometry":{"type":"LineString","coordinates":[[139.88132,35.65896],[139.88146,35.6608]]}}]}