{"type":"FeatureCollection","features":[{"type":"Feature","properties":{"idx":2,"road":"日原街道","cls":"secondary","shops":0,"st_km":4.56,"mesh":"53396005"},"geometry":{"type":"LineString","coordinates":[[139.0638,35.84198],[139.06414,35.84204],[139.06451,35.84195],[139.06469,35.84184],[139.06483,35.84147],[139.06502,35.84116],[139.06504,35.84051],[139.06515,35.84041],[139.06553,35.84037],[139.06589,35.84047]]}},{"type":"Feature","properties":{"idx":31,"road":"日原街道","cls":"secondary","shops":0,"st_km":5.09,"mesh":"53396004"},"geometry":{"type":"LineString","coordinates":[[139.05082,35.84227],[139.05155,35.84238],[139.05218,35.84259],[139.05289,35.8426],[139.0536,35.8424],[139.05478,35.8419],[139.05649,35.84131],[139.05696,35.8412],[139.05781,35.84116],[139.05888,35.84137],[139.05984,35.84186],[139.06069,35.84215],[139.06137,35.84223],[139.06226,35.84218]]}},{"type":"Feature","properties":{"idx":3,"road":"秩父上名栗線","cls":"primary","shops":0,"st_km":5.58,"mesh":"53396096"},"geometry":{"type":"LineString","coordinates":[[139.07857,35.91849],[139.07871,35.91836],[139.07882,35.9181],[139.07889,35.9178],[139.07885,35.91762],[139.07878,35.91748],[139.07852,35.91722],[139.07818,35.91702],[139.07797,35.91684],[139.07795,35.91673],[139.07804,35.91642],[139.0782,35.91637],[139.07858,35.91638],[139.07871,35.91632],[139.07896,35.91591],[139.07937,35.9154],[139.07991,35.91514],[139.08017,35.91491],[139.08053,35.91442]]}},{"type":"Feature","properties":{"idx":3,"road":"秩父上名栗線","cls":"primary","shops":0,"st_km":6.59,"mesh":"53396096"},"geometry":{"type":"LineString","coordinates":[[139.0879,35.90929],[139.08763,35.9093],[139.08712,35.90959],[139.08668,35.90968]]}},{"type":"Feature","properties":{"idx":3,"road":"秩父上名栗線","cls":"primary","shops":0,"st_km":5.99,"mesh":"53396096"},"geometry":{"type":"LineString","coordinates":[[139.08066,35.91428],[139.08123,35.91373],[139.08158,35.91349],[139.08297,35.91288]]}},{"type":"Feature","properties":{"idx":2,"road":"日原街道","cls":"secondary","shops":0,"st_km":4.42,"mesh":"53396005"},"geometry":{"type":"LineString","coordinates":[[139.06601,35.84047],[139.06645,35.84026]]}},{"type":"Feature","properties":{"idx":5,"road":"日原街道","cls":"secondary","shops":0,"st_km":7.11,"mesh":"53396023"},"geometry":{"type":"LineString","coordinates":[[139.04074,35.85356],[139.04096,35.85518]]}},{"type":"Feature","properties":{"idx":8,"road":"日原街道","cls":"secondary","shops":0,"st_km":6.53,"mesh":"53396013"},"geometry":{"type":"LineString","coordinates":[[139.03755,35.84809],[139.03762,35.84792],[139.0381,35.84763],[139.03863,35.84723],[139.03872,35.84711],[139.03873,35.84611],[139.03895,35.84582],[139.03918,35.84539],[139.03923,35.84504],[139.03923,35.84495],[139.03876,35.8442],[139.03875,35.84409],[139.03833,35.84375],[139.0384,35.84358],[139.03863,35.84343],[139.03863,35.84337],[139.03844,35.84307],[139.03816,35.8428],[139.03814,35.84247],[139.03824,35.84234],[139.03872,35.84207],[139.03983,35.84125]]}},{"type":"Feature","properties":{"idx":14,"road":"日原街道","cls":"secondary","shops":0,"st_km":6.91,"mesh":"53396012"},"geometry":{"type":"LineString","coordinates":[[139.03753,35.84831],[139.03743,35.84887]]}},{"type":"Feature","properties":{"idx":2,"road":"日原街道","cls":"secondary","shops":0,"st_km":3.54,"mesh":"53396005"},"geometry":{"type":"LineString","coordinates":[[139.0733,35.83833],[139.07336,35.83807],[139.07352,35.83771],[139.07351,35.83755],[139.07313,35.83704],[139.07299,35.83659],[139.07241,35.83594],[139.07242,35.83583],[139.07352,35.83497],[139.07392,35.83452],[139.07408,35.83448],[139.07417,35.83454],[139.07433,35.83514],[139.07454,35.83566],[139.07464,35.83574],[139.07518,35.83601],[139.07536,35.83603],[139.07558,35.836],[139.07601,35.83569],[139.07619,35.83547],[139.07636,35.83496],[139.07641,35.83428],[139.07613,35.83358],[139.07564,35.83314],[139.07559,35.833],[139.07565,35.83256],[139.07626,35.83176]]}},{"type":"Feature","properties":{"idx":5,"road":"日原街道","cls":"secondary","shops":0,"st_km":6.91,"mesh":"53396023"},"geometry":{"type":"LineString","coordinates":[[139.04043,35.85176],[139.04019,35.85159],[139.04014,35.85124],[139.03956,35.85046],[139.0393,35.85024],[139.03811,35.84943],[139.03759,35.84927],[139.03741,35.84908],[139.03743,35.84887]]}},{"type":"Feature","properties":{"idx":8,"road":"日原街道","cls":"secondary","shops":0,"st_km":5.65,"mesh":"53396013"},"geometry":{"type":"LineString","coordinates":[[139.04839,35.84221],[139.04863,35.8423],[139.04907,35.8423],[139.04933,35.84236],[139.04975,35.84228],[139.0501,35.84227]]}},{"type":"Feature","properties":{"idx":8,"road":"日原街道","cls":"secondary","shops":0,"st_km":6.88,"mesh":"53396013"},"geometry":{"type":"LineString","coordinates":[[139.03753,35.84831],[139.03755,35.84809]]}},{"type":"Feature","properties":{"idx":27,"road":"日原街道","cls":"secondary","shops":0,"st_km":6.04,"mesh":"53396003"},"geometry":{"type":"LineString","coordinates":[[139.04091,35.84111],[139.04187,35.84104],[139.04198,35.84108],[139.04229,35.84136],[139.04249,35.84144],[139.04294,35.84122],[139.04333,35.84124],[139.04364,35.84119],[139.04382,35.84128],[139.04398,35.84149],[139.04454,35.84171]]}},{"type":"Feature","properties":{"idx":27,"road":"日原街道","cls":"secondary","shops":0,"st_km":5.75,"mesh":"53396003"},"geometry":{"type":"LineString","coordinates":[[139.04454,35.84171],[139.0454,35.84171],[139.04568,35.84166],[139.04637,35.84129],[139.04686,35.84126],[139.04697,35.84133],[139.04721,35.84179],[139.04739,35.84189],[139.04761,35.8419],[139.04783,35.84182],[139.04798,35.84181],[139.04839,35.84221]]}},{"type":"Feature","properties":{"idx":9,"road":"日原街道","cls":"secondary","shops":0,"st_km":4.78,"mesh":"53396015"},"geometry":{"type":"LineString","coordinates":[[139.06226,35.84218],[139.06283,35.84204]]}},{"type":"Feature","properties":{"idx":2,"road":"日原街道","cls":"secondary","shops":0,"st_km":4.44,"mesh":"53396005"},"geometry":{"type":"LineString","coordinates":[[139.06589,35.84047],[139.06601,35.84047]]}},{"type":"Feature","properties":{"idx":2,"road":"日原街道","cls":"secondary","shops":0,"st_km":4.29,"mesh":"53396005"},"geometry":{"type":"LineString","coordinates":[[139.06651,35.8402],[139.06644,35.83995],[139.06644,35.83979],[139.06665,35.83949],[139.06693,35.83923],[139.06781,35.83886]]}},{"type":"Feature","properties":{"idx":2,"road":"日原街道","cls":"secondary","shops":0,"st_km":4.04,"mesh":"53396005"},"geometry":{"type":"LineString","coordinates":[[139.07004,35.83877],[139.07123,35.83942],[139.07129,35.83943],[139.07164,35.8392],[139.07208,35.83918],[139.07244,35.83903],[139.07312,35.83898]]}},{"type":"Feature","properties":{"idx":10,"road":"日原街道","cls":"secondary","shops":2,"st_km":6.98,"mesh":"53396023"},"geometry":{"type":"LineString","coordinates":[[139.0403,35.85283],[139.04031,35.85266],[139.0405,35.85214],[139.04052,35.85183],[139.04043,35.85176]]}},{"type":"Feature","properties":{"idx":27,"road":"日原街道","cls":"secondary","shops":0,"st_km":6.21,"mesh":"53396003"},"geometry":{"type":"LineString","coordinates":[[139.03983,35.84125],[139.04091,35.84111]]}},{"type":"Feature","properties":{"idx":3,"road":"秩父上名栗線","cls":"primary","shops":0,"st_km":5.86,"mesh":"53396096"},"geometry":{"type":"LineString","coordinates":[[139.08053,35.91442],[139.08066,35.91428]]}},{"type":"Feature","properties":{"idx":3,"road":"秩父上名栗線","cls":"primary","shops":0,"st_km":6.22,"mesh":"53396096"},"geometry":{"type":"LineString","coordinates":[[139.084,35.91079],[139.08376,35.911],[139.08364,35.91117],[139.08382,35.91205],[139.08377,35.91234],[139.08369,35.91246],[139.08347,35.91264],[139.08297,35.91288]]}},{"type":"Feature","properties":{"idx":3,"road":"秩父上名栗線","cls":"primary","shops":0,"st_km":6.43,"mesh":"53396096"},"geometry":{"type":"LineString","coordinates":[[139.08668,35.90968],[139.08628,35.90977],[139.08575,35.90997],[139.08536,35.91034],[139.08514,35.91047],[139.08479,35.91058],[139.08437,35.91052],[139.084,35.91079]]}},{"type":"Feature","properties":{"idx":7,"road":"日原街道","cls":"secondary","shops":0,"st_km":5.56,"mesh":"53396014"},"geometry":{"type":"LineString","coordinates":[[139.0501,35.84227],[139.05078,35.84227]]}},{"type":"Feature","properties":{"idx":5,"road":"日原街道","cls":"secondary","shops":0,"st_km":7.04,"mesh":"53396023"},"geometry":{"type":"LineString","coordinates":[[139.04074,35.85356],[139.04033,35.85296],[139.0403,35.85283]]}},{"type":"Feature","properties":{"idx":7,"road":"日原街道","cls":"secondary","shops":0,"st_km":5.54,"mesh":"53396014"},"geometry":{"type":"LineString","coordinates":[[139.05078,35.84227],[139.05082,35.84227]]}},{"type":"Feature","properties":{"idx":9,"road":"日原街道","cls":"secondary","shops":0,"st_km":4.72,"mesh":"53396015"},"geometry":{"type":"LineString","coordinates":[[139.06283,35.84204],[139.06333,35.84195],[139.0638,35.84198]]}},{"type":"Feature","properties":{"idx":2,"road":"日原街道","cls":"secondary","shops":0,"st_km":4.39,"mesh":"53396005"},"geometry":{"type":"LineString","coordinates":[[139.06645,35.84026],[139.06651,35.8402]]}},{"type":"Feature","properties":{"idx":2,"road":"日原街道","cls":"secondary","shops":0,"st_km":4.12,"mesh":"53396005"},"geometry":{"type":"LineString","coordinates":[[139.06781,35.83886],[139.06833,35.83874],[139.06884,35.83874],[139.06943,35.83887],[139.07004,35.83877]]}},{"type":"Feature","properties":{"idx":2,"road":"日原街道","cls":"secondary","shops":0,"st_km":3.88,"mesh":"53396005"},"geometry":{"type":"LineString","coordinates":[[139.07323,35.8389],[139.0733,35.83833]]}},{"type":"Feature","properties":{"idx":2,"road":"日原街道","cls":"secondary","shops":0,"st_km":3.92,"mesh":"53396005"},"geometry":{"type":"LineString","coordinates":[[139.07312,35.83898],[139.07323,35.8389]]}}]}