{"type":"FeatureCollection","features":[{"type":"Feature","properties":{"idx":937,"road":"西武秩父停車場線","cls":"secondary","shops":1,"st_km":0.17,"mesh":"53397086"},"geometry":{"type":"LineString","coordinates":[[139.08518,35.989],[139.0841,35.98944]]}},{"type":"Feature","properties":{"idx":412,"road":"","cls":"tertiary","shops":0,"st_km":0.48,"mesh":"53397086"},"geometry":{"type":"LineString","coordinates":[[139.08241,35.98558],[139.08168,35.98592],[139.07907,35.98685],[139.0784,35.9872],[139.07786,35.98766],[139.0775,35.98778]]}},{"type":"Feature","properties":{"idx":4,"road":"","cls":"pedestrian","shops":0,"st_km":1.27,"mesh":"53397044"},"geometry":{"type":"LineString","coordinates":[[139.05024,35.95406],[139.05434,35.95302]]}},{"type":"Feature","properties":{"idx":399,"road":"","cls":"tertiary","shops":0,"st_km":1.25,"mesh":"53397078"},"geometry":{"type":"LineString","coordinates":[[139.10972,35.97906],[139.10821,35.97773],[139.10666,35.97591],[139.10623,35.97513],[139.10588,35.97361],[139.10548,35.97306],[139.10502,35.97212],[139.10446,35.9715],[139.10429,35.9712]]}},{"type":"Feature","properties":{"idx":845,"road":"秩父上名栗線","cls":"primary","shops":1,"st_km":0.38,"mesh":"53397086"},"geometry":{"type":"LineString","coordinates":[[139.08013,35.993],[139.07876,35.99008],[139.07717,35.98718]]}},{"type":"Feature","properties":{"idx":159,"road":"","cls":"pedestrian","shops":0,"st_km":0.38,"mesh":"53397042"},"geometry":{"type":"LineString","coordinates":[[139.02648,35.95343],[139.02604,35.95385]]}},{"type":"Feature","properties":{"idx":125,"road":"","cls":"tertiary","shops":0,"st_km":0.8,"mesh":"53397050"},"geometry":{"type":"LineString","coordinates":[[139.0037,35.95696],[139.00234,35.95822],[139.00206,35.95876],[139.00181,35.95903],[139.00138,35.95919],[139.00058,35.95934],[138.99982,35.95933]]}},{"type":"Feature","properties":{"idx":280,"road":"","cls":"tertiary","shops":0,"st_km":0.17,"mesh":"53397096"},"geometry":{"type":"LineString","coordinates":[[139.0842,35.99655],[139.08473,35.99702],[139.08487,35.99721],[139.08494,35.99739],[139.08518,35.99862]]}},{"type":"Feature","properties":{"idx":11,"road":"皆野荒川線","cls":"primary","shops":1,"st_km":4.28,"mesh":"53397092"},"geometry":{"type":"LineString","coordinates":[[139.03282,35.99586],[139.03256,35.99776],[139.03269,35.99853],[139.03267,35.99893]]}},{"type":"Feature","properties":{"idx":7,"road":"皆野荒川線","cls":"primary","shops":0,"st_km":3.91,"mesh":"53397092"},"geometry":{"type":"LineString","coordinates":[[139.03265,35.99347],[139.03262,35.99369]]}},{"type":"Feature","properties":{"idx":113,"road":"皆野荒川線","cls":"primary","shops":0,"st_km":2.32,"mesh":"53397061"},"geometry":{"type":"LineString","coordinates":[[139.00992,35.96581],[139.0095,35.96669],[139.00899,35.96718],[139.00882,35.96761],[139.00831,35.96799],[139.00815,35.96824],[139.0081,35.96871],[139.00818,35.96913],[139.00817,35.96937],[139.00806,35.97031],[139.00827,35.97059],[139.0083,35.97072],[139.00808,35.97145],[139.00814,35.9716],[139.00827,35.97164],[139.00963,35.97126],[139.00997,35.97129],[139.01143,35.97213],[139.01191,35.97252],[139.01224,35.97265],[139.01242,35.97266],[139.0128,35.97255],[139.01297,35.97256],[139.01383,35.97274],[139.01437,35.97292],[139.01534,35.97303],[139.01712,35.97374],[139.01864,35.97405],[139.01891,35.97416],[139.01982,35.97502],[139.02059,35.97594],[139.02063,35.97602],[139.02053,35.97635],[139.02058,35.97654],[139.02125,35.97765],[139.02152,35.97792],[139.02288,35.97884],[139.02304,35.9789],[139.02363,35.97896],[139.02383,35.97904],[139.02548,35.98004],[139.02577,35.98016],[139.02635,35.98017],[139.02662,35.98025],[139.02683,35.98049],[139.02697,35.98075],[139.02711,35.98153],[139.02736,35.98188],[139.02773,35.98207],[139.0278,35.98215],[139.02801,35.98283],[139.02828,35.98316],[139.02893,35.98373],[139.03072,35.98492],[139.03114,35.98513],[139.03189,35.98528],[139.03209,35.98543],[139.03227,35.98565],[139.03236,35.9861],[139.0329,35.98669]]}},{"type":"Feature","properties":{"idx":29,"road":"","cls":"tertiary","shops":0,"st_km":2.72,"mesh":"53397094"},"geometry":{"type":"LineString","coordinates":[[139.05961,35.99908],[139.05959,35.99895],[139.05951,35.99884],[139.05884,35.99829],[139.05801,35.99831],[139.05779,35.99822],[139.05709,35.99772],[139.05647,35.99754],[139.05627,35.99741],[139.0558,35.99695],[139.0557,35.99672],[139.0556,35.99619],[139.05545,35.99584],[139.0552,35.99563],[139.0545,35.99529],[139.05437,35.99527],[139.05368,35.99534],[139.05346,35.99524],[139.05308,35.99436],[139.05301,35.99379],[139.05288,35.99346],[139.05225,35.99294],[139.05132,35.99243],[139.04986,35.99127],[139.04742,35.9885],[139.04714,35.98807],[139.04637,35.98641],[139.0458,35.98534],[139.04559,35.98494],[139.04536,35.98463],[139.04455,35.98372],[139.04417,35.98349],[139.04365,35.98329],[139.04349,35.98316],[139.04343,35.98285],[139.04384,35.98205]]}},{"type":"Feature","properties":{"idx":6,"road":"","cls":"tertiary","shops":0,"st_km":3.93,"mesh":"53397092"},"geometry":{"type":"LineString","coordinates":[[139.02903,35.99378],[139.02921,35.99354],[139.02988,35.99334]]}},{"type":"Feature","properties":{"idx":6,"road":"","cls":"tertiary","shops":0,"st_km":3.93,"mesh":"53397092"},"geometry":{"type":"LineString","coordinates":[[139.02988,35.99334],[139.03012,35.9933],[139.03042,35.99335],[139.0316,35.99377],[139.03197,35.99399],[139.0326,35.99407]]}},{"type":"Feature","properties":{"idx":144,"road":"小鹿野影森停車場線","cls":"secondary","shops":0,"st_km":1.46,"mesh":"53397074"},"geometry":{"type":"LineString","coordinates":[[139.05898,35.98271],[139.05906,35.98266]]}},{"type":"Feature","properties":{"idx":151,"road":"巴川橋","cls":"secondary","shops":0,"st_km":1.37,"mesh":"53397074"},"geometry":{"type":"LineString","coordinates":[[139.06066,35.98179],[139.05906,35.98266]]}},{"type":"Feature","properties":{"idx":171,"road":"小鹿野影森停車場線","cls":"secondary","shops":0,"st_km":1.17,"mesh":"53397074"},"geometry":{"type":"LineString","coordinates":[[139.06066,35.98179],[139.06139,35.98139],[139.06198,35.98122],[139.06367,35.98119]]}},{"type":"Feature","properties":{"idx":14,"road":"秩父上名栗線","cls":"primary","shops":0,"st_km":3.35,"mesh":"53397025"},"geometry":{"type":"LineString","coordinates":[[139.06637,35.93256],[139.06609,35.93386],[139.06567,35.93516],[139.06557,35.93533],[139.0653,35.93559],[139.06478,35.93582]]}},{"type":"Feature","properties":{"idx":2,"road":"秩父上名栗線","cls":"primary","shops":0,"st_km":4.3,"mesh":"53397015"},"geometry":{"type":"LineString","coordinates":[[139.06719,35.9242],[139.06707,35.92476],[139.06709,35.925],[139.06727,35.92536],[139.06769,35.92591],[139.06783,35.92636],[139.06786,35.92705],[139.06745,35.9278]]}},{"type":"Feature","properties":{"idx":2,"road":"秩父上名栗線","cls":"primary","shops":0,"st_km":3.74,"mesh":"53397015"},"geometry":{"type":"LineString","coordinates":[[139.06718,35.92944],[139.06694,35.93082],[139.06679,35.93098],[139.06633,35.9312],[139.06628,35.93129],[139.06627,35.93159],[139.06638,35.93188],[139.06641,35.9322]]}},{"type":"Feature","properties":{"idx":5,"road":"秩父上名栗線","cls":"primary","shops":0,"st_km":0.75,"mesh":"53397044"},"geometry":{"type":"LineString","coordinates":[[139.05912,35.96081],[139.05831,35.96075],[139.05799,35.96066],[139.05632,35.95952],[139.05546,35.95914],[139.05443,35.95854],[139.05435,35.95842],[139.05436,35.95826],[139.05445,35.95816],[139.05474,35.95799],[139.05495,35.95779],[139.05506,35.95751],[139.05505,35.95688],[139.05507,35.95681],[139.05522,35.95674],[139.05537,35.95679],[139.05545,35.95694],[139.05531,35.95754],[139.05525,35.95817],[139.0554,35.95828],[139.05556,35.95827],[139.05563,35.9582],[139.05558,35.95768],[139.05563,35.95754],[139.05598,35.95708],[139.056,35.95692],[139.05593,35.95666],[139.05593,35.95649],[139.05631,35.95613],[139.05633,35.95594],[139.05626,35.95577]]}},{"type":"Feature","properties":{"idx":3,"road":"秩父上名栗線","cls":"primary","shops":0,"st_km":1.73,"mesh":"53397034"},"geometry":{"type":"LineString","coordinates":[[139.05795,35.94834],[139.0579,35.9484]]}},{"type":"Feature","properties":{"idx":2,"road":"秩父上名栗線","cls":"primary","shops":0,"st_km":2.4,"mesh":"53397034"},"geometry":{"type":"LineString","coordinates":[[139.06036,35.94224],[139.06076,35.94255]]}},{"type":"Feature","properties":{"idx":3,"road":"秩父上名栗線","cls":"primary","shops":0,"st_km":1.74,"mesh":"53397034"},"geometry":{"type":"LineString","coordinates":[[139.05795,35.94834],[139.05812,35.94809]]}},{"type":"Feature","properties":{"idx":115,"road":"秩父上名栗線","cls":"primary","shops":0,"st_km":0.35,"mesh":"53397054"},"geometry":{"type":"LineString","coordinates":[[139.06052,35.96653],[139.06058,35.9663]]}},{"type":"Feature","properties":{"idx":3,"road":"秩父上名栗線","cls":"primary","shops":0,"st_km":1.56,"mesh":"53397044"},"geometry":{"type":"LineString","coordinates":[[139.05548,35.95012],[139.05574,35.94992]]}},{"type":"Feature","properties":{"idx":4,"road":"秩父上名栗線","cls":"primary","shops":0,"st_km":1.11,"mesh":"53397044"},"geometry":{"type":"LineString","coordinates":[[139.05556,35.95453],[139.05535,35.95414],[139.05529,35.95383]]}},{"type":"Feature","properties":{"idx":114,"road":"秩父上名栗線","cls":"primary","shops":0,"st_km":0.36,"mesh":"53397054"},"geometry":{"type":"LineString","coordinates":[[139.05912,35.96081],[139.06019,35.96106],[139.06079,35.96133]]}},{"type":"Feature","properties":{"idx":2,"road":"秩父上名栗線","cls":"primary","shops":0,"st_km":2.1,"mesh":"53397034"},"geometry":{"type":"LineString","coordinates":[[139.05812,35.94809],[139.0588,35.94692],[139.05924,35.94537],[139.05924,35.94514],[139.05886,35.94463],[139.05886,35.94445],[139.05937,35.94379],[139.06073,35.94299],[139.06082,35.94275],[139.06076,35.94255]]}},{"type":"Feature","properties":{"idx":3,"road":"秩父上名栗線","cls":"primary","shops":0,"st_km":1.68,"mesh":"53397034"},"geometry":{"type":"LineString","coordinates":[[139.05705,35.94913],[139.0579,35.9484]]}},{"type":"Feature","properties":{"idx":2,"road":"秩父上名栗線","cls":"primary","shops":0,"st_km":4.0,"mesh":"53397015"},"geometry":{"type":"LineString","coordinates":[[139.06718,35.92944],[139.06745,35.9278]]}},{"type":"Feature","properties":{"idx":4,"road":"秩父上名栗線","cls":"primary","shops":0,"st_km":1.3,"mesh":"53397044"},"geometry":{"type":"LineString","coordinates":[[139.05511,35.95098],[139.05529,35.95383]]}},{"type":"Feature","properties":{"idx":133,"road":"秩父上名栗線","cls":"primary","shops":0,"st_km":0.2,"mesh":"53397054"},"geometry":{"type":"LineString","coordinates":[[139.06079,35.96133],[139.06094,35.96149],[139.06097,35.9616],[139.06086,35.96217],[139.06071,35.96241],[139.06034,35.96276],[139.06026,35.96316],[139.06039,35.96423],[139.06067,35.96502],[139.06071,35.96539],[139.06066,35.96599],[139.06058,35.9663]]}},{"type":"Feature","properties":{"idx":3,"road":"秩父上名栗線","cls":"primary","shops":0,"st_km":1.61,"mesh":"53397034"},"geometry":{"type":"LineString","coordinates":[[139.05705,35.94913],[139.05574,35.94992]]}},{"type":"Feature","properties":{"idx":3,"road":"秩父上名栗線","cls":"primary","shops":0,"st_km":1.51,"mesh":"53397044"},"geometry":{"type":"LineString","coordinates":[[139.05511,35.95098],[139.05511,35.95052],[139.0552,35.95038],[139.05548,35.95012]]}},{"type":"Feature","properties":{"idx":4,"road":"秩父上名栗線","cls":"primary","shops":0,"st_km":0.99,"mesh":"53397044"},"geometry":{"type":"LineString","coordinates":[[139.05556,35.95453],[139.05626,35.95577]]}},{"type":"Feature","properties":{"idx":79,"road":"秩父上名栗線","cls":"primary","shops":0,"st_km":0.43,"mesh":"53397064"},"geometry":{"type":"LineString","coordinates":[[139.06052,35.96653],[139.06057,35.96668],[139.06067,35.96678],[139.06166,35.96702],[139.06177,35.96718],[139.06164,35.96731]]}},{"type":"Feature","properties":{"idx":344,"road":"秩父荒川線","cls":"primary","shops":0,"st_km":1.77,"mesh":"53397085"},"geometry":{"type":"LineString","coordinates":[[139.05898,35.98271],[139.05927,35.9829],[139.05936,35.98324],[139.05953,35.98352],[139.0599,35.98382],[139.06049,35.98469],[139.06086,35.98506],[139.06122,35.98555],[139.06132,35.98579],[139.06135,35.98602],[139.06128,35.98661],[139.06131,35.98679],[139.06139,35.98691],[139.06323,35.98819],[139.06526,35.99072],[139.06632,35.99236],[139.06746,35.99398],[139.06748,35.99426],[139.0673,35.99459]]}},{"type":"Feature","properties":{"idx":232,"road":"秩父荒川線","cls":"primary","shops":0,"st_km":0.44,"mesh":"53397041"},"geometry":{"type":"LineString","coordinates":[[139.01743,35.95534],[139.01775,35.95573]]}},{"type":"Feature","properties":{"idx":232,"road":"秩父荒川線","cls":"primary","shops":0,"st_km":0.44,"mesh":"53397041"},"geometry":{"type":"LineString","coordinates":[[139.01775,35.95573],[139.01898,35.95731]]}},{"type":"Feature","properties":{"idx":31,"road":"","cls":"tertiary","shops":0,"st_km":1.29,"mesh":"53397040"},"geometry":{"type":"LineString","coordinates":[[139.01027,35.95557],[139.00909,35.95561],[139.00781,35.95596],[139.00756,35.95594],[139.00703,35.95572],[139.00665,35.95573],[139.00517,35.95644],[139.00397,35.95678]]}},{"type":"Feature","properties":{"idx":166,"road":"","cls":"tertiary","shops":0,"st_km":0.8,"mesh":"53397096"},"geometry":{"type":"LineString","coordinates":[[139.07053,35.9954],[139.07212,35.99575],[139.07228,35.99568],[139.0726,35.99533],[139.07289,35.99519],[139.07454,35.99498],[139.07493,35.99501],[139.07547,35.99515],[139.07604,35.99508],[139.07702,35.99469],[139.07751,35.99428],[139.07797,35.99402],[139.07926,35.99337],[139.08013,35.993]]}},{"type":"Feature","properties":{"idx":155,"road":"","cls":"tertiary","shops":0,"st_km":1.81,"mesh":"53397095"},"geometry":{"type":"LineString","coordinates":[[139.06527,35.99853],[139.06535,35.99804],[139.06519,35.99719],[139.06458,35.99682],[139.06435,35.99647],[139.06404,35.99617],[139.06384,35.9962],[139.06375,35.99637],[139.06402,35.99729],[139.06395,35.99779],[139.06386,35.99786],[139.0636,35.99787],[139.0635,35.9978],[139.06336,35.99759]]}},{"type":"Feature","properties":{"idx":85,"road":"","cls":"tertiary","shops":0,"st_km":0.44,"mesh":"53397054"},"geometry":{"type":"LineString","coordinates":[[139.05555,35.96487],[139.05541,35.96499],[139.05525,35.96503],[139.05458,35.96503],[139.05424,35.96491],[139.05361,35.96446],[139.05331,35.96438],[139.05312,35.96438],[139.05299,35.96442],[139.05167,35.96525],[139.05148,35.96549],[139.0514,35.96567]]}},{"type":"Feature","properties":{"idx":573,"road":"","cls":"tertiary","shops":0,"st_km":1.08,"mesh":"53397075"},"geometry":{"type":"LineString","coordinates":[[139.06825,35.97783],[139.0745,35.98283],[139.07524,35.98358],[139.07597,35.9848]]}},{"type":"Feature","properties":{"idx":38,"road":"","cls":"tertiary","shops":0,"st_km":1.04,"mesh":"53397040"},"geometry":{"type":"LineString","coordinates":[[139.01027,35.95557],[139.01099,35.95555]]}},{"type":"Feature","properties":{"idx":336,"road":"","cls":"tertiary","shops":0,"st_km":0.7,"mesh":"53397086"},"geometry":{"type":"LineString","coordinates":[[139.07717,35.98718],[139.07627,35.98539]]}},{"type":"Feature","properties":{"idx":388,"road":"","cls":"tertiary","shops":0,"st_km":0.31,"mesh":"53397097"},"geometry":{"type":"LineString","coordinates":[[139.08847,35.99732],[139.08931,35.9971]]}},{"type":"Feature","properties":{"idx":537,"road":"","cls":"tertiary","shops":0,"st_km":0.21,"mesh":"53397086"},"geometry":{"type":"LineString","coordinates":[[139.08582,35.9905],[139.08435,35.99103]]}},{"type":"Feature","properties":{"idx":69,"road":"","cls":"tertiary","shops":0,"st_km":0.69,"mesh":"53397054"},"geometry":{"type":"LineString","coordinates":[[139.05474,35.95872],[139.05466,35.95879],[139.05454,35.95879],[139.05415,35.95856],[139.05407,35.95835],[139.05418,35.958],[139.05413,35.95794],[139.05397,35.9579],[139.05385,35.958],[139.0538,35.95865],[139.05408,35.95905],[139.05419,35.95913],[139.05462,35.95922],[139.05466,35.95937],[139.0546,35.95942],[139.05447,35.95944],[139.05367,35.95916],[139.05308,35.95904]]}},{"type":"Feature","properties":{"idx":302,"road":"","cls":"tertiary","shops":0,"st_km":0.83,"mesh":"53397086"},"geometry":{"type":"LineString","coordinates":[[139.07627,35.98539],[139.07597,35.9848]]}},{"type":"Feature","properties":{"idx":327,"road":"","cls":"tertiary","shops":0,"st_km":0.49,"mesh":"53397097"},"geometry":{"type":"LineString","coordinates":[[139.09026,35.99685],[139.08927,35.99434],[139.08915,35.99418]]}},{"type":"Feature","properties":{"idx":38,"road":"","cls":"tertiary","shops":0,"st_km":0.98,"mesh":"53397040"},"geometry":{"type":"LineString","coordinates":[[139.0037,35.95696],[139.00397,35.95678]]}},{"type":"Feature","properties":{"idx":29,"road":"","cls":"tertiary","shops":0,"st_km":2.77,"mesh":"53397094"},"geometry":{"type":"LineString","coordinates":[[139.05068,35.99276],[139.05092,35.99212]]}},{"type":"Feature","properties":{"idx":29,"road":"","cls":"tertiary","shops":0,"st_km":2.82,"mesh":"53397094"},"geometry":{"type":"LineString","coordinates":[[139.05059,35.99302],[139.05068,35.99276]]}},{"type":"Feature","properties":{"idx":4,"road":"","cls":"pedestrian","shops":0,"st_km":1.42,"mesh":"53397044"},"geometry":{"type":"LineString","coordinates":[[139.05511,35.95094],[139.05482,35.95108],[139.05459,35.95144],[139.05432,35.95205]]}},{"type":"Feature","properties":{"idx":92,"road":"","cls":"tertiary","shops":0,"st_km":0.35,"mesh":"53397054"},"geometry":{"type":"LineString","coordinates":[[139.05665,35.96612],[139.05579,35.96713]]}},{"type":"Feature","properties":{"idx":42,"road":"","cls":"tertiary","shops":0,"st_km":0.91,"mesh":"53397040"},"geometry":{"type":"LineString","coordinates":[[139.01099,35.95555],[139.01137,35.95562],[139.01238,35.95611],[139.01316,35.95639],[139.01343,35.95654],[139.01354,35.9567]]}},{"type":"Feature","properties":{"idx":182,"road":"","cls":"tertiary","shops":0,"st_km":1.48,"mesh":"53397095"},"geometry":{"type":"LineString","coordinates":[[139.06757,35.9947],[139.0673,35.99459]]}},{"type":"Feature","properties":{"idx":300,"road":"","cls":"tertiary","shops":0,"st_km":0.16,"mesh":"53397096"},"geometry":{"type":"LineString","coordinates":[[139.08626,35.99192],[139.08534,35.99219],[139.0845,35.99253]]}},{"type":"Feature","properties":{"idx":50,"road":"","cls":"tertiary","shops":0,"st_km":0.72,"mesh":"53397064"},"geometry":{"type":"LineString","coordinates":[[139.05579,35.96713],[139.05445,35.96874],[139.0544,35.96929],[139.05449,35.97006],[139.05436,35.97042],[139.05404,35.97095],[139.05371,35.97132],[139.0527,35.97193]]}},{"type":"Feature","properties":{"idx":100,"road":"","cls":"tertiary","shops":0,"st_km":0.26,"mesh":"53397054"},"geometry":{"type":"LineString","coordinates":[[139.05665,35.96612],[139.05692,35.96581]]}},{"type":"Feature","properties":{"idx":63,"road":"","cls":"tertiary","shops":0,"st_km":0.8,"mesh":"53397054"},"geometry":{"type":"LineString","coordinates":[[139.04955,35.96168],[139.04991,35.96098],[139.05021,35.96068],[139.05082,35.96031],[139.051,35.96001]]}},{"type":"Feature","properties":{"idx":276,"road":"","cls":"tertiary","shops":0,"st_km":0.74,"mesh":"53397087"},"geometry":{"type":"LineString","coordinates":[[139.08948,35.98739],[139.08932,35.98784],[139.08929,35.98805],[139.08933,35.98827],[139.08947,35.98855],[139.08961,35.98871],[139.08991,35.98893],[139.09085,35.98945],[139.09246,35.99016],[139.09299,35.99029],[139.09321,35.99039],[139.0934,35.99061],[139.09344,35.99075],[139.09336,35.99095],[139.09311,35.99115],[139.09314,35.99135]]}},{"type":"Feature","properties":{"idx":484,"road":"","cls":"tertiary","shops":1,"st_km":0.08,"mesh":"53397096"},"geometry":{"type":"LineString","coordinates":[[139.08435,35.99103],[139.08436,35.99129],[139.08425,35.9917],[139.08425,35.99187],[139.08436,35.99227],[139.0845,35.99253]]}},{"type":"Feature","properties":{"idx":197,"road":"佐久良橋","cls":"tertiary","shops":0,"st_km":1.35,"mesh":"53397095"},"geometry":{"type":"LineString","coordinates":[[139.06757,35.9947],[139.06832,35.99496],[139.07053,35.9954]]}},{"type":"Feature","properties":{"idx":324,"road":"","cls":"tertiary","shops":0,"st_km":0.74,"mesh":"53397086"},"geometry":{"type":"LineString","coordinates":[[139.08098,35.98405],[139.08361,35.98262]]}},{"type":"Feature","properties":{"idx":63,"road":"","cls":"tertiary","shops":0,"st_km":0.8,"mesh":"53397054"},"geometry":{"type":"LineString","coordinates":[[139.05112,35.95979],[139.05159,35.95895],[139.05177,35.95889],[139.05208,35.9589]]}},{"type":"Feature","properties":{"idx":794,"road":"","cls":"tertiary","shops":0,"st_km":0.93,"mesh":"53397076"},"geometry":{"type":"LineString","coordinates":[[139.07856,35.98257],[139.0786,35.98248],[139.0784,35.98219],[139.07592,35.97898],[139.07352,35.97695],[139.07169,35.97568],[139.07056,35.97479]]}},{"type":"Feature","properties":{"idx":442,"road":"横瀬停車場線","cls":"secondary","shops":0,"st_km":0.27,"mesh":"53397087"},"geometry":{"type":"LineString","coordinates":[[139.09823,35.9856],[139.09919,35.98649],[139.09976,35.98734],[139.09983,35.98749],[139.09977,35.98802],[139.09983,35.98823]]}},{"type":"Feature","properties":{"idx":147,"road":"熊谷小川秩父線","cls":"primary","shops":0,"st_km":1.49,"mesh":"53397098"},"geometry":{"type":"LineString","coordinates":[[139.10224,35.99929],[139.10284,35.99939]]}},{"type":"Feature","properties":{"idx":55,"road":"","cls":"tertiary","shops":0,"st_km":2.67,"mesh":"53397059"},"geometry":{"type":"LineString","coordinates":[[139.11914,35.95268],[139.11846,35.95405],[139.11803,35.95543],[139.11786,35.95563],[139.11694,35.9561],[139.11656,35.95646],[139.11649,35.95672],[139.11649,35.9572],[139.11637,35.95761],[139.11508,35.95951],[139.11481,35.95973],[139.11282,35.96094],[139.11167,35.96144],[139.11092,35.96187],[139.11075,35.96204],[139.11065,35.96242],[139.11045,35.96263],[139.1101,35.96278],[139.10903,35.96303],[139.10819,35.96353]]}},{"type":"Feature","properties":{"idx":227,"road":"","cls":"tertiary","shops":0,"st_km":0.95,"mesh":"53397097"},"geometry":{"type":"LineString","coordinates":[[139.09447,35.99261],[139.0949,35.99243]]}},{"type":"Feature","properties":{"idx":171,"road":"","cls":"tertiary","shops":1,"st_km":0.47,"mesh":"53397088"},"geometry":{"type":"LineString","coordinates":[[139.10263,35.98632],[139.10255,35.98616],[139.10259,35.986],[139.1034,35.98556],[139.10344,35.98543],[139.10341,35.98525],[139.10329,35.98475]]}},{"type":"Feature","properties":{"idx":231,"road":"","cls":"tertiary","shops":0,"st_km":0.96,"mesh":"53397097"},"geometry":{"type":"LineString","coordinates":[[139.09403,35.99279],[139.09447,35.99261]]}},{"type":"Feature","properties":{"idx":77,"road":"","cls":"tertiary","shops":0,"st_km":0.93,"mesh":"53397088"},"geometry":{"type":"LineString","coordinates":[[139.10383,35.99118],[139.10385,35.99188]]}},{"type":"Feature","properties":{"idx":234,"road":"","cls":"tertiary","shops":2,"st_km":0.44,"mesh":"53397088"},"geometry":{"type":"LineString","coordinates":[[139.10297,35.9838],[139.10329,35.98475]]}},{"type":"Feature","properties":{"idx":5,"road":"","cls":"tertiary","shops":0,"st_km":2.39,"mesh":"53397058"},"geometry":{"type":"LineString","coordinates":[[139.10819,35.96353],[139.10719,35.9644],[139.10704,35.96474],[139.10691,35.96524]]}},{"type":"Feature","properties":{"idx":149,"road":"","cls":"tertiary","shops":0,"st_km":1.12,"mesh":"53397098"},"geometry":{"type":"LineString","coordinates":[[139.10355,35.99391],[139.10163,35.99409],[139.10129,35.9942]]}},{"type":"Feature","properties":{"idx":246,"road":"","cls":"tertiary","shops":0,"st_km":0.79,"mesh":"53397087"},"geometry":{"type":"LineString","coordinates":[[139.09526,35.99229],[139.09606,35.9921],[139.09878,35.99116],[139.09958,35.991]]}},{"type":"Feature","properties":{"idx":545,"road":"","cls":"tertiary","shops":0,"st_km":0.81,"mesh":"53397078"},"geometry":{"type":"LineString","coordinates":[[139.10613,35.97475],[139.10599,35.97482],[139.10572,35.9756],[139.10571,35.97575],[139.10601,35.97682],[139.10596,35.97709],[139.10571,35.97732],[139.10337,35.97844],[139.10219,35.97924],[139.10182,35.97956],[139.10099,35.98058],[139.10106,35.98074],[139.10149,35.98104],[139.10157,35.98125],[139.10153,35.98166],[139.10095,35.98231]]}},{"type":"Feature","properties":{"idx":81,"road":"","cls":"tertiary","shops":0,"st_km":0.86,"mesh":"53397088"},"geometry":{"type":"LineString","coordinates":[[139.10383,35.99118],[139.10381,35.99053]]}},{"type":"Feature","properties":{"idx":136,"road":"","cls":"tertiary","shops":0,"st_km":1.26,"mesh":"53397098"},"geometry":{"type":"LineString","coordinates":[[139.10547,35.99518],[139.10528,35.99477],[139.1047,35.9943],[139.10453,35.99411],[139.10441,35.99374]]}},{"type":"Feature","properties":{"idx":146,"road":"","cls":"tertiary","shops":0,"st_km":1.15,"mesh":"53397098"},"geometry":{"type":"LineString","coordinates":[[139.10355,35.99391],[139.10399,35.99373],[139.10441,35.99374]]}},{"type":"Feature","properties":{"idx":159,"road":"","cls":"tertiary","shops":0,"st_km":1.02,"mesh":"53397098"},"geometry":{"type":"LineString","coordinates":[[139.10385,35.99188],[139.104,35.9927],[139.10413,35.99309]]}},{"type":"Feature","properties":{"idx":344,"road":"","cls":"tertiary","shops":0,"st_km":0.41,"mesh":"53397087"},"geometry":{"type":"LineString","coordinates":[[139.09508,35.98749],[139.09484,35.98739],[139.09477,35.98727],[139.09488,35.98689],[139.09488,35.98667],[139.09453,35.98606],[139.09434,35.98607],[139.09428,35.9862],[139.09453,35.98656],[139.09456,35.98669],[139.09452,35.98688],[139.09426,35.9874],[139.0941,35.98756],[139.09383,35.98754],[139.09365,35.98741],[139.09311,35.98648]]}},{"type":"Feature","properties":{"idx":340,"road":"小鹿野影森停車場線","cls":"secondary","shops":0,"st_km":0.08,"mesh":"53397065"},"geometry":{"type":"LineString","coordinates":[[139.06731,35.97199],[139.06923,35.97344]]}},{"type":"Feature","properties":{"idx":1184,"road":"","cls":"tertiary","shops":2,"st_km":0.11,"mesh":"53397086"},"geometry":{"type":"LineString","coordinates":[[139.0841,35.98944],[139.08412,35.98974]]}},{"type":"Feature","properties":{"idx":258,"road":"秩父停車場秩父公園線","cls":"secondary","shops":0,"st_km":0.38,"mesh":"53397096"},"geometry":{"type":"LineString","coordinates":[[139.08392,35.99933],[139.08014,36.00049]]}},{"type":"Feature","properties":{"idx":412,"road":"秩父上名栗線","cls":"primary","shops":0,"st_km":0.72,"mesh":"53397086"},"geometry":{"type":"LineString","coordinates":[[139.07717,35.98718],[139.07732,35.98708],[139.07751,35.98594],[139.07766,35.98547],[139.07859,35.98359],[139.07887,35.98279]]}},{"type":"Feature","properties":{"idx":474,"road":"","cls":"tertiary","shops":1,"st_km":0.06,"mesh":"53397096"},"geometry":{"type":"LineString","coordinates":[[139.08531,35.9989],[139.0856,35.99904],[139.08583,35.99964]]}},{"type":"Feature","properties":{"idx":522,"road":"小鹿野影森停車場線","cls":"secondary","shops":0,"st_km":2.12,"mesh":"53397084"},"geometry":{"type":"LineString","coordinates":[[139.05421,35.98264],[139.054,35.98281],[139.05392,35.983],[139.05396,35.98362],[139.05385,35.98451],[139.05388,35.9846],[139.05424,35.98501],[139.05441,35.98546],[139.05486,35.98576],[139.055,35.98592],[139.05507,35.98629],[139.05483,35.98651],[139.05426,35.98658],[139.05396,35.98655],[139.05311,35.98627],[139.05255,35.98594],[139.05214,35.98553],[139.05128,35.98521],[139.05098,35.98489],[139.05039,35.98488],[139.04884,35.9846],[139.04825,35.98425],[139.0478,35.98409],[139.0476,35.98391],[139.04709,35.98361],[139.04624,35.98346],[139.04534,35.98304],[139.04473,35.98256],[139.04384,35.98205]]}},{"type":"Feature","properties":{"idx":222,"road":"秩父荒川線","cls":"primary","shops":0,"st_km":1.53,"mesh":"53397095"},"geometry":{"type":"LineString","coordinates":[[139.0673,35.99459],[139.06682,35.9954],[139.06679,35.99568]]}},{"type":"Feature","properties":{"idx":228,"road":"","cls":"tertiary","shops":0,"st_km":1.03,"mesh":"53397053"},"geometry":{"type":"LineString","coordinates":[[139.04658,35.96234],[139.04763,35.96097]]}},{"type":"Feature","properties":{"idx":611,"road":"","cls":"tertiary","shops":0,"st_km":0.99,"mesh":"53397075"},"geometry":{"type":"LineString","coordinates":[[139.06705,35.98271],[139.06803,35.98191],[139.0685,35.98159],[139.0696,35.9812],[139.07087,35.98036],[139.07192,35.98003],[139.07375,35.97886]]}},{"type":"Feature","properties":{"idx":301,"road":"秩父荒川線","cls":"primary","shops":0,"st_km":0.98,"mesh":"53397053"},"geometry":{"type":"LineString","coordinates":[[139.02622,35.96185],[139.02721,35.96222],[139.02761,35.9625],[139.02799,35.96287],[139.02845,35.96313],[139.02864,35.96331],[139.02889,35.96384],[139.02911,35.96403],[139.02964,35.96416],[139.03057,35.96413],[139.03188,35.96437],[139.0329,35.96467],[139.03368,35.96475],[139.03471,35.96501],[139.03609,35.96561],[139.03801,35.96583],[139.03862,35.96615],[139.03901,35.96629],[139.03934,35.96634],[139.04034,35.96635],[139.04063,35.9664],[139.0426,35.96732],[139.0433,35.9676],[139.04406,35.96799],[139.04437,35.96825],[139.04468,35.96859],[139.04606,35.96939],[139.04664,35.96997],[139.04745,35.97022],[139.04831,35.97029],[139.04875,35.97044],[139.04961,35.97058],[139.0497,35.97062],[139.04984,35.97127],[139.04993,35.97139],[139.05065,35.9718],[139.05103,35.97183],[139.05204,35.97149],[139.05248,35.97162],[139.0527,35.97193]]}},{"type":"Feature","properties":{"idx":684,"road":"秩父荒川線","cls":"primary","shops":0,"st_km":1.68,"mesh":"53397084"},"geometry":{"type":"LineString","coordinates":[[139.05421,35.98264],[139.05479,35.98312],[139.05633,35.9837],[139.05664,35.98379],[139.05688,35.9838],[139.05713,35.98376],[139.05743,35.98359],[139.05779,35.98313],[139.058,35.98298],[139.05898,35.98271]]}},{"type":"Feature","properties":{"idx":454,"road":"","cls":"pedestrian","shops":0,"st_km":0.06,"mesh":"53397096"},"geometry":{"type":"LineString","coordinates":[[139.0844,35.99236],[139.08431,35.99247],[139.08428,35.99263]]}},{"type":"Feature","properties":{"idx":1090,"road":"","cls":"pedestrian","shops":4,"st_km":0.23,"mesh":"53397096"},"geometry":{"type":"LineString","coordinates":[[139.08416,35.99746],[139.08415,35.9972]]}},{"type":"Feature","properties":{"idx":164,"road":"","cls":"pedestrian","shops":0,"st_km":0.36,"mesh":"53397042"},"geometry":{"type":"LineString","coordinates":[[139.02604,35.95385],[139.02587,35.95403]]}},{"type":"Feature","properties":{"idx":268,"road":"熊谷小川秩父線","cls":"primary","shops":0,"st_km":1.01,"mesh":"53397097"},"geometry":{"type":"LineString","coordinates":[[139.09314,35.99135],[139.09473,35.99394],[139.095,35.99429],[139.09632,35.99579],[139.09823,35.99776],[139.09914,35.99845],[139.09949,35.99869],[139.09976,35.9988],[139.101,35.99909],[139.10224,35.99929]]}},{"type":"Feature","properties":{"idx":40,"road":"","cls":"pedestrian","shops":0,"st_km":2.78,"mesh":"53397094"},"geometry":{"type":"LineString","coordinates":[[139.06023,36.00352],[139.05998,36.00275],[139.05971,36.00148],[139.05894,36.00038],[139.05891,36.00019],[139.05896,35.99987],[139.05923,35.99947],[139.05916,35.99911],[139.05909,35.999],[139.05629,35.99764],[139.05579,35.99727],[139.05561,35.99707],[139.05545,35.99663],[139.05534,35.99609],[139.05516,35.99581],[139.05494,35.99563],[139.05477,35.99557],[139.05422,35.99552],[139.05387,35.99556],[139.0536,35.99549],[139.05343,35.99537],[139.05272,35.99382],[139.05231,35.99332],[139.05192,35.99317],[139.04904,35.99249],[139.04815,35.99207],[139.04741,35.99153],[139.04518,35.98894],[139.04477,35.9881],[139.04461,35.98752],[139.04453,35.98698],[139.04453,35.98643],[139.04479,35.98469],[139.04474,35.98443],[139.04463,35.98415],[139.04424,35.98377],[139.0431,35.98334],[139.04327,35.98295]]}},{"type":"Feature","properties":{"idx":48,"road":"","cls":"tertiary","shops":0,"st_km":0.78,"mesh":"53397064"},"geometry":{"type":"LineString","coordinates":[[139.04885,35.96726],[139.04938,35.96741],[139.0496,35.96741],[139.04974,35.96735],[139.05027,35.96672],[139.05045,35.96637],[139.05063,35.9662],[139.05112,35.96602],[139.0514,35.96567]]}},{"type":"Feature","properties":{"idx":7,"road":"皆野荒川線","cls":"primary","shops":0,"st_km":4.15,"mesh":"53397092"},"geometry":{"type":"LineString","coordinates":[[139.03279,35.99562],[139.03282,35.99586]]}},{"type":"Feature","properties":{"idx":7,"road":"皆野荒川線","cls":"primary","shops":0,"st_km":4.03,"mesh":"53397092"},"geometry":{"type":"LineString","coordinates":[[139.03262,35.99369],[139.03262,35.99441],[139.03279,35.99562]]}},{"type":"Feature","properties":{"idx":247,"road":"","cls":"tertiary","shops":0,"st_km":0.28,"mesh":"53397065"},"geometry":{"type":"LineString","coordinates":[[139.06785,35.96965],[139.06834,35.96945],[139.0689,35.96946],[139.0699,35.96967],[139.07062,35.96958]]}},{"type":"Feature","properties":{"idx":131,"road":"熊谷小川秩父線","cls":"primary","shops":0,"st_km":1.72,"mesh":"53397098"},"geometry":{"type":"LineString","coordinates":[[139.10284,35.99939],[139.10447,35.99968],[139.10472,35.99976],[139.10603,36.00097],[139.10641,36.0016]]}},{"type":"Feature","properties":{"idx":198,"road":"秩父荒川線","cls":"primary","shops":0,"st_km":1.75,"mesh":"53397095"},"geometry":{"type":"LineString","coordinates":[[139.06681,35.99586],[139.06691,35.9965],[139.06687,35.99695],[139.06595,35.9992],[139.06593,35.99948],[139.06598,35.9997],[139.06613,35.99992],[139.06643,36.00016],[139.0667,36.0005],[139.06716,36.00208]]}},{"type":"Feature","properties":{"idx":218,"road":"秩父荒川線","cls":"primary","shops":0,"st_km":1.57,"mesh":"53397095"},"geometry":{"type":"LineString","coordinates":[[139.06679,35.99568],[139.06681,35.99586]]}},{"type":"Feature","properties":{"idx":5,"road":"","cls":"tertiary","shops":1,"st_km":1.23,"mesh":"53397044"},"geometry":{"type":"LineString","coordinates":[[139.05432,35.95205],[139.05425,35.95228],[139.05427,35.95255],[139.05468,35.9533],[139.05472,35.95369],[139.05494,35.95393],[139.05508,35.95402],[139.05532,35.95403]]}},{"type":"Feature","properties":{"idx":18,"road":"秩父上名栗線","cls":"primary","shops":0,"st_km":2.85,"mesh":"53397024"},"geometry":{"type":"LineString","coordinates":[[139.06478,35.93582],[139.06391,35.93596],[139.06341,35.93612],[139.06281,35.93651],[139.06244,35.93695],[139.06222,35.93702],[139.06169,35.93707],[139.06118,35.93745],[139.06011,35.93797],[139.05999,35.93807],[139.05994,35.93818],[139.05994,35.93835],[139.06054,35.93932],[139.0606,35.93959],[139.06054,35.93971],[139.06037,35.93986],[139.05996,35.94006],[139.05989,35.94018],[139.05978,35.94064],[139.05953,35.9409],[139.05942,35.9411],[139.0595,35.94132],[139.06012,35.94162],[139.06019,35.94174],[139.06021,35.94206],[139.06036,35.94224]]}},{"type":"Feature","properties":{"idx":39,"road":"","cls":"tertiary","shops":0,"st_km":1.12,"mesh":"53397043"},"geometry":{"type":"LineString","coordinates":[[139.04954,35.95319],[139.05049,35.95437],[139.05053,35.95456],[139.05073,35.95507],[139.05096,35.95553],[139.0513,35.95605],[139.05143,35.95674],[139.05138,35.95682],[139.05119,35.95692],[139.05052,35.95682],[139.04957,35.95689],[139.04901,35.9567],[139.04889,35.95675],[139.04882,35.9569],[139.04889,35.95699],[139.04936,35.95718],[139.05058,35.95735],[139.0512,35.95736],[139.05132,35.95744],[139.05133,35.95752],[139.0513,35.95761],[139.0511,35.95767],[139.05026,35.95765],[139.04949,35.95802],[139.04888,35.95806],[139.04842,35.95796],[139.04822,35.95796],[139.04811,35.95809],[139.04819,35.95823],[139.04875,35.95847],[139.04939,35.95862],[139.05001,35.95869]]}},{"type":"Feature","properties":{"idx":8,"road":"","cls":"tertiary","shops":0,"st_km":2.05,"mesh":"53397068"},"geometry":{"type":"LineString","coordinates":[[139.10582,35.96692],[139.10568,35.96711]]}},{"type":"Feature","properties":{"idx":9,"road":"","cls":"tertiary","shops":0,"st_km":1.81,"mesh":"53397068"},"geometry":{"type":"LineString","coordinates":[[139.10568,35.96711],[139.10559,35.96727],[139.10536,35.96852],[139.10512,35.96924],[139.10419,35.9708],[139.10418,35.97097],[139.10425,35.97112]]}},{"type":"Feature","properties":{"idx":5,"road":"","cls":"tertiary","shops":0,"st_km":2.27,"mesh":"53397058"},"geometry":{"type":"LineString","coordinates":[[139.10691,35.96524],[139.10689,35.96538]]}},{"type":"Feature","properties":{"idx":5,"road":"","cls":"tertiary","shops":0,"st_km":2.17,"mesh":"53397058"},"geometry":{"type":"LineString","coordinates":[[139.10689,35.96538],[139.10639,35.9657],[139.10601,35.96608],[139.10592,35.9667],[139.10582,35.96692]]}},{"type":"Feature","properties":{"idx":2,"road":"秩父上名栗線","cls":"primary","shops":0,"st_km":3.58,"mesh":"53397015"},"geometry":{"type":"LineString","coordinates":[[139.06641,35.9322],[139.06639,35.93245]]}},{"type":"Feature","properties":{"idx":2,"road":"秩父上名栗線","cls":"primary","shops":0,"st_km":3.56,"mesh":"53397015"},"geometry":{"type":"LineString","coordinates":[[139.06639,35.93245],[139.06637,35.93256]]}},{"type":"Feature","properties":{"idx":493,"road":"秩父停車場秩父公園線","cls":"secondary","shops":1,"st_km":0.13,"mesh":"53397096"},"geometry":{"type":"LineString","coordinates":[[139.08392,35.99933],[139.08403,35.99932],[139.08528,35.99888]]}},{"type":"Feature","properties":{"idx":173,"road":"小鹿野影森停車場線","cls":"secondary","shops":0,"st_km":2.52,"mesh":"53397073"},"geometry":{"type":"LineString","coordinates":[[139.04384,35.98205],[139.0426,35.98159],[139.0423,35.98157],[139.04203,35.98165],[139.04197,35.98161],[139.04198,35.98148],[139.04238,35.98131],[139.04238,35.98115],[139.04195,35.98083],[139.04177,35.98075],[139.04107,35.98064],[139.04086,35.98054],[139.04087,35.98025],[139.0407,35.98008],[139.04066,35.97994],[139.04093,35.97966],[139.0409,35.97953],[139.04077,35.97948],[139.04005,35.97966],[139.03994,35.97962],[139.0397,35.97927],[139.03944,35.97922],[139.03933,35.97927],[139.03925,35.97946],[139.03929,35.97963],[139.03951,35.97991],[139.03953,35.98012],[139.03949,35.98029],[139.03886,35.98167],[139.03857,35.98203],[139.03791,35.98261],[139.03541,35.98352],[139.03497,35.984],[139.03443,35.98524],[139.03419,35.9854],[139.03371,35.98555],[139.03359,35.98564],[139.03338,35.9861],[139.0329,35.98669]]}},{"type":"Feature","properties":{"idx":975,"road":"小鹿野影森停車場線","cls":"secondary","shops":0,"st_km":0.55,"mesh":"53397075"},"geometry":{"type":"LineString","coordinates":[[139.06825,35.97783],[139.0702,35.97598]]}},{"type":"Feature","properties":{"idx":297,"road":"小鹿野影森停車場線","cls":"secondary","shops":0,"st_km":0.21,"mesh":"53397065"},"geometry":{"type":"LineString","coordinates":[[139.06923,35.97344],[139.06818,35.97437]]}},{"type":"Feature","properties":{"idx":466,"road":"","cls":"tertiary","shops":1,"st_km":0.07,"mesh":"53397096"},"geometry":{"type":"LineString","coordinates":[[139.08518,35.99862],[139.08531,35.9989]]}},{"type":"Feature","properties":{"idx":735,"road":"小鹿野影森停車場線","cls":"secondary","shops":0,"st_km":0.89,"mesh":"53397075"},"geometry":{"type":"LineString","coordinates":[[139.06367,35.98119],[139.06426,35.98118],[139.0645,35.98113],[139.06502,35.98094],[139.06545,35.98067],[139.06825,35.97783]]}},{"type":"Feature","properties":{"idx":163,"road":"秩父荒川線","cls":"primary","shops":0,"st_km":1.42,"mesh":"53397074"},"geometry":{"type":"LineString","coordinates":[[139.0527,35.97193],[139.05351,35.97485],[139.05355,35.9752],[139.05422,35.97793],[139.05456,35.97844],[139.05467,35.97876],[139.05464,35.97895],[139.05432,35.97935],[139.05414,35.98047],[139.05415,35.98075],[139.05434,35.98117],[139.05437,35.98142],[139.05436,35.9817],[139.05406,35.98242],[139.05421,35.98264]]}},{"type":"Feature","properties":{"idx":880,"road":"","cls":"tertiary","shops":1,"st_km":0.12,"mesh":"53397086"},"geometry":{"type":"LineString","coordinates":[[139.08412,35.98974],[139.08427,35.9906],[139.08433,35.99075],[139.08435,35.99103]]}},{"type":"Feature","properties":{"idx":197,"road":"","cls":"tertiary","shops":0,"st_km":1.14,"mesh":"53397097"},"geometry":{"type":"LineString","coordinates":[[139.09632,35.99579],[139.09754,35.99538],[139.09908,35.9946],[139.10004,35.99446],[139.10078,35.99444],[139.10129,35.9942]]}},{"type":"Feature","properties":{"idx":698,"road":"","cls":"pedestrian","shops":2,"st_km":0.28,"mesh":"53397096"},"geometry":{"type":"LineString","coordinates":[[139.08415,35.99713],[139.08409,35.99657]]}},{"type":"Feature","properties":{"idx":774,"road":"","cls":"tertiary","shops":3,"st_km":0.12,"mesh":"53397096"},"geometry":{"type":"LineString","coordinates":[[139.08013,35.993],[139.08279,35.99192],[139.08372,35.99146],[139.08435,35.99103]]}},{"type":"Feature","properties":{"idx":94,"road":"","cls":"tertiary","shops":0,"st_km":0.69,"mesh":"53397088"},"geometry":{"type":"LineString","coordinates":[[139.10228,35.98802],[139.10281,35.98827],[139.10306,35.9885],[139.10339,35.98935],[139.10376,35.99001],[139.10381,35.99053]]}},{"type":"Feature","properties":{"idx":461,"road":"秩父上名栗線","cls":"primary","shops":1,"st_km":0.36,"mesh":"53397096"},"geometry":{"type":"LineString","coordinates":[[139.0828,35.99707],[139.0825,35.9965],[139.08185,35.99553],[139.08057,35.99391],[139.08013,35.993]]}},{"type":"Feature","properties":{"idx":221,"road":"皆野荒川線","cls":"primary","shops":0,"st_km":3.53,"mesh":"53397082"},"geometry":{"type":"LineString","coordinates":[[139.0329,35.98669],[139.03314,35.98756],[139.03301,35.98778],[139.03268,35.98803],[139.03265,35.98816],[139.03298,35.98891],[139.0331,35.98929],[139.03315,35.98959],[139.03314,35.99006],[139.03302,35.99038],[139.03278,35.99077],[139.03236,35.99111],[139.03228,35.99132],[139.03221,35.99181],[139.03232,35.99219],[139.03283,35.9928],[139.03286,35.99289],[139.03265,35.99347]]}},{"type":"Feature","properties":{"idx":7,"road":"皆野荒川線","cls":"primary","shops":0,"st_km":4.33,"mesh":"53397092"},"geometry":{"type":"LineString","coordinates":[[139.03267,35.99893],[139.03336,35.99899],[139.03395,35.99923],[139.03555,36.00029]]}},{"type":"Feature","properties":{"idx":183,"road":"","cls":"tertiary","shops":0,"st_km":1.47,"mesh":"53397095"},"geometry":{"type":"LineString","coordinates":[[139.06841,35.99513],[139.06838,35.99526],[139.06829,35.99539],[139.06804,35.99552],[139.06789,35.99554],[139.06749,35.99541],[139.06686,35.99533]]}},{"type":"Feature","properties":{"idx":399,"road":"","cls":"tertiary","shops":0,"st_km":1.15,"mesh":"53397085"},"geometry":{"type":"LineString","coordinates":[[139.07174,35.98234],[139.07274,35.9835],[139.07351,35.98428],[139.07425,35.98494]]}},{"type":"Feature","properties":{"idx":10,"road":"","cls":"tertiary","shops":0,"st_km":1.58,"mesh":"53397068"},"geometry":{"type":"LineString","coordinates":[[139.10429,35.9712],[139.10425,35.97112]]}},{"type":"Feature","properties":{"idx":64,"road":"","cls":"tertiary","shops":0,"st_km":0.78,"mesh":"53397054"},"geometry":{"type":"LineString","coordinates":[[139.051,35.96001],[139.05112,35.95979]]}},{"type":"Feature","properties":{"idx":15,"road":"秩父荒川線","cls":"primary","shops":0,"st_km":0.61,"mesh":"53397051"},"geometry":{"type":"LineString","coordinates":[[139.01898,35.95731],[139.01957,35.95811],[139.01975,35.9589],[139.01989,35.95921],[139.02017,35.9594],[139.02071,35.95959],[139.02155,35.96023]]}},{"type":"Feature","properties":{"idx":13,"road":"秩父荒川線","cls":"primary","shops":0,"st_km":0.73,"mesh":"53397051"},"geometry":{"type":"LineString","coordinates":[[139.02155,35.96023],[139.02235,35.96074]]}},{"type":"Feature","properties":{"idx":537,"road":"","cls":"pedestrian","shops":1,"st_km":0.25,"mesh":"53397096"},"geometry":{"type":"LineString","coordinates":[[139.08416,35.99715],[139.08416,35.99715]]}},{"type":"Feature","properties":{"idx":538,"road":"","cls":"pedestrian","shops":1,"st_km":0.25,"mesh":"53397096"},"geometry":{"type":"LineString","coordinates":[[139.08415,35.9972],[139.08416,35.99715]]}},{"type":"Feature","properties":{"idx":465,"road":"","cls":"tertiary","shops":0,"st_km":0.11,"mesh":"53397087"},"geometry":{"type":"LineString","coordinates":[[139.10089,35.98238],[139.10045,35.98284],[139.09974,35.98334],[139.09894,35.98399],[139.09804,35.98521],[139.09823,35.9856]]}},{"type":"Feature","properties":{"idx":831,"road":"","cls":"tertiary","shops":0,"st_km":0.34,"mesh":"53397078"},"geometry":{"type":"LineString","coordinates":[[139.10095,35.98231],[139.10089,35.98238]]}},{"type":"Feature","properties":{"idx":557,"road":"","cls":"tertiary","shops":1,"st_km":0.36,"mesh":"53397097"},"geometry":{"type":"LineString","coordinates":[[139.08941,35.99992],[139.08945,35.99968],[139.08922,35.99898],[139.08922,35.9988],[139.0893,35.99864],[139.08954,35.99844],[139.09064,35.99813],[139.09072,35.99805],[139.09026,35.99685]]}},{"type":"Feature","properties":{"idx":358,"road":"","cls":"tertiary","shops":0,"st_km":0.39,"mesh":"53397097"},"geometry":{"type":"LineString","coordinates":[[139.08931,35.9971],[139.09026,35.99685]]}},{"type":"Feature","properties":{"idx":492,"road":"秩父停車場秩父公園線","cls":"secondary","shops":1,"st_km":0.14,"mesh":"53397096"},"geometry":{"type":"LineString","coordinates":[[139.08524,35.99881],[139.08399,35.99925],[139.08392,35.99933]]}},{"type":"Feature","properties":{"idx":111,"road":"皆野荒川線","cls":"primary","shops":0,"st_km":1.34,"mesh":"53397050"},"geometry":{"type":"LineString","coordinates":[[139.0082,35.95825],[139.00802,35.95921]]}},{"type":"Feature","properties":{"idx":111,"road":"皆野荒川線","cls":"primary","shops":0,"st_km":1.33,"mesh":"53397050"},"geometry":{"type":"LineString","coordinates":[[139.00802,35.95921],[139.00802,35.95933]]}},{"type":"Feature","properties":{"idx":12,"road":"秩父荒川線","cls":"primary","shops":0,"st_km":0.83,"mesh":"53397051"},"geometry":{"type":"LineString","coordinates":[[139.02235,35.96074],[139.02272,35.96094],[139.02308,35.96107],[139.02436,35.96126],[139.02526,35.9615]]}},{"type":"Feature","properties":{"idx":217,"road":"秩父荒川線","cls":"primary","shops":0,"st_km":0.92,"mesh":"53397052"},"geometry":{"type":"LineString","coordinates":[[139.02613,35.96181],[139.02622,35.96185]]}},{"type":"Feature","properties":{"idx":211,"road":"秩父荒川線","cls":"primary","shops":0,"st_km":0.93,"mesh":"53397052"},"geometry":{"type":"LineString","coordinates":[[139.02535,35.96153],[139.02613,35.96181]]}},{"type":"Feature","properties":{"idx":215,"road":"秩父荒川線","cls":"primary","shops":0,"st_km":0.9,"mesh":"53397052"},"geometry":{"type":"LineString","coordinates":[[139.02526,35.9615],[139.02535,35.96153]]}},{"type":"Feature","properties":{"idx":121,"road":"皆野荒川線","cls":"primary","shops":0,"st_km":1.24,"mesh":"53397050"},"geometry":{"type":"LineString","coordinates":[[139.00802,35.95933],[139.0082,35.95993],[139.0082,35.96035],[139.00829,35.96055],[139.00848,35.96073],[139.00881,35.96079],[139.00947,35.9607],[139.01021,35.96036],[139.01075,35.96001],[139.01092,35.95999],[139.0111,35.96014],[139.01145,35.96067],[139.01154,35.96087],[139.01159,35.9612],[139.01187,35.96137],[139.01198,35.96154],[139.01199,35.96168],[139.01185,35.96225],[139.01122,35.96332],[139.01083,35.96454],[139.00997,35.96573]]}},{"type":"Feature","properties":{"idx":94,"road":"皆野荒川線","cls":"primary","shops":0,"st_km":1.68,"mesh":"53397050"},"geometry":{"type":"LineString","coordinates":[[139.00997,35.96573],[139.00992,35.96581]]}},{"type":"Feature","properties":{"idx":62,"road":"","cls":"tertiary","shops":0,"st_km":0.81,"mesh":"53397054"},"geometry":{"type":"LineString","coordinates":[[139.05001,35.95869],[139.05051,35.95872],[139.05175,35.95865],[139.05202,35.95853],[139.05241,35.95822],[139.05256,35.9582],[139.05265,35.95826],[139.05262,35.95841],[139.05226,35.95857],[139.05188,35.95888]]}},{"type":"Feature","properties":{"idx":9,"road":"","cls":"tertiary","shops":1,"st_km":4.44,"mesh":"53397092"},"geometry":{"type":"LineString","coordinates":[[139.03267,35.99893],[139.03187,35.99881],[139.03098,35.99846]]}},{"type":"Feature","properties":{"idx":232,"road":"","cls":"tertiary","shops":0,"st_km":0.92,"mesh":"53397097"},"geometry":{"type":"LineString","coordinates":[[139.0949,35.99243],[139.0952,35.99231]]}},{"type":"Feature","properties":{"idx":234,"road":"","cls":"tertiary","shops":0,"st_km":0.91,"mesh":"53397097"},"geometry":{"type":"LineString","coordinates":[[139.0952,35.99231],[139.09526,35.99229]]}}]}