{"type":"FeatureCollection","features":[{"type":"Feature","properties":{"idx":16,"road":"川野上川乗線","cls":"secondary","shops":0,"st_km":7.42,"mesh":"53395012"},"geometry":{"type":"LineString","coordinates":[[139.02799,35.7548],[139.02774,35.7559],[139.02729,35.75707],[139.02675,35.75772],[139.02675,35.75789],[139.02682,35.75802],[139.02699,35.75821],[139.02721,35.75834],[139.02743,35.75836],[139.02763,35.75825],[139.02821,35.75751],[139.02865,35.75664],[139.02882,35.75652],[139.02935,35.75627],[139.02989,35.75567],[139.03005,35.75557],[139.03029,35.75554],[139.03071,35.75559],[139.03113,35.75558],[139.03184,35.75539],[139.03252,35.75513],[139.03278,35.7552],[139.03302,35.75543],[139.03323,35.75556],[139.03373,35.75558],[139.03548,35.75493],[139.03607,35.7544],[139.03634,35.75439],[139.03656,35.75449],[139.03672,35.75495],[139.03689,35.75523],[139.0376,35.75572],[139.03765,35.75588],[139.03762,35.75604],[139.03749,35.75617],[139.03715,35.75628],[139.03612,35.75632],[139.03576,35.75643],[139.03564,35.75658],[139.03562,35.75681],[139.03575,35.75705],[139.03611,35.75748],[139.03612,35.75767],[139.03607,35.7578],[139.03589,35.7579],[139.03512,35.75799],[139.03474,35.75813],[139.03448,35.75834],[139.03427,35.75859],[139.0342,35.75875],[139.03422,35.75884],[139.03432,35.75897],[139.03475,35.75915],[139.03547,35.75917],[139.03642,35.75938],[139.03657,35.75961],[139.03665,35.75995],[139.03668,35.76016],[139.03663,35.76052],[139.0365,35.76081],[139.03595,35.76129],[139.03499,35.76237],[139.03471,35.76278],[139.03458,35.76321],[139.03488,35.7639],[139.03488,35.76412],[139.03454,35.76472],[139.03415,35.76513],[139.034,35.76537],[139.0336,35.76625],[139.03356,35.76643],[139.03372,35.76656],[139.0339,35.76655],[139.03441,35.76636],[139.03481,35.76591],[139.03499,35.7658],[139.0357,35.76569],[139.03606,35.76556],[139.03706,35.76566],[139.03744,35.7656],[139.03759,35.7655],[139.03814,35.76486],[139.03847,35.76428],[139.0385,35.76393],[139.03825,35.76321],[139.03843,35.76251],[139.03832,35.76226],[139.03831,35.7621],[139.03835,35.76195],[139.03865,35.76147],[139.03884,35.76081],[139.039,35.76051],[139.03925,35.76022],[139.03948,35.76007],[139.03986,35.75994],[139.04095,35.75992],[139.04174,35.75968],[139.04225,35.75971],[139.04301,35.7596],[139.04349,35.75969],[139.04369,35.75967],[139.04388,35.75951],[139.04407,35.75907],[139.04418,35.75846],[139.04429,35.75831],[139.04462,35.75822],[139.04515,35.75832],[139.046,35.75832],[139.0462,35.75827],[139.04627,35.75819],[139.04626,35.75804],[139.04618,35.75795],[139.04596,35.75785],[139.04548,35.7577],[139.04474,35.75768],[139.04427,35.75737],[139.04356,35.75732],[139.04325,35.75715],[139.04318,35.75697],[139.04321,35.75619],[139.04314,35.75546],[139.04304,35.75522],[139.04253,35.75461],[139.04212,35.75333],[139.04188,35.75316],[139.04085,35.75282],[139.04064,35.75266],[139.0406,35.75256],[139.04056,35.75229],[139.04041,35.75196],[139.0404,35.75158],[139.04028,35.75082],[139.03997,35.75029],[139.03998,35.75009],[139.04012,35.74991],[139.04048,35.74965],[139.0411,35.74937],[139.04134,35.74919],[139.04138,35.7491],[139.04139,35.7487],[139.04161,35.74804],[139.04162,35.7473],[139.04179,35.74706],[139.04222,35.74684]]}},{"type":"Feature","properties":{"idx":10,"road":"川野上川乗線","cls":"secondary","shops":1,"st_km":9.53,"mesh":"53395020"},"geometry":{"type":"LineString","coordinates":[[138.9991,35.77258],[139.00003,35.77219],[139.00123,35.77204],[139.00203,35.77181],[139.00246,35.77179],[139.00289,35.77194],[139.00374,35.77244],[139.00467,35.77317]]}},{"type":"Feature","properties":{"idx":6,"road":NaN,"cls":"tertiary","shops":0,"st_km":7.86,"mesh":"53395041"},"geometry":{"type":"LineString","coordinates":[[139.01426,35.79057],[139.01445,35.79029],[139.01442,35.79],[139.01404,35.78963],[139.01361,35.78892],[139.01361,35.78868],[139.01406,35.78778],[139.014,35.78741],[139.01374,35.78685],[139.01389,35.78646],[139.01402,35.78628],[139.01425,35.78611],[139.01459,35.78613],[139.01519,35.78629],[139.01532,35.78629],[139.01545,35.78623]]}},{"type":"Feature","properties":{"idx":78,"road":"奥多摩あきる野線","cls":"secondary","shops":0,"st_km":0.46,"mesh":"53395067"},"geometry":{"type":"LineString","coordinates":[[139.10103,35.80455],[139.10074,35.80484],[139.09959,35.8063],[139.09864,35.80683],[139.09825,35.80724]]}},{"type":"Feature","properties":{"idx":45,"road":"多摩川南岸道路","cls":"secondary","shops":0,"st_km":1.14,"mesh":"53395067"},"geometry":{"type":"LineString","coordinates":[[139.09008,35.80093],[139.09029,35.80065],[139.09056,35.80052]]}},{"type":"Feature","properties":{"idx":15,"road":"奥多摩あきる野線","cls":"secondary","shops":0,"st_km":0.88,"mesh":"53395068"},"geometry":{"type":"LineString","coordinates":[[139.10181,35.80381],[139.10208,35.80354],[139.10238,35.80292],[139.10259,35.80259],[139.1029,35.80242],[139.1034,35.8023]]}},{"type":"Feature","properties":{"idx":55,"road":"多摩川南岸道路","cls":"secondary","shops":0,"st_km":0.86,"mesh":"53395067"},"geometry":{"type":"LineString","coordinates":[[139.09169,35.80074],[139.0927,35.80094],[139.10114,35.80231],[139.10168,35.80237],[139.10198,35.80235],[139.10306,35.80216]]}},{"type":"Feature","properties":{"idx":19,"road":"多摩川南岸道路","cls":"secondary","shops":0,"st_km":1.09,"mesh":"53395069"},"geometry":{"type":"LineString","coordinates":[[139.11163,35.80159],[139.11234,35.80165],[139.11303,35.80186],[139.11409,35.80238],[139.11459,35.8028]]}},{"type":"Feature","properties":{"idx":20,"road":"奥多摩あきる野線","cls":"secondary","shops":0,"st_km":0.95,"mesh":"53395069"},"geometry":{"type":"LineString","coordinates":[[139.11516,35.80309],[139.1152,35.8033]]}},{"type":"Feature","properties":{"idx":97,"road":"奥多摩あきる野線","cls":"secondary","shops":0,"st_km":0.23,"mesh":"53395067"},"geometry":{"type":"LineString","coordinates":[[139.09779,35.80776],[139.09825,35.80724]]}},{"type":"Feature","properties":{"idx":14,"road":"多摩川南岸道路","cls":"secondary","shops":0,"st_km":1.01,"mesh":"53395068"},"geometry":{"type":"LineString","coordinates":[[139.10306,35.80216],[139.10386,35.80184]]}},{"type":"Feature","properties":{"idx":2,"road":"日原街道","cls":"secondary","shops":0,"st_km":1.29,"mesh":"53395086"},"geometry":{"type":"LineString","coordinates":[[139.0863,35.81747],[139.08645,35.81689]]}},{"type":"Feature","properties":{"idx":2,"road":"日原街道","cls":"secondary","shops":1,"st_km":2.47,"mesh":"53395086"},"geometry":{"type":"LineString","coordinates":[[139.07698,35.82493],[139.0771,35.8245]]}},{"type":"Feature","properties":{"idx":31,"road":"水根本宿線","cls":"secondary","shops":0,"st_km":4.81,"mesh":"53395053"},"geometry":{"type":"LineString","coordinates":[[139.04786,35.79314],[139.04769,35.79324],[139.04714,35.794],[139.04721,35.79426]]}},{"type":"Feature","properties":{"idx":46,"road":"水根本宿線","cls":"secondary","shops":1,"st_km":4.73,"mesh":"53395053"},"geometry":{"type":"LineString","coordinates":[[139.04786,35.79314],[139.04847,35.79317],[139.04862,35.79313],[139.04872,35.79305],[139.04883,35.79276],[139.04881,35.79265]]}},{"type":"Feature","properties":{"idx":114,"road":NaN,"cls":"tertiary","shops":0,"st_km":5.09,"mesh":"53395043"},"geometry":{"type":"LineString","coordinates":[[139.04244,35.78982],[139.04258,35.7899],[139.04279,35.79012],[139.04332,35.79031],[139.04379,35.79075],[139.044,35.79084],[139.04455,35.79093],[139.04511,35.79137],[139.04545,35.79147],[139.04672,35.79165],[139.04755,35.79232],[139.04771,35.7924],[139.04816,35.79245]]}},{"type":"Feature","properties":{"idx":9,"road":"奥多摩あきる野線","cls":"secondary","shops":0,"st_km":1.11,"mesh":"53395068"},"geometry":{"type":"LineString","coordinates":[[139.10838,35.80323],[139.1086,35.80309],[139.10889,35.80301]]}},{"type":"Feature","properties":{"idx":2,"road":NaN,"cls":"tertiary","shops":0,"st_km":8.33,"mesh":"53395011"},"geometry":{"type":"LineString","coordinates":[[139.02197,35.76576],[139.02226,35.7655]]}},{"type":"Feature","properties":{"idx":9,"road":"奥多摩あきる野線","cls":"secondary","shops":0,"st_km":1.11,"mesh":"53395068"},"geometry":{"type":"LineString","coordinates":[[139.10822,35.80335],[139.10838,35.80323]]}},{"type":"Feature","properties":{"idx":18,"road":"奥多摩あきる野線","cls":"secondary","shops":2,"st_km":1.1,"mesh":"53395068"},"geometry":{"type":"LineString","coordinates":[[139.10889,35.80301],[139.10934,35.80298]]}},{"type":"Feature","properties":{"idx":2,"road":NaN,"cls":"tertiary","shops":0,"st_km":8.31,"mesh":"53395011"},"geometry":{"type":"LineString","coordinates":[[139.02312,35.76455],[139.02333,35.76467],[139.02337,35.76476]]}},{"type":"Feature","properties":{"idx":41,"road":NaN,"cls":"tertiary","shops":1,"st_km":4.84,"mesh":"53395053"},"geometry":{"type":"LineString","coordinates":[[139.0466,35.79402],[139.04717,35.79394]]}},{"type":"Feature","properties":{"idx":2,"road":NaN,"cls":"tertiary","shops":0,"st_km":8.35,"mesh":"53395011"},"geometry":{"type":"LineString","coordinates":[[139.02255,35.76493],[139.02266,35.76472],[139.0228,35.76458]]}},{"type":"Feature","properties":{"idx":13,"road":"奥多摩あきる野線","cls":"secondary","shops":1,"st_km":1.12,"mesh":"53395068"},"geometry":{"type":"LineString","coordinates":[[139.10934,35.80298],[139.10952,35.80289],[139.1096,35.80279],[139.10964,35.80261],[139.10963,35.80204]]}},{"type":"Feature","properties":{"idx":20,"road":"奥多摩あきる野線","cls":"secondary","shops":0,"st_km":0.96,"mesh":"53395069"},"geometry":{"type":"LineString","coordinates":[[139.1152,35.8033],[139.11525,35.80338],[139.11598,35.80389],[139.11627,35.80401],[139.11649,35.80404],[139.11733,35.80393],[139.11782,35.80377],[139.11829,35.80347],[139.11858,35.80338],[139.11868,35.80339],[139.11869,35.80347],[139.11848,35.80357],[139.11847,35.80366],[139.1186,35.80369],[139.11886,35.80364],[139.119,35.80357],[139.11921,35.80331],[139.11952,35.80312],[139.11971,35.80312],[139.12065,35.80344],[139.12069,35.80332],[139.12061,35.80284],[139.12048,35.80261],[139.12057,35.80227],[139.12065,35.80218],[139.12073,35.80217]]}},{"type":"Feature","properties":{"idx":9,"road":"日原街道","cls":"secondary","shops":0,"st_km":2.72,"mesh":"53395096"},"geometry":{"type":"LineString","coordinates":[[139.07565,35.82965],[139.07558,35.82908],[139.07561,35.8289],[139.07591,35.82822],[139.07628,35.82708],[139.07628,35.82623],[139.07646,35.82589],[139.07648,35.82537],[139.07698,35.82493]]}},{"type":"Feature","properties":{"idx":1,"road":"日原街道","cls":"secondary","shops":0,"st_km":1.72,"mesh":"53395086"},"geometry":{"type":"LineString","coordinates":[[139.08376,35.82158],[139.08401,35.82169],[139.08418,35.8217],[139.08441,35.82162],[139.08475,35.82064],[139.08478,35.82026]]}},{"type":"Feature","properties":{"idx":6,"road":"川野上川乗線","cls":"secondary","shops":0,"st_km":9.21,"mesh":"53395020"},"geometry":{"type":"LineString","coordinates":[[139.00559,35.77352],[139.00467,35.77317]]}},{"type":"Feature","properties":{"idx":35,"road":"日原街道","cls":"secondary","shops":0,"st_km":0.84,"mesh":"53395077"},"geometry":{"type":"LineString","coordinates":[[139.08645,35.81689],[139.0865,35.81674],[139.08663,35.81658],[139.08765,35.81621],[139.08799,35.81618],[139.08881,35.81629],[139.08917,35.81641],[139.08937,35.81641],[139.08958,35.81633],[139.08971,35.8162],[139.09004,35.81565],[139.0902,35.81556],[139.09044,35.8155],[139.0921,35.81536],[139.09225,35.81531],[139.0923,35.8152],[139.09193,35.81425],[139.09196,35.81414],[139.09225,35.81394],[139.09242,35.81364],[139.09275,35.8134],[139.09306,35.81326],[139.09315,35.81299],[139.09313,35.81266],[139.09318,35.81258],[139.09342,35.81256],[139.0938,35.81279]]}},{"type":"Feature","properties":{"idx":8,"road":NaN,"cls":"tertiary","shops":0,"st_km":8.37,"mesh":"53395021"},"geometry":{"type":"LineString","coordinates":[[139.02021,35.76776],[139.02031,35.76784],[139.02042,35.76785],[139.02051,35.76778],[139.02057,35.76765],[139.02061,35.76746],[139.02046,35.76709],[139.02047,35.76692],[139.02053,35.76677],[139.02069,35.76668],[139.02133,35.7665],[139.02152,35.76634],[139.02172,35.76601],[139.02197,35.76576]]}},{"type":"Feature","properties":{"idx":2,"road":NaN,"cls":"tertiary","shops":0,"st_km":8.34,"mesh":"53395011"},"geometry":{"type":"LineString","coordinates":[[139.0228,35.76458],[139.02312,35.76455]]}},{"type":"Feature","properties":{"idx":260,"road":"奥多摩あきる野線","cls":"secondary","shops":3,"st_km":0.16,"mesh":"53395067"},"geometry":{"type":"LineString","coordinates":[[139.09729,35.80828],[139.09779,35.80776]]}},{"type":"Feature","properties":{"idx":2,"road":NaN,"cls":"tertiary","shops":0,"st_km":8.24,"mesh":"53395011"},"geometry":{"type":"LineString","coordinates":[[139.02337,35.76476],[139.02333,35.76621],[139.02336,35.76623]]}},{"type":"Feature","properties":{"idx":2,"road":NaN,"cls":"tertiary","shops":0,"st_km":8.32,"mesh":"53395011"},"geometry":{"type":"LineString","coordinates":[[139.02226,35.7655],[139.02247,35.76529],[139.02255,35.76493]]}},{"type":"Feature","properties":{"idx":8,"road":"川野上川乗線","cls":"secondary","shops":0,"st_km":8.18,"mesh":"53395021"},"geometry":{"type":"LineString","coordinates":[[139.00559,35.77352],[139.00613,35.7737],[139.00725,35.77394],[139.00747,35.77406],[139.00764,35.77432],[139.00791,35.77575],[139.00802,35.77597],[139.00823,35.77613],[139.00845,35.77622],[139.00935,35.77641],[139.00959,35.77634],[139.01012,35.776],[139.01104,35.77524],[139.01129,35.77519],[139.0118,35.77525],[139.012,35.77521],[139.01217,35.77504],[139.01229,35.77455],[139.01255,35.77441],[139.01287,35.77445],[139.01329,35.77482],[139.01361,35.77501],[139.01394,35.77502],[139.01448,35.77489],[139.01462,35.77493],[139.015,35.7752],[139.01516,35.77523],[139.01537,35.77517],[139.01581,35.77484],[139.01587,35.77465],[139.01588,35.77432],[139.01599,35.77414],[139.01624,35.77406],[139.01708,35.77398],[139.01743,35.77382],[139.01782,35.77352],[139.01786,35.77337],[139.01781,35.77318],[139.01728,35.77232],[139.01727,35.77216],[139.01736,35.77201],[139.01768,35.77194],[139.01826,35.77214],[139.01864,35.77216],[139.01935,35.77188],[139.02006,35.77174],[139.02035,35.7716],[139.02042,35.77152],[139.02043,35.77137],[139.0201,35.77101],[139.01999,35.77054],[139.01998,35.77011],[139.02017,35.76947],[139.02012,35.76927],[139.01992,35.76904],[139.01901,35.76824],[139.01894,35.76802],[139.01903,35.76783],[139.01921,35.76773],[139.01941,35.76771],[139.02008,35.76777],[139.02031,35.7677],[139.0204,35.76757],[139.0204,35.76747],[139.02008,35.76703],[139.02008,35.7668],[139.02022,35.76659],[139.02092,35.76608],[139.02104,35.7659],[139.02105,35.76574],[139.02086,35.76551],[139.02014,35.76513],[139.01988,35.76492],[139.01921,35.764],[139.0191,35.76367],[139.01921,35.76342],[139.01935,35.76331],[139.01957,35.76325],[139.01977,35.7633],[139.02028,35.76366],[139.02071,35.76381],[139.02111,35.76386],[139.02131,35.76375],[139.02162,35.76264],[139.02173,35.76174],[139.02166,35.76154],[139.02121,35.76103],[139.02115,35.76086],[139.02117,35.76076]]}},{"type":"Feature","properties":{"idx":410,"road":NaN,"cls":"tertiary","shops":11,"st_km":0.08,"mesh":"53395077"},"geometry":{"type":"LineString","coordinates":[[139.09729,35.80828],[139.09667,35.80881],[139.09651,35.8091]]}},{"type":"Feature","properties":{"idx":41,"road":NaN,"cls":"tertiary","shops":1,"st_km":4.76,"mesh":"53395053"},"geometry":{"type":"LineString","coordinates":[[139.04816,35.79245],[139.04872,35.79257],[139.04881,35.79265]]}},{"type":"Feature","properties":{"idx":33,"road":"多摩川南岸道路","cls":"primary","shops":0,"st_km":0.8,"mesh":"53395079"},"geometry":{"type":"LineString","coordinates":[[139.11493,35.80343],[139.11512,35.80397],[139.1154,35.80455],[139.11584,35.80523],[139.11631,35.80577],[139.11676,35.80621],[139.11735,35.80668],[139.11806,35.80713],[139.11871,35.80746],[139.11952,35.80777],[139.12068,35.80807],[139.12322,35.80839],[139.12454,35.80861],[139.12709,35.80917],[139.12912,35.80978],[139.13263,35.81111]]}},{"type":"Feature","properties":{"idx":22,"road":"多摩川南岸道路","cls":"primary","shops":0,"st_km":0.96,"mesh":"53395069"},"geometry":{"type":"LineString","coordinates":[[139.11461,35.80281],[139.11479,35.80308],[139.11488,35.8033]]}},{"type":"Feature","properties":{"idx":47,"road":"多摩川南岸道路","cls":"secondary","shops":0,"st_km":1.07,"mesh":"53395067"},"geometry":{"type":"LineString","coordinates":[[139.09165,35.80073],[139.09169,35.80074]]}},{"type":"Feature","properties":{"idx":46,"road":"多摩川南岸道路","cls":"secondary","shops":0,"st_km":1.11,"mesh":"53395067"},"geometry":{"type":"LineString","coordinates":[[139.09056,35.80052],[139.09081,35.80051],[139.09165,35.80073]]}},{"type":"Feature","properties":{"idx":13,"road":"多摩川南岸道路","cls":"secondary","shops":1,"st_km":1.19,"mesh":"53395068"},"geometry":{"type":"LineString","coordinates":[[139.10848,35.80202],[139.10912,35.80211],[139.10963,35.80204]]}},{"type":"Feature","properties":{"idx":9,"road":"多摩川南岸道路","cls":"secondary","shops":0,"st_km":1.23,"mesh":"53395068"},"geometry":{"type":"LineString","coordinates":[[139.10825,35.80195],[139.10848,35.80202]]}},{"type":"Feature","properties":{"idx":12,"road":"多摩川南岸道路","cls":"secondary","shops":0,"st_km":1.18,"mesh":"53395068"},"geometry":{"type":"LineString","coordinates":[[139.10386,35.80184],[139.1047,35.80146],[139.10502,35.80122],[139.1053,35.80113],[139.10569,35.80112],[139.10633,35.80141],[139.10667,35.80145]]}},{"type":"Feature","properties":{"idx":17,"road":"奥多摩あきる野線","cls":"secondary","shops":0,"st_km":0.74,"mesh":"53395068"},"geometry":{"type":"LineString","coordinates":[[139.10181,35.80381],[139.10146,35.80418]]}},{"type":"Feature","properties":{"idx":18,"road":"奥多摩あきる野線","cls":"secondary","shops":0,"st_km":0.68,"mesh":"53395068"},"geometry":{"type":"LineString","coordinates":[[139.10146,35.80418],[139.10103,35.80455]]}},{"type":"Feature","properties":{"idx":9,"road":"日原街道","cls":"secondary","shops":0,"st_km":3.08,"mesh":"53395096"},"geometry":{"type":"LineString","coordinates":[[139.07651,35.83155],[139.07632,35.83171]]}},{"type":"Feature","properties":{"idx":9,"road":"日原街道","cls":"secondary","shops":0,"st_km":2.98,"mesh":"53395096"},"geometry":{"type":"LineString","coordinates":[[139.07651,35.83155],[139.07674,35.83121],[139.07683,35.83097],[139.07683,35.83079],[139.07654,35.83049],[139.07579,35.83019],[139.07571,35.83007],[139.07565,35.82965]]}},{"type":"Feature","properties":{"idx":1,"road":"日原街道","cls":"secondary","shops":0,"st_km":2.42,"mesh":"53395086"},"geometry":{"type":"LineString","coordinates":[[139.0771,35.8245],[139.07717,35.82436],[139.07749,35.824]]}},{"type":"Feature","properties":{"idx":1,"road":"日原街道","cls":"secondary","shops":0,"st_km":2.13,"mesh":"53395086"},"geometry":{"type":"LineString","coordinates":[[139.07822,35.8234],[139.07905,35.8229],[139.07943,35.82277],[139.08001,35.82284],[139.08061,35.82311],[139.08096,35.82306],[139.08124,35.8229],[139.08169,35.82218]]}},{"type":"Feature","properties":{"idx":2,"road":"日原街道","cls":"secondary","shops":0,"st_km":1.32,"mesh":"53395086"},"geometry":{"type":"LineString","coordinates":[[139.08628,35.81761],[139.0863,35.81747]]}},{"type":"Feature","properties":{"idx":60,"road":"日原街道","cls":"secondary","shops":0,"st_km":0.25,"mesh":"53395077"},"geometry":{"type":"LineString","coordinates":[[139.09466,35.81227],[139.09496,35.81184],[139.0951,35.81152],[139.09508,35.81129],[139.09481,35.81061],[139.09471,35.81023],[139.09473,35.80981],[139.09487,35.80956]]}},{"type":"Feature","properties":{"idx":66,"road":"日原街道","cls":"secondary","shops":0,"st_km":0.16,"mesh":"53395077"},"geometry":{"type":"LineString","coordinates":[[139.09487,35.80956],[139.09553,35.80841],[139.09565,35.80784]]}},{"type":"Feature","properties":{"idx":99,"road":"日原街道","cls":"secondary","shops":0,"st_km":0.21,"mesh":"53395067"},"geometry":{"type":"LineString","coordinates":[[139.09565,35.80784],[139.09567,35.80776]]}},{"type":"Feature","properties":{"idx":97,"road":"日原街道","cls":"secondary","shops":0,"st_km":0.23,"mesh":"53395067"},"geometry":{"type":"LineString","coordinates":[[139.09567,35.80776],[139.09581,35.80745]]}},{"type":"Feature","properties":{"idx":20,"road":"奥多摩あきる野線","cls":"secondary","shops":0,"st_km":0.98,"mesh":"53395069"},"geometry":{"type":"LineString","coordinates":[[139.11459,35.8028],[139.11483,35.80282],[139.11516,35.80309]]}},{"type":"Feature","properties":{"idx":9,"road":"日原街道","cls":"secondary","shops":0,"st_km":3.1,"mesh":"53395096"},"geometry":{"type":"LineString","coordinates":[[139.07626,35.83176],[139.07632,35.83171]]}},{"type":"Feature","properties":{"idx":75,"road":"日原街道","cls":"secondary","shops":1,"st_km":0.43,"mesh":"53395077"},"geometry":{"type":"LineString","coordinates":[[139.0938,35.81279],[139.0939,35.81286],[139.09422,35.81277],[139.09442,35.8126],[139.09466,35.81227]]}},{"type":"Feature","properties":{"idx":11,"road":"川野上川乗線","cls":"secondary","shops":0,"st_km":8.7,"mesh":"53395002"},"geometry":{"type":"LineString","coordinates":[[139.02797,35.75456],[139.02799,35.7548]]}},{"type":"Feature","properties":{"idx":14,"road":"奥多摩あきる野線","cls":"secondary","shops":0,"st_km":1.01,"mesh":"53395068"},"geometry":{"type":"LineString","coordinates":[[139.1034,35.8023],[139.10379,35.80218],[139.10388,35.80208],[139.10389,35.80199]]}},{"type":"Feature","properties":{"idx":8,"road":"多摩川南岸道路","cls":"secondary","shops":0,"st_km":1.29,"mesh":"53395068"},"geometry":{"type":"LineString","coordinates":[[139.10696,35.80145],[139.10736,35.80151],[139.10825,35.80195]]}},{"type":"Feature","properties":{"idx":11,"road":"多摩川南岸道路","cls":"secondary","shops":0,"st_km":1.26,"mesh":"53395068"},"geometry":{"type":"LineString","coordinates":[[139.10667,35.80145],[139.10696,35.80145]]}},{"type":"Feature","properties":{"idx":9,"road":"多摩川南岸道路","cls":"secondary","shops":0,"st_km":1.17,"mesh":"53395068"},"geometry":{"type":"LineString","coordinates":[[139.10963,35.80204],[139.10981,35.80199]]}},{"type":"Feature","properties":{"idx":9,"road":"多摩川南岸道路","cls":"secondary","shops":0,"st_km":1.17,"mesh":"53395068"},"geometry":{"type":"LineString","coordinates":[[139.10981,35.80199],[139.11099,35.80166],[139.11163,35.80159]]}},{"type":"Feature","properties":{"idx":31,"road":NaN,"cls":"tertiary","shops":1,"st_km":7.9,"mesh":"53395031"},"geometry":{"type":"LineString","coordinates":[[139.01548,35.78617],[139.01545,35.78598],[139.01535,35.78576],[139.01536,35.7856],[139.01569,35.78531],[139.01589,35.78485],[139.0159,35.78401],[139.01575,35.7837],[139.01573,35.78354],[139.01577,35.78276],[139.01567,35.78237],[139.01541,35.78184],[139.01499,35.78151],[139.01496,35.78136],[139.01518,35.78101],[139.01566,35.78075],[139.01619,35.78007]]}},{"type":"Feature","properties":{"idx":7,"road":NaN,"cls":"tertiary","shops":0,"st_km":7.8,"mesh":"53395041"},"geometry":{"type":"LineString","coordinates":[[139.01545,35.78623],[139.01548,35.78617]]}},{"type":"Feature","properties":{"idx":7,"road":NaN,"cls":"tertiary","shops":0,"st_km":7.76,"mesh":"53395041"},"geometry":{"type":"LineString","coordinates":[[139.01422,35.79061],[139.01426,35.79057]]}},{"type":"Feature","properties":{"idx":6,"road":NaN,"cls":"tertiary","shops":0,"st_km":7.84,"mesh":"53395041"},"geometry":{"type":"LineString","coordinates":[[139.01291,35.79064],[139.01288,35.79038],[139.01296,35.79032],[139.01312,35.79032],[139.01402,35.79064],[139.01422,35.79061]]}},{"type":"Feature","properties":{"idx":3,"road":"川野上川乗線","cls":"secondary","shops":0,"st_km":8.72,"mesh":"53395011"},"geometry":{"type":"LineString","coordinates":[[139.02117,35.76076],[139.02138,35.76053]]}},{"type":"Feature","properties":{"idx":41,"road":NaN,"cls":"pedestrian","shops":0,"st_km":0.63,"mesh":"53395079"},"geometry":{"type":"LineString","coordinates":[[139.1237,35.81121],[139.12432,35.81096],[139.1243,35.81093],[139.1237,35.81117],[139.1237,35.81121]]}},{"type":"Feature","properties":{"idx":23,"road":"多摩川南岸道路","cls":"primary","shops":0,"st_km":0.93,"mesh":"53395069"},"geometry":{"type":"LineString","coordinates":[[139.11488,35.8033],[139.11493,35.80343]]}},{"type":"Feature","properties":{"idx":13,"road":"奥多摩あきる野線","cls":"secondary","shops":0,"st_km":1.04,"mesh":"53395068"},"geometry":{"type":"LineString","coordinates":[[139.10389,35.80199],[139.10386,35.80184]]}},{"type":"Feature","properties":{"idx":2,"road":"日原街道","cls":"secondary","shops":0,"st_km":1.48,"mesh":"53395086"},"geometry":{"type":"LineString","coordinates":[[139.08478,35.82026],[139.08468,35.82009],[139.08475,35.8199],[139.08541,35.81919],[139.08552,35.81895],[139.0857,35.81878],[139.08594,35.81869],[139.08615,35.81843],[139.08628,35.81761]]}},{"type":"Feature","properties":{"idx":2,"road":"日原街道","cls":"secondary","shops":1,"st_km":1.82,"mesh":"53395086"},"geometry":{"type":"LineString","coordinates":[[139.08237,35.82136],[139.08328,35.82137],[139.08376,35.82158]]}},{"type":"Feature","properties":{"idx":1,"road":"日原街道","cls":"secondary","shops":0,"st_km":1.9,"mesh":"53395086"},"geometry":{"type":"LineString","coordinates":[[139.08192,35.82193],[139.08237,35.82136]]}},{"type":"Feature","properties":{"idx":1,"road":"日原街道","cls":"secondary","shops":0,"st_km":1.96,"mesh":"53395086"},"geometry":{"type":"LineString","coordinates":[[139.08169,35.82218],[139.08192,35.82193]]}},{"type":"Feature","properties":{"idx":1,"road":"日原街道","cls":"secondary","shops":0,"st_km":2.34,"mesh":"53395086"},"geometry":{"type":"LineString","coordinates":[[139.07749,35.824],[139.07777,35.82371],[139.07822,35.8234]]}},{"type":"Feature","properties":{"idx":22,"road":"多摩川南岸道路","cls":"primary","shops":0,"st_km":0.99,"mesh":"53395069"},"geometry":{"type":"LineString","coordinates":[[139.11459,35.8028],[139.11461,35.80281]]}}]}