{"type":"FeatureCollection","features":[{"type":"Feature","properties":{"idx":7,"road":"佐野川上野原線","cls":"secondary","shops":0,"st_km":2.86,"mesh":"53393160"},"geometry":{"type":"LineString","coordinates":[[139.13981,35.63876],[139.13971,35.63863],[139.13966,35.63835],[139.13956,35.63828],[139.13909,35.63816],[139.1387,35.63812],[139.13816,35.63841],[139.13756,35.63852],[139.13705,35.63886],[139.13658,35.63902],[139.13614,35.63923],[139.13598,35.63937],[139.13594,35.63957],[139.13588,35.63965],[139.13561,35.63954],[139.13547,35.63956],[139.13517,35.63973],[139.13445,35.63996],[139.13394,35.64035]]}},{"type":"Feature","properties":{"idx":192,"road":"陣馬街道","cls":"secondary","shops":2,"st_km":0.27,"mesh":"53393132"},"geometry":{"type":"LineString","coordinates":[[139.15348,35.61519],[139.15359,35.61527],[139.15412,35.61536],[139.15425,35.61551],[139.15434,35.61594],[139.15431,35.61656]]}},{"type":"Feature","properties":{"idx":44,"road":"沢井トンネル","cls":"secondary","shops":0,"st_km":0.33,"mesh":"53393142"},"geometry":{"type":"LineString","coordinates":[[139.15431,35.61656],[139.15408,35.6192]]}},{"type":"Feature","properties":{"idx":37,"road":"陣馬街道","cls":"secondary","shops":0,"st_km":0.52,"mesh":"53393142"},"geometry":{"type":"LineString","coordinates":[[139.15408,35.6192],[139.15404,35.61948],[139.15366,35.62009],[139.15266,35.62089],[139.15257,35.62117],[139.1526,35.62166]]}},{"type":"Feature","properties":{"idx":46,"road":"奥牧野相模湖線","cls":"secondary","shops":1,"st_km":2.98,"mesh":"53393102"},"geometry":{"type":"LineString","coordinates":[[139.14993,35.59079],[139.14982,35.59065],[139.14982,35.59056],[139.15018,35.5898],[139.15015,35.58933],[139.15022,35.58899],[139.14984,35.58783],[139.14965,35.58754]]}},{"type":"Feature","properties":{"idx":83,"road":"","cls":"primary","shops":0,"st_km":0.53,"mesh":"53393132"},"geometry":{"type":"LineString","coordinates":[[139.15629,35.61246],[139.15583,35.61386]]}},{"type":"Feature","properties":{"idx":144,"road":"山北藤野線","cls":"primary","shops":1,"st_km":0.38,"mesh":"53393132"},"geometry":{"type":"LineString","coordinates":[[139.15583,35.61386],[139.15546,35.6142],[139.15427,35.61461],[139.15422,35.61469],[139.15428,35.61483]]}},{"type":"Feature","properties":{"idx":60,"road":"吉野上野原停車場線","cls":"secondary","shops":0,"st_km":0.79,"mesh":"53393132"},"geometry":{"type":"LineString","coordinates":[[139.15581,35.61063],[139.15558,35.61052],[139.1552,35.61013],[139.15521,35.61001],[139.15544,35.60958],[139.15539,35.60906],[139.15526,35.60885],[139.15492,35.60875]]}},{"type":"Feature","properties":{"idx":60,"road":"","cls":"tertiary","shops":0,"st_km":0.56,"mesh":"53393135"},"geometry":{"type":"LineString","coordinates":[[139.19252,35.61283],[139.19264,35.61294],[139.19279,35.61348],[139.19294,35.61362],[139.19319,35.61372],[139.19373,35.61373],[139.19392,35.61386],[139.19393,35.61402],[139.19381,35.61444],[139.19354,35.61462],[139.19256,35.61477],[139.19203,35.61513],[139.19154,35.61525],[139.19116,35.61523],[139.19099,35.61532],[139.19097,35.61542]]}},{"type":"Feature","properties":{"idx":161,"road":"吉野上野原停車場線","cls":"secondary","shops":0,"st_km":0.88,"mesh":"53393122"},"geometry":{"type":"LineString","coordinates":[[139.15405,35.60868],[139.15356,35.6086],[139.1522,35.60824],[139.15112,35.60751],[139.15014,35.60693]]}},{"type":"Feature","properties":{"idx":46,"road":"吉野上野原停車場線","cls":"secondary","shops":0,"st_km":1.12,"mesh":"53393132"},"geometry":{"type":"LineString","coordinates":[[139.15605,35.60779],[139.15639,35.60783],[139.15747,35.6082],[139.15961,35.6085],[139.15977,35.6086],[139.1603,35.60909],[139.16176,35.60944],[139.1627,35.60987],[139.16375,35.60994]]}},{"type":"Feature","properties":{"idx":151,"road":"奥牧野相模湖線","cls":"secondary","shops":0,"st_km":3.15,"mesh":"53393127"},"geometry":{"type":"LineString","coordinates":[[139.21707,35.60047],[139.21697,35.60059],[139.21695,35.60071],[139.21712,35.60173],[139.21727,35.60206],[139.21788,35.60274],[139.21826,35.60293],[139.21908,35.60318],[139.21937,35.60333],[139.21981,35.60383],[139.21985,35.6041],[139.21946,35.60513],[139.21929,35.60527],[139.21894,35.60547],[139.21878,35.60569],[139.21874,35.60616],[139.21877,35.60654],[139.21864,35.60684],[139.21811,35.60729],[139.21725,35.60786],[139.21636,35.60824],[139.21599,35.60857]]}},{"type":"Feature","properties":{"idx":24,"road":"","cls":"tertiary","shops":0,"st_km":2.56,"mesh":"53393137"},"geometry":{"type":"LineString","coordinates":[[139.21624,35.61253],[139.21625,35.61337]]}},{"type":"Feature","properties":{"idx":54,"road":"浅川相模湖線","cls":"secondary","shops":0,"st_km":1.72,"mesh":"53393156"},"geometry":{"type":"LineString","coordinates":[[139.20346,35.62384],[139.20351,35.62431],[139.20359,35.62443],[139.20404,35.62449],[139.20434,35.62471],[139.2043,35.62476],[139.20401,35.62478],[139.20387,35.62487],[139.20385,35.62495],[139.20391,35.62522],[139.20433,35.62549],[139.20441,35.62566],[139.20438,35.6258],[139.20408,35.62617],[139.20408,35.62632],[139.20429,35.62658],[139.20464,35.6267],[139.2049,35.62685],[139.20509,35.62711],[139.20508,35.62724],[139.20478,35.62798],[139.20438,35.62851]]}},{"type":"Feature","properties":{"idx":619,"road":"相模湖停車場線","cls":"secondary","shops":10,"st_km":0.12,"mesh":"53393135"},"geometry":{"type":"LineString","coordinates":[[139.18915,35.61614],[139.18938,35.61678]]}},{"type":"Feature","properties":{"idx":29,"road":"奥牧野相模湖線","cls":"secondary","shops":0,"st_km":3.48,"mesh":"53393102"},"geometry":{"type":"LineString","coordinates":[[139.15027,35.58116],[139.15082,35.5815],[139.15111,35.58158],[139.15239,35.58149],[139.15306,35.58158],[139.15351,35.5817],[139.15396,35.58171],[139.15404,35.58181],[139.15392,35.582],[139.15396,35.58216],[139.15406,35.58221],[139.15454,35.58223],[139.1547,35.58236],[139.15477,35.58249],[139.15475,35.58265],[139.15429,35.5834],[139.15428,35.58346],[139.15434,35.5835],[139.15443,35.58346],[139.15476,35.58309],[139.15516,35.58281],[139.15532,35.5826],[139.15551,35.58216],[139.15549,35.58202],[139.15537,35.58186],[139.15539,35.5817],[139.15565,35.58159],[139.15588,35.58161],[139.15597,35.58169],[139.15598,35.58179],[139.15582,35.58245],[139.15614,35.583],[139.15607,35.58382],[139.15616,35.58392],[139.15654,35.58394],[139.15659,35.58405],[139.15647,35.5843],[139.1564,35.58466],[139.15619,35.58498],[139.1562,35.58512],[139.15626,35.58518],[139.1568,35.58519],[139.1578,35.585],[139.15827,35.58511],[139.15898,35.58503],[139.15942,35.58539],[139.15976,35.5856],[139.16076,35.58612],[139.16119,35.58615],[139.16167,35.58587],[139.16188,35.58592],[139.16195,35.58603],[139.16193,35.58611],[139.16171,35.5864],[139.16101,35.58689],[139.16085,35.58711],[139.16084,35.58724],[139.16093,35.58748],[139.16119,35.58777],[139.16157,35.58801],[139.16179,35.58804],[139.16198,35.588],[139.16222,35.58785],[139.1624,35.58743],[139.16248,35.58735],[139.16266,35.58725],[139.16301,35.58721],[139.16322,35.58723],[139.16334,35.58729],[139.16352,35.58753],[139.16402,35.58793],[139.16426,35.58793],[139.16493,35.58776],[139.16574,35.58788],[139.16675,35.58862],[139.16739,35.58946],[139.16742,35.58965],[139.16725,35.58991],[139.16724,35.59003]]}},{"type":"Feature","properties":{"idx":195,"road":"市道名倉藤野線","cls":"tertiary","shops":0,"st_km":0.55,"mesh":"53393131"},"geometry":{"type":"LineString","coordinates":[[139.14433,35.61374],[139.14443,35.61386],[139.14452,35.61389],[139.14492,35.61384],[139.14564,35.61387],[139.1469,35.6137],[139.14731,35.61376],[139.14755,35.61386]]}},{"type":"Feature","properties":{"idx":100,"road":"市道名倉藤野線","cls":"tertiary","shops":0,"st_km":0.12,"mesh":"53393132"},"geometry":{"type":"LineString","coordinates":[[139.14881,35.61485],[139.14933,35.61543],[139.14952,35.61556],[139.151,35.61535],[139.15173,35.61511],[139.15184,35.6151],[139.15189,35.61515]]}},{"type":"Feature","properties":{"idx":237,"road":"弁天橋","cls":"tertiary","shops":0,"st_km":0.34,"mesh":"53393131"},"geometry":{"type":"LineString","coordinates":[[139.14755,35.61386],[139.14881,35.61485]]}},{"type":"Feature","properties":{"idx":127,"road":"","cls":"tertiary","shops":0,"st_km":4.3,"mesh":"53393119"},"geometry":{"type":"LineString","coordinates":[[139.22881,35.5902],[139.22984,35.59154],[139.23066,35.59218],[139.23109,35.5929],[139.23148,35.59332],[139.23156,35.59359],[139.23164,35.59369],[139.23206,35.59395],[139.23252,35.59396],[139.23264,35.59421],[139.23292,35.59537],[139.23316,35.59565],[139.23342,35.59625],[139.23353,35.59637],[139.23372,35.59646],[139.23442,35.59635],[139.23491,35.59615],[139.23523,35.59597],[139.23555,35.59562],[139.23573,35.59555],[139.23601,35.59554],[139.23691,35.59571],[139.23728,35.59564],[139.23796,35.59504],[139.23818,35.59454],[139.23833,35.59436],[139.23946,35.59377],[139.23979,35.59368],[139.24108,35.59359],[139.24204,35.59337],[139.24233,35.59336],[139.24265,35.59341],[139.24314,35.59369],[139.24332,35.59373],[139.24469,35.59387],[139.24526,35.59401],[139.24642,35.59405],[139.2466,35.59402],[139.24682,35.59383],[139.24721,35.59292],[139.24766,35.59256],[139.24855,35.59162]]}},{"type":"Feature","properties":{"idx":129,"road":"新境橋","cls":"tertiary","shops":0,"st_km":4.47,"mesh":"53393109"},"geometry":{"type":"LineString","coordinates":[[139.24855,35.59162],[139.24915,35.59083]]}},{"type":"Feature","properties":{"idx":331,"road":"","cls":"tertiary","shops":0,"st_km":3.4,"mesh":"53393117"},"geometry":{"type":"LineString","coordinates":[[139.2204,35.60116],[139.22,35.60051],[139.21963,35.60021],[139.21882,35.59941],[139.21861,35.59927],[139.21728,35.59873],[139.21662,35.59812],[139.21633,35.59746],[139.2162,35.59656],[139.21562,35.59575],[139.21519,35.59467],[139.21517,35.59435],[139.21541,35.59381],[139.21541,35.59367],[139.21495,35.593],[139.21424,35.59239],[139.21391,35.59202],[139.21337,35.59125]]}},{"type":"Feature","properties":{"idx":44,"road":"浅川相模湖線","cls":"secondary","shops":0,"st_km":2.22,"mesh":"53393156"},"geometry":{"type":"LineString","coordinates":[[139.20438,35.62851],[139.20455,35.62879],[139.20498,35.62981],[139.20512,35.63055],[139.20537,35.63088],[139.20599,35.63136],[139.20682,35.63165],[139.20734,35.63205],[139.20868,35.63204],[139.20879,35.6321],[139.20876,35.63219],[139.20858,35.63226],[139.20799,35.63235]]}},{"type":"Feature","properties":{"idx":56,"road":"浅川相模湖線","cls":"secondary","shops":0,"st_km":1.67,"mesh":"53393169"},"geometry":{"type":"LineString","coordinates":[[139.24065,35.63917],[139.24061,35.63928]]}},{"type":"Feature","properties":{"idx":29,"road":"三井相模湖線","cls":"secondary","shops":0,"st_km":2.24,"mesh":"53393137"},"geometry":{"type":"LineString","coordinates":[[139.21262,35.6152],[139.21305,35.61493],[139.21335,35.61458]]}},{"type":"Feature","properties":{"idx":44,"road":"","cls":"secondary","shops":0,"st_km":1.45,"mesh":"53393133"},"geometry":{"type":"LineString","coordinates":[[139.17366,35.61243],[139.17357,35.6125]]}},{"type":"Feature","properties":{"idx":46,"road":"日連橋","cls":"secondary","shops":0,"st_km":1.39,"mesh":"53393133"},"geometry":{"type":"LineString","coordinates":[[139.16375,35.60994],[139.166,35.61013]]}},{"type":"Feature","properties":{"idx":26,"road":"若柳トンネル","cls":"secondary","shops":0,"st_km":2.64,"mesh":"53393137"},"geometry":{"type":"LineString","coordinates":[[139.21599,35.60857],[139.21582,35.60898],[139.21584,35.60937]]}},{"type":"Feature","properties":{"idx":27,"road":"桂橋","cls":"secondary","shops":0,"st_km":2.6,"mesh":"53393137"},"geometry":{"type":"LineString","coordinates":[[139.21586,35.60949],[139.2162,35.61168]]}},{"type":"Feature","properties":{"idx":187,"road":"坂沢橋","cls":"primary","shops":0,"st_km":2.13,"mesh":"53393112"},"geometry":{"type":"LineString","coordinates":[[139.15172,35.59643],[139.15209,35.59717]]}},{"type":"Feature","properties":{"idx":27,"road":"","cls":"tertiary","shops":0,"st_km":1.51,"mesh":"53393143"},"geometry":{"type":"LineString","coordinates":[[139.16521,35.62287],[139.16508,35.62329],[139.16513,35.62336],[139.16537,35.62345],[139.16593,35.62336],[139.16607,35.62346]]}},{"type":"Feature","properties":{"idx":147,"road":"","cls":"tertiary","shops":0,"st_km":2.6,"mesh":"53393127"},"geometry":{"type":"LineString","coordinates":[[139.21608,35.60845],[139.21586,35.60837],[139.21533,35.60845],[139.21521,35.60842],[139.21478,35.60802],[139.2146,35.60793],[139.21447,35.60773],[139.21442,35.60754]]}},{"type":"Feature","properties":{"idx":41,"road":"","cls":"tertiary","shops":0,"st_km":1.4,"mesh":"53393133"},"geometry":{"type":"LineString","coordinates":[[139.16677,35.61634],[139.16685,35.61584],[139.16675,35.61533],[139.16666,35.61438]]}},{"type":"Feature","properties":{"idx":26,"road":"旧甲州街道","cls":"tertiary","shops":0,"st_km":1.54,"mesh":"53393143"},"geometry":{"type":"LineString","coordinates":[[139.17694,35.62196],[139.17655,35.62206],[139.17501,35.62293],[139.17413,35.62331],[139.17376,35.6236],[139.17361,35.62379],[139.17345,35.62411],[139.17335,35.62418],[139.17325,35.62415],[139.17297,35.62388],[139.17262,35.62384],[139.17183,35.62407],[139.17136,35.62406],[139.17089,35.6244],[139.17068,35.6245],[139.17041,35.62452],[139.16996,35.62446]]}},{"type":"Feature","properties":{"idx":705,"road":"","cls":"tertiary","shops":0,"st_km":4.98,"mesh":"53393108"},"geometry":{"type":"LineString","coordinates":[[139.2304,35.58995],[139.23133,35.58975],[139.23158,35.58964],[139.23188,35.5893],[139.23238,35.58853]]}},{"type":"Feature","properties":{"idx":179,"road":"","cls":"tertiary","shops":0,"st_km":3.59,"mesh":"53393107"},"geometry":{"type":"LineString","coordinates":[[139.2124,35.59234],[139.21254,35.59215],[139.21258,35.59172],[139.21265,35.59156],[139.21299,35.59136],[139.21337,35.59125]]}},{"type":"Feature","properties":{"idx":50,"road":"市道阿津奥畑線","cls":"tertiary","shops":0,"st_km":0.76,"mesh":"53393135"},"geometry":{"type":"LineString","coordinates":[[139.19591,35.61354],[139.1962,35.61412],[139.19638,35.61489],[139.1966,35.61555],[139.19681,35.61574],[139.19736,35.61606]]}},{"type":"Feature","properties":{"idx":24,"road":"","cls":"tertiary","shops":0,"st_km":1.7,"mesh":"53393143"},"geometry":{"type":"LineString","coordinates":[[139.16614,35.6238],[139.16625,35.62398],[139.16647,35.62407],[139.16741,35.624],[139.16797,35.62413],[139.16817,35.62423],[139.16845,35.62465]]}},{"type":"Feature","properties":{"idx":40,"road":"市道大鐘小津久線","cls":"tertiary","shops":0,"st_km":3.16,"mesh":"53393100"},"geometry":{"type":"LineString","coordinates":[[139.13619,35.58903],[139.13656,35.58955],[139.13661,35.58992],[139.13645,35.59028],[139.13587,35.59094],[139.13566,35.59102],[139.13528,35.59107]]}},{"type":"Feature","properties":{"idx":129,"road":"","cls":"tertiary","shops":0,"st_km":4.47,"mesh":"53393109"},"geometry":{"type":"LineString","coordinates":[[139.24853,35.59165],[139.2483,35.59144],[139.24757,35.59132],[139.24731,35.59109],[139.24732,35.59095]]}},{"type":"Feature","properties":{"idx":43,"road":"市道阿津奥畑線","cls":"tertiary","shops":0,"st_km":0.95,"mesh":"53393135"},"geometry":{"type":"LineString","coordinates":[[139.19736,35.61606],[139.19816,35.61663],[139.19837,35.61667],[139.19874,35.6166],[139.19898,35.61661],[139.19956,35.61703],[139.20054,35.61727]]}},{"type":"Feature","properties":{"idx":29,"road":"","cls":"tertiary","shops":0,"st_km":1.36,"mesh":"53393143"},"geometry":{"type":"LineString","coordinates":[[139.16573,35.61973],[139.16564,35.61986],[139.16569,35.62025],[139.16566,35.62036],[139.16518,35.62073],[139.1651,35.6209],[139.16509,35.62139],[139.16531,35.62205]]}},{"type":"Feature","properties":{"idx":29,"road":"","cls":"tertiary","shops":0,"st_km":1.37,"mesh":"53393143"},"geometry":{"type":"LineString","coordinates":[[139.1662,35.61948],[139.1663,35.61934],[139.16633,35.61903],[139.16634,35.61814],[139.16626,35.61782],[139.16626,35.61764],[139.16632,35.61744],[139.16659,35.61703],[139.16677,35.61634]]}},{"type":"Feature","properties":{"idx":18,"road":"市道阿津奥畑線","cls":"tertiary","shops":0,"st_km":1.65,"mesh":"53393136"},"geometry":{"type":"LineString","coordinates":[[139.20761,35.61333],[139.20711,35.61343],[139.20598,35.61374],[139.20572,35.6137],[139.20546,35.61355],[139.20521,35.61355],[139.2051,35.61365],[139.20509,35.61388]]}},{"type":"Feature","properties":{"idx":39,"road":"市道大鐘小津久線","cls":"tertiary","shops":0,"st_km":3.47,"mesh":"53393100"},"geometry":{"type":"LineString","coordinates":[[139.13737,35.58623],[139.13711,35.58632],[139.13638,35.58697],[139.13583,35.58732],[139.13571,35.5875],[139.13567,35.58789],[139.13591,35.58851],[139.13619,35.58903]]}},{"type":"Feature","properties":{"idx":128,"road":"","cls":"tertiary","shops":0,"st_km":5.13,"mesh":"53393109"},"geometry":{"type":"LineString","coordinates":[[139.2367,35.58654],[139.23689,35.58714],[139.23703,35.58731],[139.23727,35.58743],[139.23851,35.58724],[139.23868,35.5873],[139.23908,35.5876],[139.23924,35.58779]]}},{"type":"Feature","properties":{"idx":26,"road":"","cls":"tertiary","shops":0,"st_km":1.58,"mesh":"53393143"},"geometry":{"type":"LineString","coordinates":[[139.16607,35.62346],[139.16614,35.6238]]}},{"type":"Feature","properties":{"idx":23,"road":"","cls":"tertiary","shops":0,"st_km":2.7,"mesh":"53393137"},"geometry":{"type":"LineString","coordinates":[[139.21673,35.60862],[139.21635,35.6086],[139.21608,35.60845]]}},{"type":"Feature","properties":{"idx":29,"road":"嵯峨橋","cls":"tertiary","shops":0,"st_km":1.39,"mesh":"53393143"},"geometry":{"type":"LineString","coordinates":[[139.1662,35.61948],[139.16573,35.61973]]}},{"type":"Feature","properties":{"idx":27,"road":"","cls":"tertiary","shops":0,"st_km":3.19,"mesh":"53393116"},"geometry":{"type":"LineString","coordinates":[[139.21007,35.59502],[139.21067,35.59452]]}},{"type":"Feature","properties":{"idx":321,"road":"旧甲州街道","cls":"tertiary","shops":0,"st_km":0.96,"mesh":"53393144"},"geometry":{"type":"LineString","coordinates":[[139.17732,35.62215],[139.17815,35.62157],[139.17884,35.62136],[139.17893,35.62127],[139.17911,35.62083],[139.17923,35.62073],[139.1796,35.62065],[139.18012,35.62036],[139.18021,35.62045],[139.18025,35.62068],[139.18036,35.62075]]}},{"type":"Feature","properties":{"idx":38,"road":"","cls":"tertiary","shops":0,"st_km":3.55,"mesh":"53393101"},"geometry":{"type":"LineString","coordinates":[[139.142,35.58576],[139.14241,35.58577],[139.14261,35.58565],[139.14309,35.58529],[139.1432,35.58506],[139.14314,35.58481],[139.14269,35.58423],[139.14196,35.58375],[139.14192,35.58363],[139.14195,35.58345]]}},{"type":"Feature","properties":{"idx":22,"road":"市道阿津奥畑線","cls":"tertiary","shops":0,"st_km":1.3,"mesh":"53393136"},"geometry":{"type":"LineString","coordinates":[[139.20509,35.61388],[139.20509,35.61408],[139.205,35.61424],[139.20466,35.61441],[139.20392,35.61464],[139.20324,35.61498],[139.20313,35.61507],[139.20288,35.61553],[139.2026,35.61588],[139.20255,35.61643],[139.20216,35.61702],[139.20178,35.61723],[139.20133,35.6174],[139.20054,35.61727]]}},{"type":"Feature","properties":{"idx":27,"road":"","cls":"tertiary","shops":0,"st_km":3.24,"mesh":"53393116"},"geometry":{"type":"LineString","coordinates":[[139.21092,35.59433],[139.21067,35.59452]]}},{"type":"Feature","properties":{"idx":143,"road":"","cls":"tertiary","shops":0,"st_km":2.75,"mesh":"53393127"},"geometry":{"type":"LineString","coordinates":[[139.21673,35.60862],[139.21698,35.608]]}},{"type":"Feature","properties":{"idx":27,"road":"","cls":"tertiary","shops":0,"st_km":3.11,"mesh":"53393116"},"geometry":{"type":"LineString","coordinates":[[139.2095,35.59551],[139.21007,35.59502]]}},{"type":"Feature","properties":{"idx":30,"road":"","cls":"tertiary","shops":0,"st_km":2.6,"mesh":"53393116"},"geometry":{"type":"LineString","coordinates":[[139.20522,35.59955],[139.20527,35.5994],[139.20526,35.59917],[139.20494,35.59868],[139.2047,35.59788],[139.20472,35.59665],[139.20481,35.59628]]}},{"type":"Feature","properties":{"idx":26,"road":"","cls":"tertiary","shops":0,"st_km":3.49,"mesh":"53393116"},"geometry":{"type":"LineString","coordinates":[[139.2121,35.59249],[139.21223,35.59243]]}},{"type":"Feature","properties":{"idx":22,"road":"旧甲州街道","cls":"tertiary","shops":0,"st_km":1.88,"mesh":"53393143"},"geometry":{"type":"LineString","coordinates":[[139.16907,35.62469],[139.16938,35.62447]]}},{"type":"Feature","properties":{"idx":77,"road":"","cls":"tertiary","shops":0,"st_km":0.29,"mesh":"53393135"},"geometry":{"type":"LineString","coordinates":[[139.19003,35.61467],[139.19019,35.61507],[139.19048,35.61554]]}},{"type":"Feature","properties":{"idx":74,"road":"","cls":"tertiary","shops":1,"st_km":3.17,"mesh":"53393110"},"geometry":{"type":"LineString","coordinates":[[139.133,35.59127],[139.13291,35.59218]]}},{"type":"Feature","properties":{"idx":15,"road":"市道阿津奥畑線","cls":"tertiary","shops":0,"st_km":2.13,"mesh":"53393136"},"geometry":{"type":"LineString","coordinates":[[139.21585,35.60943],[139.21424,35.61021],[139.21316,35.61098],[139.21257,35.61125],[139.21231,35.61131],[139.21212,35.61149],[139.21165,35.6117],[139.21152,35.61175],[139.2112,35.61173],[139.21091,35.61204],[139.21062,35.61216],[139.21025,35.61221],[139.20978,35.61183],[139.2093,35.61162],[139.20914,35.61164],[139.2091,35.61169],[139.20911,35.61184],[139.20949,35.61224],[139.20951,35.61241],[139.20925,35.61262],[139.2085,35.61286],[139.20783,35.61328],[139.20761,35.61333]]}},{"type":"Feature","properties":{"idx":28,"road":"","cls":"tertiary","shops":0,"st_km":1.45,"mesh":"53393143"},"geometry":{"type":"LineString","coordinates":[[139.16531,35.62205],[139.16521,35.62287]]}},{"type":"Feature","properties":{"idx":22,"road":"旧甲州街道","cls":"tertiary","shops":0,"st_km":1.88,"mesh":"53393143"},"geometry":{"type":"LineString","coordinates":[[139.16938,35.62447],[139.16996,35.62446]]}},{"type":"Feature","properties":{"idx":26,"road":"","cls":"tertiary","shops":0,"st_km":3.46,"mesh":"53393116"},"geometry":{"type":"LineString","coordinates":[[139.21193,35.5928],[139.21193,35.59259],[139.2121,35.59249]]}},{"type":"Feature","properties":{"idx":41,"road":"","cls":"tertiary","shops":0,"st_km":3.12,"mesh":"53393100"},"geometry":{"type":"LineString","coordinates":[[139.13528,35.59107],[139.13477,35.59137],[139.13459,35.59142]]}},{"type":"Feature","properties":{"idx":707,"road":"","cls":"tertiary","shops":0,"st_km":4.8,"mesh":"53393108"},"geometry":{"type":"LineString","coordinates":[[139.22901,35.59047],[139.22967,35.59011],[139.2304,35.58995]]}},{"type":"Feature","properties":{"idx":38,"road":"市道大鐘小津久線","cls":"tertiary","shops":0,"st_km":3.54,"mesh":"53393101"},"geometry":{"type":"LineString","coordinates":[[139.13737,35.58623],[139.13774,35.58605],[139.1378,35.58594]]}},{"type":"Feature","properties":{"idx":27,"road":"","cls":"tertiary","shops":0,"st_km":3.36,"mesh":"53393116"},"geometry":{"type":"LineString","coordinates":[[139.21193,35.5928],[139.21202,35.59314],[139.21194,35.59336],[139.21092,35.59433]]}},{"type":"Feature","properties":{"idx":61,"road":"","cls":"tertiary","shops":1,"st_km":1.4,"mesh":"53393133"},"geometry":{"type":"LineString","coordinates":[[139.17462,35.6132],[139.17366,35.61243]]}},{"type":"Feature","properties":{"idx":22,"road":"旧甲州街道","cls":"tertiary","shops":0,"st_km":1.87,"mesh":"53393143"},"geometry":{"type":"LineString","coordinates":[[139.16907,35.62469],[139.16884,35.62476]]}},{"type":"Feature","properties":{"idx":40,"road":"","cls":"tertiary","shops":0,"st_km":3.17,"mesh":"53393100"},"geometry":{"type":"LineString","coordinates":[[139.133,35.59127],[139.13414,35.59133],[139.13459,35.59142]]}},{"type":"Feature","properties":{"idx":100,"road":"","cls":"tertiary","shops":3,"st_km":1.44,"mesh":"53393133"},"geometry":{"type":"LineString","coordinates":[[139.16716,35.61385],[139.16702,35.61436],[139.16689,35.61443],[139.16666,35.61438]]}},{"type":"Feature","properties":{"idx":28,"road":"","cls":"tertiary","shops":0,"st_km":2.92,"mesh":"53393116"},"geometry":{"type":"LineString","coordinates":[[139.20481,35.59628],[139.20458,35.59569],[139.20462,35.59556],[139.20606,35.5952],[139.20628,35.5952],[139.20658,35.59532],[139.20706,35.5959],[139.20778,35.59639],[139.20818,35.59653],[139.20839,35.59646],[139.2095,35.59551]]}},{"type":"Feature","properties":{"idx":27,"road":"奥牧野相模湖線","cls":"secondary","shops":0,"st_km":2.58,"mesh":"53393137"},"geometry":{"type":"LineString","coordinates":[[139.2162,35.61168],[139.21624,35.61253]]}},{"type":"Feature","properties":{"idx":26,"road":"","cls":"secondary","shops":0,"st_km":2.63,"mesh":"53393137"},"geometry":{"type":"LineString","coordinates":[[139.21584,35.60937],[139.21586,35.60949]]}},{"type":"Feature","properties":{"idx":41,"road":"","cls":"secondary","shops":0,"st_km":1.58,"mesh":"53393133"},"geometry":{"type":"LineString","coordinates":[[139.17153,35.61434],[139.17143,35.61442]]}},{"type":"Feature","properties":{"idx":37,"road":"吉野上野原停車場線","cls":"secondary","shops":0,"st_km":1.81,"mesh":"53393133"},"geometry":{"type":"LineString","coordinates":[[139.166,35.61013],[139.16669,35.61024],[139.16795,35.61059],[139.16874,35.61044],[139.16966,35.6104],[139.17084,35.61054],[139.17174,35.61056],[139.17199,35.61062],[139.1722,35.61077],[139.1732,35.61202],[139.17366,35.61243]]}},{"type":"Feature","properties":{"idx":7,"road":"伝馬橋","cls":"secondary","shops":0,"st_km":3.51,"mesh":"53393171"},"geometry":{"type":"LineString","coordinates":[[139.14276,35.64697],[139.14219,35.6466]]}},{"type":"Feature","properties":{"idx":13,"road":"境川橋","cls":"secondary","shops":0,"st_km":1.56,"mesh":"53393130"},"geometry":{"type":"LineString","coordinates":[[139.13452,35.61584],[139.13378,35.61664]]}},{"type":"Feature","properties":{"idx":64,"road":"相斐岐橋","cls":"primary","shops":0,"st_km":3.02,"mesh":"53393110"},"geometry":{"type":"LineString","coordinates":[[139.12736,35.59296],[139.12721,35.59307]]}},{"type":"Feature","properties":{"idx":42,"road":"奥牧野相模湖線","cls":"secondary","shops":0,"st_km":3.54,"mesh":"53393101"},"geometry":{"type":"LineString","coordinates":[[139.14917,35.58741],[139.14891,35.58749],[139.14875,35.58763],[139.14873,35.58778],[139.1489,35.58809],[139.14891,35.58822],[139.14857,35.58883],[139.14841,35.58935],[139.1482,35.58948],[139.14805,35.5895],[139.14786,35.58943],[139.14773,35.58928],[139.14771,35.58907],[139.14775,35.58869],[139.14793,35.58806],[139.1479,35.58782],[139.14779,35.58756],[139.14764,35.58743],[139.14673,35.58703],[139.14654,35.58665],[139.14643,35.58652],[139.14506,35.58541],[139.14501,35.58522],[139.14504,35.5851],[139.14518,35.58494],[139.14543,35.5848],[139.14553,35.58462],[139.14549,35.5844],[139.14522,35.58372],[139.14498,35.58361],[139.14453,35.58373],[139.14418,35.58375],[139.14339,35.58357],[139.143,35.58367],[139.14275,35.58366],[139.14195,35.58345],[139.1417,35.5832],[139.14141,35.58305],[139.14086,35.58325],[139.14027,35.5836],[139.14022,35.58374],[139.14025,35.58399],[139.14021,35.58413],[139.14003,35.58429],[139.1395,35.58448],[139.13924,35.58495],[139.1388,35.58521],[139.13868,35.58545],[139.13841,35.58571],[139.13825,35.58601],[139.13812,35.58606],[139.13798,35.58605],[139.13769,35.58585]]}},{"type":"Feature","properties":{"idx":43,"road":"奥牧野相模湖線","cls":"secondary","shops":0,"st_km":3.99,"mesh":"53393100"},"geometry":{"type":"LineString","coordinates":[[139.13113,35.58506],[139.13108,35.5852],[139.13071,35.58551],[139.13054,35.58557],[139.13045,35.58555],[139.12976,35.58487],[139.12947,35.58434],[139.12925,35.58425],[139.12872,35.58438],[139.12821,35.58433],[139.12809,35.58436],[139.12781,35.58479],[139.12766,35.5853]]}},{"type":"Feature","properties":{"idx":43,"road":"梁瀬橋","cls":"secondary","shops":0,"st_km":3.9,"mesh":"53393100"},"geometry":{"type":"LineString","coordinates":[[139.13106,35.58483],[139.13113,35.58506]]}},{"type":"Feature","properties":{"idx":44,"road":"奥牧野相模湖線","cls":"secondary","shops":0,"st_km":3.17,"mesh":"53393101"},"geometry":{"type":"LineString","coordinates":[[139.14965,35.58754],[139.14943,35.58744],[139.14917,35.58741]]}},{"type":"Feature","properties":{"idx":13,"road":"棡原藤野線","cls":"secondary","shops":0,"st_km":1.15,"mesh":"53393151"},"geometry":{"type":"LineString","coordinates":[[139.14946,35.62611],[139.14922,35.62633]]}},{"type":"Feature","properties":{"idx":7,"road":"陣馬街道","cls":"secondary","shops":0,"st_km":3.12,"mesh":"53393171"},"geometry":{"type":"LineString","coordinates":[[139.14219,35.6466],[139.14187,35.64637],[139.14172,35.6461],[139.14162,35.64574],[139.14124,35.64546],[139.14115,35.64527],[139.14113,35.64501],[139.14132,35.64446],[139.14132,35.64414],[139.14127,35.64394],[139.1411,35.64366],[139.14092,35.64299],[139.14074,35.64277],[139.14041,35.64254],[139.14046,35.6422],[139.14036,35.64202],[139.14027,35.64191],[139.13978,35.64156],[139.13925,35.64094],[139.13918,35.64081],[139.13917,35.6407],[139.13925,35.64052],[139.13961,35.64003],[139.13993,35.63945],[139.13999,35.63929],[139.13999,35.63913]]}},{"type":"Feature","properties":{"idx":8,"road":"陣馬街道","cls":"secondary","shops":0,"st_km":2.02,"mesh":"53393151"},"geometry":{"type":"LineString","coordinates":[[139.14765,35.62951],[139.1467,35.62988],[139.14546,35.62978],[139.14515,35.62986],[139.14489,35.63009],[139.14463,35.63075],[139.14441,35.63103],[139.1442,35.63113],[139.1433,35.63133],[139.14306,35.63146],[139.14275,35.63209],[139.14209,35.63273],[139.14176,35.63319],[139.1413,35.63368],[139.14131,35.63389],[139.14145,35.63422],[139.14145,35.63446],[139.14099,35.63506],[139.14053,35.6363],[139.14028,35.63653],[139.13972,35.6368],[139.13957,35.63699],[139.13951,35.63724],[139.13954,35.63741],[139.13976,35.63779]]}},{"type":"Feature","properties":{"idx":8,"road":"三井相模湖線","cls":"secondary","shops":0,"st_km":3.5,"mesh":"53393129"},"geometry":{"type":"LineString","coordinates":[[139.24129,35.60247],[139.24117,35.6021],[139.24119,35.60197],[139.24138,35.60186],[139.24175,35.6018]]}},{"type":"Feature","properties":{"idx":80,"road":"浅川相模湖線","cls":"secondary","shops":0,"st_km":2.02,"mesh":"53393168"},"geometry":{"type":"LineString","coordinates":[[139.24061,35.63928],[139.2405,35.63941],[139.24034,35.63944],[139.23876,35.63943],[139.23838,35.63961],[139.23816,35.63967],[139.23781,35.63967],[139.2373,35.63958],[139.23632,35.63958],[139.23322,35.63996],[139.23294,35.63994],[139.23231,35.63969],[139.23199,35.63967]]}},{"type":"Feature","properties":{"idx":42,"road":"三井相模湖線","cls":"secondary","shops":0,"st_km":3.49,"mesh":"53393128"},"geometry":{"type":"LineString","coordinates":[[139.22709,35.60681],[139.22661,35.60721],[139.22602,35.60757],[139.22598,35.60768],[139.22603,35.60794],[139.22599,35.608],[139.22587,35.60806],[139.22557,35.60807],[139.22546,35.60813],[139.22517,35.60854],[139.22514,35.6089],[139.2251,35.60897],[139.22501,35.60896],[139.22478,35.60882],[139.22464,35.60883],[139.22452,35.60892],[139.2244,35.60911],[139.22426,35.60961]]}},{"type":"Feature","properties":{"idx":9,"road":"三井相模湖線","cls":"secondary","shops":0,"st_km":3.47,"mesh":"53393129"},"geometry":{"type":"LineString","coordinates":[[139.24461,35.60137],[139.2428,35.60166],[139.24203,35.60194],[139.24193,35.60193],[139.24175,35.6018]]}},{"type":"Feature","properties":{"idx":45,"road":"吉野上野原停車場線","cls":"secondary","shops":0,"st_km":1.45,"mesh":"53393133"},"geometry":{"type":"LineString","coordinates":[[139.16364,35.60993],[139.16401,35.60978],[139.16405,35.60972],[139.16405,35.60955],[139.16384,35.60933],[139.16381,35.60923],[139.1638,35.60884],[139.16383,35.60862],[139.16389,35.60854],[139.16415,35.60846],[139.16427,35.60849],[139.1648,35.60882],[139.16565,35.6091],[139.166,35.60951],[139.16602,35.60962],[139.16592,35.60982],[139.16593,35.60989],[139.16614,35.61014]]}},{"type":"Feature","properties":{"idx":17,"road":"市道名倉島田線","cls":"tertiary","shops":1,"st_km":1.62,"mesh":"53393130"},"geometry":{"type":"LineString","coordinates":[[139.12932,35.61309],[139.12954,35.61318],[139.12996,35.61324],[139.13039,35.61343],[139.13109,35.6135],[139.13159,35.61363],[139.13201,35.61412],[139.13214,35.6142],[139.1333,35.61467],[139.13552,35.61484],[139.13615,35.61495]]}},{"type":"Feature","properties":{"idx":600,"road":"三井相模湖線","cls":"secondary","shops":0,"st_km":1.83,"mesh":"53393146"},"geometry":{"type":"LineString","coordinates":[[139.20523,35.62119],[139.20521,35.62113],[139.20526,35.62103],[139.20649,35.61991],[139.20717,35.61937],[139.2099,35.61698],[139.21062,35.61604],[139.21137,35.61566],[139.21262,35.6152]]}},{"type":"Feature","properties":{"idx":14,"road":"陣馬街道","cls":"secondary","shops":2,"st_km":4.83,"mesh":"53393183"},"geometry":{"type":"LineString","coordinates":[[139.16851,35.65772],[139.16837,35.65764]]}},{"type":"Feature","properties":{"idx":14,"road":"陣馬街道","cls":"secondary","shops":2,"st_km":5.13,"mesh":"53393195"},"geometry":{"type":"LineString","coordinates":[[139.18963,35.66365],[139.18931,35.66347]]}},{"type":"Feature","properties":{"idx":18,"road":"奥牧野相模湖線","cls":"secondary","shops":0,"st_km":2.42,"mesh":"53393113"},"geometry":{"type":"LineString","coordinates":[[139.17212,35.59323],[139.17162,35.5937],[139.17155,35.59381],[139.17152,35.59399],[139.17171,35.59449],[139.17159,35.59499],[139.17159,35.59564],[139.1717,35.59595],[139.17201,35.59631],[139.17215,35.59656],[139.17213,35.59682],[139.17192,35.59727],[139.17195,35.59739],[139.17213,35.5976],[139.17274,35.59795],[139.17301,35.5982],[139.17311,35.59845],[139.1731,35.59918],[139.17314,35.59934],[139.17329,35.59962],[139.17392,35.60039],[139.17439,35.60062],[139.17542,35.60074],[139.17673,35.6014],[139.17691,35.60144],[139.17733,35.60137],[139.17769,35.60111],[139.17787,35.60107],[139.17918,35.60109],[139.17938,35.60106],[139.18019,35.60072],[139.18058,35.60074]]}},{"type":"Feature","properties":{"idx":366,"road":"相模湖停車場線","cls":"secondary","shops":9,"st_km":0.09,"mesh":"53393145"},"geometry":{"type":"LineString","coordinates":[[139.18938,35.61678],[139.18921,35.61691],[139.18923,35.61697],[139.18958,35.61691],[139.18954,35.61681],[139.18938,35.61678]]}},{"type":"Feature","properties":{"idx":31,"road":"陣馬街道","cls":"secondary","shops":0,"st_km":2.73,"mesh":"53393161"},"geometry":{"type":"LineString","coordinates":[[139.13991,35.63868],[139.13981,35.63876]]}},{"type":"Feature","properties":{"idx":31,"road":"佐野川橋","cls":"secondary","shops":0,"st_km":2.71,"mesh":"53393161"},"geometry":{"type":"LineString","coordinates":[[139.14004,35.63857],[139.13991,35.63868]]}},{"type":"Feature","properties":{"idx":60,"road":"浅川相模湖線","cls":"secondary","shops":0,"st_km":1.53,"mesh":"53393169"},"geometry":{"type":"LineString","coordinates":[[139.24299,35.63974],[139.24295,35.6397]]}},{"type":"Feature","properties":{"idx":61,"road":"浅川相模湖線","cls":"secondary","shops":0,"st_km":1.5,"mesh":"53393169"},"geometry":{"type":"LineString","coordinates":[[139.24295,35.6397],[139.24291,35.63949],[139.24325,35.63892],[139.2432,35.63877],[139.24303,35.63867],[139.24271,35.63868],[139.24209,35.63912],[139.24186,35.63923],[139.24086,35.63912],[139.24065,35.63917]]}},{"type":"Feature","properties":{"idx":43,"road":"勝瀬橋","cls":"secondary","shops":0,"st_km":1.51,"mesh":"53393133"},"geometry":{"type":"LineString","coordinates":[[139.17357,35.6125],[139.17153,35.61434]]}},{"type":"Feature","properties":{"idx":17,"road":"箕石橋","cls":"secondary","shops":0,"st_km":2.07,"mesh":"53393115"},"geometry":{"type":"LineString","coordinates":[[139.18993,35.5987],[139.19001,35.59869]]}},{"type":"Feature","properties":{"idx":77,"road":"","cls":"tertiary","shops":3,"st_km":2.46,"mesh":"53393116"},"geometry":{"type":"LineString","coordinates":[[139.20515,35.59971],[139.20505,35.59987]]}},{"type":"Feature","properties":{"idx":77,"road":"石老山橋","cls":"tertiary","shops":3,"st_km":2.48,"mesh":"53393116"},"geometry":{"type":"LineString","coordinates":[[139.20522,35.59955],[139.20515,35.59971]]}},{"type":"Feature","properties":{"idx":18,"road":"奥牧野相模湖線","cls":"secondary","shops":0,"st_km":2.03,"mesh":"53393115"},"geometry":{"type":"LineString","coordinates":[[139.19001,35.59869],[139.1901,35.5987],[139.19028,35.59889],[139.19039,35.59892],[139.19121,35.59896],[139.19171,35.5988],[139.1924,35.59906],[139.19253,35.59901],[139.19271,35.59878],[139.19283,35.59873],[139.19298,35.59878],[139.19337,35.59908],[139.19362,35.59922],[139.19413,35.59933],[139.19474,35.59934],[139.19485,35.59941],[139.19551,35.60019],[139.19567,35.60031],[139.19663,35.60077],[139.19677,35.60091],[139.19694,35.60131],[139.1971,35.60142],[139.19748,35.6014],[139.19838,35.60102],[139.19872,35.60081],[139.19897,35.60074],[139.19976,35.60062],[139.19985,35.60069],[139.19993,35.60091]]}},{"type":"Feature","properties":{"idx":25,"road":"三井相模湖線","cls":"secondary","shops":0,"st_km":3.01,"mesh":"53393137"},"geometry":{"type":"LineString","coordinates":[[139.21624,35.61253],[139.21684,35.61229],[139.21712,35.61225],[139.21769,35.61267],[139.21789,35.61272],[139.21816,35.61253],[139.21866,35.61246],[139.21974,35.61206],[139.22021,35.61206],[139.22067,35.61224],[139.22103,35.6129],[139.22119,35.61299],[139.22135,35.61284],[139.22144,35.61252],[139.22135,35.61193],[139.22146,35.61167],[139.22231,35.61123],[139.22268,35.61112],[139.22305,35.61106],[139.22328,35.61083],[139.22343,35.61076],[139.22386,35.61083],[139.224,35.6108],[139.22407,35.61064],[139.2238,35.61041],[139.22377,35.61027],[139.22426,35.60961]]}},{"type":"Feature","properties":{"idx":278,"road":"藤野停車場線","cls":"secondary","shops":3,"st_km":0.13,"mesh":"53393132"},"geometry":{"type":"LineString","coordinates":[[139.15244,35.61564],[139.15263,35.61512]]}},{"type":"Feature","properties":{"idx":220,"road":"吉野上野原停車場線","cls":"secondary","shops":0,"st_km":0.54,"mesh":"53393131"},"geometry":{"type":"LineString","coordinates":[[139.15014,35.60693],[139.14998,35.60698],[139.14997,35.6071],[139.15062,35.6074],[139.1518,35.60853],[139.15203,35.60889],[139.15205,35.60912],[139.15202,35.60938],[139.15176,35.61014],[139.15162,35.61029],[139.15086,35.61062],[139.15018,35.61063],[139.14996,35.6107],[139.1498,35.61084],[139.14972,35.61114],[139.14966,35.61121],[139.14897,35.61145],[139.14808,35.61204],[139.14734,35.61234],[139.1472,35.61243],[139.14679,35.61285],[139.1456,35.61353],[139.14525,35.61362],[139.14338,35.61384],[139.1429,35.6137],[139.14247,35.61371],[139.14172,35.61408],[139.14088,35.61426]]}},{"type":"Feature","properties":{"idx":176,"road":"山北藤野線","cls":"primary","shops":1,"st_km":1.49,"mesh":"53393122"},"geometry":{"type":"LineString","coordinates":[[139.15209,35.59717],[139.15249,35.5981],[139.15252,35.59836],[139.15225,35.59878],[139.15221,35.59932],[139.15175,35.59984],[139.15166,35.60037],[139.15127,35.60069],[139.15119,35.60095],[139.15156,35.60158],[139.15257,35.6026],[139.1534,35.60377],[139.15368,35.60396],[139.15476,35.60454],[139.15503,35.6048],[139.15554,35.60544],[139.15569,35.60578],[139.15603,35.60748],[139.15605,35.60779]]}},{"type":"Feature","properties":{"idx":6,"road":"陣馬街道","cls":"secondary","shops":0,"st_km":3.78,"mesh":"53393171"},"geometry":{"type":"LineString","coordinates":[[139.14846,35.65109],[139.14801,35.65086],[139.14684,35.65053],[139.14599,35.65013],[139.14502,35.6498],[139.14483,35.64963],[139.14455,35.64918],[139.14442,35.64905],[139.14365,35.64868],[139.14311,35.64824],[139.14295,35.64791],[139.14296,35.6473],[139.14276,35.64697]]}},{"type":"Feature","properties":{"idx":65,"road":"浅川相模湖線","cls":"secondary","shops":0,"st_km":2.86,"mesh":"53393168"},"geometry":{"type":"LineString","coordinates":[[139.23199,35.63967],[139.23055,35.63994],[139.22984,35.63979],[139.22915,35.63992],[139.22876,35.64006],[139.228,35.64019],[139.2272,35.64001],[139.22691,35.6398],[139.22592,35.63947],[139.22523,35.63918],[139.22506,35.63923],[139.22508,35.63933],[139.22551,35.63938],[139.2259,35.63962],[139.22595,35.63976],[139.22585,35.63981],[139.22573,35.63978],[139.22566,35.6396],[139.22548,35.63949],[139.22502,35.6395],[139.22461,35.63934],[139.22384,35.63935],[139.2227,35.63924]]}},{"type":"Feature","properties":{"idx":2,"road":"陣馬街道","cls":"secondary","shops":0,"st_km":4.34,"mesh":"53393182"},"geometry":{"type":"LineString","coordinates":[[139.15465,35.65617],[139.15446,35.65622],[139.15361,35.6562],[139.15329,35.65608],[139.1532,35.65588],[139.15319,35.65547],[139.15303,35.65534],[139.15273,35.65522],[139.15256,35.65505],[139.15252,35.65457],[139.1524,35.65432],[139.15213,35.65401],[139.15207,35.65377],[139.15208,35.65361],[139.15122,35.65354]]}},{"type":"Feature","properties":{"idx":2,"road":"和田林道","cls":"secondary","shops":0,"st_km":4.56,"mesh":"53393182"},"geometry":{"type":"LineString","coordinates":[[139.15626,35.65821],[139.15615,35.65792],[139.15613,35.65764],[139.15602,35.65728],[139.15607,35.65691],[139.15599,35.65671],[139.15559,35.65638],[139.15509,35.65615],[139.15483,35.65611]]}},{"type":"Feature","properties":{"idx":42,"road":"浅川相模湖線","cls":"secondary","shops":0,"st_km":2.41,"mesh":"53393156"},"geometry":{"type":"LineString","coordinates":[[139.20721,35.63255],[139.20799,35.63235]]}},{"type":"Feature","properties":{"idx":456,"road":"","cls":"tertiary","shops":0,"st_km":2.7,"mesh":"53393126"},"geometry":{"type":"LineString","coordinates":[[139.21042,35.59993],[139.21056,35.60046],[139.21066,35.60065],[139.21145,35.6013],[139.21167,35.60189],[139.21137,35.6019],[139.21087,35.60136],[139.21069,35.60127],[139.21021,35.60124],[139.21007,35.60117],[139.20935,35.60116],[139.20928,35.60124],[139.20927,35.60136]]}},{"type":"Feature","properties":{"idx":2,"road":"和田林道","cls":"secondary","shops":0,"st_km":4.81,"mesh":"53393182"},"geometry":{"type":"LineString","coordinates":[[139.16828,35.65762],[139.1678,35.65751],[139.16744,35.65718],[139.16728,35.65714],[139.16723,35.6572],[139.16725,35.65731],[139.16777,35.65774],[139.16779,35.65781],[139.16769,35.65799],[139.16755,35.65808],[139.16705,35.65803],[139.16666,35.65808],[139.16639,35.65822],[139.16572,35.65871],[139.16491,35.65909],[139.1647,35.65911],[139.16415,35.65903],[139.16397,35.65908],[139.16368,35.65935],[139.16311,35.6594],[139.1627,35.65938],[139.16149,35.65887],[139.16086,35.65827],[139.16031,35.65821],[139.16001,35.65825],[139.15988,35.65819],[139.15991,35.6581],[139.15999,35.65807],[139.16034,35.65811],[139.16099,35.65803],[139.1611,35.65807],[139.16159,35.65845],[139.16176,35.65848],[139.16198,35.65838],[139.16206,35.65817],[139.16199,35.65799],[139.16158,35.65744],[139.16143,35.65734],[139.1606,35.657],[139.16007,35.65657],[139.15996,35.65613],[139.15984,35.65607],[139.15973,35.65612],[139.15971,35.65624],[139.15994,35.65665],[139.16029,35.65698],[139.16047,35.65738],[139.16046,35.65753],[139.16029,35.65758],[139.15992,35.65739],[139.15915,35.65755],[139.15908,35.65765],[139.15902,35.65801],[139.15906,35.65838],[139.15893,35.65852],[139.15882,35.65848],[139.15879,35.65838],[139.1589,35.65803],[139.15872,35.6574],[139.15863,35.65731],[139.15847,35.65732],[139.15846,35.65745],[139.15866,35.65774],[139.15863,35.65798],[139.15831,35.65867],[139.15779,35.6595]]}},{"type":"Feature","properties":{"idx":48,"road":"四日市場上野原線","cls":"primary","shops":0,"st_km":3.85,"mesh":"53393100"},"geometry":{"type":"LineString","coordinates":[[139.12561,35.58462],[139.12554,35.5848],[139.12562,35.5849],[139.12573,35.5849],[139.12594,35.58476],[139.12607,35.58473],[139.12639,35.58496],[139.12687,35.58512],[139.12723,35.58515],[139.12766,35.5853]]}},{"type":"Feature","properties":{"idx":49,"road":"四日市場上野原線","cls":"primary","shops":0,"st_km":3.51,"mesh":"53393100"},"geometry":{"type":"LineString","coordinates":[[139.12766,35.5853],[139.12944,35.58604],[139.12976,35.58607],[139.13035,35.58603],[139.13086,35.58622],[139.13144,35.58625],[139.13169,35.58633],[139.13208,35.58666],[139.13244,35.58717],[139.13308,35.58772],[139.13312,35.58793],[139.13324,35.58815],[139.13319,35.58825],[139.13306,35.58832],[139.13159,35.58879],[139.13108,35.589],[139.12988,35.58969],[139.1294,35.58981],[139.12921,35.59002],[139.12908,35.59047],[139.12898,35.59061],[139.12865,35.59063],[139.12839,35.59058],[139.12836,35.59075],[139.12844,35.59098],[139.12933,35.5921],[139.12966,35.59243],[139.12968,35.59253],[139.12926,35.59263],[139.12907,35.59275],[139.12886,35.59279],[139.12858,35.59294],[139.12736,35.59296]]}},{"type":"Feature","properties":{"idx":74,"road":"山北藤野線","cls":"primary","shops":0,"st_km":0.66,"mesh":"53393132"},"geometry":{"type":"LineString","coordinates":[[139.15581,35.61063],[139.15587,35.61092],[139.15612,35.61148],[139.1563,35.61201],[139.15629,35.61246]]}},{"type":"Feature","properties":{"idx":139,"road":"山北藤野線","cls":"primary","shops":2,"st_km":0.73,"mesh":"53393132"},"geometry":{"type":"LineString","coordinates":[[139.15582,35.61037],[139.15581,35.61063]]}},{"type":"Feature","properties":{"idx":41,"road":"山北藤野線","cls":"primary","shops":0,"st_km":2.43,"mesh":"53393111"},"geometry":{"type":"LineString","coordinates":[[139.14993,35.59079],[139.14993,35.59134],[139.15,35.59178],[139.14962,35.59361],[139.14944,35.59389],[139.14881,35.59415],[139.14876,35.59433],[139.1488,35.59455],[139.14891,35.5947],[139.1493,35.59487],[139.15015,35.59488],[139.15087,35.59513],[139.15116,35.59537],[139.15172,35.59643]]}},{"type":"Feature","properties":{"idx":28,"road":"三井相模湖線","cls":"secondary","shops":0,"st_km":2.4,"mesh":"53393137"},"geometry":{"type":"LineString","coordinates":[[139.21335,35.61458],[139.21364,35.61417],[139.21426,35.61365],[139.21624,35.61253]]}},{"type":"Feature","properties":{"idx":14,"road":"吉野上野原停車場線","cls":"secondary","shops":0,"st_km":1.37,"mesh":"53393130"},"geometry":{"type":"LineString","coordinates":[[139.14088,35.61426],[139.13926,35.61448],[139.138,35.61458],[139.13764,35.61471],[139.13727,35.61501],[139.13711,35.61506],[139.13684,35.61503],[139.13637,35.61481],[139.13617,35.61486],[139.13619,35.615],[139.13683,35.61521],[139.13715,35.61544],[139.13735,35.61571],[139.13729,35.61583],[139.13711,35.61583],[139.13649,35.61568],[139.13545,35.6157],[139.13488,35.61565],[139.13469,35.61569],[139.13452,35.61584]]}},{"type":"Feature","properties":{"idx":14,"road":"陣馬街道","cls":"secondary","shops":2,"st_km":4.83,"mesh":"53393183"},"geometry":{"type":"LineString","coordinates":[[139.16837,35.65764],[139.16828,35.65762]]}},{"type":"Feature","properties":{"idx":8,"road":"佐野川上野原線","cls":"secondary","shops":0,"st_km":2.24,"mesh":"53393160"},"geometry":{"type":"LineString","coordinates":[[139.12834,35.64087],[139.12791,35.6406],[139.12782,35.64022],[139.12717,35.63922],[139.12707,35.63915],[139.12636,35.63896],[139.12626,35.63888],[139.12634,35.63795],[139.1258,35.63687],[139.12595,35.63621],[139.12589,35.63564],[139.12571,35.63536],[139.12542,35.63516],[139.12526,35.63489],[139.12471,35.63464],[139.12451,35.63445],[139.12442,35.63424],[139.12432,35.63295],[139.12372,35.63249]]}},{"type":"Feature","properties":{"idx":62,"road":"山北藤野線","cls":"primary","shops":0,"st_km":0.87,"mesh":"53393132"},"geometry":{"type":"LineString","coordinates":[[139.15605,35.60779],[139.15579,35.60892],[139.15582,35.61037]]}},{"type":"Feature","properties":{"idx":555,"road":"旧甲州街道","cls":"tertiary","shops":2,"st_km":1.16,"mesh":"53393144"},"geometry":{"type":"LineString","coordinates":[[139.17694,35.62196],[139.1772,35.62214],[139.17732,35.62215]]}},{"type":"Feature","properties":{"idx":34,"road":"旧甲州街道","cls":"tertiary","shops":1,"st_km":1.83,"mesh":"53393143"},"geometry":{"type":"LineString","coordinates":[[139.16865,35.62474],[139.16845,35.62465]]}},{"type":"Feature","properties":{"idx":34,"road":"旧甲州街道","cls":"tertiary","shops":1,"st_km":1.85,"mesh":"53393143"},"geometry":{"type":"LineString","coordinates":[[139.16884,35.62476],[139.16865,35.62474]]}},{"type":"Feature","properties":{"idx":56,"road":"秋川橋","cls":"secondary","shops":0,"st_km":0.86,"mesh":"53393132"},"geometry":{"type":"LineString","coordinates":[[139.15492,35.60875],[139.15405,35.60868]]}},{"type":"Feature","properties":{"idx":129,"road":"","cls":"tertiary","shops":0,"st_km":4.53,"mesh":"53393109"},"geometry":{"type":"LineString","coordinates":[[139.24744,35.59088],[139.24792,35.59086],[139.24855,35.59071],[139.24927,35.59066]]}},{"type":"Feature","properties":{"idx":129,"road":"境橋","cls":"tertiary","shops":0,"st_km":4.52,"mesh":"53393109"},"geometry":{"type":"LineString","coordinates":[[139.24732,35.59095],[139.24744,35.59088]]}},{"type":"Feature","properties":{"idx":33,"road":"山北藤野線","cls":"primary","shops":0,"st_km":3.37,"mesh":"53393102"},"geometry":{"type":"LineString","coordinates":[[139.15027,35.58116],[139.14995,35.58143],[139.14962,35.58188],[139.14941,35.58246],[139.14919,35.58285],[139.14911,35.5833],[139.14918,35.58357],[139.14932,35.58375],[139.14952,35.58384],[139.14993,35.58385],[139.15004,35.58391],[139.15074,35.58592],[139.15074,35.58623],[139.15058,35.58648],[139.15061,35.58694],[139.15035,35.5883],[139.15045,35.58911],[139.15046,35.59004],[139.15035,35.59025],[139.15007,35.59052],[139.14993,35.59079]]}},{"type":"Feature","properties":{"idx":14,"road":"陣馬街道","cls":"secondary","shops":2,"st_km":5.12,"mesh":"53393195"},"geometry":{"type":"LineString","coordinates":[[139.18931,35.66347],[139.18915,35.66341],[139.18907,35.66345]]}},{"type":"Feature","properties":{"idx":11,"road":"陣馬街道","cls":"secondary","shops":1,"st_km":5.13,"mesh":"53393195"},"geometry":{"type":"LineString","coordinates":[[139.18901,35.66348],[139.18844,35.66356]]}},{"type":"Feature","properties":{"idx":14,"road":"陣馬街道","cls":"secondary","shops":2,"st_km":5.12,"mesh":"53393195"},"geometry":{"type":"LineString","coordinates":[[139.18907,35.66345],[139.18901,35.66348]]}},{"type":"Feature","properties":{"idx":7,"road":"陣馬街道","cls":"secondary","shops":0,"st_km":5.13,"mesh":"53393195"},"geometry":{"type":"LineString","coordinates":[[139.1917,35.66405],[139.1912,35.6636],[139.191,35.6635],[139.19077,35.66352],[139.19012,35.66387],[139.18993,35.66386],[139.18963,35.66365]]}},{"type":"Feature","properties":{"idx":7,"road":"中の橋","cls":"secondary","shops":0,"st_km":5.2,"mesh":"53393195"},"geometry":{"type":"LineString","coordinates":[[139.1918,35.66415],[139.1917,35.66405]]}},{"type":"Feature","properties":{"idx":7,"road":"陣馬街道","cls":"secondary","shops":0,"st_km":5.13,"mesh":"53393195"},"geometry":{"type":"LineString","coordinates":[[139.18844,35.66356],[139.18835,35.66359]]}},{"type":"Feature","properties":{"idx":15,"road":"陣馬街道","cls":"secondary","shops":0,"st_km":4.89,"mesh":"53393194"},"geometry":{"type":"LineString","coordinates":[[139.18835,35.66359],[139.18759,35.66379],[139.18721,35.66399],[139.18683,35.66408],[139.18645,35.66426],[139.18633,35.66425],[139.18531,35.66375],[139.18498,35.66373],[139.18476,35.66352],[139.18461,35.66316],[139.18436,35.66292],[139.18374,35.66275],[139.18335,35.66259],[139.18311,35.66239],[139.1823,35.66219],[139.18193,35.66191],[139.1816,35.66143],[139.18121,35.66127],[139.18065,35.66123],[139.1803,35.66101],[139.18024,35.66085],[139.1805,35.66013],[139.1805,35.6599],[139.18046,35.65982],[139.18006,35.65962],[139.17948,35.65974],[139.17905,35.6596],[139.17879,35.65947],[139.17829,35.65946],[139.17808,35.6593],[139.17803,35.65917],[139.17791,35.65908],[139.17775,35.65885],[139.17758,35.65883],[139.1772,35.65895],[139.17694,35.65882],[139.1766,35.65881],[139.1763,35.65872],[139.17509,35.65878],[139.17467,35.65887],[139.17439,35.659],[139.17389,35.65901],[139.17324,35.6591],[139.17308,35.65919],[139.17289,35.65938],[139.17275,35.65941]]}},{"type":"Feature","properties":{"idx":26,"road":"","cls":"tertiary","shops":0,"st_km":3.51,"mesh":"53393116"},"geometry":{"type":"LineString","coordinates":[[139.21233,35.59237],[139.2124,35.59234]]}},{"type":"Feature","properties":{"idx":26,"road":"","cls":"tertiary","shops":0,"st_km":3.5,"mesh":"53393116"},"geometry":{"type":"LineString","coordinates":[[139.21223,35.59243],[139.21233,35.59237]]}},{"type":"Feature","properties":{"idx":135,"road":"","cls":"tertiary","shops":0,"st_km":3.13,"mesh":"53393127"},"geometry":{"type":"LineString","coordinates":[[139.21984,35.60394],[139.21929,35.60431],[139.21918,35.60447],[139.2192,35.60464],[139.21946,35.60496],[139.21953,35.60499]]}},{"type":"Feature","properties":{"idx":31,"road":"陣馬街道","cls":"secondary","shops":0,"st_km":2.74,"mesh":"53393161"},"geometry":{"type":"LineString","coordinates":[[139.13994,35.63904],[139.13981,35.63876]]}},{"type":"Feature","properties":{"idx":31,"road":"上河原大橋","cls":"secondary","shops":0,"st_km":2.76,"mesh":"53393161"},"geometry":{"type":"LineString","coordinates":[[139.13999,35.63913],[139.13994,35.63904]]}},{"type":"Feature","properties":{"idx":7,"road":"佐野川上野原線","cls":"secondary","shops":0,"st_km":2.81,"mesh":"53393160"},"geometry":{"type":"LineString","coordinates":[[139.13385,35.64033],[139.13375,35.64024],[139.13378,35.63984],[139.13355,35.63955],[139.13329,35.6395],[139.13235,35.6395],[139.13203,35.63962],[139.13111,35.64043],[139.13095,35.64062],[139.13054,35.64087],[139.13021,35.64097],[139.12997,35.64098],[139.12834,35.64087]]}},{"type":"Feature","properties":{"idx":7,"road":"矢沢橋","cls":"secondary","shops":0,"st_km":2.95,"mesh":"53393160"},"geometry":{"type":"LineString","coordinates":[[139.13394,35.64035],[139.13385,35.64033]]}},{"type":"Feature","properties":{"idx":20,"road":"奥牧野相模湖線","cls":"secondary","shops":0,"st_km":1.88,"mesh":"53393124"},"geometry":{"type":"LineString","coordinates":[[139.18058,35.60074],[139.18129,35.601],[139.18143,35.6013],[139.18159,35.6014],[139.18183,35.60148],[139.18209,35.6015],[139.1824,35.60147],[139.18299,35.60131],[139.18306,35.6012],[139.18304,35.60102],[139.18308,35.60086],[139.18339,35.60044],[139.18354,35.60037],[139.18369,35.60043],[139.18385,35.60072],[139.18401,35.60082],[139.18508,35.60104],[139.18539,35.60094],[139.18562,35.60051],[139.18595,35.60044],[139.18612,35.60056],[139.18616,35.60087],[139.1863,35.60096],[139.18647,35.60095],[139.18671,35.60078],[139.18679,35.60038],[139.18693,35.60021],[139.18767,35.60016],[139.1881,35.60025],[139.18841,35.60025],[139.18908,35.59994],[139.18945,35.59966],[139.19013,35.59945],[139.19017,35.59937],[139.18993,35.59915],[139.18983,35.59895],[139.18984,35.59879],[139.18993,35.5987]]}},{"type":"Feature","properties":{"idx":48,"road":"陣馬街道","cls":"secondary","shops":1,"st_km":2.66,"mesh":"53393161"},"geometry":{"type":"LineString","coordinates":[[139.13976,35.63779],[139.13999,35.63815],[139.14007,35.63846],[139.14004,35.63857]]}},{"type":"Feature","properties":{"idx":72,"road":"","cls":"tertiary","shops":0,"st_km":0.35,"mesh":"53393135"},"geometry":{"type":"LineString","coordinates":[[139.18985,35.614],[139.19003,35.61467]]}},{"type":"Feature","properties":{"idx":41,"road":"","cls":"secondary","shops":0,"st_km":1.59,"mesh":"53393133"},"geometry":{"type":"LineString","coordinates":[[139.17143,35.61442],[139.17122,35.6146]]}},{"type":"Feature","properties":{"idx":9,"road":"陣馬街道","cls":"secondary","shops":0,"st_km":3.97,"mesh":"53393181"},"geometry":{"type":"LineString","coordinates":[[139.15004,35.65289],[139.15013,35.65215],[139.15004,35.65194],[139.14975,35.65174],[139.14902,35.65155],[139.14865,35.65124]]}},{"type":"Feature","properties":{"idx":3,"road":"陣馬街道","cls":"secondary","shops":1,"st_km":4.1,"mesh":"53393182"},"geometry":{"type":"LineString","coordinates":[[139.15005,35.653],[139.15004,35.65289]]}},{"type":"Feature","properties":{"idx":2,"road":"陣馬街道","cls":"secondary","shops":0,"st_km":4.14,"mesh":"53393182"},"geometry":{"type":"LineString","coordinates":[[139.15055,35.65347],[139.15019,35.65323],[139.15005,35.653]]}},{"type":"Feature","properties":{"idx":2,"road":"陣馬街道","cls":"secondary","shops":0,"st_km":4.16,"mesh":"53393182"},"geometry":{"type":"LineString","coordinates":[[139.15063,35.65352],[139.15055,35.65347]]}},{"type":"Feature","properties":{"idx":2,"road":"陣馬街道","cls":"secondary","shops":0,"st_km":4.17,"mesh":"53393182"},"geometry":{"type":"LineString","coordinates":[[139.15106,35.65353],[139.15063,35.65352]]}},{"type":"Feature","properties":{"idx":2,"road":"陣馬街道","cls":"secondary","shops":0,"st_km":4.16,"mesh":"53393182"},"geometry":{"type":"LineString","coordinates":[[139.15122,35.65354],[139.15106,35.65353]]}},{"type":"Feature","properties":{"idx":2,"road":"陣馬街道","cls":"secondary","shops":0,"st_km":4.47,"mesh":"53393182"},"geometry":{"type":"LineString","coordinates":[[139.15475,35.65614],[139.15465,35.65617]]}},{"type":"Feature","properties":{"idx":2,"road":"陣馬街道","cls":"secondary","shops":0,"st_km":4.46,"mesh":"53393182"},"geometry":{"type":"LineString","coordinates":[[139.15483,35.65611],[139.15475,35.65614]]}},{"type":"Feature","properties":{"idx":2,"road":"和田林道","cls":"secondary","shops":0,"st_km":4.71,"mesh":"53393182"},"geometry":{"type":"LineString","coordinates":[[139.1563,35.65832],[139.15626,35.65821]]}},{"type":"Feature","properties":{"idx":5,"road":"奥牧野相模湖線","cls":"secondary","shops":0,"st_km":3.21,"mesh":"53393103"},"geometry":{"type":"LineString","coordinates":[[139.16881,35.59024],[139.17012,35.59114],[139.17105,35.59219],[139.17185,35.59271],[139.17195,35.59285],[139.17205,35.59316],[139.17212,35.59323]]}},{"type":"Feature","properties":{"idx":7,"road":"陣馬街道","cls":"secondary","shops":0,"st_km":4.7,"mesh":"53393183"},"geometry":{"type":"LineString","coordinates":[[139.17082,35.66041],[139.17084,35.66017],[139.17108,35.65983],[139.17109,35.65974],[139.17103,35.65954],[139.17102,35.65923],[139.17065,35.65911],[139.17066,35.65881],[139.17062,35.65871],[139.16981,35.65821],[139.16976,35.6581],[139.16985,35.65789],[139.17028,35.65767],[139.17043,35.65747],[139.17041,35.657],[139.17036,35.65687],[139.17027,35.65688],[139.17034,35.65715],[139.17025,35.65733],[139.17006,35.65748],[139.16963,35.65762],[139.16921,35.65795],[139.16912,35.65809],[139.16912,35.65825],[139.16919,35.65845],[139.16953,35.6588],[139.1694,35.65921],[139.16934,35.65918],[139.16937,35.65895],[139.16933,35.65886],[139.16878,35.6585],[139.1687,35.6584],[139.16857,35.65782],[139.16851,35.65772]]}},{"type":"Feature","properties":{"idx":11,"road":"陣馬街道","cls":"secondary","shops":0,"st_km":1.45,"mesh":"53393151"},"geometry":{"type":"LineString","coordinates":[[139.14926,35.62805],[139.14935,35.62841],[139.1493,35.62864],[139.1492,35.62877],[139.14893,35.62893],[139.14784,35.62942]]}},{"type":"Feature","properties":{"idx":15,"road":"落合橋","cls":"secondary","shops":1,"st_km":1.53,"mesh":"53393151"},"geometry":{"type":"LineString","coordinates":[[139.14784,35.62942],[139.14765,35.62951]]}},{"type":"Feature","properties":{"idx":25,"road":"陣馬街道","cls":"secondary","shops":0,"st_km":0.97,"mesh":"53393142"},"geometry":{"type":"LineString","coordinates":[[139.15184,35.62332],[139.15168,35.62344],[139.15115,35.62365],[139.15102,35.62375],[139.15097,35.62394],[139.15116,35.6244],[139.15113,35.62458],[139.15107,35.62469],[139.15039,35.6254],[139.14987,35.6257],[139.14946,35.62611]]}},{"type":"Feature","properties":{"idx":29,"road":"陣馬街道","cls":"secondary","shops":0,"st_km":0.81,"mesh":"53393142"},"geometry":{"type":"LineString","coordinates":[[139.15188,35.62323],[139.15184,35.62332]]}},{"type":"Feature","properties":{"idx":31,"road":"陣馬街道","cls":"secondary","shops":0,"st_km":0.73,"mesh":"53393142"},"geometry":{"type":"LineString","coordinates":[[139.1526,35.62175],[139.15261,35.62218],[139.15256,35.6223],[139.15212,35.62278],[139.15188,35.62323]]}},{"type":"Feature","properties":{"idx":33,"road":"陣馬街道","cls":"secondary","shops":0,"st_km":0.64,"mesh":"53393142"},"geometry":{"type":"LineString","coordinates":[[139.1526,35.62166],[139.1526,35.62175]]}},{"type":"Feature","properties":{"idx":12,"road":"陣馬街道","cls":"secondary","shops":0,"st_km":1.26,"mesh":"53393151"},"geometry":{"type":"LineString","coordinates":[[139.14922,35.62633],[139.14876,35.62679],[139.14866,35.62711],[139.14869,35.62733],[139.14877,35.62748],[139.14923,35.62799]]}},{"type":"Feature","properties":{"idx":11,"road":"陣馬街道","cls":"secondary","shops":0,"st_km":1.35,"mesh":"53393151"},"geometry":{"type":"LineString","coordinates":[[139.14923,35.62799],[139.14926,35.62805]]}},{"type":"Feature","properties":{"idx":7,"road":"陣馬街道","cls":"secondary","shops":0,"st_km":5.46,"mesh":"53393195"},"geometry":{"type":"LineString","coordinates":[[139.19462,35.66823],[139.19456,35.6681],[139.19457,35.66783],[139.19425,35.66738],[139.19342,35.66727],[139.19303,35.667],[139.193,35.66683],[139.19326,35.66627],[139.19322,35.66603],[139.19284,35.66525],[139.1926,35.66495],[139.19234,35.66443],[139.19222,35.66431],[139.1918,35.66415]]}},{"type":"Feature","properties":{"idx":43,"road":"奥牧野相模湖線","cls":"secondary","shops":0,"st_km":3.75,"mesh":"53393100"},"geometry":{"type":"LineString","coordinates":[[139.13752,35.58573],[139.13728,35.58567],[139.13715,35.58569],[139.13648,35.58611],[139.1362,35.58616],[139.13507,35.58588],[139.13383,35.5852],[139.13366,35.58482],[139.13333,35.58482],[139.13296,35.58457],[139.13242,35.58464],[139.13191,35.58457],[139.1315,35.5846],[139.13108,35.5845],[139.13099,35.58459],[139.13106,35.58483]]}},{"type":"Feature","properties":{"idx":42,"road":"奥牧野相模湖線","cls":"secondary","shops":0,"st_km":3.57,"mesh":"53393101"},"geometry":{"type":"LineString","coordinates":[[139.13769,35.58585],[139.13752,35.58573]]}},{"type":"Feature","properties":{"idx":13,"road":"陣馬街道","cls":"secondary","shops":1,"st_km":3.91,"mesh":"53393181"},"geometry":{"type":"LineString","coordinates":[[139.14865,35.65124],[139.14846,35.65109]]}},{"type":"Feature","properties":{"idx":5,"road":"藤野津久井線","cls":"secondary","shops":0,"st_km":3.19,"mesh":"53393103"},"geometry":{"type":"LineString","coordinates":[[139.17212,35.59323],[139.17288,35.5925],[139.17298,35.59231],[139.17296,35.59214],[139.17278,35.59174],[139.17275,35.59135],[139.1725,35.59075],[139.17258,35.5903],[139.1729,35.58987]]}},{"type":"Feature","properties":{"idx":5,"road":"藤野津久井線","cls":"secondary","shops":0,"st_km":3.36,"mesh":"53393103"},"geometry":{"type":"LineString","coordinates":[[139.1729,35.58987],[139.17295,35.5898]]}},{"type":"Feature","properties":{"idx":5,"road":"藤野津久井線","cls":"secondary","shops":0,"st_km":3.61,"mesh":"53393103"},"geometry":{"type":"LineString","coordinates":[[139.17295,35.5898],[139.17325,35.58931],[139.17336,35.58897],[139.17333,35.58833],[139.1729,35.58774],[139.17292,35.58763],[139.17305,35.58746],[139.17308,35.58734],[139.17293,35.58673],[139.17294,35.5866],[139.17316,35.58632],[139.17328,35.58586],[139.17344,35.58573],[139.17399,35.58547],[139.17439,35.58507]]}},{"type":"Feature","properties":{"idx":5,"road":"藤野津久井線","cls":"secondary","shops":0,"st_km":3.8,"mesh":"53393103"},"geometry":{"type":"LineString","coordinates":[[139.17439,35.58507],[139.17445,35.58499]]}},{"type":"Feature","properties":{"idx":5,"road":"藤野津久井線","cls":"secondary","shops":0,"st_km":3.84,"mesh":"53393103"},"geometry":{"type":"LineString","coordinates":[[139.17445,35.58499],[139.17482,35.58458],[139.17498,35.5843],[139.17521,35.58422]]}},{"type":"Feature","properties":{"idx":5,"road":"奥牧野相模湖線","cls":"secondary","shops":0,"st_km":3.23,"mesh":"53393103"},"geometry":{"type":"LineString","coordinates":[[139.16724,35.59003],[139.16738,35.59023],[139.16757,35.59029],[139.16821,35.59011],[139.16859,35.59015]]}},{"type":"Feature","properties":{"idx":5,"road":"奥牧野相模湖線","cls":"secondary","shops":0,"st_km":3.27,"mesh":"53393103"},"geometry":{"type":"LineString","coordinates":[[139.16859,35.59015],[139.16881,35.59024]]}}]}