{"type":"FeatureCollection","features":[{"type":"Feature","properties":{"idx":14,"road":"飯能下名栗線","cls":"primary","shops":0,"st_km":4.91,"mesh":"53396125"},"geometry":{"type":"LineString","coordinates":[[139.19884,35.85195],[139.19941,35.85153],[139.19984,35.85128],[139.20021,35.85113],[139.20086,35.85098]]}},{"type":"Feature","properties":{"idx":87,"road":"原市場下成木線","cls":"secondary","shops":0,"st_km":3.95,"mesh":"53396138"},"geometry":{"type":"LineString","coordinates":[[139.23477,35.86356],[139.23488,35.86349]]}},{"type":"Feature","properties":{"idx":163,"road":"飯能下名栗線","cls":"primary","shops":1,"st_km":4.84,"mesh":"53396126"},"geometry":{"type":"LineString","coordinates":[[139.20129,35.85095],[139.20158,35.85095]]}},{"type":"Feature","properties":{"idx":163,"road":"飯能下名栗線","cls":"primary","shops":1,"st_km":4.85,"mesh":"53396126"},"geometry":{"type":"LineString","coordinates":[[139.20086,35.85098],[139.20129,35.85095]]}},{"type":"Feature","properties":{"idx":28,"road":"青梅秩父線","cls":"primary","shops":0,"st_km":5.52,"mesh":"53396135"},"geometry":{"type":"LineString","coordinates":[[139.19425,35.85436],[139.19334,35.85484],[139.19196,35.85587],[139.19175,35.85613],[139.19148,35.85682],[139.19134,35.85705],[139.1912,35.85719],[139.19026,35.85782],[139.18994,35.8581],[139.18954,35.85851],[139.18834,35.86005],[139.1869,35.8632],[139.18684,35.86356],[139.18686,35.8648],[139.18677,35.86556],[139.18679,35.86571]]}},{"type":"Feature","properties":{"idx":79,"road":NaN,"cls":"tertiary","shops":1,"st_km":4.81,"mesh":"53396164"},"geometry":{"type":"LineString","coordinates":[[139.17611,35.89439],[139.17596,35.89405],[139.17567,35.89366],[139.17561,35.89348],[139.17566,35.8933],[139.17578,35.89317],[139.17604,35.893],[139.17614,35.89281],[139.17622,35.89219],[139.17616,35.89177],[139.17608,35.89147],[139.17584,35.891],[139.17609,35.89037],[139.17629,35.89016],[139.17754,35.88939],[139.17772,35.88906],[139.17792,35.88821],[139.17819,35.88779],[139.1784,35.88762],[139.179,35.88743],[139.17927,35.88728],[139.17945,35.88711],[139.17972,35.8867],[139.18006,35.88637],[139.18062,35.8846],[139.18084,35.88419],[139.18121,35.88322],[139.18208,35.88163],[139.18221,35.88118],[139.18245,35.88071],[139.18248,35.88033],[139.18295,35.87986],[139.18306,35.87953],[139.18346,35.87871],[139.18358,35.87829],[139.18379,35.87812],[139.18495,35.87805],[139.18531,35.8779]]}},{"type":"Feature","properties":{"idx":14,"road":NaN,"cls":"tertiary","shops":0,"st_km":4.31,"mesh":"53396174"},"geometry":{"type":"LineString","coordinates":[[139.17628,35.89475],[139.17611,35.89439]]}},{"type":"Feature","properties":{"idx":14,"road":NaN,"cls":"tertiary","shops":0,"st_km":4.28,"mesh":"53396174"},"geometry":{"type":"LineString","coordinates":[[139.17634,35.89488],[139.17628,35.89475]]}},{"type":"Feature","properties":{"idx":7,"road":"成木街道","cls":"primary","shops":0,"st_km":3.74,"mesh":"53396105"},"geometry":{"type":"LineString","coordinates":[[139.19633,35.84227],[139.19705,35.84021],[139.19732,35.83974],[139.19778,35.83936],[139.19903,35.83876]]}},{"type":"Feature","properties":{"idx":7,"road":"成木街道","cls":"primary","shops":0,"st_km":3.52,"mesh":"53396105"},"geometry":{"type":"LineString","coordinates":[[139.19958,35.83852],[139.19912,35.83872]]}},{"type":"Feature","properties":{"idx":12,"road":"成木街道","cls":"primary","shops":0,"st_km":3.34,"mesh":"53396106"},"geometry":{"type":"LineString","coordinates":[[139.20921,35.83577],[139.21007,35.83638],[139.21071,35.83698],[139.21095,35.83704],[139.21116,35.83699],[139.2114,35.83702],[139.21153,35.83718],[139.21161,35.83738],[139.21172,35.83746],[139.21276,35.83783],[139.21294,35.83794],[139.21328,35.83829],[139.21334,35.83841],[139.21326,35.8388],[139.21355,35.83917],[139.2135,35.83953],[139.21354,35.83966]]}},{"type":"Feature","properties":{"idx":83,"road":NaN,"cls":"tertiary","shops":0,"st_km":5.36,"mesh":"53396144"},"geometry":{"type":"LineString","coordinates":[[139.18671,35.87203],[139.18654,35.87218]]}},{"type":"Feature","properties":{"idx":83,"road":NaN,"cls":"tertiary","shops":0,"st_km":5.35,"mesh":"53396144"},"geometry":{"type":"LineString","coordinates":[[139.18629,35.87249],[139.18654,35.87218]]}},{"type":"Feature","properties":{"idx":4,"road":NaN,"cls":"tertiary","shops":0,"st_km":6.2,"mesh":"53396153"},"geometry":{"type":"LineString","coordinates":[[139.17394,35.87537],[139.17356,35.87533],[139.17271,35.87484],[139.1724,35.87478],[139.17211,35.87477],[139.17142,35.87491],[139.17084,35.87519],[139.17017,35.87567],[139.16968,35.87585],[139.16881,35.87588],[139.16849,35.87583],[139.16819,35.8757],[139.16757,35.8753],[139.16731,35.87524],[139.16698,35.87521],[139.16626,35.87531]]}},{"type":"Feature","properties":{"idx":619,"road":"飯能下名栗線","cls":"primary","shops":0,"st_km":3.5,"mesh":"53396148"},"geometry":{"type":"LineString","coordinates":[[139.2351,35.86828],[139.23528,35.86852]]}},{"type":"Feature","properties":{"idx":429,"road":"飯能下名栗線","cls":"primary","shops":0,"st_km":3.0,"mesh":"53396149"},"geometry":{"type":"LineString","coordinates":[[139.23528,35.86852],[139.2353,35.86866],[139.23491,35.86995],[139.23492,35.87016],[139.23534,35.87068],[139.23565,35.87089],[139.23617,35.8711],[139.23667,35.87114],[139.24249,35.87031],[139.24282,35.8702],[139.24411,35.86955],[139.24855,35.86835]]}},{"type":"Feature","properties":{"idx":32,"road":"秩父上名栗線","cls":"primary","shops":0,"st_km":5.36,"mesh":"53396190"},"geometry":{"type":"LineString","coordinates":[[139.13865,35.91453],[139.13855,35.91454],[139.1383,35.91444],[139.13814,35.91424],[139.13783,35.9137],[139.13762,35.91345],[139.13747,35.91335],[139.1368,35.91315],[139.1362,35.9129],[139.13579,35.9126],[139.13512,35.91202],[139.13499,35.91202],[139.1346,35.91219],[139.13441,35.91222],[139.134,35.91216],[139.13373,35.91204],[139.13308,35.91138],[139.13275,35.91136],[139.13261,35.91128],[139.13251,35.91117],[139.13239,35.91089],[139.13218,35.91084],[139.13186,35.91087],[139.1318,35.91084],[139.13131,35.91023],[139.13092,35.90995],[139.13062,35.90963],[139.13018,35.90939],[139.12909,35.90926],[139.12836,35.90885],[139.12788,35.9088],[139.1277,35.90883],[139.12753,35.90894],[139.12744,35.90905],[139.12744,35.90953],[139.12727,35.91007],[139.12676,35.91051]]}},{"type":"Feature","properties":{"idx":16,"road":NaN,"cls":"tertiary","shops":0,"st_km":0.19,"mesh":"53396198"},"geometry":{"type":"LineString","coordinates":[[139.22755,35.90936],[139.22772,35.90912]]}},{"type":"Feature","properties":{"idx":16,"road":NaN,"cls":"tertiary","shops":0,"st_km":0.19,"mesh":"53396198"},"geometry":{"type":"LineString","coordinates":[[139.22779,35.909],[139.22772,35.90912]]}},{"type":"Feature","properties":{"idx":16,"road":NaN,"cls":"tertiary","shops":0,"st_km":0.19,"mesh":"53396198"},"geometry":{"type":"LineString","coordinates":[[139.22749,35.90944],[139.22755,35.90936]]}},{"type":"Feature","properties":{"idx":23,"road":NaN,"cls":"pedestrian","shops":0,"st_km":5.91,"mesh":"53396134"},"geometry":{"type":"LineString","coordinates":[[139.187,35.86557],[139.18678,35.86544]]}},{"type":"Feature","properties":{"idx":87,"road":"原市場下成木線","cls":"secondary","shops":0,"st_km":3.95,"mesh":"53396138"},"geometry":{"type":"LineString","coordinates":[[139.23488,35.86349],[139.2352,35.86326]]}},{"type":"Feature","properties":{"idx":14,"road":"原市場下成木線","cls":"secondary","shops":0,"st_km":4.33,"mesh":"53396129"},"geometry":{"type":"LineString","coordinates":[[139.23646,35.86197],[139.23696,35.86151],[139.23772,35.86119],[139.23819,35.86093],[139.23958,35.85944],[139.23988,35.85922],[139.24018,35.85915],[139.24088,35.85917],[139.24176,35.85885],[139.24221,35.85857],[139.24271,35.85805],[139.24415,35.85709],[139.24487,35.85671],[139.24649,35.85599],[139.24691,35.85573],[139.24914,35.85331],[139.24967,35.85283],[139.25002,35.85262],[139.25068,35.85239],[139.25109,35.85218],[139.25135,35.85196],[139.25265,35.85055],[139.25475,35.84934],[139.2553,35.84896],[139.25561,35.84864],[139.25595,35.84809],[139.25616,35.84723],[139.25636,35.84693],[139.25689,35.84661],[139.2575,35.84647],[139.25777,35.84632]]}},{"type":"Feature","properties":{"idx":23,"road":NaN,"cls":"pedestrian","shops":0,"st_km":5.89,"mesh":"53396134"},"geometry":{"type":"LineString","coordinates":[[139.1873,35.86575],[139.187,35.86557]]}},{"type":"Feature","properties":{"idx":207,"road":NaN,"cls":"tertiary","shops":0,"st_km":4.98,"mesh":"53396154"},"geometry":{"type":"LineString","coordinates":[[139.18531,35.8779],[139.18549,35.87778]]}},{"type":"Feature","properties":{"idx":207,"road":NaN,"cls":"tertiary","shops":0,"st_km":4.98,"mesh":"53396154"},"geometry":{"type":"LineString","coordinates":[[139.18549,35.87778],[139.18576,35.87764]]}},{"type":"Feature","properties":{"idx":10,"road":"松ノ木通り","cls":"tertiary","shops":0,"st_km":3.05,"mesh":"53396106"},"geometry":{"type":"LineString","coordinates":[[139.20876,35.83465],[139.20819,35.83528],[139.2081,35.83547]]}},{"type":"Feature","properties":{"idx":7,"road":"上成木川井線","cls":"secondary","shops":0,"st_km":3.44,"mesh":"53396105"},"geometry":{"type":"LineString","coordinates":[[139.2012,35.83718],[139.20087,35.83703],[139.20031,35.83706],[139.20009,35.83719],[139.19975,35.83778],[139.19962,35.83789],[139.19949,35.83793],[139.1988,35.83782],[139.19805,35.83738],[139.19772,35.83729],[139.19738,35.8373],[139.19681,35.83716],[139.19613,35.8371],[139.19569,35.83698],[139.19466,35.83685],[139.19375,35.83686],[139.19283,35.83727],[139.19202,35.83735],[139.19141,35.83749],[139.19083,35.83738],[139.18986,35.83741],[139.18929,35.83773],[139.18878,35.83769],[139.18857,35.83752]]}},{"type":"Feature","properties":{"idx":16,"road":"青梅秩父線","cls":"primary","shops":0,"st_km":4.64,"mesh":"53396115"},"geometry":{"type":"LineString","coordinates":[[139.19884,35.85195],[139.1989,35.85031],[139.19887,35.84995],[139.19879,35.84978],[139.19816,35.84925],[139.19797,35.84877],[139.19772,35.84871],[139.19689,35.84891],[139.19671,35.84891],[139.19561,35.84861],[139.19517,35.84827],[139.19521,35.84816],[139.19536,35.84813],[139.19573,35.84833],[139.19608,35.84839],[139.19682,35.84834],[139.19695,35.84828],[139.19701,35.84817],[139.197,35.84773],[139.19694,35.84755],[139.19598,35.8465],[139.19597,35.84639],[139.19613,35.84587],[139.196,35.84513],[139.19591,35.84493],[139.1956,35.84469],[139.19553,35.84458],[139.19559,35.8437],[139.19569,35.84348],[139.19614,35.84294],[139.19633,35.84227]]}},{"type":"Feature","properties":{"idx":66,"road":"青梅秩父線","cls":"primary","shops":0,"st_km":4.68,"mesh":"53396164"},"geometry":{"type":"LineString","coordinates":[[139.18261,35.88522],[139.18197,35.8867],[139.1812,35.88759],[139.18007,35.88848],[139.17989,35.88873],[139.17965,35.88918],[139.1795,35.88935],[139.17887,35.88979],[139.17876,35.88992],[139.1782,35.89123]]}},{"type":"Feature","properties":{"idx":24,"road":"南飯能線","cls":"secondary","shops":0,"st_km":3.17,"mesh":"53396158"},"geometry":{"type":"LineString","coordinates":[[139.23091,35.87917],[139.23079,35.87909],[139.23071,35.87894],[139.23047,35.87762],[139.2304,35.87741],[139.2303,35.8773],[139.22991,35.87717],[139.22829,35.87705]]}},{"type":"Feature","properties":{"idx":24,"road":"南飯能線","cls":"secondary","shops":0,"st_km":3.03,"mesh":"53396158"},"geometry":{"type":"LineString","coordinates":[[139.23103,35.87926],[139.23091,35.87917]]}},{"type":"Feature","properties":{"idx":10,"road":"南飯能線","cls":"secondary","shops":0,"st_km":1.92,"mesh":"53396159"},"geometry":{"type":"LineString","coordinates":[[139.24645,35.87939],[139.24624,35.87943]]}},{"type":"Feature","properties":{"idx":10,"road":"南飯能線","cls":"secondary","shops":0,"st_km":1.98,"mesh":"53396159"},"geometry":{"type":"LineString","coordinates":[[139.24624,35.87943],[139.24598,35.87959],[139.24559,35.88015],[139.24534,35.88026],[139.24199,35.8807],[139.24174,35.88062],[139.24143,35.88044]]}},{"type":"Feature","properties":{"idx":10,"road":"南川上名栗線","cls":"secondary","shops":0,"st_km":2.93,"mesh":"53396194"},"geometry":{"type":"LineString","coordinates":[[139.17834,35.91787],[139.17773,35.91789],[139.17736,35.91781],[139.17718,35.91769],[139.17694,35.91736],[139.17659,35.91718],[139.17663,35.91709],[139.17673,35.91708],[139.17711,35.91738],[139.17729,35.91746],[139.17764,35.91754],[139.17783,35.9175],[139.17795,35.91734],[139.17804,35.91646],[139.17799,35.9163],[139.17776,35.91609],[139.17763,35.91585],[139.1773,35.9148],[139.17733,35.91454],[139.17747,35.91434],[139.1776,35.91427],[139.17767,35.91394],[139.17764,35.91389],[139.17754,35.91388],[139.17739,35.91423],[139.17715,35.91445],[139.17681,35.91448],[139.17677,35.91453],[139.17675,35.91466],[139.17688,35.91482],[139.17682,35.91491],[139.1767,35.91486],[139.17655,35.91463],[139.17651,35.91425],[139.17664,35.91412],[139.17695,35.91404],[139.17699,35.91389],[139.1766,35.91316],[139.17657,35.91273],[139.17605,35.91233],[139.17607,35.91225],[139.17624,35.91224],[139.17636,35.91214],[139.17663,35.91143],[139.17655,35.91138],[139.17647,35.91141],[139.17635,35.9117],[139.17618,35.91191],[139.17603,35.91195],[139.17595,35.91187],[139.17609,35.91169],[139.17608,35.91138],[139.17632,35.91124],[139.17644,35.91109],[139.1764,35.91092],[139.17629,35.91084],[139.17585,35.91096],[139.17554,35.9109],[139.17526,35.911],[139.17506,35.91099],[139.17464,35.91068],[139.17464,35.91051],[139.17454,35.91032],[139.17451,35.91],[139.17412,35.90989],[139.17382,35.90987],[139.17365,35.9097],[139.17332,35.90957],[139.17324,35.90949],[139.17326,35.90939],[139.17375,35.90928],[139.17411,35.90897],[139.17422,35.90892],[139.17435,35.90899],[139.1742,35.90919],[139.17425,35.90929],[139.17458,35.90933],[139.17474,35.90928],[139.17479,35.90913],[139.17477,35.90892],[139.17499,35.90863],[139.17504,35.90822],[139.17521,35.908],[139.17532,35.90759],[139.17534,35.90747],[139.17527,35.90709],[139.17542,35.90709],[139.17548,35.90729],[139.17564,35.90735],[139.17579,35.90724],[139.17589,35.90697],[139.17586,35.9068],[139.17559,35.90642],[139.17556,35.90624],[139.1756,35.90613],[139.17587,35.90599],[139.17586,35.9057],[139.17574,35.9056],[139.17529,35.90544],[139.17488,35.90514],[139.17457,35.90464],[139.17382,35.90394],[139.17361,35.90356],[139.17356,35.90351],[139.1734,35.90349]]}},{"type":"Feature","properties":{"idx":21,"road":"青梅秩父線","cls":"primary","shops":0,"st_km":5.88,"mesh":"53396134"},"geometry":{"type":"LineString","coordinates":[[139.18679,35.86571],[139.18696,35.86603]]}},{"type":"Feature","properties":{"idx":22,"road":"上成木川井線","cls":"secondary","shops":2,"st_km":3.28,"mesh":"53396106"},"geometry":{"type":"LineString","coordinates":[[139.20352,35.83675],[139.20231,35.83705]]}},{"type":"Feature","properties":{"idx":32,"road":"青梅秩父線","cls":"primary","shops":1,"st_km":5.84,"mesh":"53396134"},"geometry":{"type":"LineString","coordinates":[[139.18696,35.86603],[139.18707,35.86639]]}},{"type":"Feature","properties":{"idx":103,"road":"青梅秩父線","cls":"primary","shops":0,"st_km":5.39,"mesh":"53396144"},"geometry":{"type":"LineString","coordinates":[[139.1867,35.87133],[139.18671,35.87203]]}},{"type":"Feature","properties":{"idx":83,"road":NaN,"cls":"tertiary","shops":0,"st_km":5.41,"mesh":"53396144"},"geometry":{"type":"LineString","coordinates":[[139.18629,35.87249],[139.18612,35.8726],[139.18412,35.87293],[139.18332,35.87337]]}},{"type":"Feature","properties":{"idx":1,"road":NaN,"cls":"pedestrian","shops":0,"st_km":3.38,"mesh":"53396107"},"geometry":{"type":"LineString","coordinates":[[139.21757,35.83685],[139.21808,35.83687],[139.21823,35.8368],[139.21824,35.83667],[139.2181,35.8363]]}},{"type":"Feature","properties":{"idx":258,"road":"青梅秩父線","cls":"primary","shops":0,"st_km":4.96,"mesh":"53396154"},"geometry":{"type":"LineString","coordinates":[[139.18671,35.87203],[139.18685,35.87221],[139.18735,35.87255],[139.18761,35.87286],[139.1877,35.87307],[139.18768,35.87333],[139.18755,35.8736],[139.18662,35.87484],[139.18643,35.87516],[139.18624,35.87593],[139.18595,35.87642],[139.18573,35.87714],[139.18576,35.87764],[139.18586,35.87811],[139.18571,35.87901],[139.18405,35.88214],[139.18359,35.88325],[139.18328,35.88381]]}},{"type":"Feature","properties":{"idx":99,"road":"青梅秩父線","cls":"primary","shops":1,"st_km":4.69,"mesh":"53396164"},"geometry":{"type":"LineString","coordinates":[[139.18328,35.88381],[139.18261,35.88522]]}},{"type":"Feature","properties":{"idx":18,"road":"越生長沢線","cls":"primary","shops":1,"st_km":0.72,"mesh":"53396198"},"geometry":{"type":"LineString","coordinates":[[139.23288,35.91108],[139.23292,35.91124],[139.23298,35.9113],[139.23325,35.9113]]}},{"type":"Feature","properties":{"idx":61,"road":NaN,"cls":"pedestrian","shops":3,"st_km":0.08,"mesh":"53396198"},"geometry":{"type":"LineString","coordinates":[[139.22646,35.90854],[139.22706,35.90858]]}},{"type":"Feature","properties":{"idx":6,"road":"秩父上名栗線","cls":"primary","shops":1,"st_km":4.26,"mesh":"53396191"},"geometry":{"type":"LineString","coordinates":[[139.14813,35.91118],[139.14803,35.91121]]}},{"type":"Feature","properties":{"idx":6,"road":"秩父上名栗線","cls":"primary","shops":1,"st_km":4.25,"mesh":"53396191"},"geometry":{"type":"LineString","coordinates":[[139.14825,35.91115],[139.14813,35.91118]]}},{"type":"Feature","properties":{"idx":21,"road":NaN,"cls":"tertiary","shops":0,"st_km":3.39,"mesh":"53396158"},"geometry":{"type":"LineString","coordinates":[[139.2304,35.87588],[139.22991,35.87605],[139.22888,35.87588],[139.2286,35.8759],[139.22834,35.87606],[139.22815,35.87627],[139.22772,35.87702]]}},{"type":"Feature","properties":{"idx":30,"road":NaN,"cls":"tertiary","shops":2,"st_km":0.26,"mesh":"53396198"},"geometry":{"type":"LineString","coordinates":[[139.22707,35.90893],[139.22791,35.90903],[139.22806,35.90912],[139.22833,35.90949],[139.22844,35.90957],[139.22995,35.91006]]}},{"type":"Feature","properties":{"idx":18,"road":NaN,"cls":"tertiary","shops":1,"st_km":0.52,"mesh":"53396198"},"geometry":{"type":"LineString","coordinates":[[139.22995,35.91006],[139.23097,35.91028],[139.23229,35.91041]]}},{"type":"Feature","properties":{"idx":49,"road":NaN,"cls":"tertiary","shops":0,"st_km":0.28,"mesh":"53396197"},"geometry":{"type":"LineString","coordinates":[[139.22293,35.90937],[139.22312,35.90923]]}},{"type":"Feature","properties":{"idx":26,"road":NaN,"cls":"tertiary","shops":1,"st_km":0.12,"mesh":"53396198"},"geometry":{"type":"LineString","coordinates":[[139.22312,35.90923],[139.22339,35.90919],[139.22415,35.90932],[139.22445,35.90933],[139.22584,35.90891],[139.22707,35.90893]]}},{"type":"Feature","properties":{"idx":12,"road":"成木街道","cls":"primary","shops":0,"st_km":3.4,"mesh":"53396106"},"geometry":{"type":"LineString","coordinates":[[139.19958,35.83852],[139.20299,35.83708]]}},{"type":"Feature","properties":{"idx":13,"road":"成木街道","cls":"primary","shops":0,"st_km":3.12,"mesh":"53396106"},"geometry":{"type":"LineString","coordinates":[[139.20903,35.83564],[139.20921,35.83577]]}},{"type":"Feature","properties":{"idx":13,"road":"成木街道","cls":"primary","shops":0,"st_km":3.17,"mesh":"53396106"},"geometry":{"type":"LineString","coordinates":[[139.20299,35.83708],[139.20331,35.83695],[139.20345,35.83684],[139.20383,35.83619],[139.20407,35.83606],[139.20441,35.83605],[139.20495,35.83623],[139.20513,35.83625],[139.2059,35.83609],[139.20656,35.83613],[139.20694,35.83605],[139.20752,35.83579],[139.20786,35.83569],[139.20875,35.83559],[139.20903,35.83564]]}},{"type":"Feature","properties":{"idx":1,"road":"成木街道","cls":"primary","shops":0,"st_km":3.63,"mesh":"53396107"},"geometry":{"type":"LineString","coordinates":[[139.21519,35.83971],[139.21525,35.83969]]}},{"type":"Feature","properties":{"idx":1,"road":"成木街道","cls":"primary","shops":0,"st_km":3.52,"mesh":"53396107"},"geometry":{"type":"LineString","coordinates":[[139.21551,35.83954],[139.21579,35.83926],[139.21643,35.83788],[139.21647,35.83759],[139.21643,35.83739]]}},{"type":"Feature","properties":{"idx":1,"road":"成木街道","cls":"primary","shops":0,"st_km":3.37,"mesh":"53396107"},"geometry":{"type":"LineString","coordinates":[[139.21746,35.83686],[139.21753,35.83686]]}},{"type":"Feature","properties":{"idx":121,"road":"あじさい街道","cls":"tertiary","shops":0,"st_km":1.1,"mesh":"53396189"},"geometry":{"type":"LineString","coordinates":[[139.23277,35.90857],[139.23303,35.90803],[139.23332,35.90775],[139.23358,35.9076],[139.23393,35.90747],[139.23426,35.90742],[139.23536,35.90751],[139.23611,35.90729],[139.23739,35.90655],[139.23887,35.90536],[139.23914,35.90526],[139.23934,35.90525],[139.23954,35.90531],[139.23972,35.90544],[139.23984,35.90565],[139.23987,35.90587],[139.23971,35.90624],[139.23879,35.90757],[139.23876,35.90774],[139.2388,35.90789],[139.23906,35.90813]]}},{"type":"Feature","properties":{"idx":12,"road":"越生長沢線","cls":"primary","shops":0,"st_km":0.75,"mesh":"53396198"},"geometry":{"type":"LineString","coordinates":[[139.23325,35.9113],[139.23343,35.91133]]}},{"type":"Feature","properties":{"idx":12,"road":"越生長沢線","cls":"primary","shops":0,"st_km":0.76,"mesh":"53396198"},"geometry":{"type":"LineString","coordinates":[[139.23343,35.91133],[139.23345,35.91138],[139.23329,35.91168]]}},{"type":"Feature","properties":{"idx":3,"road":"青梅秩父線","cls":"primary","shops":0,"st_km":4.41,"mesh":"53396173"},"geometry":{"type":"LineString","coordinates":[[139.1734,35.89599],[139.17205,35.89631],[139.16995,35.89713],[139.16969,35.89746],[139.16948,35.89871],[139.16932,35.89891],[139.16911,35.899]]}},{"type":"Feature","properties":{"idx":3,"road":"青梅秩父線","cls":"primary","shops":0,"st_km":4.32,"mesh":"53396173"},"geometry":{"type":"LineString","coordinates":[[139.17357,35.89595],[139.1734,35.89599]]}},{"type":"Feature","properties":{"idx":3,"road":"青梅秩父線","cls":"primary","shops":0,"st_km":4.34,"mesh":"53396173"},"geometry":{"type":"LineString","coordinates":[[139.16911,35.899],[139.1684,35.899]]}},{"type":"Feature","properties":{"idx":3,"road":"青梅秩父線","cls":"primary","shops":0,"st_km":4.51,"mesh":"53396173"},"geometry":{"type":"LineString","coordinates":[[139.1684,35.899],[139.16757,35.89898],[139.16636,35.89907],[139.16605,35.89917],[139.16505,35.89973],[139.16463,35.89985],[139.16418,35.89987],[139.16341,35.89977],[139.16301,35.89982]]}},{"type":"Feature","properties":{"idx":3,"road":"青梅秩父線","cls":"primary","shops":0,"st_km":4.58,"mesh":"53396173"},"geometry":{"type":"LineString","coordinates":[[139.16301,35.89982],[139.16267,35.89992]]}},{"type":"Feature","properties":{"idx":18,"road":"青梅秩父線","cls":"primary","shops":0,"st_km":4.17,"mesh":"53396182"},"geometry":{"type":"LineString","coordinates":[[139.16267,35.89992],[139.16195,35.90016],[139.16175,35.90036],[139.16171,35.9005],[139.16173,35.9007],[139.16223,35.90147],[139.16221,35.90183],[139.16154,35.90294],[139.16081,35.90375],[139.16042,35.90451],[139.16015,35.90487],[139.15985,35.90504],[139.15956,35.9051],[139.15929,35.90507],[139.15847,35.90485],[139.15807,35.90488],[139.1579,35.90499],[139.15778,35.90518],[139.15775,35.90592],[139.15735,35.90624],[139.15701,35.90632],[139.15616,35.90634],[139.15554,35.90647],[139.15523,35.90659],[139.15437,35.90712],[139.15336,35.90759],[139.15307,35.90766],[139.15227,35.90769],[139.15197,35.90779],[139.15176,35.90792],[139.15159,35.90813],[139.15127,35.90901],[139.15071,35.90982],[139.15036,35.91004],[139.14906,35.91054],[139.14846,35.91091]]}},{"type":"Feature","properties":{"idx":108,"road":"飯能下名栗線","cls":"primary","shops":0,"st_km":5.55,"mesh":"53396126"},"geometry":{"type":"LineString","coordinates":[[139.21131,35.85725],[139.21161,35.85752],[139.21185,35.85788]]}},{"type":"Feature","properties":{"idx":10,"road":"飯能下名栗線","cls":"primary","shops":0,"st_km":5.58,"mesh":"53396137"},"geometry":{"type":"LineString","coordinates":[[139.21185,35.85788],[139.21214,35.85845],[139.21232,35.85863],[139.21272,35.85889],[139.21335,35.85904],[139.21395,35.85898],[139.21413,35.85892],[139.21491,35.85845],[139.21534,35.85831],[139.21551,35.8583]]}},{"type":"Feature","properties":{"idx":10,"road":"飯能下名栗線","cls":"primary","shops":0,"st_km":5.51,"mesh":"53396137"},"geometry":{"type":"LineString","coordinates":[[139.21551,35.8583],[139.21633,35.85846]]}},{"type":"Feature","properties":{"idx":95,"road":"飯能下名栗線","cls":"primary","shops":0,"st_km":4.41,"mesh":"53396138"},"geometry":{"type":"LineString","coordinates":[[139.22137,35.86135],[139.22233,35.86168],[139.22425,35.86289],[139.22478,35.86311],[139.22596,35.86313],[139.22739,35.86308],[139.22795,35.86291],[139.22857,35.86256],[139.22895,35.86223],[139.22915,35.8619],[139.22939,35.86079],[139.22954,35.86055],[139.22975,35.86043],[139.23073,35.86012],[139.23114,35.8601],[139.23194,35.86038],[139.23221,35.86055],[139.2325,35.86089],[139.23329,35.86228],[139.23477,35.86356]]}},{"type":"Feature","properties":{"idx":4,"road":NaN,"cls":"tertiary","shops":0,"st_km":6.53,"mesh":"53396153"},"geometry":{"type":"LineString","coordinates":[[139.16626,35.87531],[139.16571,35.87538]]}},{"type":"Feature","properties":{"idx":3,"road":"南飯能線","cls":"secondary","shops":0,"st_km":3.03,"mesh":"53396157"},"geometry":{"type":"LineString","coordinates":[[139.22433,35.88099],[139.22415,35.88099]]}},{"type":"Feature","properties":{"idx":3,"road":"南飯能線","cls":"secondary","shops":0,"st_km":3.29,"mesh":"53396157"},"geometry":{"type":"LineString","coordinates":[[139.22415,35.88099],[139.22363,35.88087],[139.22265,35.88099],[139.22209,35.88088],[139.22155,35.88085],[139.22128,35.88071],[139.22113,35.88044],[139.22067,35.8801],[139.22007,35.8794],[139.21967,35.87922],[139.21913,35.87916],[139.21891,35.87922],[139.21861,35.87943],[139.21835,35.87947],[139.21802,35.87939],[139.21773,35.87914],[139.21757,35.87909],[139.21704,35.87931],[139.21669,35.87932],[139.21613,35.87924],[139.21585,35.87927],[139.21505,35.87958],[139.21461,35.87988],[139.21343,35.88011]]}},{"type":"Feature","properties":{"idx":108,"road":"飯能下名栗線","cls":"primary","shops":0,"st_km":5.4,"mesh":"53396126"},"geometry":{"type":"LineString","coordinates":[[139.20158,35.85095],[139.20252,35.85105],[139.20272,35.85112],[139.20316,35.85133],[139.20346,35.8516],[139.20394,35.85246],[139.20408,35.85296],[139.20408,35.85343],[139.20384,35.85411],[139.20375,35.85455],[139.20376,35.85485],[139.20381,35.85497],[139.20397,35.85517],[139.20488,35.85596],[139.20675,35.85749],[139.20707,35.85768],[139.20733,35.85778],[139.20776,35.85776],[139.20793,35.85768],[139.20804,35.85756],[139.20821,35.85689],[139.20831,35.85669],[139.20916,35.85621],[139.20952,35.85611],[139.20985,35.85613],[139.21003,35.85621],[139.21131,35.85725]]}},{"type":"Feature","properties":{"idx":103,"road":"青梅秩父線","cls":"primary","shops":0,"st_km":5.62,"mesh":"53396144"},"geometry":{"type":"LineString","coordinates":[[139.18707,35.86639],[139.18695,35.86721],[139.1867,35.87133]]}},{"type":"Feature","properties":{"idx":83,"road":NaN,"cls":"tertiary","shops":0,"st_km":5.75,"mesh":"53396144"},"geometry":{"type":"LineString","coordinates":[[139.18332,35.87337],[139.18286,35.87339],[139.18227,35.87315],[139.18154,35.87275],[139.1805,35.87194],[139.18019,35.87185],[139.17992,35.87189],[139.17936,35.87222],[139.17824,35.87344],[139.17806,35.87357]]}},{"type":"Feature","properties":{"idx":18,"road":"青梅秩父線","cls":"primary","shops":0,"st_km":4.35,"mesh":"53396174"},"geometry":{"type":"LineString","coordinates":[[139.1782,35.89123],[139.17774,35.89277],[139.17719,35.89359],[139.17713,35.89437],[139.17698,35.89456],[139.17625,35.89495],[139.17611,35.89542],[139.17598,35.89559]]}},{"type":"Feature","properties":{"idx":24,"road":"南飯能線","cls":"secondary","shops":0,"st_km":3.36,"mesh":"53396158"},"geometry":{"type":"LineString","coordinates":[[139.22829,35.87705],[139.22816,35.87704]]}},{"type":"Feature","properties":{"idx":24,"road":"南飯能線","cls":"secondary","shops":0,"st_km":3.23,"mesh":"53396158"},"geometry":{"type":"LineString","coordinates":[[139.22816,35.87704],[139.22772,35.87702],[139.22748,35.87757],[139.22705,35.87821],[139.22669,35.87864],[139.22633,35.87937],[139.22619,35.88012],[139.22602,35.88044],[139.22547,35.88081],[139.22517,35.88095],[139.22433,35.88099]]}},{"type":"Feature","properties":{"idx":25,"road":"南飯能線","cls":"secondary","shops":0,"st_km":2.76,"mesh":"53396158"},"geometry":{"type":"LineString","coordinates":[[139.23426,35.8832],[139.23319,35.88283],[139.23295,35.88269],[139.23284,35.88247],[139.23281,35.88217],[139.23291,35.88198],[139.23317,35.88168],[139.23314,35.88148],[139.2326,35.88108],[139.23152,35.8804],[139.23126,35.87995],[139.2311,35.87936],[139.23103,35.87926]]}},{"type":"Feature","properties":{"idx":26,"road":"南飯能線","cls":"secondary","shops":0,"st_km":2.55,"mesh":"53396158"},"geometry":{"type":"LineString","coordinates":[[139.23446,35.88331],[139.23426,35.8832]]}},{"type":"Feature","properties":{"idx":9,"road":"南飯能線","cls":"secondary","shops":0,"st_km":2.17,"mesh":"53396159"},"geometry":{"type":"LineString","coordinates":[[139.24143,35.88044],[139.24124,35.88033]]}},{"type":"Feature","properties":{"idx":9,"road":"南飯能線","cls":"secondary","shops":0,"st_km":2.34,"mesh":"53396159"},"geometry":{"type":"LineString","coordinates":[[139.24124,35.88033],[139.24092,35.88018],[139.23957,35.87976],[139.23937,35.87974],[139.23867,35.87991],[139.23851,35.88003],[139.23837,35.88025],[139.23835,35.88049],[139.23845,35.88085],[139.23839,35.88112],[139.23828,35.88129],[139.23781,35.88177],[139.23684,35.88243],[139.23626,35.88311],[139.23565,35.88327],[139.23477,35.88339],[139.23446,35.88331]]}},{"type":"Feature","properties":{"idx":5,"road":NaN,"cls":"secondary_link","shops":0,"st_km":2.9,"mesh":"53396166"},"geometry":{"type":"LineString","coordinates":[[139.20823,35.88655],[139.20784,35.8867],[139.2078,35.88675],[139.20781,35.88683]]}},{"type":"Feature","properties":{"idx":11,"road":NaN,"cls":"tertiary","shops":0,"st_km":5.03,"mesh":"53396125"},"geometry":{"type":"LineString","coordinates":[[139.19868,35.85272],[139.19884,35.85195]]}},{"type":"Feature","properties":{"idx":1,"road":"成木街道","cls":"primary","shops":0,"st_km":3.6,"mesh":"53396107"},"geometry":{"type":"LineString","coordinates":[[139.21354,35.83966],[139.21358,35.83971]]}},{"type":"Feature","properties":{"idx":1,"road":"成木街道","cls":"primary","shops":0,"st_km":3.62,"mesh":"53396107"},"geometry":{"type":"LineString","coordinates":[[139.21358,35.83971],[139.2137,35.83978],[139.21387,35.83981],[139.21483,35.83979],[139.21519,35.83971]]}},{"type":"Feature","properties":{"idx":7,"road":"成木街道","cls":"primary","shops":0,"st_km":3.54,"mesh":"53396105"},"geometry":{"type":"LineString","coordinates":[[139.19903,35.83876],[139.19912,35.83872]]}},{"type":"Feature","properties":{"idx":10,"road":"松ノ木通り","cls":"tertiary","shops":0,"st_km":3.1,"mesh":"53396106"},"geometry":{"type":"LineString","coordinates":[[139.2081,35.83547],[139.20807,35.83561]]}},{"type":"Feature","properties":{"idx":11,"road":"上成木川井線","cls":"secondary","shops":0,"st_km":3.31,"mesh":"53396106"},"geometry":{"type":"LineString","coordinates":[[139.20231,35.83705],[139.2022,35.83709]]}},{"type":"Feature","properties":{"idx":14,"road":"青梅秩父線","cls":"primary","shops":0,"st_km":5.18,"mesh":"53396125"},"geometry":{"type":"LineString","coordinates":[[139.19884,35.85195],[139.19756,35.85303],[139.19708,35.85335],[139.19641,35.85362],[139.19436,35.85431]]}},{"type":"Feature","properties":{"idx":21,"road":"青梅秩父線","cls":"primary","shops":1,"st_km":5.26,"mesh":"53396125"},"geometry":{"type":"LineString","coordinates":[[139.19436,35.85431],[139.19425,35.85436]]}},{"type":"Feature","properties":{"idx":10,"road":"あじさい街道","cls":"tertiary","shops":0,"st_km":0.7,"mesh":"53396198"},"geometry":{"type":"LineString","coordinates":[[139.23288,35.91108],[139.2329,35.9109],[139.23319,35.91085],[139.23326,35.91074]]}},{"type":"Feature","properties":{"idx":10,"road":"あじさい街道","cls":"tertiary","shops":0,"st_km":0.71,"mesh":"53396198"},"geometry":{"type":"LineString","coordinates":[[139.23326,35.91074],[139.2333,35.91056],[139.23324,35.91031]]}},{"type":"Feature","properties":{"idx":12,"road":"越生長沢線","cls":"primary","shops":0,"st_km":0.77,"mesh":"53396198"},"geometry":{"type":"LineString","coordinates":[[139.23328,35.91173],[139.23327,35.91177]]}},{"type":"Feature","properties":{"idx":12,"road":"越生長沢線","cls":"primary","shops":0,"st_km":0.77,"mesh":"53396198"},"geometry":{"type":"LineString","coordinates":[[139.23329,35.91168],[139.23328,35.91173]]}},{"type":"Feature","properties":{"idx":10,"road":"越生長沢線","cls":"primary","shops":0,"st_km":0.96,"mesh":"53396198"},"geometry":{"type":"LineString","coordinates":[[139.23327,35.91177],[139.23369,35.91201],[139.23401,35.91232],[139.23467,35.9126],[139.23511,35.91294],[139.23562,35.91317],[139.236,35.91366],[139.23621,35.91383],[139.23636,35.9141]]}},{"type":"Feature","properties":{"idx":9,"road":"越生長沢線","cls":"primary","shops":0,"st_km":1.15,"mesh":"53396198"},"geometry":{"type":"LineString","coordinates":[[139.23636,35.9141],[139.23639,35.91419]]}},{"type":"Feature","properties":{"idx":3,"road":"南川上名栗線","cls":"secondary","shops":0,"st_km":4.1,"mesh":"53396173"},"geometry":{"type":"LineString","coordinates":[[139.17261,35.90136],[139.17273,35.90128],[139.17303,35.90089],[139.17373,35.89987],[139.17394,35.89936],[139.1738,35.89866],[139.17358,35.89847],[139.17332,35.89833],[139.17322,35.89821],[139.17317,35.89807],[139.17328,35.89765],[139.17313,35.89745],[139.17276,35.89716],[139.17271,35.89698],[139.17283,35.89684],[139.17353,35.89641],[139.17368,35.89616],[139.17368,35.89592]]}},{"type":"Feature","properties":{"idx":10,"road":"南川上名栗線","cls":"secondary","shops":0,"st_km":3.92,"mesh":"53396183"},"geometry":{"type":"LineString","coordinates":[[139.17253,35.9014],[139.17261,35.90136]]}},{"type":"Feature","properties":{"idx":10,"road":"南川上名栗線","cls":"secondary","shops":0,"st_km":3.82,"mesh":"53396183"},"geometry":{"type":"LineString","coordinates":[[139.17329,35.90348],[139.1731,35.90332],[139.17293,35.9026],[139.17248,35.9019],[139.17239,35.90153],[139.17253,35.9014]]}},{"type":"Feature","properties":{"idx":10,"road":"南川上名栗線","cls":"secondary","shops":0,"st_km":3.7,"mesh":"53396183"},"geometry":{"type":"LineString","coordinates":[[139.1734,35.90349],[139.17329,35.90348]]}},{"type":"Feature","properties":{"idx":4,"road":"青梅秩父線","cls":"primary","shops":0,"st_km":4.15,"mesh":"53396191"},"geometry":{"type":"LineString","coordinates":[[139.14825,35.91115],[139.14825,35.91129],[139.14836,35.91154],[139.14887,35.91223],[139.14909,35.9124],[139.14959,35.91252],[139.14978,35.91263]]}},{"type":"Feature","properties":{"idx":4,"road":"青梅秩父線","cls":"primary","shops":0,"st_km":4.03,"mesh":"53396191"},"geometry":{"type":"LineString","coordinates":[[139.14978,35.91263],[139.14986,35.91272]]}},{"type":"Feature","properties":{"idx":6,"road":"青梅秩父線","cls":"primary","shops":1,"st_km":4.25,"mesh":"53396191"},"geometry":{"type":"LineString","coordinates":[[139.14846,35.91091],[139.14825,35.91115]]}},{"type":"Feature","properties":{"idx":10,"road":"松ノ木通り","cls":"tertiary","shops":0,"st_km":3.11,"mesh":"53396106"},"geometry":{"type":"LineString","coordinates":[[139.20807,35.83561],[139.20806,35.83566]]}},{"type":"Feature","properties":{"idx":8,"road":"南飯能線","cls":"secondary","shops":0,"st_km":3.08,"mesh":"53396166"},"geometry":{"type":"LineString","coordinates":[[139.21329,35.88014],[139.21315,35.88021],[139.21308,35.8804],[139.21298,35.8805],[139.21274,35.88061],[139.21261,35.88072],[139.21257,35.88087],[139.2126,35.88108],[139.21254,35.88136],[139.21263,35.88174],[139.21259,35.88195],[139.21249,35.88205],[139.21155,35.88246],[139.2113,35.88261],[139.21035,35.88383],[139.20999,35.88451],[139.20921,35.88497],[139.20852,35.8855],[139.20846,35.88563],[139.20849,35.88601],[139.20828,35.88649],[139.20817,35.88662],[139.20781,35.88683]]}},{"type":"Feature","properties":{"idx":5,"road":"南飯能線","cls":"secondary","shops":1,"st_km":3.33,"mesh":"53396157"},"geometry":{"type":"LineString","coordinates":[[139.21343,35.88011],[139.21329,35.88014]]}},{"type":"Feature","properties":{"idx":10,"road":"飯能下名栗線","cls":"primary","shops":0,"st_km":5.21,"mesh":"53396137"},"geometry":{"type":"LineString","coordinates":[[139.21633,35.85846],[139.21812,35.85891],[139.21841,35.85904],[139.2204,35.86077],[139.22129,35.8613]]}},{"type":"Feature","properties":{"idx":10,"road":"飯能下名栗線","cls":"primary","shops":0,"st_km":4.93,"mesh":"53396137"},"geometry":{"type":"LineString","coordinates":[[139.22129,35.8613],[139.22137,35.86135]]}},{"type":"Feature","properties":{"idx":11,"road":"上成木川井線","cls":"secondary","shops":0,"st_km":3.34,"mesh":"53396106"},"geometry":{"type":"LineString","coordinates":[[139.2022,35.83709],[139.20164,35.8373],[139.20145,35.83729],[139.2012,35.83718]]}},{"type":"Feature","properties":{"idx":7,"road":"上成木川井線","cls":"secondary","shops":0,"st_km":3.41,"mesh":"53396105"},"geometry":{"type":"LineString","coordinates":[[139.18857,35.83752],[139.1883,35.83727]]}},{"type":"Feature","properties":{"idx":8,"road":"南飯能線","cls":"secondary","shops":0,"st_km":2.9,"mesh":"53396166"},"geometry":{"type":"LineString","coordinates":[[139.20781,35.88683],[139.20725,35.8869]]}},{"type":"Feature","properties":{"idx":87,"road":"原市場下成木線","cls":"secondary","shops":0,"st_km":3.98,"mesh":"53396138"},"geometry":{"type":"LineString","coordinates":[[139.2352,35.86326],[139.23559,35.86296],[139.23646,35.86197]]}},{"type":"Feature","properties":{"idx":146,"road":"飯能下名栗線","cls":"primary","shops":1,"st_km":3.69,"mesh":"53396138"},"geometry":{"type":"LineString","coordinates":[[139.23477,35.86356],[139.23545,35.86419],[139.23558,35.86443],[139.23558,35.86583],[139.23452,35.8676],[139.23451,35.86774],[139.23459,35.86786],[139.2351,35.86828]]}},{"type":"Feature","properties":{"idx":4,"road":NaN,"cls":"tertiary","shops":0,"st_km":6.58,"mesh":"53396153"},"geometry":{"type":"LineString","coordinates":[[139.16571,35.87538],[139.16472,35.87552]]}},{"type":"Feature","properties":{"idx":4,"road":NaN,"cls":"tertiary","shops":0,"st_km":6.63,"mesh":"53396153"},"geometry":{"type":"LineString","coordinates":[[139.16472,35.87552],[139.16428,35.87554]]}},{"type":"Feature","properties":{"idx":83,"road":NaN,"cls":"tertiary","shops":0,"st_km":5.8,"mesh":"53396144"},"geometry":{"type":"LineString","coordinates":[[139.17806,35.87357],[139.17673,35.87433]]}},{"type":"Feature","properties":{"idx":83,"road":NaN,"cls":"tertiary","shops":0,"st_km":5.83,"mesh":"53396144"},"geometry":{"type":"LineString","coordinates":[[139.17673,35.87433],[139.17639,35.87451]]}},{"type":"Feature","properties":{"idx":205,"road":NaN,"cls":"tertiary","shops":0,"st_km":5.87,"mesh":"53396154"},"geometry":{"type":"LineString","coordinates":[[139.17639,35.87451],[139.17488,35.87527],[139.17451,35.87536],[139.17413,35.87537]]}},{"type":"Feature","properties":{"idx":4,"road":NaN,"cls":"tertiary","shops":0,"st_km":5.94,"mesh":"53396153"},"geometry":{"type":"LineString","coordinates":[[139.17413,35.87537],[139.17394,35.87537]]}},{"type":"Feature","properties":{"idx":1,"road":"成木街道","cls":"primary","shops":0,"st_km":3.3,"mesh":"53396107"},"geometry":{"type":"LineString","coordinates":[[139.21808,35.83635],[139.2183,35.836],[139.21895,35.83586],[139.21914,35.83573]]}},{"type":"Feature","properties":{"idx":1,"road":"成木街道","cls":"primary","shops":0,"st_km":3.28,"mesh":"53396107"},"geometry":{"type":"LineString","coordinates":[[139.21914,35.83573],[139.21926,35.83557]]}},{"type":"Feature","properties":{"idx":1,"road":"成木街道","cls":"primary","shops":0,"st_km":3.25,"mesh":"53396107"},"geometry":{"type":"LineString","coordinates":[[139.21926,35.83557],[139.21961,35.8349]]}},{"type":"Feature","properties":{"idx":1,"road":"成木街道","cls":"primary","shops":0,"st_km":3.21,"mesh":"53396107"},"geometry":{"type":"LineString","coordinates":[[139.21961,35.8349],[139.21973,35.83473]]}},{"type":"Feature","properties":{"idx":1,"road":"成木街道","cls":"primary","shops":0,"st_km":3.36,"mesh":"53396107"},"geometry":{"type":"LineString","coordinates":[[139.21761,35.83683],[139.21784,35.8367]]}},{"type":"Feature","properties":{"idx":1,"road":"成木街道","cls":"primary","shops":0,"st_km":3.33,"mesh":"53396107"},"geometry":{"type":"LineString","coordinates":[[139.21798,35.83651],[139.21808,35.83635]]}},{"type":"Feature","properties":{"idx":1,"road":"成木街道","cls":"primary","shops":0,"st_km":3.35,"mesh":"53396107"},"geometry":{"type":"LineString","coordinates":[[139.21784,35.8367],[139.21798,35.83651]]}},{"type":"Feature","properties":{"idx":1,"road":"成木街道","cls":"primary","shops":0,"st_km":3.37,"mesh":"53396107"},"geometry":{"type":"LineString","coordinates":[[139.21753,35.83686],[139.21761,35.83683]]}},{"type":"Feature","properties":{"idx":1,"road":"成木街道","cls":"primary","shops":0,"st_km":3.62,"mesh":"53396107"},"geometry":{"type":"LineString","coordinates":[[139.21535,35.83964],[139.21551,35.83954]]}},{"type":"Feature","properties":{"idx":1,"road":"成木街道","cls":"primary","shops":0,"st_km":3.63,"mesh":"53396107"},"geometry":{"type":"LineString","coordinates":[[139.21525,35.83969],[139.21535,35.83964]]}},{"type":"Feature","properties":{"idx":1,"road":"成木街道","cls":"primary","shops":0,"st_km":3.35,"mesh":"53396107"},"geometry":{"type":"LineString","coordinates":[[139.21641,35.83726],[139.21641,35.83709],[139.21661,35.83688],[139.21746,35.83686]]}},{"type":"Feature","properties":{"idx":1,"road":"成木街道","cls":"primary","shops":0,"st_km":3.39,"mesh":"53396107"},"geometry":{"type":"LineString","coordinates":[[139.21643,35.83739],[139.21641,35.83726]]}},{"type":"Feature","properties":{"idx":67,"road":NaN,"cls":"tertiary","shops":1,"st_km":0.4,"mesh":"53396197"},"geometry":{"type":"LineString","coordinates":[[139.22159,35.91116],[139.22182,35.9107],[139.22293,35.90937]]}},{"type":"Feature","properties":{"idx":11,"road":"あじさい街道","cls":"tertiary","shops":0,"st_km":0.64,"mesh":"53396198"},"geometry":{"type":"LineString","coordinates":[[139.23324,35.91031],[139.23281,35.90973],[139.23276,35.9096],[139.23275,35.90881]]}},{"type":"Feature","properties":{"idx":3,"road":"青梅秩父線","cls":"primary","shops":0,"st_km":4.26,"mesh":"53396173"},"geometry":{"type":"LineString","coordinates":[[139.17587,35.89563],[139.17521,35.89587],[139.17407,35.89583],[139.17357,35.89595]]}},{"type":"Feature","properties":{"idx":18,"road":"青梅秩父線","cls":"primary","shops":0,"st_km":4.22,"mesh":"53396174"},"geometry":{"type":"LineString","coordinates":[[139.17598,35.89559],[139.17587,35.89563]]}},{"type":"Feature","properties":{"idx":4,"road":"秩父上名栗線","cls":"primary","shops":0,"st_km":4.45,"mesh":"53396191"},"geometry":{"type":"LineString","coordinates":[[139.14803,35.91121],[139.14703,35.91152],[139.14586,35.91172],[139.1456,35.91186],[139.14535,35.91208],[139.14368,35.91238],[139.14349,35.9125],[139.14318,35.91302],[139.14286,35.91335],[139.14258,35.91334],[139.14217,35.91313],[139.142,35.91311],[139.14133,35.91334],[139.14108,35.91375],[139.14051,35.9139],[139.14001,35.91411],[139.13937,35.91418],[139.13878,35.91448]]}},{"type":"Feature","properties":{"idx":4,"road":"秩父上名栗線","cls":"primary","shops":0,"st_km":4.68,"mesh":"53396191"},"geometry":{"type":"LineString","coordinates":[[139.13878,35.91448],[139.13865,35.91453]]}},{"type":"Feature","properties":{"idx":47,"road":"青梅秩父線","cls":"primary","shops":0,"st_km":3.88,"mesh":"53396192"},"geometry":{"type":"LineString","coordinates":[[139.14986,35.91272],[139.15042,35.9136],[139.1505,35.91394],[139.151,35.91514],[139.15103,35.91527],[139.15098,35.91542]]}},{"type":"Feature","properties":{"idx":47,"road":"青梅秩父線","cls":"primary","shops":0,"st_km":3.74,"mesh":"53396192"},"geometry":{"type":"LineString","coordinates":[[139.15098,35.91542],[139.15051,35.91594],[139.15036,35.9163]]}},{"type":"Feature","properties":{"idx":437,"road":"飯能下名栗線","cls":"primary","shops":0,"st_km":2.87,"mesh":"53396149"},"geometry":{"type":"LineString","coordinates":[[139.24855,35.86835],[139.2514,35.86762]]}}]}