{"type":"FeatureCollection","features":[{"type":"Feature","properties":{"idx":66,"road":NaN,"cls":"tertiary","shops":0,"st_km":1.47,"mesh":"53390009"},"geometry":{"type":"LineString","coordinates":[[139.12304,35.33732],[139.12387,35.33589],[139.12483,35.33438],[139.12492,35.33425],[139.1254,35.33397]]}},{"type":"Feature","properties":{"idx":146,"road":"山北藤野線","cls":"primary","shops":0,"st_km":0.91,"mesh":"53390042"},"geometry":{"type":"LineString","coordinates":[[139.03186,35.37167],[139.03187,35.37185],[139.03168,35.37253],[139.03184,35.37364],[139.03194,35.37381]]}},{"type":"Feature","properties":{"idx":2,"road":"神縄神山線","cls":"secondary","shops":0,"st_km":4.53,"mesh":"53390083"},"geometry":{"type":"LineString","coordinates":[[139.04843,35.40594],[139.04906,35.40625],[139.04916,35.40642],[139.04913,35.40658],[139.04919,35.40672],[139.04939,35.40678],[139.04977,35.40659]]}},{"type":"Feature","properties":{"idx":16,"road":"山北山中湖線","cls":"secondary","shops":0,"st_km":5.47,"mesh":"53390093"},"geometry":{"type":"LineString","coordinates":[[139.03989,35.41588],[139.03936,35.41592]]}},{"type":"Feature","properties":{"idx":95,"road":"川西線","cls":"secondary","shops":0,"st_km":0.39,"mesh":"53390043"},"geometry":{"type":"LineString","coordinates":[[139.03261,35.37438],[139.03266,35.37433],[139.03273,35.37407],[139.03326,35.37325],[139.03351,35.37261],[139.03403,35.37213],[139.03465,35.37167],[139.03534,35.3713],[139.03614,35.37123],[139.03655,35.3711],[139.03756,35.37092],[139.03814,35.37052],[139.03972,35.36999],[139.04006,35.36983],[139.04136,35.36896],[139.04151,35.36877],[139.0416,35.36835],[139.04146,35.36775],[139.04115,35.36714],[139.04096,35.36651],[139.04092,35.3663],[139.04098,35.3661],[139.04214,35.36552],[139.04237,35.36552],[139.04258,35.36562],[139.04288,35.36569],[139.04331,35.36561],[139.04352,35.36552],[139.04406,35.36508],[139.04427,35.36476],[139.04437,35.36447],[139.04418,35.364]]}},{"type":"Feature","properties":{"idx":147,"road":"山北藤野線","cls":"primary","shops":0,"st_km":1.01,"mesh":"53390037"},"geometry":{"type":"LineString","coordinates":[[139.10074,35.3632],[139.10069,35.36333],[139.10039,35.3636],[139.10008,35.36376],[139.09813,35.36431]]}},{"type":"Feature","properties":{"idx":79,"road":"山北藤野線","cls":"primary","shops":0,"st_km":1.33,"mesh":"53390035"},"geometry":{"type":"LineString","coordinates":[[139.06663,35.35815],[139.06647,35.35834],[139.0658,35.35889],[139.06534,35.3594],[139.06512,35.35951]]}},{"type":"Feature","properties":{"idx":100,"road":NaN,"cls":"tertiary","shops":0,"st_km":1.25,"mesh":"53390037"},"geometry":{"type":"LineString","coordinates":[[139.09743,35.36365],[139.09706,35.36348],[139.0958,35.36326],[139.09477,35.36315],[139.09455,35.3632],[139.09423,35.36365]]}},{"type":"Feature","properties":{"idx":478,"road":NaN,"cls":"tertiary","shops":3,"st_km":0.09,"mesh":"53390036"},"geometry":{"type":"LineString","coordinates":[[139.07984,35.36173],[139.08,35.36122]]}},{"type":"Feature","properties":{"idx":99,"road":"玄倉山北線","cls":"secondary","shops":0,"st_km":0.85,"mesh":"53390035"},"geometry":{"type":"LineString","coordinates":[[139.07182,35.35964],[139.07144,35.36016],[139.07129,35.36044],[139.07122,35.36163],[139.07115,35.36188],[139.07079,35.36272],[139.07088,35.36302],[139.07103,35.36323],[139.07205,35.36403],[139.07248,35.36487],[139.07265,35.3653],[139.07323,35.36569],[139.0734,35.36589],[139.07363,35.3664],[139.07408,35.36683],[139.0742,35.36724],[139.07435,35.36752],[139.07447,35.36824],[139.07471,35.36832],[139.07494,35.36824],[139.0751,35.36824],[139.07533,35.36838],[139.07548,35.3687],[139.0754,35.36946],[139.07577,35.36979]]}},{"type":"Feature","properties":{"idx":115,"road":"山北藤野線","cls":"primary","shops":0,"st_km":0.8,"mesh":"53390035"},"geometry":{"type":"LineString","coordinates":[[139.07177,35.35954],[139.07168,35.35933]]}},{"type":"Feature","properties":{"idx":111,"road":"山北藤野線","cls":"primary","shops":0,"st_km":0.84,"mesh":"53390035"},"geometry":{"type":"LineString","coordinates":[[139.07168,35.35933],[139.07145,35.35877],[139.07132,35.35862],[139.07106,35.3585],[139.07068,35.35849]]}},{"type":"Feature","properties":{"idx":399,"road":"東山北停車場線","cls":"secondary","shops":1,"st_km":0.1,"mesh":"53390028"},"geometry":{"type":"LineString","coordinates":[[139.10771,35.35852],[139.1063,35.35733],[139.10574,35.35678],[139.1053,35.3567]]}},{"type":"Feature","properties":{"idx":121,"road":NaN,"cls":"tertiary","shops":0,"st_km":1.57,"mesh":"53390019"},"geometry":{"type":"LineString","coordinates":[[139.12851,35.34367],[139.12674,35.34469],[139.12594,35.34507],[139.12509,35.34578],[139.12351,35.34657],[139.12284,35.34695],[139.12215,35.34745],[139.12096,35.34787],[139.11793,35.34871],[139.11505,35.34959],[139.11417,35.35003],[139.11293,35.35021],[139.11098,35.35035]]}},{"type":"Feature","properties":{"idx":54,"road":"谷峨停車場線","cls":"secondary","shops":0,"st_km":0.04,"mesh":"53390033"},"geometry":{"type":"LineString","coordinates":[[139.03707,35.36789],[139.0376,35.36735],[139.03789,35.36695],[139.03831,35.36577],[139.03843,35.36528],[139.0385,35.36446]]}},{"type":"Feature","properties":{"idx":72,"road":"怒田開成小田原線","cls":"secondary","shops":1,"st_km":1.36,"mesh":"53390017"},"geometry":{"type":"LineString","coordinates":[[139.09778,35.34645],[139.09789,35.34655],[139.0979,35.34682],[139.09804,35.34696],[139.09934,35.34764],[139.10003,35.34816],[139.10028,35.34822],[139.10044,35.34818],[139.10084,35.34797]]}},{"type":"Feature","properties":{"idx":48,"road":"小田原山北線","cls":"primary","shops":0,"st_km":1.52,"mesh":"53390017"},"geometry":{"type":"LineString","coordinates":[[139.09768,35.34654],[139.0969,35.34726]]}},{"type":"Feature","properties":{"idx":96,"road":"怒田開成小田原線","cls":"secondary","shops":0,"st_km":1.24,"mesh":"53390018"},"geometry":{"type":"LineString","coordinates":[[139.10084,35.34797],[139.101,35.34789]]}},{"type":"Feature","properties":{"idx":3,"road":"矢倉沢山北線","cls":"secondary","shops":0,"st_km":3.4,"mesh":"53390005"},"geometry":{"type":"LineString","coordinates":[[139.06329,35.33328],[139.06334,35.33357]]}},{"type":"Feature","properties":{"idx":3,"road":"矢倉沢山北線","cls":"secondary","shops":0,"st_km":3.27,"mesh":"53390005"},"geometry":{"type":"LineString","coordinates":[[139.06328,35.33461],[139.06331,35.33486],[139.06338,35.33498]]}},{"type":"Feature","properties":{"idx":3,"road":NaN,"cls":"tertiary","shops":0,"st_km":2.2,"mesh":"53390005"},"geometry":{"type":"LineString","coordinates":[[139.07456,35.3426],[139.07475,35.34209],[139.07469,35.34129],[139.0745,35.34098],[139.07406,35.34054]]}},{"type":"Feature","properties":{"idx":112,"road":NaN,"cls":"tertiary","shops":0,"st_km":1.59,"mesh":"53390008"},"geometry":{"type":"LineString","coordinates":[[139.10387,35.33149],[139.10359,35.33198],[139.10351,35.3322],[139.10355,35.33292],[139.10352,35.33325],[139.10261,35.33518]]}},{"type":"Feature","properties":{"idx":116,"road":NaN,"cls":"tertiary","shops":0,"st_km":0.88,"mesh":"53390028"},"geometry":{"type":"LineString","coordinates":[[139.11067,35.35037],[139.10946,35.35042],[139.10589,35.35015],[139.10285,35.34923],[139.10153,35.34893],[139.10065,35.34853],[139.10035,35.34832],[139.10028,35.34822]]}},{"type":"Feature","properties":{"idx":7,"road":NaN,"cls":"tertiary","shops":0,"st_km":2.37,"mesh":"53390015"},"geometry":{"type":"LineString","coordinates":[[139.06929,35.34301],[139.0681,35.34246],[139.06772,35.34214],[139.0676,35.34169],[139.06745,35.34148],[139.06722,35.3414],[139.06683,35.34144],[139.06657,35.34139],[139.06638,35.34122]]}},{"type":"Feature","properties":{"idx":7,"road":NaN,"cls":"tertiary","shops":0,"st_km":2.11,"mesh":"53390015"},"geometry":{"type":"LineString","coordinates":[[139.06929,35.34301],[139.06975,35.34325],[139.06984,35.34334],[139.0699,35.3438],[139.07005,35.34396],[139.07032,35.34408],[139.07082,35.34413]]}},{"type":"Feature","properties":{"idx":39,"road":NaN,"cls":"tertiary","shops":0,"st_km":1.79,"mesh":"53390007"},"geometry":{"type":"LineString","coordinates":[[139.09501,35.33353],[139.09511,35.3336]]}},{"type":"Feature","properties":{"idx":35,"road":NaN,"cls":"tertiary","shops":0,"st_km":1.67,"mesh":"53390017"},"geometry":{"type":"LineString","coordinates":[[139.09158,35.34887],[139.09171,35.34891]]}},{"type":"Feature","properties":{"idx":35,"road":NaN,"cls":"tertiary","shops":0,"st_km":1.71,"mesh":"53390017"},"geometry":{"type":"LineString","coordinates":[[139.09915,35.34364],[139.09942,35.34418]]}},{"type":"Feature","properties":{"idx":93,"road":NaN,"cls":"tertiary","shops":0,"st_km":1.99,"mesh":"53390008"},"geometry":{"type":"LineString","coordinates":[[139.10208,35.33652],[139.10181,35.33725]]}},{"type":"Feature","properties":{"idx":31,"road":NaN,"cls":"tertiary","shops":0,"st_km":2.0,"mesh":"53390017"},"geometry":{"type":"LineString","coordinates":[[139.09915,35.34364],[139.09832,35.34376],[139.09706,35.34368],[139.09603,35.34375],[139.09568,35.3437],[139.09501,35.3435],[139.09458,35.34347],[139.09425,35.34351],[139.09325,35.34377],[139.09189,35.34379],[139.09152,35.34375],[139.09097,35.34347],[139.09069,35.34344],[139.08924,35.34388],[139.0885,35.34405]]}},{"type":"Feature","properties":{"idx":100,"road":NaN,"cls":"tertiary","shops":0,"st_km":1.83,"mesh":"53390008"},"geometry":{"type":"LineString","coordinates":[[139.10234,35.33577],[139.10261,35.33518]]}},{"type":"Feature","properties":{"idx":36,"road":NaN,"cls":"tertiary","shops":0,"st_km":1.66,"mesh":"53390017"},"geometry":{"type":"LineString","coordinates":[[139.09137,35.34888],[139.09158,35.34887]]}},{"type":"Feature","properties":{"idx":36,"road":NaN,"cls":"tertiary","shops":0,"st_km":1.65,"mesh":"53390017"},"geometry":{"type":"LineString","coordinates":[[139.09117,35.34891],[139.09137,35.34888]]}},{"type":"Feature","properties":{"idx":3,"road":NaN,"cls":"tertiary","shops":0,"st_km":2.35,"mesh":"53390005"},"geometry":{"type":"LineString","coordinates":[[139.07393,35.34018],[139.07395,35.34034]]}},{"type":"Feature","properties":{"idx":8,"road":NaN,"cls":"tertiary","shops":0,"st_km":2.06,"mesh":"53390015"},"geometry":{"type":"LineString","coordinates":[[139.07436,35.34309],[139.07456,35.3426]]}},{"type":"Feature","properties":{"idx":118,"road":NaN,"cls":"tertiary","shops":0,"st_km":0.86,"mesh":"53390028"},"geometry":{"type":"LineString","coordinates":[[139.11098,35.35035],[139.11067,35.35037]]}},{"type":"Feature","properties":{"idx":3,"road":NaN,"cls":"tertiary","shops":0,"st_km":2.33,"mesh":"53390005"},"geometry":{"type":"LineString","coordinates":[[139.07406,35.34054],[139.07395,35.34034]]}},{"type":"Feature","properties":{"idx":93,"road":NaN,"cls":"tertiary","shops":0,"st_km":1.94,"mesh":"53390008"},"geometry":{"type":"LineString","coordinates":[[139.10142,35.33828],[139.10144,35.33892],[139.10091,35.34034],[139.10086,35.34059],[139.10089,35.34107],[139.10085,35.34126],[139.10062,35.34149],[139.10037,35.34162],[139.09983,35.34161],[139.09959,35.34165],[139.09914,35.34206],[139.09845,35.3424],[139.09833,35.34266]]}},{"type":"Feature","properties":{"idx":3,"road":NaN,"cls":"tertiary","shops":0,"st_km":3.03,"mesh":"53390005"},"geometry":{"type":"LineString","coordinates":[[139.07033,35.33368],[139.07037,35.33414],[139.07106,35.33547]]}},{"type":"Feature","properties":{"idx":97,"road":NaN,"cls":"tertiary","shops":0,"st_km":1.9,"mesh":"53390008"},"geometry":{"type":"LineString","coordinates":[[139.10399,35.33606],[139.10479,35.33624]]}},{"type":"Feature","properties":{"idx":96,"road":NaN,"cls":"tertiary","shops":0,"st_km":1.92,"mesh":"53390008"},"geometry":{"type":"LineString","coordinates":[[139.10479,35.33624],[139.10544,35.33634]]}},{"type":"Feature","properties":{"idx":103,"road":NaN,"cls":"tertiary","shops":0,"st_km":1.75,"mesh":"53390008"},"geometry":{"type":"LineString","coordinates":[[139.10261,35.33518],[139.10196,35.33435]]}},{"type":"Feature","properties":{"idx":96,"road":NaN,"cls":"tertiary","shops":0,"st_km":1.9,"mesh":"53390008"},"geometry":{"type":"LineString","coordinates":[[139.10208,35.33652],[139.10234,35.33577]]}},{"type":"Feature","properties":{"idx":108,"road":NaN,"cls":"tertiary","shops":0,"st_km":1.67,"mesh":"53390008"},"geometry":{"type":"LineString","coordinates":[[139.10106,35.33374],[139.10158,35.33398],[139.10196,35.33435]]}},{"type":"Feature","properties":{"idx":3,"road":NaN,"cls":"tertiary","shops":0,"st_km":2.82,"mesh":"53390005"},"geometry":{"type":"LineString","coordinates":[[139.06638,35.34122],[139.06577,35.34067],[139.06526,35.34011],[139.06518,35.33954],[139.06508,35.33925],[139.06488,35.33908],[139.06445,35.33892],[139.06402,35.33885],[139.06382,35.33872],[139.06335,35.33817],[139.06315,35.33802],[139.06244,35.33769],[139.06236,35.33759],[139.06227,35.33722],[139.06206,35.33703]]}},{"type":"Feature","properties":{"idx":41,"road":NaN,"cls":"tertiary","shops":0,"st_km":1.72,"mesh":"53390007"},"geometry":{"type":"LineString","coordinates":[[139.09687,35.33432],[139.09858,35.33421],[139.09905,35.33409],[139.10012,35.33369],[139.10048,35.33365],[139.10106,35.33374]]}},{"type":"Feature","properties":{"idx":99,"road":NaN,"cls":"tertiary","shops":0,"st_km":1.84,"mesh":"53390008"},"geometry":{"type":"LineString","coordinates":[[139.10261,35.33518],[139.10312,35.33562],[139.1038,35.33598]]}},{"type":"Feature","properties":{"idx":204,"road":NaN,"cls":"tertiary","shops":0,"st_km":1.58,"mesh":"53390016"},"geometry":{"type":"LineString","coordinates":[[139.09117,35.34891],[139.09061,35.34898],[139.0904,35.34892],[139.08783,35.34783],[139.087,35.3479],[139.0855,35.34767],[139.08479,35.3474],[139.08388,35.34693],[139.0827,35.34672],[139.08243,35.34663],[139.08198,35.34642],[139.08097,35.34582],[139.08071,35.34572],[139.07945,35.34576],[139.07805,35.34538],[139.07687,35.34498],[139.07609,35.34466],[139.07504,35.34453],[139.0743,35.34454],[139.07374,35.3444]]}},{"type":"Feature","properties":{"idx":90,"road":NaN,"cls":"tertiary","shops":0,"st_km":2.09,"mesh":"53390008"},"geometry":{"type":"LineString","coordinates":[[139.10181,35.33725],[139.10142,35.33828]]}},{"type":"Feature","properties":{"idx":3,"road":NaN,"cls":"tertiary","shops":0,"st_km":2.86,"mesh":"53390005"},"geometry":{"type":"LineString","coordinates":[[139.07106,35.33547],[139.07126,35.33568],[139.07169,35.33603],[139.07188,35.33631],[139.07195,35.3366]]}},{"type":"Feature","properties":{"idx":3,"road":NaN,"cls":"tertiary","shops":0,"st_km":2.69,"mesh":"53390005"},"geometry":{"type":"LineString","coordinates":[[139.07195,35.3366],[139.07199,35.33692],[139.07216,35.33724],[139.07328,35.33803]]}},{"type":"Feature","properties":{"idx":39,"road":NaN,"cls":"tertiary","shops":0,"st_km":1.82,"mesh":"53390007"},"geometry":{"type":"LineString","coordinates":[[139.09511,35.3336],[139.09577,35.33404],[139.09604,35.33417],[139.09647,35.33429],[139.09687,35.33432]]}},{"type":"Feature","properties":{"idx":3,"road":NaN,"cls":"tertiary","shops":0,"st_km":2.48,"mesh":"53390005"},"geometry":{"type":"LineString","coordinates":[[139.07328,35.33803],[139.07397,35.33866],[139.0741,35.33892],[139.07412,35.33916],[139.07393,35.34018]]}},{"type":"Feature","properties":{"idx":34,"road":NaN,"cls":"tertiary","shops":0,"st_km":1.8,"mesh":"53390017"},"geometry":{"type":"LineString","coordinates":[[139.09833,35.34266],[139.09837,35.34282],[139.09845,35.3429],[139.09898,35.34323],[139.09915,35.34364]]}},{"type":"Feature","properties":{"idx":8,"road":NaN,"cls":"tertiary","shops":0,"st_km":1.9,"mesh":"53390015"},"geometry":{"type":"LineString","coordinates":[[139.07142,35.34429],[139.07231,35.34492],[139.0725,35.345],[139.07336,35.34517]]}},{"type":"Feature","properties":{"idx":94,"road":"怒田開成小田原線","cls":"secondary","shops":0,"st_km":1.28,"mesh":"53390018"},"geometry":{"type":"LineString","coordinates":[[139.101,35.34789],[139.10152,35.34767],[139.10211,35.34763],[139.10287,35.3474],[139.10308,35.3473],[139.10352,35.34696],[139.10381,35.34667],[139.10619,35.34617],[139.10752,35.34618],[139.10808,35.34604],[139.10957,35.34494],[139.111,35.3438]]}},{"type":"Feature","properties":{"idx":3,"road":"矢倉沢山北線","cls":"secondary","shops":0,"st_km":3.34,"mesh":"53390005"},"geometry":{"type":"LineString","coordinates":[[139.06334,35.33357],[139.06336,35.33402],[139.06328,35.33461]]}},{"type":"Feature","properties":{"idx":3,"road":"矢倉沢山北線","cls":"secondary","shops":0,"st_km":2.59,"mesh":"53390005"},"geometry":{"type":"LineString","coordinates":[[139.06338,35.33498],[139.06403,35.33543],[139.06422,35.33577],[139.06439,35.33635],[139.0645,35.33656],[139.06468,35.33671],[139.06533,35.33701],[139.06568,35.33755],[139.06655,35.33816],[139.0669,35.33832],[139.06785,35.33833],[139.06812,35.33828],[139.06855,35.33809],[139.0689,35.3381],[139.06968,35.33861],[139.0705,35.3389],[139.07317,35.34054],[139.07349,35.34121],[139.0738,35.34235],[139.07407,35.3428],[139.07436,35.34309],[139.07336,35.34517]]}},{"type":"Feature","properties":{"idx":521,"road":"小田原山北線","cls":"primary","shops":2,"st_km":1.17,"mesh":"53390027"},"geometry":{"type":"LineString","coordinates":[[139.0969,35.34726],[139.09643,35.34767],[139.09618,35.34778],[139.09499,35.34811],[139.0947,35.34823],[139.09455,35.34833],[139.09329,35.34976],[139.09327,35.34994],[139.09336,35.35005],[139.09435,35.3506],[139.09453,35.35074],[139.09458,35.35093],[139.09448,35.35113],[139.09289,35.35248],[139.09239,35.35316],[139.09057,35.35513],[139.09044,35.35549],[139.09046,35.35627],[139.09033,35.35662],[139.09011,35.35679],[139.08957,35.35695],[139.0893,35.35711],[139.08765,35.3597],[139.08727,35.36014],[139.08712,35.36024],[139.08699,35.36027],[139.08489,35.36064],[139.08455,35.36083],[139.08438,35.3615],[139.08438,35.3621],[139.08432,35.36259]]}},{"type":"Feature","properties":{"idx":61,"road":NaN,"cls":"tertiary","shops":0,"st_km":1.63,"mesh":"53390009"},"geometry":{"type":"LineString","coordinates":[[139.12312,35.33943],[139.12229,35.33909]]}},{"type":"Feature","properties":{"idx":64,"road":NaN,"cls":"tertiary","shops":0,"st_km":1.55,"mesh":"53390009"},"geometry":{"type":"LineString","coordinates":[[139.12381,35.33975],[139.12328,35.33951]]}},{"type":"Feature","properties":{"idx":87,"road":NaN,"cls":"tertiary","shops":1,"st_km":1.73,"mesh":"53390009"},"geometry":{"type":"LineString","coordinates":[[139.12157,35.34012],[139.1209,35.33997]]}},{"type":"Feature","properties":{"idx":60,"road":NaN,"cls":"tertiary","shops":0,"st_km":1.65,"mesh":"53390009"},"geometry":{"type":"LineString","coordinates":[[139.122,35.3402],[139.12222,35.34022]]}},{"type":"Feature","properties":{"idx":67,"road":NaN,"cls":"tertiary","shops":0,"st_km":1.48,"mesh":"53390009"},"geometry":{"type":"LineString","coordinates":[[139.12445,35.33966],[139.12426,35.3398]]}},{"type":"Feature","properties":{"idx":68,"road":NaN,"cls":"tertiary","shops":0,"st_km":1.45,"mesh":"53390009"},"geometry":{"type":"LineString","coordinates":[[139.12498,35.3393],[139.12477,35.33944]]}},{"type":"Feature","properties":{"idx":62,"road":NaN,"cls":"tertiary","shops":0,"st_km":1.61,"mesh":"53390009"},"geometry":{"type":"LineString","coordinates":[[139.12222,35.34022],[139.12288,35.34021]]}},{"type":"Feature","properties":{"idx":56,"road":NaN,"cls":"tertiary","shops":0,"st_km":1.78,"mesh":"53390009"},"geometry":{"type":"LineString","coordinates":[[139.1209,35.33997],[139.12044,35.33986]]}},{"type":"Feature","properties":{"idx":89,"road":NaN,"cls":"tertiary","shops":1,"st_km":1.68,"mesh":"53390009"},"geometry":{"type":"LineString","coordinates":[[139.12157,35.34012],[139.122,35.3402]]}},{"type":"Feature","properties":{"idx":67,"road":NaN,"cls":"tertiary","shops":0,"st_km":1.47,"mesh":"53390009"},"geometry":{"type":"LineString","coordinates":[[139.12459,35.33957],[139.12445,35.33966]]}},{"type":"Feature","properties":{"idx":57,"road":NaN,"cls":"tertiary","shops":0,"st_km":1.77,"mesh":"53390009"},"geometry":{"type":"LineString","coordinates":[[139.12147,35.33871],[139.12125,35.3385]]}},{"type":"Feature","properties":{"idx":63,"road":NaN,"cls":"tertiary","shops":0,"st_km":1.59,"mesh":"53390009"},"geometry":{"type":"LineString","coordinates":[[139.12318,35.33947],[139.12312,35.33943]]}},{"type":"Feature","properties":{"idx":68,"road":NaN,"cls":"tertiary","shops":0,"st_km":1.46,"mesh":"53390009"},"geometry":{"type":"LineString","coordinates":[[139.12477,35.33944],[139.12459,35.33957]]}},{"type":"Feature","properties":{"idx":58,"road":NaN,"cls":"tertiary","shops":0,"st_km":1.72,"mesh":"53390009"},"geometry":{"type":"LineString","coordinates":[[139.12229,35.33909],[139.12147,35.33871]]}},{"type":"Feature","properties":{"idx":65,"road":NaN,"cls":"tertiary","shops":0,"st_km":1.53,"mesh":"53390009"},"geometry":{"type":"LineString","coordinates":[[139.12288,35.34021],[139.12422,35.34019]]}},{"type":"Feature","properties":{"idx":55,"road":NaN,"cls":"tertiary","shops":0,"st_km":1.82,"mesh":"53390009"},"geometry":{"type":"LineString","coordinates":[[139.12044,35.33986],[139.1202,35.33978]]}},{"type":"Feature","properties":{"idx":69,"road":NaN,"cls":"tertiary","shops":0,"st_km":1.43,"mesh":"53390009"},"geometry":{"type":"LineString","coordinates":[[139.12422,35.34019],[139.12452,35.34022],[139.12498,35.34047]]}},{"type":"Feature","properties":{"idx":66,"road":NaN,"cls":"tertiary","shops":0,"st_km":1.5,"mesh":"53390009"},"geometry":{"type":"LineString","coordinates":[[139.12426,35.3398],[139.12405,35.33982],[139.12381,35.33975]]}},{"type":"Feature","properties":{"idx":6,"road":"山北山中湖線","cls":"secondary","shops":0,"st_km":5.5,"mesh":"53390091"},"geometry":{"type":"LineString","coordinates":[[139.02237,35.41447],[139.02188,35.41433],[139.02167,35.41417]]}},{"type":"Feature","properties":{"idx":6,"road":"山北山中湖線","cls":"secondary","shops":0,"st_km":5.66,"mesh":"53390091"},"geometry":{"type":"LineString","coordinates":[[139.02418,35.41635],[139.02367,35.41608]]}},{"type":"Feature","properties":{"idx":129,"road":"山北藤野線","cls":"primary","shops":0,"st_km":1.2,"mesh":"53390037"},"geometry":{"type":"LineString","coordinates":[[139.0973,35.3643],[139.09713,35.36426]]}},{"type":"Feature","properties":{"idx":15,"road":"山北藤野線","cls":"primary","shops":0,"st_km":3.22,"mesh":"53390073"},"geometry":{"type":"LineString","coordinates":[[139.04156,35.39537],[139.04178,35.39561]]}},{"type":"Feature","properties":{"idx":75,"road":"山北藤野線","cls":"primary","shops":0,"st_km":1.42,"mesh":"53390035"},"geometry":{"type":"LineString","coordinates":[[139.06512,35.35951],[139.06444,35.35966]]}},{"type":"Feature","properties":{"idx":104,"road":"山北藤野線","cls":"primary","shops":0,"st_km":0.93,"mesh":"53390035"},"geometry":{"type":"LineString","coordinates":[[139.07068,35.35849],[139.07033,35.35862]]}},{"type":"Feature","properties":{"idx":17,"road":"永歳橋","cls":"primary","shops":0,"st_km":5.36,"mesh":"53390093"},"geometry":{"type":"LineString","coordinates":[[139.04278,35.41434],[139.04035,35.41522],[139.04004,35.41541]]}},{"type":"Feature","properties":{"idx":137,"road":"山北藤野線","cls":"primary","shops":0,"st_km":1.0,"mesh":"53390042"},"geometry":{"type":"LineString","coordinates":[[139.03194,35.37381],[139.03255,35.37431]]}},{"type":"Feature","properties":{"idx":17,"road":"神尾田隧道","cls":"primary","shops":0,"st_km":4.77,"mesh":"53390093"},"geometry":{"type":"LineString","coordinates":[[139.04932,35.4075],[139.04685,35.41015]]}},{"type":"Feature","properties":{"idx":36,"road":"山北藤野線","cls":"primary","shops":0,"st_km":0.57,"mesh":"53390033"},"geometry":{"type":"LineString","coordinates":[[139.04418,35.364],[139.04396,35.36421],[139.04353,35.36437]]}},{"type":"Feature","properties":{"idx":344,"road":"東山北停車場線","cls":"secondary","shops":1,"st_km":0.25,"mesh":"53390028"},"geometry":{"type":"LineString","coordinates":[[139.1053,35.3567],[139.10511,35.35669]]}},{"type":"Feature","properties":{"idx":154,"road":"矢倉沢山北線","cls":"secondary","shops":0,"st_km":1.11,"mesh":"53390025"},"geometry":{"type":"LineString","coordinates":[[139.06967,35.35566],[139.06927,35.35674]]}},{"type":"Feature","properties":{"idx":3,"road":"神縄神山線","cls":"secondary","shops":0,"st_km":5.86,"mesh":"53390095"},"geometry":{"type":"LineString","coordinates":[[139.06648,35.41391],[139.06679,35.41419]]}},{"type":"Feature","properties":{"idx":3,"road":"神縄神山線","cls":"secondary","shops":0,"st_km":6.08,"mesh":"53390095"},"geometry":{"type":"LineString","coordinates":[[139.06819,35.4155],[139.06837,35.41573]]}},{"type":"Feature","properties":{"idx":3,"road":"神縄神山線","cls":"secondary","shops":0,"st_km":5.11,"mesh":"53390094"},"geometry":{"type":"LineString","coordinates":[[139.05718,35.40989],[139.05747,35.4099],[139.05773,35.41001]]}},{"type":"Feature","properties":{"idx":3,"road":"神縄神山線","cls":"secondary","shops":0,"st_km":5.61,"mesh":"53390095"},"geometry":{"type":"LineString","coordinates":[[139.06238,35.41288],[139.06324,35.413]]}},{"type":"Feature","properties":{"idx":3,"road":"神縄神山線","cls":"secondary","shops":0,"st_km":4.97,"mesh":"53390094"},"geometry":{"type":"LineString","coordinates":[[139.05486,35.4092],[139.05525,35.40927]]}},{"type":"Feature","properties":{"idx":3,"road":"神縄神山線","cls":"secondary","shops":0,"st_km":5.38,"mesh":"53390094"},"geometry":{"type":"LineString","coordinates":[[139.06014,35.41133],[139.0604,35.41148],[139.06062,35.41184]]}},{"type":"Feature","properties":{"idx":160,"road":NaN,"cls":"tertiary","shops":0,"st_km":0.27,"mesh":"53390036"},"geometry":{"type":"LineString","coordinates":[[139.08192,35.3606],[139.08237,35.36067],[139.08274,35.36056],[139.08324,35.36061],[139.08354,35.36034],[139.08447,35.36052]]}},{"type":"Feature","properties":{"idx":206,"road":NaN,"cls":"tertiary","shops":0,"st_km":1.21,"mesh":"53390027"},"geometry":{"type":"LineString","coordinates":[[139.09608,35.35281],[139.09539,35.35282]]}},{"type":"Feature","properties":{"idx":37,"road":NaN,"cls":"tertiary","shops":0,"st_km":1.58,"mesh":"53390017"},"geometry":{"type":"LineString","coordinates":[[139.09331,35.34944],[139.09351,35.3495]]}},{"type":"Feature","properties":{"idx":358,"road":NaN,"cls":"tertiary","shops":3,"st_km":0.38,"mesh":"53390036"},"geometry":{"type":"LineString","coordinates":[[139.08459,35.36079],[139.08447,35.36052]]}},{"type":"Feature","properties":{"idx":215,"road":NaN,"cls":"tertiary","shops":0,"st_km":1.15,"mesh":"53390027"},"geometry":{"type":"LineString","coordinates":[[139.09637,35.35356],[139.09628,35.35329],[139.09624,35.35294],[139.09608,35.35281]]}},{"type":"Feature","properties":{"idx":36,"road":NaN,"cls":"tertiary","shops":0,"st_km":1.67,"mesh":"53390017"},"geometry":{"type":"LineString","coordinates":[[139.09331,35.34944],[139.09171,35.34891]]}},{"type":"Feature","properties":{"idx":3,"road":NaN,"cls":"tertiary","shops":0,"st_km":5.03,"mesh":"53390094"},"geometry":{"type":"LineString","coordinates":[[139.05383,35.40842],[139.05367,35.40852],[139.0535,35.40924],[139.05336,35.40942],[139.05312,35.40954],[139.05189,35.40995],[139.05159,35.41018],[139.05129,35.41057],[139.05105,35.41072],[139.05042,35.41076],[139.05027,35.41071],[139.05015,35.41062],[139.04998,35.41023],[139.04983,35.41013],[139.0492,35.41038],[139.04825,35.41018],[139.04694,35.41029],[139.0467,35.41026]]}},{"type":"Feature","properties":{"idx":196,"road":NaN,"cls":"tertiary","shops":0,"st_km":1.29,"mesh":"53390027"},"geometry":{"type":"LineString","coordinates":[[139.09539,35.35282],[139.09508,35.35284],[139.09414,35.35268]]}},{"type":"Feature","properties":{"idx":3,"road":"神縄神山線","cls":"secondary","shops":0,"st_km":5.25,"mesh":"53390094"},"geometry":{"type":"LineString","coordinates":[[139.05773,35.41001],[139.05889,35.41078],[139.06014,35.41133]]}},{"type":"Feature","properties":{"idx":3,"road":"神縄神山線","cls":"secondary","shops":0,"st_km":5.98,"mesh":"53390095"},"geometry":{"type":"LineString","coordinates":[[139.06679,35.41419],[139.06819,35.4155]]}},{"type":"Feature","properties":{"idx":3,"road":"神縄神山線","cls":"secondary","shops":0,"st_km":5.71,"mesh":"53390095"},"geometry":{"type":"LineString","coordinates":[[139.06324,35.413],[139.06475,35.41311],[139.06582,35.41351],[139.06608,35.41363],[139.06648,35.41391]]}},{"type":"Feature","properties":{"idx":3,"road":"神縄神山線","cls":"secondary","shops":0,"st_km":6.13,"mesh":"53390095"},"geometry":{"type":"LineString","coordinates":[[139.06837,35.41573],[139.0685,35.41592],[139.06861,35.41625]]}},{"type":"Feature","properties":{"idx":3,"road":"神縄神山線","cls":"secondary","shops":0,"st_km":5.51,"mesh":"53390094"},"geometry":{"type":"LineString","coordinates":[[139.06062,35.41184],[139.06076,35.41223],[139.06099,35.41245],[139.06238,35.41288]]}},{"type":"Feature","properties":{"idx":3,"road":"神縄神山線","cls":"secondary","shops":0,"st_km":5.05,"mesh":"53390094"},"geometry":{"type":"LineString","coordinates":[[139.05525,35.40927],[139.05574,35.40942],[139.05646,35.4099],[139.05661,35.40993],[139.05718,35.40989]]}},{"type":"Feature","properties":{"idx":431,"road":"東山北停車場線","cls":"secondary","shops":1,"st_km":0.91,"mesh":"53390027"},"geometry":{"type":"LineString","coordinates":[[139.10511,35.35669],[139.1036,35.35651],[139.10261,35.35647],[139.10155,35.35627],[139.10088,35.35603],[139.09929,35.35532],[139.09893,35.35511],[139.09885,35.355],[139.09875,35.3546],[139.09895,35.35336],[139.09893,35.35292],[139.0987,35.35226],[139.09861,35.3515],[139.09798,35.34976],[139.09776,35.34849],[139.09731,35.34755],[139.0967,35.34767],[139.09659,35.34753]]}},{"type":"Feature","properties":{"idx":157,"road":"矢倉沢山北線","cls":"secondary","shops":0,"st_km":1.08,"mesh":"53390025"},"geometry":{"type":"LineString","coordinates":[[139.06927,35.35674],[139.06915,35.35735],[139.06915,35.35821]]}},{"type":"Feature","properties":{"idx":6,"road":"山北山中湖線","cls":"secondary","shops":0,"st_km":5.55,"mesh":"53390091"},"geometry":{"type":"LineString","coordinates":[[139.02367,35.41608],[139.02353,35.41594],[139.02341,35.41571],[139.02331,35.4149],[139.02325,35.41478],[139.02297,35.41457],[139.02237,35.41447]]}},{"type":"Feature","properties":{"idx":17,"road":"山北藤野線","cls":"primary","shops":0,"st_km":4.9,"mesh":"53390093"},"geometry":{"type":"LineString","coordinates":[[139.04685,35.41015],[139.0467,35.41026]]}},{"type":"Feature","properties":{"idx":38,"road":"山北藤野線","cls":"primary","shops":0,"st_km":0.52,"mesh":"53390033"},"geometry":{"type":"LineString","coordinates":[[139.04353,35.36437],[139.04321,35.36436],[139.04288,35.36422],[139.04185,35.36333],[139.04128,35.36253],[139.04095,35.36236],[139.04061,35.36231],[139.04025,35.36234],[139.03994,35.36246],[139.03931,35.363],[139.03918,35.36324],[139.03905,35.36404],[139.03884,35.36426],[139.0385,35.36446]]}},{"type":"Feature","properties":{"idx":172,"road":"山北藤野線","cls":"primary","shops":0,"st_km":0.79,"mesh":"53390037"},"geometry":{"type":"LineString","coordinates":[[139.09713,35.36426],[139.09138,35.36308],[139.09063,35.36308],[139.08875,35.36318],[139.08781,35.36308],[139.08373,35.36251],[139.07984,35.36173]]}},{"type":"Feature","properties":{"idx":15,"road":"山北藤野線","cls":"primary","shops":0,"st_km":3.59,"mesh":"53390073"},"geometry":{"type":"LineString","coordinates":[[139.04178,35.39561],[139.04243,35.39622],[139.0428,35.39648],[139.04353,35.39684],[139.04441,35.39696],[139.04525,35.39729],[139.04561,35.39763],[139.04573,35.39806],[139.04611,35.39858],[139.04612,35.39897],[139.04661,35.39999],[139.04655,35.40026],[139.0461,35.40105],[139.04613,35.40128],[139.04637,35.40203],[139.04695,35.40261]]}},{"type":"Feature","properties":{"idx":63,"road":"山北藤野線","cls":"primary","shops":0,"st_km":1.54,"mesh":"53390052"},"geometry":{"type":"LineString","coordinates":[[139.03255,35.37431],[139.03262,35.37446],[139.03263,35.37523],[139.03234,35.37664],[139.03218,35.377],[139.03152,35.37773],[139.03135,35.37804],[139.03121,35.37844],[139.03112,35.37894],[139.03114,35.37971],[139.03145,35.38024],[139.03234,35.38109],[139.03291,35.38143],[139.03367,35.3818],[139.03451,35.38211],[139.03477,35.38233],[139.03504,35.38278]]}},{"type":"Feature","properties":{"idx":106,"road":"山北藤野線","cls":"primary","shops":0,"st_km":1.5,"mesh":"53390034"},"geometry":{"type":"LineString","coordinates":[[139.06444,35.35966],[139.06409,35.35973],[139.06382,35.35971],[139.06241,35.35883],[139.0621,35.35872],[139.06178,35.35869],[139.06136,35.35883],[139.06076,35.35934],[139.06053,35.3598],[139.0604,35.35996],[139.05988,35.36026],[139.05942,35.36044],[139.05735,35.36101],[139.05644,35.36131],[139.05628,35.36141],[139.05608,35.36165],[139.05604,35.3618],[139.05603,35.36196],[139.05624,35.36303],[139.05616,35.36345],[139.05604,35.36365],[139.05574,35.36389],[139.05455,35.36451],[139.05349,35.36467],[139.05259,35.36452],[139.05192,35.36426],[139.05139,35.36396],[139.05112,35.36369],[139.051,35.36341],[139.05096,35.36276],[139.05072,35.3624],[139.05019,35.36203],[139.04927,35.36175],[139.04882,35.36177],[139.04858,35.36183],[139.04784,35.36233],[139.04757,35.36247],[139.0472,35.36259],[139.04645,35.36256],[139.04549,35.36223],[139.04504,35.36221],[139.04488,35.36231],[139.04431,35.36305],[139.04427,35.36375],[139.04418,35.364]]}},{"type":"Feature","properties":{"idx":98,"road":"山北藤野線","cls":"primary","shops":0,"st_km":1.0,"mesh":"53390035"},"geometry":{"type":"LineString","coordinates":[[139.07033,35.35862],[139.06989,35.35867],[139.06952,35.35858],[139.06919,35.35835],[139.06915,35.35821]]}},{"type":"Feature","properties":{"idx":17,"road":"山北藤野線","cls":"primary","shops":0,"st_km":5.54,"mesh":"53390093"},"geometry":{"type":"LineString","coordinates":[[139.04004,35.41541],[139.03992,35.4157],[139.0399,35.41608],[139.04035,35.41674],[139.04041,35.41704],[139.0404,35.41751]]}},{"type":"Feature","properties":{"idx":244,"road":NaN,"cls":"primary_link","shops":0,"st_km":1.43,"mesh":"53390029"},"geometry":{"type":"LineString","coordinates":[[139.12493,35.35158],[139.12488,35.35148],[139.12495,35.35139]]}},{"type":"Feature","properties":{"idx":91,"road":NaN,"cls":"tertiary","shops":0,"st_km":2.05,"mesh":"53390008"},"geometry":{"type":"LineString","coordinates":[[139.10748,35.33664],[139.1081,35.33684],[139.1095,35.33717],[139.11036,35.33754]]}},{"type":"Feature","properties":{"idx":100,"road":NaN,"cls":"primary_link","shops":0,"st_km":0.64,"mesh":"53390036"},"geometry":{"type":"LineString","coordinates":[[139.08737,35.36033],[139.0873,35.36022],[139.08732,35.3601]]}},{"type":"Feature","properties":{"idx":217,"road":NaN,"cls":"primary_link","shops":2,"st_km":0.54,"mesh":"53390036"},"geometry":{"type":"LineString","coordinates":[[139.08621,35.36024],[139.08627,35.36031],[139.08619,35.36042]]}},{"type":"Feature","properties":{"idx":172,"road":"山北藤野線","cls":"primary","shops":0,"st_km":0.42,"mesh":"53390036"},"geometry":{"type":"LineString","coordinates":[[139.07984,35.36173],[139.0779,35.36132],[139.07228,35.35995],[139.07194,35.35978],[139.07177,35.35954]]}},{"type":"Feature","properties":{"idx":35,"road":"山北藤野線","cls":"primary","shops":2,"st_km":5.06,"mesh":"53390093"},"geometry":{"type":"LineString","coordinates":[[139.0467,35.41026],[139.0463,35.41044],[139.04564,35.41062],[139.04519,35.41086],[139.04481,35.41123],[139.04436,35.41178],[139.04362,35.41232],[139.04344,35.41253],[139.04332,35.41284],[139.04339,35.41367],[139.04337,35.41389],[139.04321,35.41412],[139.04278,35.41434]]}},{"type":"Feature","properties":{"idx":3,"road":"山北藤野線","cls":"primary","shops":0,"st_km":4.51,"mesh":"53390083"},"geometry":{"type":"LineString","coordinates":[[139.04843,35.40594],[139.04943,35.40588],[139.04966,35.40591],[139.04999,35.40607],[139.05006,35.40616],[139.05,35.40646],[139.04946,35.4073]]}},{"type":"Feature","properties":{"idx":57,"road":"山北藤野線","cls":"primary","shops":0,"st_km":0.08,"mesh":"53390033"},"geometry":{"type":"LineString","coordinates":[[139.0385,35.36446],[139.03823,35.36466],[139.03805,35.36494],[139.03707,35.36789]]}},{"type":"Feature","properties":{"idx":228,"road":"山北藤野線","cls":"primary","shops":0,"st_km":0.37,"mesh":"53390042"},"geometry":{"type":"LineString","coordinates":[[139.03707,35.36789],[139.03692,35.36813],[139.03673,35.3683],[139.03594,35.36865],[139.03554,35.36891],[139.03442,35.37033],[139.0344,35.37044]]}},{"type":"Feature","properties":{"idx":3,"road":"神縄神山線","cls":"secondary","shops":0,"st_km":4.91,"mesh":"53390094"},"geometry":{"type":"LineString","coordinates":[[139.05383,35.40842],[139.05435,35.40899],[139.05454,35.40911],[139.05486,35.4092]]}},{"type":"Feature","properties":{"idx":123,"road":"小田原山北線","cls":"primary","shops":0,"st_km":1.85,"mesh":"53390008"},"geometry":{"type":"LineString","coordinates":[[139.10683,35.32844],[139.10628,35.3339],[139.10614,35.33451],[139.10577,35.33561],[139.10544,35.33634],[139.10504,35.33708],[139.10158,35.34195]]}},{"type":"Feature","properties":{"idx":76,"road":"怒田開成小田原線","cls":"secondary","shops":0,"st_km":1.43,"mesh":"53390009"},"geometry":{"type":"LineString","coordinates":[[139.1216,35.33586],[139.12459,35.33217]]}},{"type":"Feature","properties":{"idx":67,"road":"怒田開成小田原線","cls":"secondary","shops":0,"st_km":1.66,"mesh":"53390009"},"geometry":{"type":"LineString","coordinates":[[139.12304,35.33732],[139.1216,35.33586]]}},{"type":"Feature","properties":{"idx":201,"road":"矢倉沢山北線","cls":"secondary","shops":1,"st_km":1.33,"mesh":"53390025"},"geometry":{"type":"LineString","coordinates":[[139.06982,35.35241],[139.06981,35.35251]]}},{"type":"Feature","properties":{"idx":144,"road":"矢倉沢山北線","cls":"secondary","shops":0,"st_km":1.21,"mesh":"53390025"},"geometry":{"type":"LineString","coordinates":[[139.06981,35.35251],[139.06975,35.3529],[139.06983,35.35459],[139.06967,35.35566]]}},{"type":"Feature","properties":{"idx":9,"road":NaN,"cls":"secondary","shops":0,"st_km":1.83,"mesh":"53390015"},"geometry":{"type":"LineString","coordinates":[[139.07336,35.34517],[139.07327,35.34538]]}},{"type":"Feature","properties":{"idx":10,"road":"矢倉沢山北線","cls":"secondary","shops":0,"st_km":1.66,"mesh":"53390015"},"geometry":{"type":"LineString","coordinates":[[139.07327,35.34538],[139.07275,35.34666],[139.07261,35.34685],[139.07051,35.34767],[139.07035,35.34781],[139.07021,35.34822],[139.07004,35.34853],[139.06999,35.34921],[139.07008,35.3496],[139.07005,35.3503],[139.07011,35.35081],[139.06982,35.35241]]}},{"type":"Feature","properties":{"idx":140,"road":"玄倉山北線","cls":"secondary","shops":0,"st_km":1.67,"mesh":"53390045"},"geometry":{"type":"LineString","coordinates":[[139.0726,35.37431],[139.07275,35.37452]]}},{"type":"Feature","properties":{"idx":19,"road":"玄倉山北線","cls":"secondary","shops":0,"st_km":3.0,"mesh":"53390065"},"geometry":{"type":"LineString","coordinates":[[139.07275,35.37452],[139.07289,35.37464],[139.07296,35.37487],[139.07288,35.37508],[139.07232,35.37555],[139.07201,35.37612],[139.07166,35.37635],[139.07156,35.37649],[139.07158,35.37698],[139.07174,35.37738],[139.07172,35.37771],[139.07163,35.37793],[139.07139,35.37819],[139.07103,35.37843],[139.07053,35.37861],[139.07025,35.37887],[139.07021,35.37897],[139.07022,35.37931],[139.07035,35.37988],[139.07065,35.38029],[139.07122,35.38064],[139.07133,35.38113],[139.07111,35.38133],[139.07101,35.38154],[139.07089,35.38206],[139.07072,35.38234],[139.07033,35.38277],[139.06991,35.38306],[139.06973,35.38333],[139.06975,35.38347],[139.07001,35.38376],[139.07047,35.38399],[139.07085,35.38406],[139.07149,35.38404],[139.07215,35.38409],[139.07225,35.38416],[139.07228,35.38428],[139.07221,35.38446],[139.07186,35.38472],[139.0715,35.38514],[139.07113,35.38541],[139.07041,35.38572],[139.07031,35.38586],[139.07031,35.38604],[139.07053,35.38651],[139.07079,35.38685],[139.07075,35.38699],[139.07052,35.38723],[139.07067,35.38791],[139.07067,35.38833],[139.07085,35.38853],[139.07143,35.38823],[139.0716,35.3883],[139.07194,35.38857],[139.07214,35.38864],[139.07263,35.38864],[139.07272,35.38868],[139.07279,35.38889],[139.07278,35.38902],[139.07249,35.38938],[139.07235,35.3897],[139.07232,35.39037],[139.07239,35.39068],[139.0729,35.39103],[139.07326,35.39125],[139.0735,35.39132],[139.07376,35.39122],[139.07397,35.39104],[139.07419,35.39103],[139.07456,35.39121],[139.0747,35.39136],[139.07478,35.39154],[139.07516,35.3915],[139.07543,35.39162],[139.07558,35.39179],[139.07564,35.39207],[139.07572,35.39219],[139.07588,35.39221],[139.07654,35.39206],[139.07686,35.39207],[139.07701,35.39213],[139.07716,35.39231],[139.07721,35.39267],[139.07728,35.39278],[139.07759,35.39304],[139.0789,35.39324],[139.07927,35.39321],[139.07963,35.3933],[139.07988,35.39349],[139.08034,35.39413],[139.08109,35.39447],[139.08144,35.39471],[139.08153,35.39487],[139.08157,35.39512]]}},{"type":"Feature","properties":{"idx":74,"road":"松田停車場線","cls":"secondary","shops":0,"st_km":1.49,"mesh":"53390009"},"geometry":{"type":"LineString","coordinates":[[139.12304,35.33732],[139.12612,35.34048]]}},{"type":"Feature","properties":{"idx":3,"road":"山北藤野線","cls":"primary","shops":0,"st_km":4.36,"mesh":"53390083"},"geometry":{"type":"LineString","coordinates":[[139.0501,35.40605],[139.04972,35.40583],[139.04944,35.4058],[139.04844,35.40586],[139.04803,35.40583],[139.0477,35.40569],[139.04744,35.40546],[139.04709,35.40502],[139.04695,35.40472],[139.04697,35.4043],[139.04731,35.40358],[139.04736,35.40333],[139.04734,35.40298],[139.04715,35.4027],[139.04706,35.40271]]}},{"type":"Feature","properties":{"idx":3,"road":"山北藤野線","cls":"primary","shops":0,"st_km":4.08,"mesh":"53390083"},"geometry":{"type":"LineString","coordinates":[[139.04695,35.40261],[139.04706,35.40271]]}},{"type":"Feature","properties":{"idx":3,"road":"山北藤野線","cls":"primary","shops":0,"st_km":4.64,"mesh":"53390083"},"geometry":{"type":"LineString","coordinates":[[139.04946,35.4073],[139.04932,35.4075]]}},{"type":"Feature","properties":{"idx":3,"road":"山北藤野線","cls":"primary","shops":0,"st_km":4.29,"mesh":"53390083"},"geometry":{"type":"LineString","coordinates":[[139.04706,35.40271],[139.04705,35.40279],[139.0472,35.40301],[139.04721,35.40332],[139.04716,35.40356],[139.04679,35.40439],[139.04679,35.40472],[139.04684,35.40488],[139.04695,35.40507],[139.04733,35.40553],[139.04765,35.40578],[139.04798,35.40591],[139.04843,35.40594]]}},{"type":"Feature","properties":{"idx":3,"road":"山北藤野線","cls":"primary","shops":0,"st_km":4.57,"mesh":"53390083"},"geometry":{"type":"LineString","coordinates":[[139.04946,35.4073],[139.05013,35.40641],[139.05016,35.40618],[139.0501,35.40605]]}},{"type":"Feature","properties":{"idx":28,"road":"玄倉山北線","cls":"secondary","shops":0,"st_km":3.82,"mesh":"53390076"},"geometry":{"type":"LineString","coordinates":[[139.08157,35.39512],[139.08169,35.39519]]}},{"type":"Feature","properties":{"idx":291,"road":"山北藤野線","cls":"primary","shops":0,"st_km":0.11,"mesh":"53390028"},"geometry":{"type":"LineString","coordinates":[[139.1063,35.35894],[139.10648,35.35904],[139.1067,35.35899],[139.10771,35.35852],[139.10842,35.35805],[139.11052,35.3562],[139.11085,35.35578],[139.11076,35.3556]]}},{"type":"Feature","properties":{"idx":238,"road":"松田国府津線","cls":"primary_link","shops":0,"st_km":1.47,"mesh":"53390029"},"geometry":{"type":"LineString","coordinates":[[139.12406,35.35161],[139.12446,35.35154],[139.12493,35.35158]]}},{"type":"Feature","properties":{"idx":242,"road":NaN,"cls":"primary_link","shops":0,"st_km":1.44,"mesh":"53390029"},"geometry":{"type":"LineString","coordinates":[[139.12493,35.35158],[139.12464,35.35146]]}},{"type":"Feature","properties":{"idx":33,"road":NaN,"cls":"tertiary","shops":0,"st_km":2.57,"mesh":"53390006"},"geometry":{"type":"LineString","coordinates":[[139.0885,35.34405],[139.08761,35.34406],[139.08713,35.34392],[139.08574,35.34306],[139.08501,35.34279],[139.08455,35.3423],[139.08433,35.34218],[139.08408,35.34216],[139.08373,35.34219],[139.08336,35.34213],[139.08249,35.34162],[139.08218,35.3415],[139.07981,35.34107],[139.07932,35.34083],[139.07852,35.34018],[139.07823,35.33982],[139.07808,35.33945],[139.07801,35.33892],[139.07783,35.3387],[139.07736,35.33847],[139.07683,35.33803],[139.07596,35.3378],[139.07517,35.3374],[139.075,35.33725],[139.07486,35.3371],[139.07479,35.33691],[139.07478,35.33598],[139.07463,35.33577],[139.0745,35.3357],[139.07336,35.33538],[139.07287,35.33505],[139.0727,35.335],[139.07088,35.33492],[139.07011,35.3351],[139.06954,35.33516],[139.069,35.33497],[139.06875,35.33478],[139.06765,35.33358],[139.06741,35.33327],[139.06731,35.33306],[139.06729,35.33269],[139.06741,35.33241],[139.06808,35.33177],[139.06822,35.33152],[139.06812,35.33122],[139.06786,35.3309],[139.06782,35.33064]]}},{"type":"Feature","properties":{"idx":93,"road":NaN,"cls":"tertiary","shops":0,"st_km":1.98,"mesh":"53390008"},"geometry":{"type":"LineString","coordinates":[[139.1074,35.33662],[139.10748,35.33664]]}},{"type":"Feature","properties":{"idx":95,"road":NaN,"cls":"tertiary","shops":0,"st_km":1.95,"mesh":"53390008"},"geometry":{"type":"LineString","coordinates":[[139.10544,35.33634],[139.1074,35.33662]]}},{"type":"Feature","properties":{"idx":131,"road":"山北藤野線","cls":"primary","shops":0,"st_km":1.18,"mesh":"53390037"},"geometry":{"type":"LineString","coordinates":[[139.09781,35.36439],[139.0973,35.3643]]}},{"type":"Feature","properties":{"idx":20,"road":"山北山中湖線","cls":"secondary","shops":0,"st_km":5.88,"mesh":"53390090"},"geometry":{"type":"LineString","coordinates":[[139.00424,35.41192],[139.00428,35.41195]]}},{"type":"Feature","properties":{"idx":6,"road":"山北山中湖線","cls":"secondary","shops":0,"st_km":5.22,"mesh":"53390091"},"geometry":{"type":"LineString","coordinates":[[139.0079,35.41201],[139.00825,35.41182],[139.00826,35.41066],[139.00834,35.41051],[139.0086,35.41035],[139.01039,35.41022],[139.01131,35.41],[139.01282,35.40983],[139.01394,35.4096],[139.0143,35.40957],[139.01467,35.40962],[139.01568,35.40983],[139.0161,35.41004],[139.01632,35.41027],[139.01642,35.41041],[139.01652,35.41078],[139.01652,35.41158],[139.0166,35.41185],[139.01681,35.4121],[139.01726,35.41247],[139.01757,35.41262],[139.01791,35.41271],[139.01887,35.41272],[139.0192,35.4128],[139.02002,35.41335],[139.02113,35.41366],[139.02135,35.41382],[139.02167,35.41417]]}},{"type":"Feature","properties":{"idx":164,"road":"玄倉山北線","cls":"secondary","shops":0,"st_km":1.38,"mesh":"53390045"},"geometry":{"type":"LineString","coordinates":[[139.07577,35.36979],[139.07581,35.36988],[139.07579,35.37007],[139.07568,35.37018],[139.07512,35.37038],[139.07429,35.37057],[139.07366,35.37089],[139.07362,35.37107],[139.07381,35.37133],[139.07388,35.3716],[139.07383,35.37183],[139.07369,35.37204],[139.07343,35.37214],[139.07287,35.37218],[139.07235,35.3724],[139.07223,35.37251],[139.07211,35.37281],[139.07213,35.37301],[139.07253,35.37357],[139.07257,35.37379],[139.07246,35.37409],[139.0726,35.37431]]}},{"type":"Feature","properties":{"idx":14,"road":"山北藤野線","cls":"primary","shops":0,"st_km":2.59,"mesh":"53390063"},"geometry":{"type":"LineString","coordinates":[[139.03504,35.38278],[139.03517,35.38324],[139.03537,35.38517],[139.0356,35.38576],[139.03726,35.38741],[139.03802,35.38789],[139.03838,35.38805],[139.03853,35.38815],[139.03859,35.38833],[139.03857,35.3888],[139.0384,35.38914],[139.03777,35.3899],[139.03761,35.38999],[139.03737,35.39005],[139.03662,35.39014],[139.0364,35.39024],[139.03624,35.39042],[139.0362,35.3907],[139.0363,35.39118],[139.0365,35.39175],[139.03664,35.39195],[139.03725,35.39245],[139.03761,35.39259],[139.03812,35.39269],[139.04003,35.39359],[139.04019,35.39372],[139.04124,35.39508],[139.04156,35.39537]]}},{"type":"Feature","properties":{"idx":3,"road":"神縄神山線","cls":"secondary","shops":0,"st_km":6.19,"mesh":"53390095"},"geometry":{"type":"LineString","coordinates":[[139.06861,35.41625],[139.06867,35.4168]]}},{"type":"Feature","properties":{"idx":241,"road":"山北藤野線","cls":"primary","shops":1,"st_km":0.78,"mesh":"53390042"},"geometry":{"type":"LineString","coordinates":[[139.03167,35.37093],[139.03183,35.3715]]}},{"type":"Feature","properties":{"idx":158,"road":"山北藤野線","cls":"primary","shops":0,"st_km":0.81,"mesh":"53390042"},"geometry":{"type":"LineString","coordinates":[[139.03183,35.3715],[139.03186,35.37167]]}},{"type":"Feature","properties":{"idx":133,"road":"山北藤野線","cls":"primary","shops":0,"st_km":1.15,"mesh":"53390037"},"geometry":{"type":"LineString","coordinates":[[139.09806,35.36433],[139.09786,35.36438]]}},{"type":"Feature","properties":{"idx":132,"road":"山北藤野線","cls":"primary","shops":0,"st_km":1.16,"mesh":"53390037"},"geometry":{"type":"LineString","coordinates":[[139.09786,35.36438],[139.09781,35.36439]]}},{"type":"Feature","properties":{"idx":134,"road":"山北藤野線","cls":"primary","shops":0,"st_km":1.14,"mesh":"53390037"},"geometry":{"type":"LineString","coordinates":[[139.09813,35.36431],[139.09806,35.36433]]}},{"type":"Feature","properties":{"idx":8,"road":NaN,"cls":"tertiary","shops":0,"st_km":2.01,"mesh":"53390015"},"geometry":{"type":"LineString","coordinates":[[139.07106,35.34415],[139.07142,35.34429]]}},{"type":"Feature","properties":{"idx":8,"road":NaN,"cls":"tertiary","shops":0,"st_km":2.03,"mesh":"53390015"},"geometry":{"type":"LineString","coordinates":[[139.07082,35.34413],[139.07106,35.34415]]}},{"type":"Feature","properties":{"idx":62,"road":"怒田開成小田原線","cls":"secondary","shops":0,"st_km":1.84,"mesh":"53390009"},"geometry":{"type":"LineString","coordinates":[[139.11498,35.34253],[139.11586,35.34263],[139.11663,35.34254],[139.11686,35.34245],[139.11785,35.34187],[139.11897,35.34152],[139.1196,35.34116],[139.1197,35.34107],[139.1202,35.33978],[139.12042,35.33941],[139.12114,35.33857],[139.12271,35.33783],[139.12304,35.33732]]}},{"type":"Feature","properties":{"idx":89,"road":NaN,"cls":"tertiary","shops":1,"st_km":1.66,"mesh":"53390009"},"geometry":{"type":"LineString","coordinates":[[139.12063,35.33487],[139.1216,35.33586]]}},{"type":"Feature","properties":{"idx":101,"road":NaN,"cls":"primary_link","shops":0,"st_km":0.63,"mesh":"53390036"},"geometry":{"type":"LineString","coordinates":[[139.08721,35.36019],[139.0872,35.36029],[139.08724,35.36032]]}},{"type":"Feature","properties":{"idx":22,"road":NaN,"cls":"primary_link","shops":0,"st_km":0.76,"mesh":"53390033"},"geometry":{"type":"LineString","coordinates":[[139.04492,35.36218],[139.04482,35.36239]]}},{"type":"Feature","properties":{"idx":21,"road":NaN,"cls":"primary_link","shops":0,"st_km":0.78,"mesh":"53390033"},"geometry":{"type":"LineString","coordinates":[[139.04514,35.3622],[139.04492,35.36218]]}},{"type":"Feature","properties":{"idx":63,"road":NaN,"cls":"tertiary","shops":0,"st_km":1.58,"mesh":"53390009"},"geometry":{"type":"LineString","coordinates":[[139.12328,35.33951],[139.12318,35.33947]]}},{"type":"Feature","properties":{"idx":184,"road":NaN,"cls":"tertiary","shops":0,"st_km":0.12,"mesh":"53390036"},"geometry":{"type":"LineString","coordinates":[[139.08144,35.36051],[139.08192,35.3606]]}},{"type":"Feature","properties":{"idx":97,"road":NaN,"cls":"tertiary","shops":0,"st_km":1.88,"mesh":"53390008"},"geometry":{"type":"LineString","coordinates":[[139.1038,35.33598],[139.10399,35.33606]]}},{"type":"Feature","properties":{"idx":127,"road":"怒田開成小田原線","cls":"secondary","shops":0,"st_km":1.73,"mesh":"53390019"},"geometry":{"type":"LineString","coordinates":[[139.1111,35.34373],[139.11188,35.34322],[139.11298,35.34267],[139.11353,35.34266],[139.11443,35.34247],[139.11498,35.34253]]}},{"type":"Feature","properties":{"idx":79,"road":"怒田開成小田原線","cls":"secondary","shops":0,"st_km":1.57,"mesh":"53390018"},"geometry":{"type":"LineString","coordinates":[[139.111,35.3438],[139.1111,35.34373]]}},{"type":"Feature","properties":{"idx":48,"road":"小田原山北線","cls":"primary","shops":0,"st_km":1.54,"mesh":"53390017"},"geometry":{"type":"LineString","coordinates":[[139.09812,35.34608],[139.09768,35.34654]]}},{"type":"Feature","properties":{"idx":71,"road":"小田原山北線","cls":"primary","shops":1,"st_km":1.55,"mesh":"53390017"},"geometry":{"type":"LineString","coordinates":[[139.09818,35.346],[139.09812,35.34608]]}},{"type":"Feature","properties":{"idx":44,"road":"小田原山北線","cls":"primary","shops":0,"st_km":1.69,"mesh":"53390017"},"geometry":{"type":"LineString","coordinates":[[139.10153,35.34202],[139.10109,35.34257],[139.09942,35.34418],[139.09889,35.34477],[139.09869,35.34505],[139.09818,35.346]]}},{"type":"Feature","properties":{"idx":78,"road":"小田原山北線","cls":"primary","shops":0,"st_km":1.83,"mesh":"53390018"},"geometry":{"type":"LineString","coordinates":[[139.10158,35.34195],[139.10153,35.34202]]}}]}