{"type":"FeatureCollection","features":[{"type":"Feature","properties":{"idx":4,"road":"上野原あきる野線","cls":"primary","shops":0,"st_km":9.17,"mesh":"53394048"},"geometry":{"type":"LineString","coordinates":[[139.1111,35.70068],[139.11172,35.70099],[139.1118,35.70114],[139.11177,35.70124],[139.11167,35.7013],[139.11153,35.70131],[139.11084,35.70102],[139.11066,35.70108],[139.11063,35.70121],[139.11152,35.70175],[139.11165,35.70194],[139.11172,35.70221]]}},{"type":"Feature","properties":{"idx":25,"road":"上野原あきる野線","cls":"primary","shops":0,"st_km":9.4,"mesh":"53394049"},"geometry":{"type":"LineString","coordinates":[[139.11272,35.70338],[139.11295,35.70352],[139.11417,35.70393],[139.11449,35.70396],[139.11468,35.70389],[139.11487,35.70375],[139.11535,35.70305],[139.11551,35.70295],[139.11584,35.70293],[139.11603,35.70302],[139.11615,35.70316],[139.11666,35.70435],[139.11677,35.70453],[139.1169,35.7046]]}},{"type":"Feature","properties":{"idx":14,"road":"川野上川乗線","cls":"secondary","shops":0,"st_km":10.39,"mesh":"53394065"},"geometry":{"type":"LineString","coordinates":[[139.05375,35.72448],[139.05445,35.72442],[139.05494,35.72392],[139.05519,35.72381],[139.05533,35.72381],[139.05579,35.72398],[139.05661,35.72394],[139.05678,35.72398],[139.05816,35.72437],[139.05883,35.72472],[139.05908,35.72474],[139.061,35.72421],[139.06149,35.72367],[139.06248,35.72364],[139.06341,35.72353],[139.06392,35.72338],[139.06413,35.72336],[139.06423,35.72325],[139.06423,35.72284],[139.06413,35.72229],[139.06384,35.7219],[139.06383,35.72149],[139.06449,35.7209],[139.0654,35.72031],[139.06633,35.71912],[139.06731,35.71876],[139.06753,35.71874],[139.06793,35.71913],[139.06806,35.71917],[139.06836,35.71914],[139.06912,35.71884],[139.0695,35.71878],[139.06984,35.71885],[139.07021,35.71906],[139.07037,35.71906],[139.07053,35.71887],[139.0707,35.71837],[139.0709,35.71817],[139.0709,35.71783],[139.07116,35.71714],[139.07124,35.71705],[139.07157,35.717],[139.07207,35.71674],[139.07228,35.71671],[139.07291,35.71698],[139.07335,35.717],[139.0737,35.7171],[139.07405,35.71711],[139.07421,35.71706],[139.07464,35.71666],[139.07467,35.71641],[139.07449,35.71602],[139.07388,35.71544],[139.07386,35.71531],[139.0739,35.7152],[139.0744,35.71483],[139.07519,35.71444],[139.07565,35.71396],[139.07582,35.71366],[139.07611,35.71344],[139.07642,35.71332],[139.07734,35.71319]]}},{"type":"Feature","properties":{"idx":2,"road":"上野原あきる野線","cls":"primary","shops":0,"st_km":8.7,"mesh":"53394038"},"geometry":{"type":"LineString","coordinates":[[139.10368,35.69594],[139.10325,35.69648]]}},{"type":"Feature","properties":{"idx":2,"road":"上野原あきる野線","cls":"primary","shops":0,"st_km":8.19,"mesh":"53394038"},"geometry":{"type":"LineString","coordinates":[[139.10391,35.6874],[139.10404,35.69487],[139.104,35.69519],[139.10368,35.69594]]}},{"type":"Feature","properties":{"idx":2,"road":"上野原あきる野線","cls":"primary","shops":0,"st_km":8.82,"mesh":"53394038"},"geometry":{"type":"LineString","coordinates":[[139.10325,35.69648],[139.10266,35.69733],[139.10252,35.69767],[139.10238,35.69821]]}},{"type":"Feature","properties":{"idx":2,"road":"上野原あきる野線","cls":"primary","shops":0,"st_km":9.05,"mesh":"53394038"},"geometry":{"type":"LineString","coordinates":[[139.10238,35.69821],[139.10234,35.69924],[139.1023,35.69935],[139.10213,35.69947],[139.10182,35.69949],[139.10166,35.69942],[139.10158,35.6993],[139.10156,35.69907],[139.10146,35.69885],[139.10107,35.69854],[139.101,35.69818],[139.10092,35.69808],[139.10034,35.69792],[139.1001,35.69766],[139.09996,35.69759],[139.09966,35.69754],[139.09906,35.69735],[139.09894,35.69734],[139.09888,35.69741],[139.09895,35.69753],[139.09953,35.69766],[139.09977,35.69776],[139.10053,35.6983],[139.10078,35.69873],[139.10093,35.69919],[139.10092,35.69936],[139.10082,35.6996],[139.10086,35.69978],[139.10187,35.70034],[139.10221,35.70043],[139.10251,35.70034],[139.10349,35.69977],[139.10353,35.69958],[139.10338,35.69916],[139.10345,35.69901],[139.10363,35.69893],[139.10392,35.69895],[139.10429,35.69909],[139.10464,35.69932],[139.10493,35.69933],[139.10509,35.69922],[139.10526,35.69893],[139.10529,35.6988],[139.10523,35.69855],[139.10529,35.69845],[139.10542,35.6984],[139.10571,35.6984],[139.10619,35.69788],[139.10653,35.69775],[139.10671,35.69775]]}},{"type":"Feature","properties":{"idx":2,"road":"除毛橋","cls":"secondary","shops":0,"st_km":7.82,"mesh":"53394086"},"geometry":{"type":"LineString","coordinates":[[139.08176,35.74008],[139.0819,35.73999]]}},{"type":"Feature","properties":{"idx":2,"road":"水根本宿線","cls":"secondary","shops":0,"st_km":7.77,"mesh":"53394086"},"geometry":{"type":"LineString","coordinates":[[139.08109,35.7396],[139.08103,35.73971],[139.08104,35.73991],[139.0811,35.74003],[139.08125,35.74016],[139.08153,35.74021],[139.08158,35.74028],[139.08154,35.7404],[139.0806,35.74067],[139.08026,35.74086],[139.07994,35.74115],[139.07932,35.74114]]}},{"type":"Feature","properties":{"idx":2,"road":"水根本宿線","cls":"secondary","shops":0,"st_km":7.83,"mesh":"53394086"},"geometry":{"type":"LineString","coordinates":[[139.08109,35.7396],[139.08115,35.73969],[139.08114,35.73993],[139.08122,35.74005],[139.0814,35.7401],[139.08176,35.74008]]}},{"type":"Feature","properties":{"idx":9,"road":"笹久保大橋","cls":"secondary","shops":0,"st_km":7.86,"mesh":"53394078"},"geometry":{"type":"LineString","coordinates":[[139.10315,35.73217],[139.10386,35.73149]]}},{"type":"Feature","properties":{"idx":13,"road":"水根本宿線","cls":"secondary","shops":0,"st_km":6.36,"mesh":"53394089"},"geometry":{"type":"LineString","coordinates":[[139.12602,35.73482],[139.126,35.73512],[139.12581,35.73532],[139.12532,35.73553],[139.1245,35.73574],[139.12357,35.73609],[139.12319,35.73629],[139.12254,35.73675],[139.12242,35.73688],[139.12214,35.73749],[139.12172,35.73806],[139.12166,35.73824],[139.12168,35.73844],[139.12235,35.74014],[139.12247,35.74078],[139.1227,35.7415],[139.12285,35.74175],[139.1232,35.74206],[139.12326,35.74217],[139.12328,35.74248],[139.12345,35.74258],[139.12416,35.74245],[139.12504,35.74279]]}},{"type":"Feature","properties":{"idx":25,"road":"上野原あきる野線","cls":"primary","shops":0,"st_km":9.55,"mesh":"53394049"},"geometry":{"type":"LineString","coordinates":[[139.11777,35.70454],[139.11806,35.70446]]}},{"type":"Feature","properties":{"idx":25,"road":"上野原あきる野線","cls":"primary","shops":0,"st_km":9.57,"mesh":"53394049"},"geometry":{"type":"LineString","coordinates":[[139.11713,35.70467],[139.11735,35.70467],[139.11777,35.70454]]}},{"type":"Feature","properties":{"idx":25,"road":"上野原あきる野線","cls":"primary","shops":0,"st_km":9.56,"mesh":"53394049"},"geometry":{"type":"LineString","coordinates":[[139.1169,35.7046],[139.11713,35.70467]]}},{"type":"Feature","properties":{"idx":8,"road":"川野上川乗線","cls":"secondary","shops":0,"st_km":9.41,"mesh":"53394083"},"geometry":{"type":"LineString","coordinates":[[139.04222,35.74684],[139.04258,35.74666],[139.04266,35.74644],[139.04236,35.74602],[139.04225,35.74575],[139.04225,35.74475],[139.04215,35.74459],[139.04184,35.74432],[139.04183,35.7441],[139.04192,35.74397],[139.04208,35.74388],[139.04304,35.74375],[139.04331,35.74364],[139.04343,35.74349],[139.04372,35.7428],[139.04366,35.74267],[139.04353,35.74258],[139.04312,35.74257],[139.04261,35.74243],[139.04223,35.74241],[139.04201,35.74232],[139.04194,35.7422],[139.04193,35.74205],[139.042,35.74122],[139.0421,35.74097],[139.04255,35.74061],[139.04279,35.73989],[139.04327,35.73954],[139.04355,35.73909],[139.04367,35.73897],[139.04429,35.73866],[139.04441,35.73852],[139.04442,35.73826],[139.04422,35.7377],[139.04409,35.73749],[139.04395,35.7374],[139.04371,35.73739],[139.04348,35.73754],[139.04318,35.73783],[139.04303,35.73789],[139.04285,35.73789],[139.04262,35.73776],[139.04171,35.73701],[139.04153,35.73693],[139.04131,35.73694],[139.04114,35.73711],[139.04123,35.73762],[139.04116,35.73778],[139.04092,35.73789],[139.04034,35.73782],[139.04015,35.73789],[139.04006,35.738],[139.04005,35.7381],[139.04021,35.73854],[139.04018,35.7387],[139.03998,35.73884],[139.03947,35.73897],[139.03931,35.73913],[139.03887,35.73982],[139.03874,35.73991],[139.03858,35.73994],[139.03839,35.73986],[139.0383,35.7397],[139.03833,35.73916],[139.03827,35.73852],[139.03819,35.73836],[139.03792,35.73822],[139.03712,35.7381],[139.03692,35.73792],[139.03691,35.7377],[139.03728,35.73706],[139.03721,35.73687],[139.03707,35.73678],[139.03677,35.73672],[139.03622,35.73671],[139.03604,35.7368],[139.03584,35.7371],[139.03567,35.73723],[139.03455,35.73757],[139.03432,35.73754],[139.03387,35.73728],[139.03355,35.73718],[139.03332,35.73721],[139.03204,35.73767],[139.03171,35.73763],[139.03144,35.73742]]}},{"type":"Feature","properties":{"idx":4,"road":"上野原あきる野線","cls":"primary","shops":0,"st_km":9.38,"mesh":"53394048"},"geometry":{"type":"LineString","coordinates":[[139.11179,35.70256],[139.11203,35.70288],[139.11245,35.7032]]}},{"type":"Feature","properties":{"idx":4,"road":"川野上川乗線","cls":"secondary","shops":0,"st_km":9.99,"mesh":"53394073"},"geometry":{"type":"LineString","coordinates":[[139.03923,35.7349],[139.03971,35.73486],[139.03995,35.73474],[139.04,35.73453],[139.03978,35.73409],[139.03982,35.73395],[139.0399,35.73388],[139.04015,35.73383],[139.04065,35.73386],[139.04096,35.73378],[139.04178,35.73303],[139.04202,35.73254],[139.04213,35.73195],[139.0424,35.73153],[139.04258,35.73108],[139.04272,35.73093],[139.04326,35.73075],[139.04336,35.73064],[139.04351,35.73028],[139.04385,35.72994],[139.04382,35.72972],[139.04356,35.7296],[139.04334,35.72966],[139.04323,35.72986],[139.04309,35.73043],[139.04236,35.73074],[139.04195,35.7313],[139.04143,35.73189],[139.04094,35.73268],[139.04073,35.73281],[139.04056,35.73285],[139.04026,35.73281],[139.04013,35.73273]]}},{"type":"Feature","properties":{"idx":46,"road":"川野上川乗線","cls":"secondary","shops":1,"st_km":10.45,"mesh":"53394056"},"geometry":{"type":"LineString","coordinates":[[139.08587,35.71312],[139.08646,35.71339]]}},{"type":"Feature","properties":{"idx":12,"road":"川野上川乗線","cls":"secondary","shops":0,"st_km":9.82,"mesh":"53394047"},"geometry":{"type":"LineString","coordinates":[[139.08646,35.71339],[139.08723,35.71363],[139.08766,35.71362],[139.08804,35.7135],[139.08894,35.71287],[139.08913,35.71279],[139.08947,35.71271],[139.09009,35.71266],[139.09056,35.71247],[139.09183,35.71154],[139.09325,35.70989],[139.09346,35.70981],[139.09396,35.70977],[139.0941,35.70971],[139.09459,35.70926],[139.09545,35.7089],[139.09574,35.7086],[139.09645,35.70767],[139.09677,35.70747],[139.0972,35.70734],[139.09812,35.7072],[139.09853,35.70705],[139.09873,35.70686],[139.09905,35.70634],[139.10031,35.70538],[139.10094,35.70506],[139.10113,35.70492],[139.10123,35.70478],[139.10142,35.70424],[139.10211,35.7034],[139.10235,35.70328],[139.10301,35.70319],[139.1034,35.70306],[139.10439,35.70221],[139.10465,35.70218],[139.10514,35.70224],[139.10602,35.70199],[139.10625,35.70198],[139.10638,35.70211],[139.10639,35.7022],[139.10617,35.70273],[139.10618,35.70303],[139.10641,35.70314],[139.10692,35.70317],[139.10745,35.70315],[139.10816,35.70285],[139.10851,35.70264],[139.10922,35.70198],[139.10943,35.70185],[139.10992,35.70173],[139.11027,35.7018],[139.11112,35.7023],[139.11168,35.70249],[139.11179,35.70256]]}},{"type":"Feature","properties":{"idx":4,"road":"上野原あきる野線","cls":"primary","shops":0,"st_km":9.33,"mesh":"53394048"},"geometry":{"type":"LineString","coordinates":[[139.1118,35.70248],[139.11179,35.70256]]}},{"type":"Feature","properties":{"idx":4,"road":"上野原あきる野線","cls":"primary","shops":0,"st_km":9.31,"mesh":"53394048"},"geometry":{"type":"LineString","coordinates":[[139.11172,35.70221],[139.1118,35.70248]]}},{"type":"Feature","properties":{"idx":4,"road":"上野原あきる野線","cls":"primary","shops":0,"st_km":9.1,"mesh":"53394048"},"geometry":{"type":"LineString","coordinates":[[139.10678,35.69778],[139.10687,35.69785],[139.10691,35.69798],[139.10632,35.69945],[139.10634,35.69962],[139.10648,35.69975],[139.10712,35.6998],[139.10741,35.6999],[139.10802,35.70049],[139.10828,35.70108],[139.10854,35.70107],[139.10918,35.70075],[139.10942,35.70068],[139.10966,35.70067],[139.11026,35.70075],[139.1111,35.70068]]}},{"type":"Feature","properties":{"idx":2,"road":"上野原あきる野線","cls":"primary","shops":0,"st_km":8.84,"mesh":"53394038"},"geometry":{"type":"LineString","coordinates":[[139.10671,35.69775],[139.10678,35.69778]]}},{"type":"Feature","properties":{"idx":37,"road":"上野原あきる野線","cls":"primary","shops":1,"st_km":9.42,"mesh":"53394049"},"geometry":{"type":"LineString","coordinates":[[139.11254,35.70326],[139.11272,35.70338]]}},{"type":"Feature","properties":{"idx":4,"road":"上野原あきる野線","cls":"primary","shops":0,"st_km":9.41,"mesh":"53394048"},"geometry":{"type":"LineString","coordinates":[[139.11245,35.7032],[139.11254,35.70326]]}},{"type":"Feature","properties":{"idx":25,"road":"上野原あきる野線","cls":"primary","shops":0,"st_km":9.52,"mesh":"53394049"},"geometry":{"type":"LineString","coordinates":[[139.11806,35.70446],[139.11824,35.70444],[139.1189,35.70452],[139.11913,35.70446],[139.11956,35.70423],[139.12005,35.70416],[139.1205,35.70427],[139.12128,35.70479],[139.12163,35.70482]]}},{"type":"Feature","properties":{"idx":50,"road":"上野原あきる野線","cls":"primary","shops":2,"st_km":9.6,"mesh":"53394049"},"geometry":{"type":"LineString","coordinates":[[139.1234,35.70461],[139.1235,35.70486]]}},{"type":"Feature","properties":{"idx":25,"road":"上野原あきる野線","cls":"primary","shops":0,"st_km":9.6,"mesh":"53394049"},"geometry":{"type":"LineString","coordinates":[[139.1235,35.70486],[139.12365,35.70514],[139.12387,35.70525],[139.12423,35.7052],[139.12457,35.70498],[139.1247,35.70475],[139.12495,35.70362],[139.12506,35.70342],[139.12523,35.70327]]}},{"type":"Feature","properties":{"idx":2,"road":"水根本宿線","cls":"secondary","shops":0,"st_km":7.87,"mesh":"53394086"},"geometry":{"type":"LineString","coordinates":[[139.0819,35.73999],[139.08287,35.73921],[139.08306,35.73916],[139.08331,35.73925],[139.08355,35.73948],[139.0838,35.73956],[139.08386,35.73974],[139.08382,35.73999],[139.08395,35.74015],[139.08418,35.74033],[139.0843,35.74037],[139.08455,35.74031]]}},{"type":"Feature","properties":{"idx":2,"road":"水根本宿線","cls":"secondary","shops":0,"st_km":7.75,"mesh":"53394086"},"geometry":{"type":"LineString","coordinates":[[139.08455,35.74031],[139.08461,35.74026]]}},{"type":"Feature","properties":{"idx":2,"road":"水根本宿線","cls":"secondary","shops":0,"st_km":7.82,"mesh":"53394086"},"geometry":{"type":"LineString","coordinates":[[139.08461,35.74026],[139.0849,35.73978],[139.08533,35.73931],[139.08551,35.73897]]}},{"type":"Feature","properties":{"idx":2,"road":"水根本宿線","cls":"secondary","shops":0,"st_km":7.89,"mesh":"53394086"},"geometry":{"type":"LineString","coordinates":[[139.08551,35.73897],[139.08561,35.73879]]}},{"type":"Feature","properties":{"idx":9,"road":"水根本宿線","cls":"secondary","shops":0,"st_km":7.73,"mesh":"53394078"},"geometry":{"type":"LineString","coordinates":[[139.10386,35.73149],[139.10414,35.7314],[139.10473,35.73159],[139.10539,35.73162],[139.10737,35.73149],[139.10874,35.73116],[139.10934,35.73123]]}},{"type":"Feature","properties":{"idx":9,"road":"水根本宿線","cls":"secondary","shops":0,"st_km":7.62,"mesh":"53394078"},"geometry":{"type":"LineString","coordinates":[[139.10934,35.73123],[139.10953,35.73126]]}},{"type":"Feature","properties":{"idx":13,"road":"水根本宿線","cls":"secondary","shops":0,"st_km":7.2,"mesh":"53394089"},"geometry":{"type":"LineString","coordinates":[[139.10953,35.73126],[139.10991,35.73142],[139.1104,35.7319],[139.11105,35.73241],[139.11103,35.73285],[139.11118,35.73324],[139.11132,35.7334],[139.11213,35.7338],[139.11252,35.73406],[139.11274,35.73399],[139.11298,35.73359],[139.11321,35.73342],[139.11442,35.73296],[139.11465,35.73291],[139.11519,35.73292],[139.11565,35.73303],[139.11614,35.73323],[139.11661,35.73368]]}},{"type":"Feature","properties":{"idx":13,"road":"水根本宿線","cls":"secondary","shops":0,"st_km":7.05,"mesh":"53394089"},"geometry":{"type":"LineString","coordinates":[[139.11661,35.73368],[139.11668,35.73376]]}},{"type":"Feature","properties":{"idx":13,"road":"水根本宿線","cls":"secondary","shops":0,"st_km":6.94,"mesh":"53394089"},"geometry":{"type":"LineString","coordinates":[[139.11668,35.73376],[139.11684,35.73393],[139.11701,35.73432],[139.11716,35.73445],[139.11754,35.73457],[139.11799,35.73455],[139.11827,35.7344],[139.11927,35.73366],[139.11995,35.73363],[139.1203,35.73353],[139.12066,35.73318],[139.12069,35.73293],[139.12077,35.73279],[139.12093,35.73267],[139.12137,35.73249]]}},{"type":"Feature","properties":{"idx":19,"road":"水根本宿線","cls":"secondary","shops":0,"st_km":6.98,"mesh":"53394079"},"geometry":{"type":"LineString","coordinates":[[139.12137,35.73249],[139.12148,35.73244]]}},{"type":"Feature","properties":{"idx":19,"road":"水根本宿線","cls":"secondary","shops":0,"st_km":6.81,"mesh":"53394079"},"geometry":{"type":"LineString","coordinates":[[139.12148,35.73244],[139.12194,35.73221],[139.1222,35.73221],[139.12321,35.73296],[139.12459,35.73378],[139.12525,35.73446],[139.12598,35.73477]]}},{"type":"Feature","properties":{"idx":4,"road":"川野上川乗線","cls":"secondary","shops":0,"st_km":10.22,"mesh":"53394073"},"geometry":{"type":"LineString","coordinates":[[139.04007,35.73267],[139.03999,35.7325],[139.04,35.73236],[139.0402,35.73153],[139.04015,35.731],[139.04004,35.73054],[139.04006,35.73026],[139.04043,35.72959],[139.04134,35.72822],[139.04141,35.72795],[139.04136,35.72778],[139.04122,35.72766],[139.04051,35.72745],[139.04033,35.72731]]}},{"type":"Feature","properties":{"idx":4,"road":"川野上川乗線","cls":"secondary","shops":0,"st_km":9.94,"mesh":"53394073"},"geometry":{"type":"LineString","coordinates":[[139.04013,35.73273],[139.04007,35.73267]]}},{"type":"Feature","properties":{"idx":4,"road":"川野上川乗線","cls":"secondary","shops":0,"st_km":10.42,"mesh":"53394073"},"geometry":{"type":"LineString","coordinates":[[139.0403,35.72722],[139.04041,35.72707],[139.04121,35.72702],[139.04223,35.72732],[139.04281,35.72737]]}},{"type":"Feature","properties":{"idx":4,"road":"川野上川乗線","cls":"secondary","shops":0,"st_km":10.45,"mesh":"53394073"},"geometry":{"type":"LineString","coordinates":[[139.04033,35.72731],[139.0403,35.72722]]}},{"type":"Feature","properties":{"idx":4,"road":"川野上川乗線","cls":"secondary","shops":0,"st_km":10.32,"mesh":"53394073"},"geometry":{"type":"LineString","coordinates":[[139.04294,35.72737],[139.04328,35.72736]]}},{"type":"Feature","properties":{"idx":4,"road":"川野上川乗線","cls":"secondary","shops":0,"st_km":10.33,"mesh":"53394073"},"geometry":{"type":"LineString","coordinates":[[139.04281,35.72737],[139.04294,35.72737]]}},{"type":"Feature","properties":{"idx":25,"road":"上野原あきる野線","cls":"primary","shops":0,"st_km":9.58,"mesh":"53394049"},"geometry":{"type":"LineString","coordinates":[[139.12163,35.70482],[139.12198,35.70479],[139.12292,35.70441],[139.12324,35.70445],[139.1234,35.70461]]}},{"type":"Feature","properties":{"idx":4,"road":"川野上川乗線","cls":"secondary","shops":0,"st_km":10.19,"mesh":"53394073"},"geometry":{"type":"LineString","coordinates":[[139.04328,35.72736],[139.04379,35.72698],[139.04419,35.72688],[139.0443,35.72689],[139.0449,35.72715],[139.0452,35.72712],[139.0455,35.727],[139.04595,35.72658],[139.04657,35.72634],[139.04674,35.72639],[139.04706,35.72669],[139.04719,35.72673],[139.04926,35.72632],[139.04983,35.72635],[139.05014,35.72631],[139.05109,35.72586],[139.0522,35.72495],[139.05261,35.7249],[139.05343,35.72459]]}},{"type":"Feature","properties":{"idx":31,"road":"川野上川乗線","cls":"secondary","shops":0,"st_km":10.2,"mesh":"53394064"},"geometry":{"type":"LineString","coordinates":[[139.05343,35.72459],[139.05375,35.72448]]}},{"type":"Feature","properties":{"idx":31,"road":"川野上川乗線","cls":"secondary","shops":0,"st_km":10.67,"mesh":"53394056"},"geometry":{"type":"LineString","coordinates":[[139.07761,35.71313],[139.07831,35.71299],[139.07871,35.71311],[139.07931,35.71314],[139.08016,35.7142],[139.0804,35.7143],[139.08097,35.71415],[139.0813,35.71393],[139.08158,35.71364],[139.08181,35.71309],[139.08204,35.71289],[139.08318,35.71262],[139.08375,35.71229],[139.08388,35.71227],[139.08414,35.71234],[139.08587,35.71312]]}},{"type":"Feature","properties":{"idx":31,"road":"川野上川乗線","cls":"secondary","shops":0,"st_km":10.82,"mesh":"53394056"},"geometry":{"type":"LineString","coordinates":[[139.07734,35.71319],[139.07761,35.71313]]}},{"type":"Feature","properties":{"idx":2,"road":"水根本宿線","cls":"secondary","shops":0,"st_km":7.7,"mesh":"53394086"},"geometry":{"type":"LineString","coordinates":[[139.07905,35.74122],[139.07855,35.74165],[139.07802,35.74198]]}},{"type":"Feature","properties":{"idx":3,"road":"水根本宿線","cls":"secondary","shops":1,"st_km":7.74,"mesh":"53394086"},"geometry":{"type":"LineString","coordinates":[[139.07932,35.74114],[139.07917,35.74116],[139.07905,35.74122]]}},{"type":"Feature","properties":{"idx":52,"road":"川野上川乗線","cls":"secondary","shops":0,"st_km":9.96,"mesh":"53394082"},"geometry":{"type":"LineString","coordinates":[[139.03144,35.73742],[139.03121,35.73706],[139.03131,35.73629],[139.03127,35.73617],[139.03113,35.73598],[139.03043,35.73551],[139.0304,35.73527],[139.03052,35.73515],[139.03082,35.73512],[139.03092,35.73518],[139.03119,35.73563],[139.03168,35.73601],[139.03174,35.73616],[139.0317,35.73642],[139.03174,35.73658],[139.03187,35.73671],[139.0321,35.73677],[139.0324,35.73667],[139.03267,35.73644],[139.03293,35.7363],[139.03432,35.73605],[139.03572,35.73538],[139.03639,35.73534],[139.03695,35.73495],[139.03721,35.73492],[139.03835,35.73501],[139.03873,35.73492]]}},{"type":"Feature","properties":{"idx":8,"road":"川野上川乗線","cls":"secondary","shops":0,"st_km":9.79,"mesh":"53394083"},"geometry":{"type":"LineString","coordinates":[[139.03873,35.73492],[139.03923,35.7349]]}}]}