{"type":"FeatureCollection","features":[{"type":"Feature","properties":{"idx":21,"road":"山北藤野線","cls":"primary","shops":0,"st_km":12.96,"mesh":"53391075"},"geometry":{"type":"LineString","coordinates":[[139.06552,35.48263],[139.06606,35.48218],[139.06621,35.48201],[139.06641,35.48165],[139.06642,35.48141],[139.06625,35.48098],[139.06628,35.4808],[139.06672,35.47954],[139.06684,35.47937]]}},{"type":"Feature","properties":{"idx":28,"road":"山北藤野線","cls":"primary","shops":0,"st_km":7.77,"mesh":"53391023"},"geometry":{"type":"LineString","coordinates":[[139.04431,35.43616],[139.04436,35.43676]]}},{"type":"Feature","properties":{"idx":37,"road":"山北藤野線","cls":"primary","shops":0,"st_km":9.93,"mesh":"53391044"},"geometry":{"type":"LineString","coordinates":[[139.05296,35.45505],[139.05371,35.45542]]}},{"type":"Feature","properties":{"idx":6,"road":"山北藤野線","cls":"primary","shops":0,"st_km":5.68,"mesh":"53391003"},"geometry":{"type":"LineString","coordinates":[[139.0404,35.41751],[139.04051,35.41772],[139.04069,35.41784]]}},{"type":"Feature","properties":{"idx":6,"road":"山北藤野線","cls":"primary","shops":0,"st_km":6.32,"mesh":"53391003"},"geometry":{"type":"LineString","coordinates":[[139.04215,35.42308],[139.04226,35.42384]]}},{"type":"Feature","properties":{"idx":8,"road":"山北藤野線","cls":"primary","shops":0,"st_km":11.55,"mesh":"53391065"},"geometry":{"type":"LineString","coordinates":[[139.06334,35.46812],[139.06363,35.46905]]}},{"type":"Feature","properties":{"idx":28,"road":"山北藤野線","cls":"primary","shops":0,"st_km":7.47,"mesh":"53391023"},"geometry":{"type":"LineString","coordinates":[[139.04431,35.43346],[139.04444,35.43408]]}},{"type":"Feature","properties":{"idx":6,"road":"山北藤野線","cls":"primary","shops":0,"st_km":5.94,"mesh":"53391003"},"geometry":{"type":"LineString","coordinates":[[139.04304,35.41952],[139.04299,35.41993],[139.04285,35.42021],[139.04268,35.42037]]}},{"type":"Feature","properties":{"idx":21,"road":"山北藤野線","cls":"primary","shops":0,"st_km":13.16,"mesh":"53391075"},"geometry":{"type":"LineString","coordinates":[[139.06404,35.4838],[139.06552,35.48263]]}},{"type":"Feature","properties":{"idx":10,"road":"神縄神山線","cls":"secondary","shops":0,"st_km":6.26,"mesh":"53391005"},"geometry":{"type":"LineString","coordinates":[[139.06867,35.4168],[139.0687,35.41756]]}},{"type":"Feature","properties":{"idx":23,"road":"","cls":"tertiary","shops":0,"st_km":7.94,"mesh":"53391023"},"geometry":{"type":"LineString","coordinates":[[139.04432,35.43693],[139.04506,35.43785],[139.0454,35.43883],[139.04569,35.43904]]}},{"type":"Feature","properties":{"idx":10,"road":"神縄神山線","cls":"secondary","shops":0,"st_km":6.32,"mesh":"53391005"},"geometry":{"type":"LineString","coordinates":[[139.0687,35.41756],[139.06872,35.41799]]}},{"type":"Feature","properties":{"idx":19,"road":"山北藤野線","cls":"primary","shops":0,"st_km":6.91,"mesh":"53391013"},"geometry":{"type":"LineString","coordinates":[[139.04226,35.42384],[139.04267,35.42519],[139.04272,35.42554],[139.04267,35.42613],[139.04293,35.42688],[139.04339,35.42781],[139.04402,35.42832],[139.04411,35.42858],[139.04413,35.42869],[139.04405,35.42924],[139.04421,35.42984],[139.04416,35.43041],[139.04372,35.43137],[139.04337,35.43173],[139.04331,35.43189],[139.04346,35.43236],[139.04407,35.43304],[139.04431,35.43346]]}},{"type":"Feature","properties":{"idx":8,"road":"山北藤野線","cls":"primary","shops":0,"st_km":11.73,"mesh":"53391065"},"geometry":{"type":"LineString","coordinates":[[139.06363,35.46905],[139.06364,35.4694],[139.06306,35.47035],[139.06288,35.47087],[139.06287,35.47147],[139.063,35.47175]]}},{"type":"Feature","properties":{"idx":11,"road":"山北藤野線","cls":"primary","shops":0,"st_km":10.59,"mesh":"53391055"},"geometry":{"type":"LineString","coordinates":[[139.05371,35.45542],[139.05451,35.45653],[139.05482,35.45673],[139.05657,35.45702],[139.05709,35.45719],[139.05813,35.45768],[139.05914,35.45798],[139.05935,35.45798],[139.06016,35.45779],[139.06059,35.45783],[139.0622,35.45851],[139.06257,35.45878],[139.06273,35.45907],[139.06276,35.45925],[139.06273,35.45994],[139.06267,35.46021],[139.06251,35.46043],[139.06178,35.46116],[139.06143,35.46159],[139.06122,35.46217],[139.06121,35.4626],[139.06131,35.4631],[139.06144,35.46333],[139.06295,35.46442],[139.06385,35.46526],[139.06388,35.46534],[139.06391,35.46587],[139.06379,35.46633],[139.06332,35.46672],[139.06323,35.46708],[139.06334,35.46812]]}},{"type":"Feature","properties":{"idx":37,"road":"山北藤野線","cls":"primary","shops":0,"st_km":9.58,"mesh":"53391044"},"geometry":{"type":"LineString","coordinates":[[139.04841,35.4492],[139.049,35.44981],[139.04922,35.45029],[139.04923,35.45043],[139.04915,35.45064],[139.04883,35.45084],[139.04884,35.45107],[139.04907,35.45141],[139.04968,35.45196],[139.05002,35.45218],[139.05028,35.45227],[139.05065,35.45231],[139.05101,35.45231],[139.0518,35.45208],[139.05203,35.4522],[139.05205,35.45226],[139.05197,35.45245],[139.05119,35.4531],[139.0508,35.45362],[139.05081,35.45375],[139.05133,35.45422],[139.05187,35.45464],[139.05212,35.45477]]}},{"type":"Feature","properties":{"idx":6,"road":"山北藤野線","cls":"primary","shops":0,"st_km":6.11,"mesh":"53391003"},"geometry":{"type":"LineString","coordinates":[[139.04268,35.42037],[139.04208,35.42085],[139.04197,35.42116],[139.04215,35.42308]]}},{"type":"Feature","properties":{"idx":28,"road":"山北藤野線","cls":"primary","shops":0,"st_km":7.62,"mesh":"53391023"},"geometry":{"type":"LineString","coordinates":[[139.04444,35.43408],[139.04446,35.43454],[139.04426,35.43557],[139.04431,35.43616]]}},{"type":"Feature","properties":{"idx":10,"road":"山北藤野線","cls":"primary","shops":1,"st_km":5.71,"mesh":"53391003"},"geometry":{"type":"LineString","coordinates":[[139.04069,35.41784],[139.041,35.41788],[139.0419,35.41773],[139.04244,35.41775],[139.04271,35.418],[139.04304,35.41952]]}},{"type":"Feature","properties":{"idx":21,"road":"山北藤野線","cls":"primary","shops":0,"st_km":12.34,"mesh":"53391075"},"geometry":{"type":"LineString","coordinates":[[139.06342,35.47225],[139.06374,35.4724],[139.06403,35.47245],[139.06432,35.47257],[139.06502,35.47296],[139.06554,35.47371],[139.06571,35.47451],[139.06605,35.47488],[139.0661,35.47503],[139.06618,35.47591],[139.06629,35.47623],[139.06681,35.47674],[139.0672,35.47756],[139.06726,35.47786],[139.06726,35.47833],[139.06702,35.4791],[139.06684,35.47937]]}},{"type":"Feature","properties":{"idx":13,"road":"山北藤野線","cls":"primary","shops":1,"st_km":11.89,"mesh":"53391065"},"geometry":{"type":"LineString","coordinates":[[139.063,35.47175],[139.0631,35.47188]]}},{"type":"Feature","properties":{"idx":13,"road":"山北藤野線","cls":"primary","shops":1,"st_km":11.93,"mesh":"53391065"},"geometry":{"type":"LineString","coordinates":[[139.06324,35.47209],[139.06342,35.47225]]}},{"type":"Feature","properties":{"idx":13,"road":"山北藤野線","cls":"primary","shops":1,"st_km":11.91,"mesh":"53391065"},"geometry":{"type":"LineString","coordinates":[[139.0631,35.47188],[139.06324,35.47209]]}},{"type":"Feature","properties":{"idx":28,"road":"山北藤野線","cls":"primary","shops":0,"st_km":7.95,"mesh":"53391023"},"geometry":{"type":"LineString","coordinates":[[139.04436,35.43676],[139.04432,35.43693],[139.0439,35.43739],[139.04389,35.4376],[139.04459,35.4385],[139.04497,35.43935]]}},{"type":"Feature","properties":{"idx":28,"road":"山北藤野線","cls":"primary","shops":0,"st_km":8.1,"mesh":"53391023"},"geometry":{"type":"LineString","coordinates":[[139.04497,35.43935],[139.04502,35.43945]]}},{"type":"Feature","properties":{"idx":4,"road":"山北藤野線","cls":"primary","shops":0,"st_km":8.53,"mesh":"53391033"},"geometry":{"type":"LineString","coordinates":[[139.04502,35.43945],[139.0452,35.43968],[139.04573,35.44008],[139.04602,35.44059],[139.04629,35.44087],[139.04651,35.4415],[139.04676,35.44187],[139.04684,35.44245],[139.04689,35.44257],[139.04698,35.44266],[139.04827,35.44315],[139.04863,35.44335],[139.04904,35.4438],[139.04922,35.44413],[139.04936,35.4448],[139.04936,35.4451],[139.04888,35.44586],[139.04864,35.44604],[139.04843,35.44607],[139.04798,35.446],[139.04764,35.44619]]}},{"type":"Feature","properties":{"idx":4,"road":"山北藤野線","cls":"primary","shops":0,"st_km":8.88,"mesh":"53391033"},"geometry":{"type":"LineString","coordinates":[[139.04764,35.44619],[139.04751,35.44626]]}},{"type":"Feature","properties":{"idx":4,"road":"山北藤野線","cls":"primary","shops":0,"st_km":8.94,"mesh":"53391033"},"geometry":{"type":"LineString","coordinates":[[139.04751,35.44626],[139.04736,35.44635],[139.04726,35.4465],[139.04723,35.44693],[139.04713,35.44725],[139.04713,35.44749]]}},{"type":"Feature","properties":{"idx":4,"road":"山北藤野線","cls":"primary","shops":0,"st_km":9.02,"mesh":"53391033"},"geometry":{"type":"LineString","coordinates":[[139.04713,35.44749],[139.04716,35.44755]]}},{"type":"Feature","properties":{"idx":4,"road":"山北藤野線","cls":"primary","shops":0,"st_km":9.11,"mesh":"53391033"},"geometry":{"type":"LineString","coordinates":[[139.04716,35.44755],[139.04829,35.44908]]}},{"type":"Feature","properties":{"idx":4,"road":"山北藤野線","cls":"primary","shops":0,"st_km":9.2,"mesh":"53391033"},"geometry":{"type":"LineString","coordinates":[[139.04829,35.44908],[139.04841,35.4492]]}},{"type":"Feature","properties":{"idx":37,"road":"山北藤野線","cls":"primary","shops":0,"st_km":9.89,"mesh":"53391044"},"geometry":{"type":"LineString","coordinates":[[139.05212,35.45477],[139.05296,35.45505]]}}]}