{"type":"FeatureCollection","features":[{"type":"Feature","properties":{"idx":11,"road":"南川上名栗線","cls":"secondary","shops":0,"st_km":0.94,"mesh":"53397115"},"geometry":{"type":"LineString","coordinates":[[139.19428,35.93078],[139.19364,35.93075],[139.1924,35.93036],[139.19197,35.93043],[139.19175,35.93061],[139.19169,35.93059]]}},{"type":"Feature","properties":{"idx":6,"road":NaN,"cls":"tertiary","shops":0,"st_km":1.91,"mesh":"53397132"},"geometry":{"type":"LineString","coordinates":[[139.16084,35.94196],[139.16065,35.9419]]}},{"type":"Feature","properties":{"idx":3,"road":"大野東松山線","cls":"secondary","shops":0,"st_km":6.26,"mesh":"53397197"},"geometry":{"type":"LineString","coordinates":[[139.22793,36.00077],[139.2277,36.00061],[139.22732,35.99989],[139.22699,35.99947],[139.22687,35.9992],[139.22684,35.9986],[139.22662,35.99826],[139.22647,35.99817],[139.2263,35.99816],[139.22579,35.9983],[139.2242,35.99832],[139.22377,35.99826],[139.22311,35.99796],[139.22159,35.99794],[139.22146,35.99787],[139.22129,35.99756],[139.22115,35.9975],[139.22095,35.99752],[139.22053,35.99768],[139.21948,35.9977],[139.21922,35.99764],[139.2187,35.99739],[139.2183,35.99689],[139.2182,35.99665],[139.2182,35.99635],[139.21835,35.99581],[139.21829,35.99528],[139.21751,35.99431],[139.2172,35.99402],[139.21685,35.99383],[139.21661,35.99376],[139.21645,35.99377],[139.21612,35.99401],[139.21594,35.99444],[139.21567,35.9956],[139.21554,35.99585],[139.21526,35.99596],[139.21492,35.99591]]}},{"type":"Feature","properties":{"idx":16,"road":"大野東松山線","cls":"secondary","shops":0,"st_km":5.31,"mesh":"53397195"},"geometry":{"type":"LineString","coordinates":[[139.19705,35.99069],[139.19715,35.98997],[139.19732,35.98957],[139.19725,35.98937],[139.19689,35.98896],[139.19673,35.9887],[139.19624,35.98847],[139.1962,35.98839],[139.1962,35.98801],[139.19613,35.98791],[139.19588,35.9878],[139.19562,35.98757],[139.19539,35.98751],[139.19518,35.98754],[139.19504,35.98768],[139.19511,35.98833],[139.19486,35.98903],[139.19493,35.98914],[139.1953,35.98939],[139.19533,35.9895],[139.19528,35.98964],[139.19472,35.98997],[139.1945,35.99001],[139.19426,35.98999],[139.19396,35.98994],[139.19383,35.98985],[139.19366,35.98938],[139.19331,35.98932],[139.19314,35.98938],[139.19303,35.98989],[139.19305,35.99001],[139.19365,35.9906],[139.19371,35.99074],[139.1937,35.99094],[139.19362,35.99101],[139.19352,35.99101],[139.19324,35.99086],[139.19311,35.99067],[139.19296,35.99067],[139.19291,35.99073],[139.19294,35.9908],[139.1934,35.9912],[139.19344,35.99131],[139.19328,35.99128],[139.19305,35.99109],[139.19283,35.99098],[139.19237,35.99107],[139.19219,35.99125],[139.19216,35.9917],[139.19193,35.99202],[139.19182,35.99208],[139.19157,35.99204],[139.19141,35.99174],[139.19127,35.99172],[139.19125,35.99183],[139.19144,35.99231],[139.19149,35.99267],[139.19146,35.99277],[139.19124,35.99298],[139.1913,35.99324],[139.19122,35.99366],[139.19083,35.99374],[139.19051,35.99386],[139.19005,35.99387],[139.18969,35.99378],[139.18953,35.99383],[139.18923,35.99418],[139.18895,35.99435],[139.18897,35.9949],[139.18854,35.99525],[139.18835,35.99527],[139.18775,35.99505],[139.18727,35.9951],[139.1865,35.99485],[139.18624,35.99485],[139.18582,35.99518],[139.18438,35.99613],[139.18419,35.99633],[139.18403,35.99661],[139.18371,35.99686],[139.18244,35.99698],[139.1819,35.99698],[139.18103,35.99688],[139.18031,35.9971],[139.18012,35.99726],[139.17985,35.99762],[139.17952,35.99775]]}},{"type":"Feature","properties":{"idx":5,"road":"大野東松山線","cls":"secondary","shops":1,"st_km":6.77,"mesh":"53397197"},"geometry":{"type":"LineString","coordinates":[[139.21457,35.99585],[139.21492,35.99591]]}},{"type":"Feature","properties":{"idx":9,"road":NaN,"cls":"tertiary","shops":0,"st_km":5.03,"mesh":"53397188"},"geometry":{"type":"LineString","coordinates":[[139.23542,35.99222],[139.23526,35.99188],[139.23528,35.99164],[139.23553,35.99106],[139.23606,35.9902],[139.23607,35.98977]]}},{"type":"Feature","properties":{"idx":9,"road":NaN,"cls":"tertiary","shops":0,"st_km":5.11,"mesh":"53397188"},"geometry":{"type":"LineString","coordinates":[[139.23652,35.98688],[139.2372,35.985]]}},{"type":"Feature","properties":{"idx":9,"road":NaN,"cls":"tertiary","shops":0,"st_km":5.14,"mesh":"53397188"},"geometry":{"type":"LineString","coordinates":[[139.23605,35.98943],[139.23549,35.98878],[139.23546,35.98823],[139.23571,35.98772],[139.23639,35.98706],[139.23652,35.98688]]}},{"type":"Feature","properties":{"idx":17,"road":NaN,"cls":"tertiary","shops":0,"st_km":5.0,"mesh":"53397198"},"geometry":{"type":"LineString","coordinates":[[139.23542,35.99222],[139.23554,35.99244]]}},{"type":"Feature","properties":{"idx":33,"road":NaN,"cls":"tertiary","shops":0,"st_km":3.8,"mesh":"53397199"},"geometry":{"type":"LineString","coordinates":[[139.24908,35.99325],[139.24894,35.99318]]}},{"type":"Feature","properties":{"idx":17,"road":NaN,"cls":"tertiary","shops":0,"st_km":4.82,"mesh":"53397198"},"geometry":{"type":"LineString","coordinates":[[139.23554,35.99244],[139.2357,35.99283],[139.23625,35.99466],[139.23647,35.99623],[139.23657,35.99661],[139.23707,35.99736],[139.23713,35.99758],[139.2371,35.99812],[139.23675,35.99862],[139.23675,35.9987],[139.2368,35.99884],[139.23734,35.99937],[139.23779,35.99967]]}},{"type":"Feature","properties":{"idx":9,"road":NaN,"cls":"tertiary","shops":0,"st_km":5.12,"mesh":"53397188"},"geometry":{"type":"LineString","coordinates":[[139.2372,35.985],[139.23722,35.98493]]}},{"type":"Feature","properties":{"idx":9,"road":NaN,"cls":"tertiary","shops":0,"st_km":5.04,"mesh":"53397188"},"geometry":{"type":"LineString","coordinates":[[139.23607,35.98977],[139.23605,35.98943]]}},{"type":"Feature","properties":{"idx":6,"road":"林道丸山分線","cls":"pedestrian","shops":0,"st_km":2.88,"mesh":"53397192"},"geometry":{"type":"LineString","coordinates":[[139.17002,35.99148],[139.16888,35.99186],[139.16795,35.9919],[139.16704,35.99179],[139.16498,35.99225],[139.16479,35.99223],[139.16477,35.99199],[139.1647,35.9919],[139.16438,35.99216],[139.16403,35.9922],[139.16318,35.9924],[139.16313,35.99236],[139.16314,35.99227],[139.16346,35.99207],[139.16342,35.99196],[139.16274,35.99205],[139.16237,35.99195],[139.16215,35.99177],[139.16197,35.99171],[139.1619,35.99173],[139.1618,35.99205],[139.16143,35.9924],[139.16082,35.99255],[139.15996,35.99296],[139.15958,35.99297],[139.15913,35.99289],[139.15861,35.99292],[139.15855,35.99298],[139.1586,35.99326],[139.15853,35.99337],[139.15836,35.9933],[139.15823,35.99306],[139.1581,35.99295],[139.15808,35.99284],[139.15834,35.9926],[139.15868,35.99256],[139.15884,35.99245],[139.15877,35.99228],[139.15848,35.99207],[139.15848,35.99199],[139.15853,35.99194],[139.159,35.99181],[139.15944,35.99134],[139.15967,35.99117],[139.15974,35.99109],[139.1597,35.991],[139.15961,35.99093],[139.15946,35.99094],[139.15882,35.99117],[139.15857,35.99118],[139.15828,35.9909],[139.15821,35.9909],[139.15803,35.99099],[139.15748,35.99155],[139.15733,35.99186],[139.15723,35.99191],[139.15705,35.99188]]}},{"type":"Feature","properties":{"idx":325,"road":NaN,"cls":"pedestrian","shops":3,"st_km":0.15,"mesh":"53397170"},"geometry":{"type":"LineString","coordinates":[[139.13711,35.97729],[139.13732,35.97737]]}},{"type":"Feature","properties":{"idx":10,"road":"林道丸山支線","cls":"pedestrian","shops":3,"st_km":2.52,"mesh":"53397182"},"geometry":{"type":"LineString","coordinates":[[139.1578,35.99087],[139.15768,35.99058]]}},{"type":"Feature","properties":{"idx":6,"road":"林道丸山支線","cls":"pedestrian","shops":0,"st_km":2.57,"mesh":"53397192"},"geometry":{"type":"LineString","coordinates":[[139.1578,35.99087],[139.15726,35.9914],[139.15683,35.99238],[139.15673,35.9925],[139.15631,35.99252],[139.15558,35.99299],[139.15553,35.99348],[139.15535,35.99373],[139.1551,35.99396]]}},{"type":"Feature","properties":{"idx":4,"road":"林道丸山支線","cls":"pedestrian","shops":0,"st_km":2.48,"mesh":"53397182"},"geometry":{"type":"LineString","coordinates":[[139.15768,35.99058],[139.1579,35.99019],[139.15792,35.9899],[139.15786,35.98977],[139.15761,35.98949],[139.15725,35.98938]]}},{"type":"Feature","properties":{"idx":141,"road":NaN,"cls":"tertiary","shops":1,"st_km":0.15,"mesh":"53397170"},"geometry":{"type":"LineString","coordinates":[[139.13517,35.9777],[139.1353,35.97757]]}},{"type":"Feature","properties":{"idx":3,"road":"青梅秩父線","cls":"primary","shops":0,"st_km":2.46,"mesh":"53397122"},"geometry":{"type":"LineString","coordinates":[[139.15443,35.9354],[139.1544,35.93584],[139.15461,35.93622],[139.15483,35.9369],[139.1552,35.93728],[139.15525,35.93767],[139.15538,35.93794],[139.1554,35.93815],[139.15532,35.93833],[139.15458,35.93909],[139.15438,35.93942],[139.15437,35.93952],[139.15453,35.9399],[139.15479,35.94015],[139.15484,35.94034],[139.15477,35.94044],[139.15454,35.94058],[139.15439,35.94078],[139.15437,35.94094],[139.15445,35.94113],[139.15448,35.94139],[139.15433,35.94228],[139.15393,35.94327],[139.1538,35.94413],[139.15348,35.94463],[139.15337,35.94506],[139.15351,35.94687],[139.15352,35.94814]]}},{"type":"Feature","properties":{"idx":145,"road":"果樹公園橋","cls":"tertiary","shops":1,"st_km":0.13,"mesh":"53397170"},"geometry":{"type":"LineString","coordinates":[[139.1353,35.97757],[139.13549,35.97738]]}},{"type":"Feature","properties":{"idx":1,"road":"青梅秩父線","cls":"primary","shops":0,"st_km":3.26,"mesh":"53397102"},"geometry":{"type":"LineString","coordinates":[[139.15136,35.92205],[139.15145,35.922]]}},{"type":"Feature","properties":{"idx":11,"road":"南川上名栗線","cls":"secondary","shops":0,"st_km":1.05,"mesh":"53397115"},"geometry":{"type":"LineString","coordinates":[[139.19169,35.93059],[139.1915,35.93052]]}},{"type":"Feature","properties":{"idx":38,"road":"大野東松山線","cls":"secondary","shops":0,"st_km":6.4,"mesh":"53397196"},"geometry":{"type":"LineString","coordinates":[[139.21239,35.99359],[139.21222,35.99382],[139.21221,35.99412],[139.21225,35.99452],[139.21247,35.99504],[139.2124,35.99515],[139.21228,35.99518],[139.21213,35.99511],[139.21198,35.99491],[139.21165,35.99463],[139.21152,35.99404],[139.21105,35.99333],[139.21082,35.9932],[139.21042,35.99312],[139.21011,35.99285],[139.20991,35.99284],[139.20971,35.9929],[139.20961,35.99301],[139.20958,35.99315],[139.20988,35.99424],[139.20956,35.99479],[139.20976,35.99536],[139.20963,35.99561],[139.20949,35.99569],[139.20937,35.99569],[139.20852,35.99511],[139.20847,35.99497],[139.20855,35.9947],[139.20853,35.99446],[139.2084,35.99425],[139.20821,35.99408],[139.20728,35.99359],[139.20651,35.99345],[139.20616,35.99331],[139.20546,35.99289],[139.20489,35.99272],[139.20458,35.99236],[139.20424,35.9921],[139.2041,35.99191],[139.20394,35.99191],[139.2036,35.99208],[139.2033,35.992],[139.20319,35.99188],[139.20314,35.99171],[139.20317,35.99128],[139.20302,35.9909],[139.2031,35.99034],[139.20307,35.99025],[139.20298,35.99016],[139.2026,35.9901],[139.20216,35.99014],[139.20166,35.98998],[139.20143,35.99001],[139.20117,35.99011],[139.20083,35.98991],[139.20061,35.98985],[139.19987,35.98991],[139.19961,35.99016],[139.19959,35.99031],[139.19966,35.99044],[139.20009,35.99059],[139.20053,35.99081],[139.20099,35.99069],[139.20129,35.99075],[139.20152,35.99087],[139.20158,35.99099],[139.2016,35.99118],[139.20145,35.9914],[139.20115,35.99155],[139.20055,35.99155],[139.19963,35.99171],[139.19945,35.99168],[139.19913,35.99149],[139.19793,35.99135],[139.19716,35.9909],[139.19705,35.99076]]}},{"type":"Feature","properties":{"idx":209,"road":"大野東松山線","cls":"secondary","shops":0,"st_km":5.73,"mesh":"53397185"},"geometry":{"type":"LineString","coordinates":[[139.19705,35.99076],[139.19705,35.99069]]}},{"type":"Feature","properties":{"idx":2,"road":NaN,"cls":"tertiary","shops":0,"st_km":2.22,"mesh":"53397122"},"geometry":{"type":"LineString","coordinates":[[139.16065,35.9419],[139.16047,35.94182],[139.16022,35.94148],[139.16005,35.94134],[139.15959,35.94116],[139.15944,35.94104],[139.15944,35.94086],[139.15975,35.94019],[139.15975,35.94008],[139.1597,35.94002],[139.15939,35.93993],[139.15904,35.93994],[139.15886,35.94],[139.1586,35.9402],[139.15838,35.94022],[139.15832,35.94015],[139.15828,35.93981],[139.15781,35.93949],[139.15786,35.93912],[139.15781,35.93902],[139.15708,35.93871],[139.15671,35.93866],[139.1567,35.93855],[139.15683,35.9384],[139.15707,35.93832],[139.15757,35.93826],[139.1578,35.93805],[139.15778,35.93793],[139.1571,35.93758],[139.15691,35.93733],[139.15695,35.93725],[139.15735,35.93716],[139.15734,35.93684],[139.1575,35.9366],[139.15748,35.93649],[139.15728,35.93646],[139.15693,35.93664],[139.15638,35.93668],[139.15604,35.93676],[139.15586,35.93674],[139.15565,35.93646],[139.15566,35.93613],[139.15561,35.93602],[139.15526,35.93575],[139.15515,35.93547],[139.155,35.93537],[139.15476,35.93531]]}},{"type":"Feature","properties":{"idx":31,"road":NaN,"cls":"tertiary","shops":0,"st_km":0.15,"mesh":"53397116"},"geometry":{"type":"LineString","coordinates":[[139.20138,35.92584],[139.20191,35.92831],[139.20192,35.92933],[139.20227,35.93035],[139.20261,35.93047]]}},{"type":"Feature","properties":{"idx":3,"road":"大野東松山線","cls":"secondary","shops":0,"st_km":6.84,"mesh":"53397197"},"geometry":{"type":"LineString","coordinates":[[139.21299,35.99547],[139.2128,35.99505],[139.21266,35.99439],[139.21239,35.99359]]}},{"type":"Feature","properties":{"idx":226,"road":NaN,"cls":"pedestrian","shops":0,"st_km":2.07,"mesh":"53397162"},"geometry":{"type":"LineString","coordinates":[[139.15775,35.97322],[139.15787,35.97311],[139.1582,35.97305],[139.15902,35.97329],[139.15914,35.97328],[139.15944,35.97309]]}},{"type":"Feature","properties":{"idx":1,"road":"青梅秩父線","cls":"primary","shops":0,"st_km":3.57,"mesh":"53397102"},"geometry":{"type":"LineString","coordinates":[[139.15036,35.9163],[139.15012,35.91701],[139.14991,35.91791],[139.15005,35.91812],[139.15045,35.9184],[139.15053,35.91852],[139.15063,35.91897],[139.15115,35.92058]]}},{"type":"Feature","properties":{"idx":1,"road":"青梅秩父線","cls":"primary","shops":0,"st_km":3.32,"mesh":"53397102"},"geometry":{"type":"LineString","coordinates":[[139.15115,35.92058],[139.15118,35.92076],[139.15112,35.92127],[139.15114,35.92192],[139.15123,35.92202],[139.15136,35.92205]]}},{"type":"Feature","properties":{"idx":13,"road":"越生長沢線","cls":"primary","shops":0,"st_km":1.71,"mesh":"53397109"},"geometry":{"type":"LineString","coordinates":[[139.23918,35.91919],[139.23909,35.91932]]}},{"type":"Feature","properties":{"idx":13,"road":"越生長沢線","cls":"primary","shops":0,"st_km":1.7,"mesh":"53397109"},"geometry":{"type":"LineString","coordinates":[[139.23916,35.91914],[139.23918,35.91919]]}},{"type":"Feature","properties":{"idx":2,"road":NaN,"cls":"tertiary","shops":0,"st_km":2.45,"mesh":"53397122"},"geometry":{"type":"LineString","coordinates":[[139.15468,35.93531],[139.15445,35.93531]]}},{"type":"Feature","properties":{"idx":2,"road":NaN,"cls":"tertiary","shops":0,"st_km":2.44,"mesh":"53397122"},"geometry":{"type":"LineString","coordinates":[[139.15476,35.93531],[139.15468,35.93531]]}},{"type":"Feature","properties":{"idx":1,"road":"青梅秩父線","cls":"primary","shops":0,"st_km":3.1,"mesh":"53397102"},"geometry":{"type":"LineString","coordinates":[[139.15156,35.92419],[139.15182,35.92407],[139.15216,35.92371],[139.15234,35.92368],[139.15245,35.92377],[139.1524,35.92393],[139.15194,35.92413],[139.15175,35.92431],[139.15168,35.9245],[139.15173,35.9248],[139.15191,35.92511],[139.15163,35.92534],[139.15147,35.92566],[139.15145,35.92579],[139.15138,35.92585]]}},{"type":"Feature","properties":{"idx":5,"road":"青梅秩父線","cls":"primary","shops":0,"st_km":2.65,"mesh":"53397112"},"geometry":{"type":"LineString","coordinates":[[139.15218,35.93073],[139.15224,35.93193],[139.15233,35.93211],[139.1527,35.93256],[139.15316,35.93383],[139.1531,35.93399],[139.15294,35.93411],[139.15206,35.93412],[139.15188,35.93418],[139.1518,35.93429]]}},{"type":"Feature","properties":{"idx":2,"road":"青梅秩父線","cls":"primary","shops":0,"st_km":2.71,"mesh":"53397122"},"geometry":{"type":"LineString","coordinates":[[139.1518,35.93429],[139.1518,35.93434]]}},{"type":"Feature","properties":{"idx":2,"road":"青梅秩父線","cls":"primary","shops":0,"st_km":2.62,"mesh":"53397122"},"geometry":{"type":"LineString","coordinates":[[139.1518,35.93434],[139.15186,35.93448],[139.15194,35.93452],[139.1526,35.9345],[139.15335,35.93493],[139.15357,35.93498],[139.15382,35.93495]]}},{"type":"Feature","properties":{"idx":3,"road":"青梅秩父線","cls":"primary","shops":0,"st_km":2.52,"mesh":"53397122"},"geometry":{"type":"LineString","coordinates":[[139.15382,35.93495],[139.15389,35.93491]]}},{"type":"Feature","properties":{"idx":3,"road":"青梅秩父線","cls":"primary","shops":0,"st_km":2.49,"mesh":"53397122"},"geometry":{"type":"LineString","coordinates":[[139.15389,35.93491],[139.15401,35.93486],[139.15414,35.9349],[139.15445,35.93531]]}},{"type":"Feature","properties":{"idx":3,"road":"青梅秩父線","cls":"primary","shops":0,"st_km":2.46,"mesh":"53397122"},"geometry":{"type":"LineString","coordinates":[[139.15444,35.93534],[139.15443,35.9354]]}},{"type":"Feature","properties":{"idx":1,"road":"青梅秩父線","cls":"primary","shops":0,"st_km":3.17,"mesh":"53397102"},"geometry":{"type":"LineString","coordinates":[[139.15188,35.9216],[139.15201,35.92209],[139.1518,35.92326],[139.15158,35.92371],[139.15107,35.9241]]}},{"type":"Feature","properties":{"idx":1,"road":"青梅秩父線","cls":"primary","shops":0,"st_km":3.16,"mesh":"53397102"},"geometry":{"type":"LineString","coordinates":[[139.15107,35.9241],[139.15107,35.92413]]}},{"type":"Feature","properties":{"idx":1,"road":"青梅秩父線","cls":"primary","shops":0,"st_km":3.14,"mesh":"53397102"},"geometry":{"type":"LineString","coordinates":[[139.15107,35.92413],[139.15115,35.92423],[139.15148,35.92421]]}},{"type":"Feature","properties":{"idx":1,"road":"青梅秩父線","cls":"primary","shops":0,"st_km":3.12,"mesh":"53397102"},"geometry":{"type":"LineString","coordinates":[[139.15148,35.92421],[139.15156,35.92419]]}},{"type":"Feature","properties":{"idx":5,"road":"青梅秩父線","cls":"primary","shops":0,"st_km":3.14,"mesh":"53397112"},"geometry":{"type":"LineString","coordinates":[[139.15131,35.92586],[139.15112,35.92575],[139.15114,35.92539],[139.15108,35.92505],[139.151,35.92496],[139.15088,35.92492],[139.15059,35.92511],[139.15014,35.9251],[139.15,35.92513],[139.14952,35.9255]]}},{"type":"Feature","properties":{"idx":5,"road":"青梅秩父線","cls":"primary","shops":0,"st_km":3.05,"mesh":"53397112"},"geometry":{"type":"LineString","coordinates":[[139.15138,35.92585],[139.15131,35.92586]]}},{"type":"Feature","properties":{"idx":12,"road":"越生長沢線","cls":"primary","shops":0,"st_km":1.83,"mesh":"53397109"},"geometry":{"type":"LineString","coordinates":[[139.23909,35.91932],[139.23857,35.91936],[139.23827,35.91952],[139.23814,35.92012],[139.23814,35.92029],[139.23837,35.9205],[139.23847,35.92068],[139.23842,35.92129],[139.23808,35.92168],[139.23803,35.92183],[139.23821,35.92219],[139.23827,35.92265],[139.23834,35.92285],[139.23829,35.92354],[139.23836,35.92369]]}},{"type":"Feature","properties":{"idx":5,"road":"大野東松山線","cls":"secondary","shops":1,"st_km":6.86,"mesh":"53397197"},"geometry":{"type":"LineString","coordinates":[[139.21457,35.99585],[139.21326,35.99569],[139.21305,35.99556]]}},{"type":"Feature","properties":{"idx":3,"road":"大野東松山線","cls":"secondary","shops":0,"st_km":6.93,"mesh":"53397197"},"geometry":{"type":"LineString","coordinates":[[139.21305,35.99556],[139.21299,35.99547]]}},{"type":"Feature","properties":{"idx":30,"road":"南川上名栗線","cls":"secondary","shops":0,"st_km":1.24,"mesh":"53397105"},"geometry":{"type":"LineString","coordinates":[[139.19053,35.92642],[139.19046,35.92607],[139.19037,35.92586],[139.19026,35.92574],[139.18982,35.9255],[139.18968,35.92537],[139.18962,35.92512],[139.18968,35.9249],[139.19,35.92444],[139.19022,35.92363],[139.19031,35.923],[139.19075,35.92236],[139.19081,35.92209],[139.19076,35.92198],[139.19059,35.92187],[139.19033,35.92151],[139.18961,35.92152],[139.18912,35.92127],[139.18876,35.9212],[139.18835,35.92118],[139.18788,35.92128],[139.18773,35.92125],[139.18724,35.92089],[139.18692,35.92023],[139.18681,35.92015],[139.18624,35.92004],[139.18599,35.91974],[139.18582,35.91961],[139.18562,35.91959],[139.18501,35.9197]]}},{"type":"Feature","properties":{"idx":4,"road":"南川上名栗線","cls":"secondary","shops":0,"st_km":2.28,"mesh":"53397104"},"geometry":{"type":"LineString","coordinates":[[139.17842,35.91786],[139.17834,35.91787]]}},{"type":"Feature","properties":{"idx":4,"road":"南川上名栗線","cls":"secondary","shops":0,"st_km":2.06,"mesh":"53397104"},"geometry":{"type":"LineString","coordinates":[[139.18492,35.91973],[139.18444,35.92003],[139.18385,35.92026],[139.18374,35.92024],[139.18317,35.91993],[139.18206,35.91996],[139.18075,35.91972],[139.18018,35.91944],[139.17963,35.91928],[139.1793,35.91911],[139.17924,35.91903],[139.17912,35.91847],[139.179,35.91817],[139.17882,35.91798],[139.17842,35.91786]]}},{"type":"Feature","properties":{"idx":4,"road":"南川上名栗線","cls":"secondary","shops":0,"st_km":1.77,"mesh":"53397104"},"geometry":{"type":"LineString","coordinates":[[139.18501,35.9197],[139.18492,35.91973]]}},{"type":"Feature","properties":{"idx":12,"road":"南川上名栗線","cls":"secondary","shops":0,"st_km":0.93,"mesh":"53397115"},"geometry":{"type":"LineString","coordinates":[[139.1915,35.93052],[139.19144,35.93038],[139.19147,35.93011],[139.19169,35.92951],[139.19174,35.92878],[139.19182,35.92859],[139.19227,35.92829],[139.19237,35.92809],[139.19211,35.92758],[139.1919,35.92733],[139.19097,35.92685],[139.19061,35.92659],[139.19054,35.92646]]}},{"type":"Feature","properties":{"idx":10,"road":"南川上名栗線","cls":"secondary","shops":0,"st_km":1.07,"mesh":"53397115"},"geometry":{"type":"LineString","coordinates":[[139.19054,35.92646],[139.19053,35.92642]]}},{"type":"Feature","properties":{"idx":6,"road":"青梅秩父線","cls":"primary","shops":0,"st_km":2.76,"mesh":"53397132"},"geometry":{"type":"LineString","coordinates":[[139.15352,35.94822],[139.15353,35.9485]]}},{"type":"Feature","properties":{"idx":6,"road":"青梅秩父線","cls":"primary","shops":0,"st_km":2.75,"mesh":"53397132"},"geometry":{"type":"LineString","coordinates":[[139.15352,35.94814],[139.15352,35.94822]]}},{"type":"Feature","properties":{"idx":16,"road":"青梅秩父線","cls":"primary","shops":0,"st_km":2.82,"mesh":"53397152"},"geometry":{"type":"LineString","coordinates":[[139.15489,35.95932],[139.15603,35.95924],[139.15731,35.9596],[139.15759,35.95955],[139.15865,35.95912],[139.15892,35.95915],[139.1591,35.95927],[139.15948,35.95971],[139.1602,35.96018],[139.16041,35.96037],[139.16058,35.96081],[139.16061,35.96145],[139.16069,35.96165],[139.16098,35.9619],[139.16148,35.96213]]}},{"type":"Feature","properties":{"idx":17,"road":"青梅秩父線","cls":"primary","shops":0,"st_km":2.55,"mesh":"53397152"},"geometry":{"type":"LineString","coordinates":[[139.15477,35.95932],[139.15489,35.95932]]}},{"type":"Feature","properties":{"idx":1,"road":"青梅秩父線","cls":"primary","shops":0,"st_km":3.29,"mesh":"53397102"},"geometry":{"type":"LineString","coordinates":[[139.15145,35.922],[139.1515,35.9219],[139.15146,35.92149],[139.15153,35.92139],[139.15176,35.92137],[139.15188,35.9216]]}},{"type":"Feature","properties":{"idx":128,"road":NaN,"cls":"pedestrian","shops":0,"st_km":0.16,"mesh":"53397170"},"geometry":{"type":"LineString","coordinates":[[139.13732,35.97737],[139.13738,35.97739]]}},{"type":"Feature","properties":{"idx":3,"road":"青梅秩父線","cls":"primary","shops":0,"st_km":2.46,"mesh":"53397122"},"geometry":{"type":"LineString","coordinates":[[139.15445,35.93531],[139.15444,35.93534]]}}]}