{"type":"FeatureCollection","features":[{"type":"Feature","properties":{"idx":3368,"road":"堺橋","cls":"secondary","shops":0,"st_km":1.72,"mesh":"53393059"},"geometry":{"type":"LineString","coordinates":[[139.12372,35.63249],[139.12359,35.63239]]}},{"type":"Feature","properties":{"idx":154,"road":"棡原藤野線","cls":"secondary","shops":0,"st_km":3.27,"mesh":"53393079"},"geometry":{"type":"LineString","coordinates":[[139.12834,35.64087],[139.12753,35.64224],[139.12679,35.64291],[139.12669,35.64315],[139.12664,35.64362],[139.12654,35.64385],[139.12588,35.64461],[139.1248,35.64631],[139.12433,35.64683],[139.12251,35.64837],[139.12237,35.64864],[139.12227,35.64908],[139.12179,35.64973],[139.12137,35.65082],[139.12089,35.65151],[139.12083,35.65206],[139.12067,35.65226],[139.12035,35.65249],[139.12025,35.65266],[139.12014,35.65334]]}},{"type":"Feature","properties":{"idx":36,"road":"上岩橋","cls":"secondary","shops":0,"st_km":3.9,"mesh":"53393089"},"geometry":{"type":"LineString","coordinates":[[139.12014,35.65334],[139.12012,35.65344]]}},{"type":"Feature","properties":{"idx":35,"road":"棡原藤野線）","cls":"secondary","shops":0,"st_km":4.07,"mesh":"53393089"},"geometry":{"type":"LineString","coordinates":[[139.12012,35.65344],[139.11994,35.65386],[139.11919,35.65481],[139.11907,35.65516],[139.11903,35.65555],[139.1191,35.65599],[139.11917,35.65621],[139.11943,35.6567]]}}]}