{"type":"FeatureCollection","features":[{"type":"Feature","properties":{"idx":5,"road":"札掛橋","cls":"primary","shops":0,"st_km":4.03,"mesh":"53391157"},"geometry":{"type":"LineString","coordinates":[[139.21548,35.46319],[139.21527,35.46333]]}},{"type":"Feature","properties":{"idx":45,"road":"大山板戸線","cls":"secondary","shops":5,"st_km":0.51,"mesh":"53391109"},"geometry":{"type":"LineString","coordinates":[[139.24868,35.42448],[139.24812,35.42459]]}},{"type":"Feature","properties":{"idx":80,"road":"大山板戸線","cls":"secondary","shops":11,"st_km":0.56,"mesh":"53391109"},"geometry":{"type":"LineString","coordinates":[[139.2492,35.42432],[139.24885,35.42449],[139.24868,35.42448]]}},{"type":"Feature","properties":{"idx":60,"road":"大山板戸線","cls":"secondary","shops":8,"st_km":0.59,"mesh":"53391109"},"geometry":{"type":"LineString","coordinates":[[139.24912,35.42412],[139.24918,35.42428]]}},{"type":"Feature","properties":{"idx":47,"road":NaN,"cls":"tertiary","shops":7,"st_km":0.6,"mesh":"53391109"},"geometry":{"type":"LineString","coordinates":[[139.24936,35.42421],[139.24932,35.42427]]}},{"type":"Feature","properties":{"idx":42,"road":NaN,"cls":"tertiary","shops":6,"st_km":0.61,"mesh":"53391109"},"geometry":{"type":"LineString","coordinates":[[139.24932,35.42427],[139.24957,35.42422],[139.2496,35.42413]]}},{"type":"Feature","properties":{"idx":48,"road":NaN,"cls":"tertiary","shops":7,"st_km":0.59,"mesh":"53391109"},"geometry":{"type":"LineString","coordinates":[[139.2492,35.42432],[139.24932,35.42427]]}},{"type":"Feature","properties":{"idx":41,"road":NaN,"cls":"tertiary","shops":6,"st_km":0.62,"mesh":"53391109"},"geometry":{"type":"LineString","coordinates":[[139.2496,35.42413],[139.2495,35.42403],[139.24936,35.42409],[139.24936,35.42421]]}},{"type":"Feature","properties":{"idx":3,"road":"秦野清川線","cls":"primary","shops":0,"st_km":2.24,"mesh":"53391117"},"geometry":{"type":"LineString","coordinates":[[139.21782,35.42902],[139.21692,35.42967],[139.2166,35.42968],[139.21633,35.43006],[139.21595,35.43027],[139.21565,35.43067],[139.21485,35.43136],[139.21471,35.43132],[139.21443,35.43099],[139.21423,35.43085],[139.21401,35.43075],[139.21384,35.4308],[139.21367,35.43134],[139.21325,35.43173],[139.213,35.43189],[139.21296,35.43197],[139.21299,35.43232],[139.2126,35.43262],[139.2125,35.43259],[139.21236,35.43231],[139.21205,35.43198],[139.21208,35.43171],[139.21205,35.43167],[139.2118,35.43157],[139.21171,35.43148],[139.21173,35.43132],[139.21208,35.43081],[139.21208,35.43062],[139.212,35.43055],[139.21188,35.43055],[139.2113,35.43078],[139.21105,35.43082],[139.21085,35.43098],[139.21059,35.43108],[139.2104,35.43098],[139.21012,35.43069],[139.20947,35.43038],[139.20932,35.43037],[139.20919,35.43042],[139.20906,35.43064]]}},{"type":"Feature","properties":{"idx":3,"road":"秦野清川線","cls":"primary","shops":0,"st_km":2.58,"mesh":"53391116"},"geometry":{"type":"LineString","coordinates":[[139.20901,35.43072],[139.20897,35.43091],[139.20934,35.43117],[139.20945,35.43149]]}},{"type":"Feature","properties":{"idx":5,"road":"秦野清川線","cls":"primary","shops":1,"st_km":2.6,"mesh":"53391116"},"geometry":{"type":"LineString","coordinates":[[139.20906,35.43064],[139.20901,35.43072]]}},{"type":"Feature","properties":{"idx":3,"road":"秦野清川線","cls":"primary","shops":0,"st_km":1.82,"mesh":"53391117"},"geometry":{"type":"LineString","coordinates":[[139.2179,35.42897],[139.21782,35.42902]]}},{"type":"Feature","properties":{"idx":7,"road":"秦野清川線","cls":"primary","shops":0,"st_km":2.91,"mesh":"53391136"},"geometry":{"type":"LineString","coordinates":[[139.21227,35.44669],[139.21188,35.44724],[139.21186,35.44738],[139.21195,35.44752],[139.21242,35.44782],[139.21257,35.44797],[139.21269,35.44813],[139.21276,35.44837]]}},{"type":"Feature","properties":{"idx":5,"road":"秦野清川線","cls":"primary","shops":0,"st_km":2.53,"mesh":"53391126"},"geometry":{"type":"LineString","coordinates":[[139.21097,35.43924],[139.21121,35.43988],[139.21156,35.44008],[139.212,35.44044],[139.21227,35.44054],[139.21235,35.44107]]}},{"type":"Feature","properties":{"idx":7,"road":"秦野清川線","cls":"primary","shops":0,"st_km":2.83,"mesh":"53391136"},"geometry":{"type":"LineString","coordinates":[[139.21231,35.44662],[139.21227,35.44669]]}},{"type":"Feature","properties":{"idx":5,"road":"秦野清川線","cls":"primary","shops":0,"st_km":2.55,"mesh":"53391126"},"geometry":{"type":"LineString","coordinates":[[139.21093,35.4391],[139.21097,35.43924]]}},{"type":"Feature","properties":{"idx":5,"road":"秦野清川線","cls":"primary","shops":0,"st_km":2.52,"mesh":"53391126"},"geometry":{"type":"LineString","coordinates":[[139.21235,35.44107],[139.21235,35.44118]]}},{"type":"Feature","properties":{"idx":7,"road":"秦野清川線","cls":"primary","shops":0,"st_km":2.56,"mesh":"53391136"},"geometry":{"type":"LineString","coordinates":[[139.21235,35.44118],[139.21218,35.44149],[139.21216,35.4417],[139.21225,35.44189],[139.21252,35.4421]]}},{"type":"Feature","properties":{"idx":5,"road":"秦野清川線","cls":"primary","shops":0,"st_km":3.76,"mesh":"53391157"},"geometry":{"type":"LineString","coordinates":[[139.21354,35.45798],[139.2136,35.45858],[139.21354,35.45872],[139.2133,35.45904],[139.21367,35.46019],[139.21359,35.46059]]}},{"type":"Feature","properties":{"idx":5,"road":"秦野清川線","cls":"primary","shops":0,"st_km":3.96,"mesh":"53391157"},"geometry":{"type":"LineString","coordinates":[[139.21357,35.46064],[139.21345,35.46093],[139.21353,35.46111],[139.2141,35.46156],[139.21432,35.46192],[139.21493,35.46256],[139.21538,35.46285],[139.21552,35.46308],[139.21548,35.46319]]}},{"type":"Feature","properties":{"idx":5,"road":"秦野清川線","cls":"primary","shops":0,"st_km":3.87,"mesh":"53391157"},"geometry":{"type":"LineString","coordinates":[[139.21359,35.46059],[139.21357,35.46064]]}},{"type":"Feature","properties":{"idx":3,"road":"秦野清川線","cls":"primary","shops":0,"st_km":1.75,"mesh":"53391117"},"geometry":{"type":"LineString","coordinates":[[139.21919,35.42794],[139.21865,35.42877],[139.21841,35.42888],[139.21807,35.42886],[139.2179,35.42897]]}},{"type":"Feature","properties":{"idx":3,"road":"秦野清川線","cls":"primary","shops":0,"st_km":2.55,"mesh":"53391116"},"geometry":{"type":"LineString","coordinates":[[139.20945,35.43149],[139.20952,35.4317]]}},{"type":"Feature","properties":{"idx":6,"road":"秦野清川線","cls":"primary","shops":0,"st_km":2.4,"mesh":"53391126"},"geometry":{"type":"LineString","coordinates":[[139.2121,35.43478],[139.21222,35.43488],[139.2122,35.43505],[139.21175,35.43603],[139.21205,35.4364],[139.21212,35.43655],[139.21214,35.43674],[139.21183,35.43712],[139.21151,35.43727],[139.21085,35.43789],[139.21084,35.43796],[139.21108,35.43851],[139.21106,35.43876],[139.21094,35.43898],[139.21093,35.4391]]}},{"type":"Feature","properties":{"idx":22,"road":"秦野清川線","cls":"primary","shops":0,"st_km":1.98,"mesh":"53391107"},"geometry":{"type":"LineString","coordinates":[[139.21742,35.42489],[139.21751,35.42494]]}},{"type":"Feature","properties":{"idx":3,"road":"秦野清川線","cls":"primary","shops":0,"st_km":1.57,"mesh":"53391117"},"geometry":{"type":"LineString","coordinates":[[139.21751,35.42494],[139.21762,35.42495],[139.21802,35.42485],[139.21834,35.42501],[139.21877,35.42477],[139.21956,35.42469],[139.22003,35.42474],[139.22056,35.42456],[139.22072,35.42461],[139.22092,35.42494],[139.22108,35.42504],[139.22131,35.42506],[139.22193,35.42498],[139.22227,35.42515],[139.22221,35.42541],[139.22232,35.42578],[139.22228,35.42588],[139.22212,35.426],[139.22195,35.42622],[139.22152,35.42639],[139.22142,35.4265],[139.22141,35.42661],[139.2216,35.42692],[139.22155,35.42706],[139.22135,35.42721],[139.22072,35.42717],[139.22041,35.42719],[139.22021,35.42733],[139.21982,35.42749],[139.21934,35.42782]]}},{"type":"Feature","properties":{"idx":46,"road":"秦野清川線","cls":"primary","shops":0,"st_km":6.34,"mesh":"53391187"},"geometry":{"type":"LineString","coordinates":[[139.20871,35.48668],[139.21035,35.48615],[139.21055,35.48605],[139.21081,35.48573],[139.21078,35.4854],[139.2108,35.48532],[139.21087,35.4853],[139.21119,35.48538],[139.21146,35.48539],[139.21167,35.48564],[139.21184,35.48564],[139.21219,35.48512],[139.21234,35.48474],[139.21251,35.48447],[139.21264,35.48439],[139.21279,35.48439],[139.21306,35.48453],[139.21367,35.48508],[139.21401,35.48574],[139.21437,35.48598],[139.21469,35.48639],[139.21494,35.48666],[139.21503,35.48669],[139.21587,35.48659],[139.21611,35.48618],[139.21628,35.48613],[139.2166,35.48624],[139.21684,35.48653],[139.21701,35.48663],[139.21715,35.48668],[139.21749,35.48666],[139.2178,35.48653],[139.21861,35.48585],[139.21936,35.48565],[139.21963,35.48567],[139.2198,35.48589],[139.2201,35.48646],[139.2204,35.48676],[139.22075,35.48727],[139.22099,35.48747],[139.22143,35.48762],[139.22175,35.48848],[139.22175,35.48862],[139.22152,35.48892],[139.22148,35.48928],[139.2214,35.4895],[139.22128,35.48964],[139.22096,35.4898],[139.22055,35.49012],[139.22012,35.49059],[139.21998,35.49083],[139.21997,35.49118]]}},{"type":"Feature","properties":{"idx":3,"road":"秦野清川線","cls":"primary","shops":0,"st_km":2.43,"mesh":"53391116"},"geometry":{"type":"LineString","coordinates":[[139.20952,35.4317],[139.20969,35.43191],[139.21047,35.43255],[139.2109,35.43318],[139.2111,35.43366],[139.21151,35.43392],[139.21163,35.43405],[139.21164,35.43424],[139.21154,35.43449],[139.21154,35.43463],[139.21163,35.4347],[139.21189,35.43475]]}},{"type":"Feature","properties":{"idx":8,"road":"秦野清川線","cls":"primary","shops":1,"st_km":2.35,"mesh":"53391126"},"geometry":{"type":"LineString","coordinates":[[139.21189,35.43475],[139.2121,35.43478]]}},{"type":"Feature","properties":{"idx":6,"road":"秦野清川線","cls":"primary","shops":2,"st_km":1.72,"mesh":"53391117"},"geometry":{"type":"LineString","coordinates":[[139.21934,35.42782],[139.21919,35.42794]]}},{"type":"Feature","properties":{"idx":10,"road":"秦野清川線","cls":"primary","shops":0,"st_km":7.49,"mesh":"53391198"},"geometry":{"type":"LineString","coordinates":[[139.22588,35.49844],[139.22644,35.49859],[139.2268,35.49888],[139.22697,35.49893],[139.22732,35.49887],[139.22829,35.49888],[139.22848,35.49912],[139.22866,35.49919],[139.2294,35.49898],[139.22989,35.49898],[139.2304,35.4988],[139.23094,35.49875],[139.23118,35.49883],[139.23167,35.49923],[139.23207,35.49995],[139.23211,35.50014],[139.23173,35.50041],[139.23166,35.50059],[139.23166,35.50081],[139.23138,35.50113],[139.23122,35.50156],[139.23032,35.50233],[139.23007,35.50262],[139.22993,35.50288],[139.22973,35.50354]]}},{"type":"Feature","properties":{"idx":3,"road":"秦野清川線","cls":"primary","shops":0,"st_km":7.03,"mesh":"53391197"},"geometry":{"type":"LineString","coordinates":[[139.22012,35.49341],[139.2203,35.49368]]}},{"type":"Feature","properties":{"idx":3,"road":"秦野清川線","cls":"primary","shops":0,"st_km":7.44,"mesh":"53391197"},"geometry":{"type":"LineString","coordinates":[[139.22136,35.49547],[139.22149,35.49571],[139.22212,35.49653],[139.22238,35.49703],[139.22241,35.49733],[139.22274,35.49756],[139.22303,35.49793],[139.22322,35.49809],[139.22387,35.49838],[139.22415,35.49836],[139.22476,35.49822],[139.2253,35.49818],[139.22554,35.49818],[139.22573,35.49824]]}},{"type":"Feature","properties":{"idx":10,"road":"ヒル沢橋","cls":"primary","shops":0,"st_km":7.46,"mesh":"53391198"},"geometry":{"type":"LineString","coordinates":[[139.22573,35.49824],[139.22588,35.49844]]}},{"type":"Feature","properties":{"idx":3,"road":"秦野清川線","cls":"primary","shops":0,"st_km":7.12,"mesh":"53391197"},"geometry":{"type":"LineString","coordinates":[[139.2203,35.49368],[139.22069,35.4944],[139.2212,35.49499],[139.2213,35.49523]]}},{"type":"Feature","properties":{"idx":3,"road":"前沢橋","cls":"primary","shops":0,"st_km":7.2,"mesh":"53391197"},"geometry":{"type":"LineString","coordinates":[[139.2213,35.49523],[139.22136,35.49547]]}},{"type":"Feature","properties":{"idx":3,"road":"秦野清川線","cls":"primary","shops":0,"st_km":6.99,"mesh":"53391197"},"geometry":{"type":"LineString","coordinates":[[139.21988,35.49292],[139.22012,35.49341]]}},{"type":"Feature","properties":{"idx":3,"road":"秦野清川線","cls":"primary","shops":0,"st_km":6.96,"mesh":"53391197"},"geometry":{"type":"LineString","coordinates":[[139.21985,35.49276],[139.21988,35.49292]]}},{"type":"Feature","properties":{"idx":3,"road":"秦野清川線","cls":"primary","shops":0,"st_km":6.87,"mesh":"53391197"},"geometry":{"type":"LineString","coordinates":[[139.21994,35.49133],[139.21995,35.49224],[139.21985,35.49276]]}},{"type":"Feature","properties":{"idx":45,"road":"南沢橋","cls":"primary","shops":0,"st_km":6.79,"mesh":"53391187"},"geometry":{"type":"LineString","coordinates":[[139.21997,35.49118],[139.21994,35.49133]]}},{"type":"Feature","properties":{"idx":60,"road":"大山板戸線","cls":"secondary","shops":8,"st_km":0.58,"mesh":"53391109"},"geometry":{"type":"LineString","coordinates":[[139.24918,35.42428],[139.2492,35.42432]]}}]}