{"type":"FeatureCollection","features":[{"type":"Feature","properties":{"idx":121,"road":"幹線1号道路","cls":"tertiary","shops":0,"st_km":3.62,"mesh":"53391690"},"geometry":{"type":"LineString","coordinates":[[139.76194,35.49472],[139.76095,35.49428],[139.76074,35.49424]]}},{"type":"Feature","properties":{"idx":194,"road":"中2号道路","cls":"tertiary","shops":0,"st_km":3.92,"mesh":"53391691"},"geometry":{"type":"LineString","coordinates":[[139.76716,35.49703],[139.76482,35.50058]]}},{"type":"Feature","properties":{"idx":122,"road":"中1号道路","cls":"tertiary","shops":0,"st_km":3.52,"mesh":"53391690"},"geometry":{"type":"LineString","coordinates":[[139.75911,35.49771],[139.75961,35.49794],[139.75983,35.4979],[139.76194,35.49472]]}},{"type":"Feature","properties":{"idx":192,"road":"外貿4号道路","cls":"tertiary","shops":0,"st_km":4.5,"mesh":"53391691"},"geometry":{"type":"LineString","coordinates":[[139.773,35.49787],[139.77208,35.49927]]}},{"type":"Feature","properties":{"idx":390,"road":"幹線1号道路","cls":"tertiary","shops":2,"st_km":3.8,"mesh":"53391691"},"geometry":{"type":"LineString","coordinates":[[139.76289,35.49525],[139.76433,35.49589]]}},{"type":"Feature","properties":{"idx":122,"road":"川崎駅東扇島線","cls":"tertiary","shops":0,"st_km":3.42,"mesh":"53391690"},"geometry":{"type":"LineString","coordinates":[[139.76027,35.49963],[139.76048,35.49908],[139.76071,35.49865]]}},{"type":"Feature","properties":{"idx":122,"road":"川崎駅東扇島線","cls":"tertiary","shops":0,"st_km":3.41,"mesh":"53391690"},"geometry":{"type":"LineString","coordinates":[[139.76061,35.4986],[139.76031,35.49919],[139.76017,35.49959]]}},{"type":"Feature","properties":{"idx":121,"road":"川崎駅東扇島線","cls":"tertiary","shops":0,"st_km":3.65,"mesh":"53391690"},"geometry":{"type":"LineString","coordinates":[[139.76127,35.49779],[139.76284,35.49541],[139.76289,35.49525]]}},{"type":"Feature","properties":{"idx":124,"road":"外貿8号道路","cls":"tertiary","shops":0,"st_km":3.15,"mesh":"53391690"},"geometry":{"type":"LineString","coordinates":[[139.75374,35.49351],[139.75606,35.48999]]}},{"type":"Feature","properties":{"idx":123,"road":"外貿6号道路","cls":"tertiary","shops":0,"st_km":3.19,"mesh":"53391690"},"geometry":{"type":"LineString","coordinates":[[139.75463,35.49501],[139.75901,35.49695]]}},{"type":"Feature","properties":{"idx":291,"road":"","cls":"tertiary","shops":1,"st_km":3.9,"mesh":"53391691"},"geometry":{"type":"LineString","coordinates":[[139.76479,35.49609],[139.76485,35.49601]]}},{"type":"Feature","properties":{"idx":121,"road":"外貿1号道路","cls":"tertiary","shops":0,"st_km":3.63,"mesh":"53391690"},"geometry":{"type":"LineString","coordinates":[[139.76074,35.49424],[139.76157,35.493],[139.76168,35.49291]]}},{"type":"Feature","properties":{"idx":193,"road":"外貿3号道路","cls":"tertiary","shops":0,"st_km":4.21,"mesh":"53391691"},"geometry":{"type":"LineString","coordinates":[[139.76828,35.49764],[139.76924,35.49621]]}},{"type":"Feature","properties":{"idx":122,"road":"","cls":"tertiary","shops":0,"st_km":3.41,"mesh":"53391690"},"geometry":{"type":"LineString","coordinates":[[139.75939,35.49618],[139.75949,35.49623]]}},{"type":"Feature","properties":{"idx":194,"road":"外貿2号道路","cls":"tertiary","shops":0,"st_km":3.95,"mesh":"53391691"},"geometry":{"type":"LineString","coordinates":[[139.76485,35.49601],[139.76575,35.49466]]}},{"type":"Feature","properties":{"idx":121,"road":"川崎駅東扇島線","cls":"tertiary","shops":0,"st_km":3.6,"mesh":"53391690"},"geometry":{"type":"LineString","coordinates":[[139.76289,35.49525],[139.76275,35.49537],[139.76061,35.4986]]}},{"type":"Feature","properties":{"idx":124,"road":"幹線5号道路","cls":"tertiary","shops":0,"st_km":3.07,"mesh":"53391690"},"geometry":{"type":"LineString","coordinates":[[139.7506,35.49236],[139.7592,35.49614],[139.75939,35.49618]]}},{"type":"Feature","properties":{"idx":123,"road":"幹線2号道路","cls":"tertiary","shops":0,"st_km":3.21,"mesh":"53391690"},"geometry":{"type":"LineString","coordinates":[[139.75939,35.49618],[139.7574,35.49918],[139.75635,35.50079],[139.75633,35.50089]]}},{"type":"Feature","properties":{"idx":293,"road":"川崎駅東扇島線","cls":"tertiary","shops":1,"st_km":3.74,"mesh":"53391691"},"geometry":{"type":"LineString","coordinates":[[139.76289,35.49525],[139.76294,35.49516]]}},{"type":"Feature","properties":{"idx":121,"road":"幹線1号道路","cls":"tertiary","shops":0,"st_km":3.71,"mesh":"53391690"},"geometry":{"type":"LineString","coordinates":[[139.76294,35.49516],[139.76194,35.49472]]}},{"type":"Feature","properties":{"idx":127,"road":"幹線5号道路","cls":"tertiary","shops":0,"st_km":2.75,"mesh":"53391690"},"geometry":{"type":"LineString","coordinates":[[139.75514,35.49422],[139.75374,35.49351],[139.75074,35.49215],[139.74873,35.49138],[139.74531,35.48987]]}},{"type":"Feature","properties":{"idx":134,"road":"外貿9号道路","cls":"tertiary","shops":0,"st_km":2.83,"mesh":"53391680"},"geometry":{"type":"LineString","coordinates":[[139.75074,35.49215],[139.75144,35.49108]]}},{"type":"Feature","properties":{"idx":193,"road":"幹線1号道路","cls":"tertiary","shops":0,"st_km":4.14,"mesh":"53391691"},"geometry":{"type":"LineString","coordinates":[[139.76433,35.49589],[139.77185,35.49923],[139.77208,35.49927]]}},{"type":"Feature","properties":{"idx":121,"road":"幹線1号道路","cls":"tertiary","shops":0,"st_km":3.6,"mesh":"53391690"},"geometry":{"type":"LineString","coordinates":[[139.76074,35.49424],[139.76091,35.49437],[139.76145,35.49461]]}},{"type":"Feature","properties":{"idx":193,"road":"幹線1号道路","cls":"tertiary","shops":0,"st_km":4.1,"mesh":"53391691"},"geometry":{"type":"LineString","coordinates":[[139.77208,35.49927],[139.77191,35.49914],[139.76294,35.49516]]}},{"type":"Feature","properties":{"idx":122,"road":"幹線2号道路","cls":"tertiary","shops":0,"st_km":3.49,"mesh":"53391690"},"geometry":{"type":"LineString","coordinates":[[139.76074,35.49424],[139.76059,35.49437],[139.75939,35.49618]]}},{"type":"Feature","properties":{"idx":122,"road":"幹線2号道路","cls":"tertiary","shops":0,"st_km":3.33,"mesh":"53391690"},"geometry":{"type":"LineString","coordinates":[[139.75805,35.49842],[139.75949,35.49623]]}},{"type":"Feature","properties":{"idx":181,"road":"幹線1号道路","cls":"tertiary","shops":1,"st_km":3.68,"mesh":"53391690"},"geometry":{"type":"LineString","coordinates":[[139.76145,35.49461],[139.76289,35.49525]]}},{"type":"Feature","properties":{"idx":122,"road":"幹線2号道路","cls":"tertiary","shops":0,"st_km":3.5,"mesh":"53391690"},"geometry":{"type":"LineString","coordinates":[[139.75949,35.49623],[139.7607,35.49441],[139.76074,35.49424]]}},{"type":"Feature","properties":{"idx":124,"road":"幹線2号道路","cls":"tertiary","shops":0,"st_km":3.12,"mesh":"53391690"},"geometry":{"type":"LineString","coordinates":[[139.75647,35.50084],[139.75651,35.50071],[139.75805,35.49842]]}},{"type":"Feature","properties":{"idx":128,"road":"外貿9号道路","cls":"tertiary","shops":0,"st_km":2.71,"mesh":"53391690"},"geometry":{"type":"LineString","coordinates":[[139.74985,35.4935],[139.7506,35.49236]]}},{"type":"Feature","properties":{"idx":127,"road":"","cls":"tertiary","shops":0,"st_km":2.77,"mesh":"53391690"},"geometry":{"type":"LineString","coordinates":[[139.7506,35.49236],[139.75074,35.49215]]}},{"type":"Feature","properties":{"idx":123,"road":"幹線5号道路","cls":"tertiary","shops":0,"st_km":3.25,"mesh":"53391690"},"geometry":{"type":"LineString","coordinates":[[139.75939,35.49618],[139.75927,35.49607],[139.75514,35.49422]]}},{"type":"Feature","properties":{"idx":193,"road":"南岸道路","cls":"tertiary","shops":0,"st_km":4.29,"mesh":"53391691"},"geometry":{"type":"LineString","coordinates":[[139.76168,35.49291],[139.76185,35.49293],[139.77712,35.4997],[139.7772,35.49978]]}},{"type":"Feature","properties":{"idx":122,"road":"川崎駅東扇島線","cls":"tertiary","shops":0,"st_km":3.49,"mesh":"53391690"},"geometry":{"type":"LineString","coordinates":[[139.76071,35.49865],[139.76127,35.49779]]}},{"type":"Feature","properties":{"idx":123,"road":"中1号道路","cls":"tertiary","shops":0,"st_km":3.33,"mesh":"53391690"},"geometry":{"type":"LineString","coordinates":[[139.75857,35.49763],[139.75871,35.49758],[139.75911,35.49771]]}},{"type":"Feature","properties":{"idx":122,"road":"中1号道路","cls":"tertiary","shops":0,"st_km":3.33,"mesh":"53391690"},"geometry":{"type":"LineString","coordinates":[[139.75911,35.49771],[139.75877,35.49752],[139.75874,35.49738]]}}]}