{"type":"FeatureCollection","features":[{"type":"Feature","properties":{"idx":1040,"road":"今井街道","cls":"tertiary","shops":1,"st_km":0.89,"mesh":"53394730"},"geometry":{"type":"LineString","coordinates":[[139.87401,35.69387],[139.879,35.6901]]}},{"type":"Feature","properties":{"idx":174,"road":"","cls":"tertiary","shops":2,"st_km":0.36,"mesh":"53394720"},"geometry":{"type":"LineString","coordinates":[[139.87659,35.68615],[139.87993,35.68537],[139.88069,35.68528],[139.88139,35.68528]]}},{"type":"Feature","properties":{"idx":741,"road":"新大橋通り","cls":"primary","shops":3,"st_km":0.63,"mesh":"53394710"},"geometry":{"type":"LineString","coordinates":[[139.88154,35.6831],[139.87839,35.68293],[139.87789,35.68295],[139.87215,35.68414]]}},{"type":"Feature","properties":{"idx":335,"road":"新大橋通り","cls":"primary","shops":0,"st_km":0.5,"mesh":"53394710"},"geometry":{"type":"LineString","coordinates":[[139.88312,35.6832],[139.88745,35.68327],[139.88803,35.68317],[139.8885,35.68293],[139.88956,35.68213],[139.89039,35.68106]]}},{"type":"Feature","properties":{"idx":335,"road":"新大橋通り","cls":"primary","shops":0,"st_km":0.5,"mesh":"53394710"},"geometry":{"type":"LineString","coordinates":[[139.89032,35.68102],[139.88973,35.68183],[139.88946,35.68211],[139.88845,35.68287],[139.88792,35.68313],[139.88746,35.6832],[139.88312,35.68313]]}},{"type":"Feature","properties":{"idx":244,"road":"環七通り","cls":"primary","shops":0,"st_km":0.85,"mesh":"53394710"},"geometry":{"type":"LineString","coordinates":[[139.87729,35.67454],[139.87911,35.67799],[139.88029,35.68065],[139.88134,35.68317]]}},{"type":"Feature","properties":{"idx":509,"road":"","cls":"tertiary","shops":1,"st_km":0.69,"mesh":"53394721"},"geometry":{"type":"LineString","coordinates":[[139.88698,35.68245],[139.89392,35.68807]]}},{"type":"Feature","properties":{"idx":782,"road":"新大橋通り","cls":"primary_link","shops":2,"st_km":0.57,"mesh":"53394711"},"geometry":{"type":"LineString","coordinates":[[139.88837,35.68284],[139.88779,35.6831]]}},{"type":"Feature","properties":{"idx":247,"road":"新大橋通り","cls":"primary_link","shops":0,"st_km":0.45,"mesh":"53394710"},"geometry":{"type":"LineString","coordinates":[[139.88598,35.68325],[139.88639,35.68331],[139.88742,35.68333]]}},{"type":"Feature","properties":{"idx":243,"road":"新大橋通り","cls":"primary_link","shops":0,"st_km":0.46,"mesh":"53394710"},"geometry":{"type":"LineString","coordinates":[[139.88743,35.68314],[139.88639,35.68314],[139.88598,35.68318]]}},{"type":"Feature","properties":{"idx":1102,"road":"新大橋通り","cls":"primary_link","shops":4,"st_km":0.64,"mesh":"53394711"},"geometry":{"type":"LineString","coordinates":[[139.88802,35.68328],[139.88863,35.68291],[139.88956,35.68221]]}},{"type":"Feature","properties":{"idx":193,"road":"","cls":"tertiary","shops":0,"st_km":0.86,"mesh":"53394710"},"geometry":{"type":"LineString","coordinates":[[139.87353,35.68045],[139.87828,35.68082]]}},{"type":"Feature","properties":{"idx":145,"road":"二之江宮前通り","cls":"tertiary","shops":0,"st_km":1.22,"mesh":"53394710"},"geometry":{"type":"LineString","coordinates":[[139.87749,35.67459],[139.88002,35.67517],[139.88453,35.6744]]}},{"type":"Feature","properties":{"idx":414,"road":"","cls":"tertiary","shops":2,"st_km":0.1,"mesh":"53394770"},"geometry":{"type":"LineString","coordinates":[[139.88038,35.73247],[139.88129,35.73312],[139.88121,35.73335]]}},{"type":"Feature","properties":{"idx":1271,"road":"奥戸街道","cls":"primary","shops":4,"st_km":0.28,"mesh":"53394780"},"geometry":{"type":"LineString","coordinates":[[139.87911,35.73447],[139.87897,35.7345]]}},{"type":"Feature","properties":{"idx":179,"road":"","cls":"primary_link","shops":0,"st_km":1.9,"mesh":"53394750"},"geometry":{"type":"LineString","coordinates":[[139.87748,35.71926],[139.87772,35.71862],[139.87939,35.71151],[139.87944,35.71097]]}},{"type":"Feature","properties":{"idx":241,"road":"","cls":"tertiary","shops":0,"st_km":1.76,"mesh":"53394760"},"geometry":{"type":"LineString","coordinates":[[139.88045,35.71733],[139.8817,35.71767]]}},{"type":"Feature","properties":{"idx":245,"road":"","cls":"tertiary","shops":0,"st_km":1.73,"mesh":"53394760"},"geometry":{"type":"LineString","coordinates":[[139.8817,35.71767],[139.88237,35.71786]]}},{"type":"Feature","properties":{"idx":182,"road":"上平井橋江戸川大橋線（補助第288号線）","cls":"tertiary","shops":0,"st_km":2.11,"mesh":"53394750"},"geometry":{"type":"LineString","coordinates":[[139.88325,35.71373],[139.88169,35.71348]]}},{"type":"Feature","properties":{"idx":183,"road":"上平井橋江戸川大橋線（補助第288号線）","cls":"tertiary","shops":0,"st_km":2.14,"mesh":"53394750"},"geometry":{"type":"LineString","coordinates":[[139.88169,35.71348],[139.88026,35.71326]]}},{"type":"Feature","properties":{"idx":355,"road":"","cls":"primary_link","shops":1,"st_km":1.55,"mesh":"53394760"},"geometry":{"type":"LineString","coordinates":[[139.87729,35.71908],[139.877,35.71952],[139.87604,35.72055],[139.87579,35.72092]]}},{"type":"Feature","properties":{"idx":240,"road":"","cls":"primary_link","shops":0,"st_km":1.54,"mesh":"53394760"},"geometry":{"type":"LineString","coordinates":[[139.87589,35.72093],[139.87632,35.72058],[139.87712,35.71973],[139.87748,35.71926]]}},{"type":"Feature","properties":{"idx":180,"road":"","cls":"primary_link","shops":0,"st_km":1.88,"mesh":"53394750"},"geometry":{"type":"LineString","coordinates":[[139.87934,35.71094],[139.87915,35.71147],[139.87748,35.71856],[139.87729,35.71908]]}},{"type":"Feature","properties":{"idx":240,"road":"環七通り","cls":"primary","shops":0,"st_km":2.03,"mesh":"53394750"},"geometry":{"type":"LineString","coordinates":[[139.87934,35.71094],[139.87906,35.71217]]}},{"type":"Feature","properties":{"idx":94,"road":"","cls":"tertiary","shops":0,"st_km":0.91,"mesh":"53394770"},"geometry":{"type":"LineString","coordinates":[[139.87476,35.72783],[139.87564,35.72651]]}},{"type":"Feature","properties":{"idx":112,"road":"","cls":"tertiary","shops":0,"st_km":0.71,"mesh":"53394770"},"geometry":{"type":"LineString","coordinates":[[139.87723,35.72703],[139.87731,35.72716],[139.87672,35.72948]]}},{"type":"Feature","properties":{"idx":95,"road":"","cls":"tertiary","shops":0,"st_km":0.9,"mesh":"53394770"},"geometry":{"type":"LineString","coordinates":[[139.87601,35.72622],[139.87719,35.72673]]}},{"type":"Feature","properties":{"idx":197,"road":"","cls":"tertiary","shops":1,"st_km":0.54,"mesh":"53394770"},"geometry":{"type":"LineString","coordinates":[[139.87739,35.7291],[139.87674,35.73082],[139.87621,35.73252]]}},{"type":"Feature","properties":{"idx":231,"road":"","cls":"tertiary","shops":0,"st_km":0.67,"mesh":"53394780"},"geometry":{"type":"LineString","coordinates":[[139.87474,35.73549],[139.87469,35.73579],[139.87578,35.73582]]}},{"type":"Feature","properties":{"idx":199,"road":"小岩フラワーロード商店街","cls":"tertiary","shops":1,"st_km":0.53,"mesh":"53394770"},"geometry":{"type":"LineString","coordinates":[[139.8818,35.73234],[139.8814,35.73068],[139.88175,35.72832],[139.88236,35.72659],[139.88258,35.72623],[139.88275,35.72602],[139.88378,35.72522]]}},{"type":"Feature","properties":{"idx":325,"road":"","cls":"tertiary","shops":0,"st_km":1.28,"mesh":"53394760"},"geometry":{"type":"LineString","coordinates":[[139.88378,35.72522],[139.88431,35.7248],[139.88569,35.72272],[139.88859,35.71959]]}},{"type":"Feature","properties":{"idx":147,"road":"小岩中央通り五番街","cls":"tertiary","shops":0,"st_km":0.43,"mesh":"53394770"},"geometry":{"type":"LineString","coordinates":[[139.8836,35.73321],[139.88395,35.73253],[139.88411,35.73201],[139.88481,35.73059],[139.88553,35.72919],[139.88588,35.72867],[139.88635,35.72767]]}},{"type":"Feature","properties":{"idx":2177,"road":"","cls":"tertiary","shops":18,"st_km":0.05,"mesh":"53394770"},"geometry":{"type":"LineString","coordinates":[[139.88229,35.73308],[139.88221,35.733],[139.88223,35.7329]]}},{"type":"Feature","properties":{"idx":1204,"road":"小岩サンロード商店街","cls":"tertiary","shops":11,"st_km":0.2,"mesh":"53394770"},"geometry":{"type":"LineString","coordinates":[[139.8858,35.73342],[139.88474,35.73318],[139.8836,35.73321],[139.88295,35.73317],[139.88229,35.73308]]}},{"type":"Feature","properties":{"idx":385,"road":"","cls":"tertiary","shops":1,"st_km":0.48,"mesh":"53394780"},"geometry":{"type":"LineString","coordinates":[[139.87829,35.73972],[139.87996,35.74022]]}},{"type":"Feature","properties":{"idx":196,"road":"","cls":"tertiary","shops":0,"st_km":0.7,"mesh":"53394791"},"geometry":{"type":"LineString","coordinates":[[139.88796,35.74669],[139.88984,35.74689]]}},{"type":"Feature","properties":{"idx":217,"road":"小岩三中通り","cls":"tertiary","shops":0,"st_km":0.56,"mesh":"53394790"},"geometry":{"type":"LineString","coordinates":[[139.88595,35.7452],[139.88541,35.74873]]}},{"type":"Feature","properties":{"idx":210,"road":"","cls":"tertiary","shops":0,"st_km":0.62,"mesh":"53394791"},"geometry":{"type":"LineString","coordinates":[[139.88796,35.74669],[139.8876,35.74665]]}},{"type":"Feature","properties":{"idx":218,"road":"","cls":"tertiary","shops":0,"st_km":0.56,"mesh":"53394790"},"geometry":{"type":"LineString","coordinates":[[139.8876,35.74665],[139.88575,35.74646]]}},{"type":"Feature","properties":{"idx":304,"road":"","cls":"tertiary","shops":1,"st_km":0.63,"mesh":"53394790"},"geometry":{"type":"LineString","coordinates":[[139.88342,35.74751],[139.8874,35.74791]]}},{"type":"Feature","properties":{"idx":114,"road":"","cls":"tertiary","shops":0,"st_km":0.69,"mesh":"53394770"},"geometry":{"type":"LineString","coordinates":[[139.87739,35.7291],[139.87825,35.72693]]}},{"type":"Feature","properties":{"idx":581,"road":"","cls":"tertiary","shops":1,"st_km":0.56,"mesh":"53394721"},"geometry":{"type":"LineString","coordinates":[[139.89392,35.68807],[139.893,35.68976],[139.8927,35.69047],[139.89171,35.69235],[139.89101,35.69366],[139.89095,35.6937]]}},{"type":"Feature","properties":{"idx":377,"road":"","cls":"tertiary","shops":0,"st_km":1.35,"mesh":"53394741"},"geometry":{"type":"LineString","coordinates":[[139.88524,35.70471],[139.88694,35.70462],[139.88772,35.70464],[139.89142,35.70529],[139.89268,35.70553],[139.89276,35.70559]]}},{"type":"Feature","properties":{"idx":666,"road":"","cls":"tertiary","shops":1,"st_km":1.56,"mesh":"53394751"},"geometry":{"type":"LineString","coordinates":[[139.88921,35.70992],[139.88892,35.71131],[139.88825,35.71348],[139.88789,35.71505]]}},{"type":"Feature","properties":{"idx":231,"road":"","cls":"tertiary","shops":0,"st_km":1.61,"mesh":"53394750"},"geometry":{"type":"LineString","coordinates":[[139.88586,35.71125],[139.88757,35.70867]]}},{"type":"Feature","properties":{"idx":250,"road":"蔵前橋通り","cls":"primary","shops":1,"st_km":0.53,"mesh":"53394770"},"geometry":{"type":"LineString","coordinates":[[139.87694,35.73301],[139.87533,35.7319]]}},{"type":"Feature","properties":{"idx":525,"road":"","cls":"tertiary","shops":2,"st_km":2.22,"mesh":"53394740"},"geometry":{"type":"LineString","coordinates":[[139.88307,35.70771],[139.88121,35.70744],[139.88032,35.70738],[139.87575,35.7076]]}},{"type":"Feature","properties":{"idx":772,"road":"環七通り","cls":"primary","shops":0,"st_km":1.03,"mesh":"53394730"},"geometry":{"type":"LineString","coordinates":[[139.88275,35.69068],[139.88226,35.69541],[139.88172,35.69965]]}},{"type":"Feature","properties":{"idx":500,"road":"環七通り","cls":"primary","shops":1,"st_km":2.17,"mesh":"53394740"},"geometry":{"type":"LineString","coordinates":[[139.88074,35.7052],[139.88001,35.70802],[139.87934,35.71094]]}},{"type":"Feature","properties":{"idx":301,"road":"環七通り","cls":"primary_link","shops":0,"st_km":1.63,"mesh":"53394740"},"geometry":{"type":"LineString","coordinates":[[139.88172,35.69965],[139.88148,35.7015]]}},{"type":"Feature","properties":{"idx":441,"road":"環七通り","cls":"primary","shops":0,"st_km":1.58,"mesh":"53394740"},"geometry":{"type":"LineString","coordinates":[[139.88176,35.70057],[139.88188,35.69978]]}},{"type":"Feature","properties":{"idx":541,"road":"","cls":"tertiary","shops":3,"st_km":0.17,"mesh":"53394731"},"geometry":{"type":"LineString","coordinates":[[139.89811,35.68941],[139.89774,35.68996],[139.89383,35.69782]]}},{"type":"Feature","properties":{"idx":602,"road":"","cls":"tertiary","shops":0,"st_km":0.75,"mesh":"53394741"},"geometry":{"type":"LineString","coordinates":[[139.8973,35.70156],[139.89662,35.70292],[139.89623,35.70353]]}},{"type":"Feature","properties":{"idx":467,"road":"","cls":"tertiary","shops":0,"st_km":1.05,"mesh":"53394741"},"geometry":{"type":"LineString","coordinates":[[139.89264,35.70009],[139.89296,35.70176],[139.89293,35.70193],[139.893,35.70232],[139.89365,35.70508]]}},{"type":"Feature","properties":{"idx":205,"road":"","cls":"tertiary","shops":0,"st_km":1.83,"mesh":"53394750"},"geometry":{"type":"LineString","coordinates":[[139.88486,35.71433],[139.88586,35.71125]]}},{"type":"Feature","properties":{"idx":191,"road":"上平井橋江戸川大橋線（補助第288号線）","cls":"tertiary","shops":0,"st_km":1.99,"mesh":"53394750"},"geometry":{"type":"LineString","coordinates":[[139.88486,35.71433],[139.88389,35.71389],[139.88325,35.71373]]}},{"type":"Feature","properties":{"idx":94,"road":"","cls":"tertiary","shops":0,"st_km":0.28,"mesh":"53394720"},"geometry":{"type":"LineString","coordinates":[[139.88554,35.68729],[139.88548,35.68725]]}},{"type":"Feature","properties":{"idx":99,"road":"","cls":"tertiary","shops":0,"st_km":0.23,"mesh":"53394720"},"geometry":{"type":"LineString","coordinates":[[139.88548,35.68725],[139.8854,35.68714],[139.88538,35.68701],[139.88538,35.68561],[139.88533,35.68545],[139.88524,35.68536]]}},{"type":"Feature","properties":{"idx":1175,"road":"","cls":"tertiary","shops":8,"st_km":0.09,"mesh":"53394731"},"geometry":{"type":"LineString","coordinates":[[139.89905,35.69299],[139.89805,35.69265]]}},{"type":"Feature","properties":{"idx":88,"road":"","cls":"tertiary","shops":0,"st_km":0.35,"mesh":"53394720"},"geometry":{"type":"LineString","coordinates":[[139.88676,35.68788],[139.88554,35.68729]]}},{"type":"Feature","properties":{"idx":589,"road":"環七通り","cls":"primary","shops":7,"st_km":0.17,"mesh":"53394720"},"geometry":{"type":"LineString","coordinates":[[139.88302,35.68955],[139.88308,35.68893],[139.88303,35.68838],[139.88219,35.6855]]}},{"type":"Feature","properties":{"idx":312,"road":"","cls":"primary_link","shops":0,"st_km":0.82,"mesh":"53394711"},"geometry":{"type":"LineString","coordinates":[[139.89054,35.68072],[139.8903,35.68095],[139.88951,35.68196]]}},{"type":"Feature","properties":{"idx":245,"road":"環七通り","cls":"primary","shops":0,"st_km":0.84,"mesh":"53394710"},"geometry":{"type":"LineString","coordinates":[[139.88154,35.6831],[139.879,35.67749],[139.87749,35.67459]]}},{"type":"Feature","properties":{"idx":528,"road":"","cls":"tertiary","shops":7,"st_km":0.07,"mesh":"53394720"},"geometry":{"type":"LineString","coordinates":[[139.88376,35.68599],[139.88363,35.68602],[139.88363,35.68619]]}},{"type":"Feature","properties":{"idx":310,"road":"","cls":"primary_link","shops":0,"st_km":0.83,"mesh":"53394711"},"geometry":{"type":"LineString","coordinates":[[139.88971,35.68206],[139.89049,35.68103],[139.89062,35.68076]]}},{"type":"Feature","properties":{"idx":411,"road":"環七通り","cls":"primary","shops":4,"st_km":0.13,"mesh":"53394720"},"geometry":{"type":"LineString","coordinates":[[139.88178,35.68457],[139.8821,35.68551]]}},{"type":"Feature","properties":{"idx":353,"road":"","cls":"primary_link","shops":5,"st_km":0.08,"mesh":"53394720"},"geometry":{"type":"LineString","coordinates":[[139.88279,35.68723],[139.88244,35.68608]]}},{"type":"Feature","properties":{"idx":349,"road":"","cls":"tertiary","shops":0,"st_km":0.66,"mesh":"53394721"},"geometry":{"type":"LineString","coordinates":[[139.88874,35.69056],[139.89065,35.68543]]}},{"type":"Feature","properties":{"idx":790,"road":"","cls":"tertiary","shops":2,"st_km":0.54,"mesh":"53394721"},"geometry":{"type":"LineString","coordinates":[[139.89811,35.68941],[139.89767,35.68923],[139.89623,35.68888],[139.89392,35.68807]]}},{"type":"Feature","properties":{"idx":100,"road":"","cls":"primary_link","shops":0,"st_km":0.09,"mesh":"53394720"},"geometry":{"type":"LineString","coordinates":[[139.88215,35.68594],[139.88257,35.68741]]}},{"type":"Feature","properties":{"idx":720,"road":"新大橋通り","cls":"primary_link","shops":2,"st_km":0.66,"mesh":"53394711"},"geometry":{"type":"LineString","coordinates":[[139.88935,35.68212],[139.88837,35.68284]]}},{"type":"Feature","properties":{"idx":78,"road":"","cls":"primary_link","shops":0,"st_km":0.33,"mesh":"53394720"},"geometry":{"type":"LineString","coordinates":[[139.88294,35.69066],[139.8831,35.68958],[139.88316,35.68876],[139.8831,35.68832],[139.88279,35.68723]]}},{"type":"Feature","properties":{"idx":408,"road":"新荒川葛西堤防線","cls":"secondary","shops":0,"st_km":0.75,"mesh":"53394722"},"geometry":{"type":"LineString","coordinates":[[139.89478,35.68383],[139.89546,35.68397],[139.89575,35.68398],[139.8969,35.68347],[139.89855,35.68336],[139.90049,35.68345],[139.90169,35.68359],[139.90324,35.68382],[139.9053,35.68433],[139.9066,35.68493],[139.90727,35.6854],[139.90829,35.68656],[139.90869,35.68707],[139.90884,35.68733],[139.90903,35.68793],[139.90913,35.68807],[139.90934,35.68821],[139.91039,35.68855],[139.91152,35.68965],[139.9116,35.68982],[139.91165,35.69038],[139.91181,35.69069],[139.9135,35.69272],[139.91437,35.69362],[139.91514,35.69467],[139.91647,35.69617],[139.91726,35.69737],[139.91776,35.69832],[139.91781,35.69854],[139.9178,35.69884],[139.91767,35.69934],[139.91711,35.70071],[139.91662,35.70178],[139.91634,35.70213]]}},{"type":"Feature","properties":{"idx":249,"road":"新荒川葛西堤防線","cls":"secondary","shops":0,"st_km":0.71,"mesh":"53394710"},"geometry":{"type":"LineString","coordinates":[[139.88535,35.67995],[139.88621,35.68016],[139.8865,35.6803],[139.8868,35.68055]]}},{"type":"Feature","properties":{"idx":2195,"road":"","cls":"tertiary","shops":2,"st_km":0.95,"mesh":"53394732"},"geometry":{"type":"LineString","coordinates":[[139.89905,35.69299],[139.89942,35.69314],[139.89974,35.69333],[139.90691,35.69804],[139.90718,35.69827],[139.90761,35.69891],[139.90768,35.69919],[139.90784,35.69926],[139.90959,35.70199],[139.90966,35.70244],[139.90836,35.70498]]}},{"type":"Feature","properties":{"idx":138,"road":"","cls":"tertiary","shops":0,"st_km":0.63,"mesh":"53394731"},"geometry":{"type":"LineString","coordinates":[[139.89095,35.6937],[139.89088,35.69385]]}},{"type":"Feature","properties":{"idx":317,"road":"","cls":"tertiary","shops":0,"st_km":0.76,"mesh":"53394721"},"geometry":{"type":"LineString","coordinates":[[139.89095,35.6937],[139.88784,35.68927],[139.88699,35.68808],[139.88676,35.68788]]}},{"type":"Feature","properties":{"idx":1017,"road":"","cls":"tertiary","shops":2,"st_km":0.4,"mesh":"53394722"},"geometry":{"type":"LineString","coordinates":[[139.90438,35.69346],[139.9033,35.69234],[139.90295,35.69209],[139.90242,35.69176],[139.90096,35.69112],[139.89879,35.68974],[139.89811,35.68941]]}},{"type":"Feature","properties":{"idx":612,"road":"","cls":"tertiary","shops":0,"st_km":1.05,"mesh":"53394730"},"geometry":{"type":"LineString","coordinates":[[139.88786,35.70218],[139.88776,35.70143],[139.88745,35.70092],[139.88733,35.70055],[139.88721,35.69765],[139.88749,35.6953],[139.88692,35.69244],[139.88687,35.69235]]}},{"type":"Feature","properties":{"idx":261,"road":"環七通り","cls":"primary","shops":0,"st_km":1.86,"mesh":"53394750"},"geometry":{"type":"LineString","coordinates":[[139.87906,35.71217],[139.87749,35.7188],[139.87725,35.71931],[139.87676,35.7199]]}},{"type":"Feature","properties":{"idx":213,"road":"上平井橋江戸川大橋線","cls":"tertiary","shops":0,"st_km":1.81,"mesh":"53394750"},"geometry":{"type":"LineString","coordinates":[[139.87878,35.71304],[139.87538,35.71252]]}},{"type":"Feature","properties":{"idx":308,"road":"","cls":"tertiary","shops":0,"st_km":1.83,"mesh":"53394740"},"geometry":{"type":"LineString","coordinates":[[139.88442,35.70789],[139.88307,35.70771]]}},{"type":"Feature","properties":{"idx":237,"road":"","cls":"tertiary","shops":0,"st_km":1.56,"mesh":"53394750"},"geometry":{"type":"LineString","coordinates":[[139.8894,35.70888],[139.88757,35.70867],[139.88554,35.7081],[139.88442,35.70789]]}},{"type":"Feature","properties":{"idx":589,"road":"環七通り","cls":"primary","shops":7,"st_km":0.18,"mesh":"53394720"},"geometry":{"type":"LineString","coordinates":[[139.8821,35.68551],[139.88298,35.68854],[139.883,35.68893],[139.88293,35.68955]]}},{"type":"Feature","properties":{"idx":1557,"road":"","cls":"pedestrian","shops":2,"st_km":1.14,"mesh":"53394730"},"geometry":{"type":"LineString","coordinates":[[139.88062,35.69651],[139.88047,35.69653],[139.88018,35.69645],[139.88,35.69627],[139.87968,35.69615],[139.87934,35.69596],[139.87927,35.69586],[139.87976,35.6955],[139.88016,35.69546],[139.88032,35.69519],[139.88062,35.69487]]}},{"type":"Feature","properties":{"idx":606,"road":"","cls":"tertiary","shops":0,"st_km":1.05,"mesh":"53394730"},"geometry":{"type":"LineString","coordinates":[[139.87785,35.69285],[139.87461,35.69454]]}},{"type":"Feature","properties":{"idx":694,"road":"松江四中通り","cls":"tertiary","shops":1,"st_km":1.43,"mesh":"53394730"},"geometry":{"type":"LineString","coordinates":[[139.87827,35.70272],[139.87823,35.70142],[139.87838,35.7009],[139.87818,35.69982],[139.87816,35.69902],[139.87461,35.69454],[139.87401,35.69387]]}},{"type":"Feature","properties":{"idx":281,"road":"","cls":"tertiary","shops":0,"st_km":2.04,"mesh":"53394740"},"geometry":{"type":"LineString","coordinates":[[139.87706,35.70291],[139.87805,35.70471]]}},{"type":"Feature","properties":{"idx":235,"road":"","cls":"tertiary","shops":0,"st_km":1.8,"mesh":"53394760"},"geometry":{"type":"LineString","coordinates":[[139.87959,35.71718],[139.8797,35.71721]]}},{"type":"Feature","properties":{"idx":182,"road":"鹿骨街道","cls":"tertiary","shops":0,"st_km":2.17,"mesh":"53394750"},"geometry":{"type":"LineString","coordinates":[[139.882,35.71257],[139.88165,35.71256],[139.88035,35.71312],[139.88026,35.71326]]}},{"type":"Feature","properties":{"idx":186,"road":"鹿骨街道","cls":"tertiary","shops":0,"st_km":2.06,"mesh":"53394750"},"geometry":{"type":"LineString","coordinates":[[139.88328,35.7128],[139.882,35.71257]]}},{"type":"Feature","properties":{"idx":199,"road":"鹿骨街道","cls":"tertiary","shops":0,"st_km":1.89,"mesh":"53394750"},"geometry":{"type":"LineString","coordinates":[[139.88586,35.71125],[139.88462,35.71145],[139.8838,35.71168],[139.88372,35.71177],[139.8836,35.71215],[139.88348,35.7127],[139.88342,35.71278],[139.88328,35.7128]]}},{"type":"Feature","properties":{"idx":425,"road":"上平井橋江戸川大橋線（補助第288号線）","cls":"tertiary","shops":0,"st_km":1.63,"mesh":"53394751"},"geometry":{"type":"LineString","coordinates":[[139.89222,35.71603],[139.88789,35.71505]]}},{"type":"Feature","properties":{"idx":762,"road":"鹿骨街道","cls":"tertiary","shops":1,"st_km":1.34,"mesh":"53394751"},"geometry":{"type":"LineString","coordinates":[[139.88586,35.71125],[139.8867,35.71115],[139.8881,35.71116],[139.89096,35.71088],[139.89461,35.71032]]}},{"type":"Feature","properties":{"idx":448,"road":"","cls":"tertiary","shops":0,"st_km":1.57,"mesh":"53394761"},"geometry":{"type":"LineString","coordinates":[[139.88851,35.72195],[139.88887,35.72141],[139.88915,35.72056],[139.88919,35.72024],[139.88961,35.71896]]}},{"type":"Feature","properties":{"idx":571,"road":"","cls":"tertiary","shops":1,"st_km":1.07,"mesh":"53394760"},"geometry":{"type":"LineString","coordinates":[[139.88635,35.72767],[139.88723,35.72521],[139.88749,35.72423],[139.88802,35.72294],[139.88851,35.72195]]}},{"type":"Feature","properties":{"idx":112,"road":"","cls":"tertiary","shops":0,"st_km":0.71,"mesh":"53394770"},"geometry":{"type":"LineString","coordinates":[[139.87542,35.72985],[139.87518,35.72966]]}},{"type":"Feature","properties":{"idx":1172,"road":"サンロード","cls":"tertiary","shops":6,"st_km":0.69,"mesh":"53394781"},"geometry":{"type":"LineString","coordinates":[[139.89318,35.7341],[139.8858,35.73342]]}},{"type":"Feature","properties":{"idx":100,"road":"","cls":"tertiary","shops":0,"st_km":0.84,"mesh":"53394770"},"geometry":{"type":"LineString","coordinates":[[139.87719,35.72673],[139.87736,35.7268]]}},{"type":"Feature","properties":{"idx":2019,"road":"","cls":"tertiary","shops":17,"st_km":0.07,"mesh":"53394770"},"geometry":{"type":"LineString","coordinates":[[139.88223,35.7329],[139.88221,35.7328],[139.88202,35.73261]]}},{"type":"Feature","properties":{"idx":1377,"road":"蔵前橋通り","cls":"primary","shops":5,"st_km":0.36,"mesh":"53394780"},"geometry":{"type":"LineString","coordinates":[[139.87694,35.73313],[139.87897,35.7345]]}},{"type":"Feature","properties":{"idx":461,"road":"奥戸街道","cls":"primary","shops":1,"st_km":0.61,"mesh":"53394780"},"geometry":{"type":"LineString","coordinates":[[139.87152,35.73426],[139.87897,35.7345]]}},{"type":"Feature","properties":{"idx":214,"road":"","cls":"tertiary","shops":0,"st_km":0.67,"mesh":"53394780"},"geometry":{"type":"LineString","coordinates":[[139.87829,35.73972],[139.87669,35.73924],[139.87595,35.73885]]}},{"type":"Feature","properties":{"idx":1707,"road":"蔵前橋通り","cls":"primary","shops":5,"st_km":0.25,"mesh":"53394781"},"geometry":{"type":"LineString","coordinates":[[139.89486,35.73569],[139.89469,35.73575]]}},{"type":"Feature","properties":{"idx":1121,"road":"蔵前橋通り","cls":"primary","shops":4,"st_km":0.41,"mesh":"53394780"},"geometry":{"type":"LineString","coordinates":[[139.88046,35.73497],[139.8889,35.73744]]}},{"type":"Feature","properties":{"idx":250,"road":"環七通り","cls":"primary","shops":0,"st_km":1.16,"mesh":"53394700"},"geometry":{"type":"LineString","coordinates":[[139.87702,35.67376],[139.87671,35.67322]]}},{"type":"Feature","properties":{"idx":613,"road":"環七通り","cls":"primary","shops":2,"st_km":0.91,"mesh":"53394700"},"geometry":{"type":"LineString","coordinates":[[139.87671,35.67322],[139.8746,35.66962]]}},{"type":"Feature","properties":{"idx":250,"road":"環七通り","cls":"primary","shops":0,"st_km":1.16,"mesh":"53394700"},"geometry":{"type":"LineString","coordinates":[[139.87659,35.67324],[139.87691,35.6738]]}},{"type":"Feature","properties":{"idx":376,"road":"","cls":"tertiary","shops":1,"st_km":0.41,"mesh":"53394790"},"geometry":{"type":"LineString","coordinates":[[139.88207,35.74252],[139.881,35.74242],[139.87948,35.74212],[139.87813,35.74194],[139.87706,35.74211],[139.87614,35.74237]]}},{"type":"Feature","properties":{"idx":431,"road":"鎌倉かなえ通り","cls":"tertiary","shops":1,"st_km":0.36,"mesh":"53394780"},"geometry":{"type":"LineString","coordinates":[[139.87909,35.74286],[139.8795,35.74195],[139.88014,35.74079],[139.88032,35.74035]]}},{"type":"Feature","properties":{"idx":273,"road":"","cls":"tertiary","shops":1,"st_km":0.68,"mesh":"53394790"},"geometry":{"type":"LineString","coordinates":[[139.8757,35.74482],[139.87557,35.74758]]}},{"type":"Feature","properties":{"idx":342,"road":"","cls":"tertiary","shops":1,"st_km":0.51,"mesh":"53394790"},"geometry":{"type":"LineString","coordinates":[[139.87842,35.74231],[139.8777,35.74112]]}},{"type":"Feature","properties":{"idx":230,"road":"","cls":"tertiary","shops":0,"st_km":0.5,"mesh":"53394790"},"geometry":{"type":"LineString","coordinates":[[139.8784,35.74421],[139.87814,35.74403],[139.87828,35.74344],[139.87842,35.74231]]}},{"type":"Feature","properties":{"idx":239,"road":"","cls":"tertiary","shops":0,"st_km":0.39,"mesh":"53394790"},"geometry":{"type":"LineString","coordinates":[[139.87638,35.75037],[139.87579,35.74918],[139.87561,35.74898]]}},{"type":"Feature","properties":{"idx":218,"road":"鎌倉かなえ通り","cls":"tertiary","shops":0,"st_km":0.56,"mesh":"53394790"},"geometry":{"type":"LineString","coordinates":[[139.87739,35.74618],[139.87747,35.74616],[139.87784,35.74554],[139.87851,35.74394],[139.879,35.74301]]}},{"type":"Feature","properties":{"idx":219,"road":"","cls":"tertiary","shops":0,"st_km":0.48,"mesh":"53394790"},"geometry":{"type":"LineString","coordinates":[[139.87561,35.74898],[139.87665,35.74772],[139.87694,35.74728],[139.87709,35.74692]]}},{"type":"Feature","properties":{"idx":190,"road":"","cls":"tertiary","shops":0,"st_km":0.7,"mesh":"53394790"},"geometry":{"type":"LineString","coordinates":[[139.8758,35.74384],[139.87646,35.74386]]}},{"type":"Feature","properties":{"idx":314,"road":"","cls":"tertiary","shops":1,"st_km":0.53,"mesh":"53394790"},"geometry":{"type":"LineString","coordinates":[[139.87814,35.75036],[139.87811,35.75005],[139.87816,35.74961],[139.87869,35.74808],[139.87927,35.74531],[139.87933,35.74342],[139.87927,35.74319],[139.87909,35.74286]]}},{"type":"Feature","properties":{"idx":218,"road":"","cls":"tertiary","shops":0,"st_km":0.58,"mesh":"53394791"},"geometry":{"type":"LineString","coordinates":[[139.88632,35.74275],[139.88763,35.74288],[139.88898,35.7427],[139.88954,35.74276],[139.88988,35.74285],[139.8914,35.74309],[139.89366,35.74353]]}},{"type":"Feature","properties":{"idx":332,"road":"","cls":"tertiary","shops":1,"st_km":0.56,"mesh":"53394791"},"geometry":{"type":"LineString","coordinates":[[139.89092,35.7457],[139.88595,35.7452]]}},{"type":"Feature","properties":{"idx":312,"road":"","cls":"tertiary","shops":1,"st_km":0.54,"mesh":"53394790"},"geometry":{"type":"LineString","coordinates":[[139.88546,35.74835],[139.88332,35.74814]]}},{"type":"Feature","properties":{"idx":878,"road":"鹿骨街道","cls":"tertiary","shops":1,"st_km":0.35,"mesh":"53394752"},"geometry":{"type":"LineString","coordinates":[[139.9006,35.70939],[139.90785,35.70916]]}},{"type":"Feature","properties":{"idx":283,"road":"","cls":"tertiary","shops":0,"st_km":2.08,"mesh":"53394740"},"geometry":{"type":"LineString","coordinates":[[139.87541,35.70614],[139.87758,35.70608]]}},{"type":"Feature","properties":{"idx":428,"road":"","cls":"tertiary","shops":0,"st_km":1.6,"mesh":"53394761"},"geometry":{"type":"LineString","coordinates":[[139.89134,35.71712],[139.8926,35.7174],[139.89419,35.71793],[139.89519,35.71815]]}},{"type":"Feature","properties":{"idx":564,"road":"","cls":"tertiary","shops":2,"st_km":1.06,"mesh":"53394722"},"geometry":{"type":"LineString","coordinates":[[139.90049,35.68345],[139.90046,35.68433],[139.90039,35.68481]]}},{"type":"Feature","properties":{"idx":300,"road":"","cls":"tertiary","shops":0,"st_km":0.98,"mesh":"53394722"},"geometry":{"type":"LineString","coordinates":[[139.90398,35.68399],[139.9033,35.68514]]}},{"type":"Feature","properties":{"idx":289,"road":"","cls":"tertiary","shops":0,"st_km":1.03,"mesh":"53394722"},"geometry":{"type":"LineString","coordinates":[[139.90139,35.68584],[139.902,35.68497],[139.90221,35.68455],[139.90229,35.68426],[139.90245,35.68391],[139.90248,35.68369]]}},{"type":"Feature","properties":{"idx":425,"road":"","cls":"tertiary","shops":2,"st_km":0.19,"mesh":"53394731"},"geometry":{"type":"LineString","coordinates":[[139.90014,35.69191],[139.89982,35.69202],[139.89943,35.69229],[139.89905,35.69299]]}},{"type":"Feature","properties":{"idx":411,"road":"","cls":"tertiary","shops":0,"st_km":1.67,"mesh":"53394761"},"geometry":{"type":"LineString","coordinates":[[139.89293,35.72157],[139.89486,35.71601]]}},{"type":"Feature","properties":{"idx":407,"road":"","cls":"tertiary","shops":1,"st_km":0.3,"mesh":"53394742"},"geometry":{"type":"LineString","coordinates":[[139.90446,35.70564],[139.9092,35.70728],[139.90981,35.70765]]}},{"type":"Feature","properties":{"idx":254,"road":"","cls":"tertiary","shops":0,"st_km":0.39,"mesh":"53394790"},"geometry":{"type":"LineString","coordinates":[[139.88149,35.74392],[139.8823,35.74354],[139.89104,35.74444],[139.89189,35.74455],[139.89328,35.74481]]}},{"type":"Feature","properties":{"idx":214,"road":"親水さくら街道","cls":"tertiary","shops":0,"st_km":0.6,"mesh":"53394791"},"geometry":{"type":"LineString","coordinates":[[139.88881,35.74209],[139.89166,35.74247]]}},{"type":"Feature","properties":{"idx":193,"road":"","cls":"tertiary","shops":0,"st_km":0.66,"mesh":"53394791"},"geometry":{"type":"LineString","coordinates":[[139.89366,35.74353],[139.89458,35.74382]]}},{"type":"Feature","properties":{"idx":250,"road":"蔵前橋通り","cls":"primary","shops":1,"st_km":0.53,"mesh":"53394770"},"geometry":{"type":"LineString","coordinates":[[139.87528,35.73196],[139.87694,35.73313]]}},{"type":"Feature","properties":{"idx":262,"road":"","cls":"tertiary","shops":0,"st_km":0.54,"mesh":"53394780"},"geometry":{"type":"LineString","coordinates":[[139.87621,35.73252],[139.87602,35.73306],[139.87539,35.7344]]}},{"type":"Feature","properties":{"idx":321,"road":"","cls":"tertiary","shops":0,"st_km":1.3,"mesh":"53394760"},"geometry":{"type":"LineString","coordinates":[[139.87592,35.72548],[139.87613,35.72427],[139.87637,35.72341],[139.87698,35.72168],[139.87712,35.72114],[139.87749,35.71952],[139.87735,35.71945]]}},{"type":"Feature","properties":{"idx":88,"road":"","cls":"tertiary","shops":0,"st_km":0.99,"mesh":"53394770"},"geometry":{"type":"LineString","coordinates":[[139.87592,35.72548],[139.87584,35.72583],[139.8759,35.72611],[139.87601,35.72622]]}},{"type":"Feature","properties":{"idx":260,"road":"環七通り","cls":"primary","shops":0,"st_km":1.86,"mesh":"53394750"},"geometry":{"type":"LineString","coordinates":[[139.87683,35.71994],[139.87732,35.71935],[139.87757,35.71881],[139.87915,35.71218]]}},{"type":"Feature","properties":{"idx":217,"road":"鹿骨街道","cls":"tertiary","shops":0,"st_km":1.78,"mesh":"53394750"},"geometry":{"type":"LineString","coordinates":[[139.87991,35.7132],[139.87989,35.7133],[139.87984,35.71334],[139.87419,35.71572]]}},{"type":"Feature","properties":{"idx":670,"road":"環七通り","cls":"primary","shops":2,"st_km":2.16,"mesh":"53394740"},"geometry":{"type":"LineString","coordinates":[[139.87944,35.71097],[139.88087,35.70524]]}},{"type":"Feature","properties":{"idx":283,"road":"","cls":"tertiary","shops":0,"st_km":0.46,"mesh":"53394780"},"geometry":{"type":"LineString","coordinates":[[139.88089,35.73939],[139.88196,35.7372],[139.88216,35.73644],[139.88247,35.73556]]}},{"type":"Feature","properties":{"idx":1010,"road":"","cls":"tertiary","shops":6,"st_km":0.58,"mesh":"53394780"},"geometry":{"type":"LineString","coordinates":[[139.88046,35.73497],[139.87784,35.74074],[139.8777,35.74112]]}},{"type":"Feature","properties":{"idx":323,"road":"","cls":"tertiary","shops":1,"st_km":1.06,"mesh":"53394700"},"geometry":{"type":"LineString","coordinates":[[139.88343,35.67029],[139.88312,35.66985],[139.88282,35.66969],[139.88214,35.66951],[139.88187,35.66931],[139.8813,35.669]]}},{"type":"Feature","properties":{"idx":425,"road":"","cls":"tertiary","shops":0,"st_km":0.68,"mesh":"53394752"},"geometry":{"type":"LineString","coordinates":[[139.89896,35.71186],[139.90426,35.71215]]}},{"type":"Feature","properties":{"idx":2945,"road":"","cls":"tertiary","shops":7,"st_km":1.19,"mesh":"53394733"},"geometry":{"type":"LineString","coordinates":[[139.91276,35.70026],[139.91334,35.70014],[139.91349,35.70004],[139.9136,35.69986],[139.91395,35.6996],[139.91446,35.6996],[139.91487,35.69951],[139.91596,35.69878]]}},{"type":"Feature","properties":{"idx":944,"road":"","cls":"tertiary","shops":1,"st_km":0.28,"mesh":"53394752"},"geometry":{"type":"LineString","coordinates":[[139.89826,35.70787],[139.90031,35.70841],[139.90738,35.70862]]}},{"type":"Feature","properties":{"idx":431,"road":"","cls":"tertiary","shops":1,"st_km":0.25,"mesh":"53394742"},"geometry":{"type":"LineString","coordinates":[[139.90757,35.70807],[139.90692,35.70804],[139.90348,35.70764],[139.89592,35.70693]]}},{"type":"Feature","properties":{"idx":236,"road":"","cls":"tertiary","shops":0,"st_km":0.44,"mesh":"53394742"},"geometry":{"type":"LineString","coordinates":[[139.90545,35.70923],[139.90551,35.70786],[139.909,35.70117],[139.90904,35.70112],[139.9101,35.70086],[139.91224,35.69967],[139.91246,35.69962]]}},{"type":"Feature","properties":{"idx":441,"road":"","cls":"tertiary","shops":0,"st_km":1.55,"mesh":"53394761"},"geometry":{"type":"LineString","coordinates":[[139.8932,35.71759],[139.89355,35.71663]]}},{"type":"Feature","properties":{"idx":413,"road":"","cls":"tertiary","shops":0,"st_km":0.72,"mesh":"53394752"},"geometry":{"type":"LineString","coordinates":[[139.8995,35.71416],[139.9006,35.70939]]}},{"type":"Feature","properties":{"idx":512,"road":"","cls":"tertiary","shops":0,"st_km":0.49,"mesh":"53394752"},"geometry":{"type":"LineString","coordinates":[[139.90217,35.70934],[139.90206,35.71119]]}},{"type":"Feature","properties":{"idx":975,"road":"","cls":"tertiary","shops":2,"st_km":0.54,"mesh":"53394752"},"geometry":{"type":"LineString","coordinates":[[139.9021,35.71035],[139.8996,35.71023]]}},{"type":"Feature","properties":{"idx":980,"road":"","cls":"tertiary","shops":2,"st_km":0.44,"mesh":"53394722"},"geometry":{"type":"LineString","coordinates":[[139.90257,35.68952],[139.90157,35.69056],[139.90088,35.69153],[139.90057,35.69176],[139.90014,35.69191]]}},{"type":"Feature","properties":{"idx":297,"road":"","cls":"tertiary","shops":0,"st_km":0.21,"mesh":"53394742"},"geometry":{"type":"LineString","coordinates":[[139.90933,35.70637],[139.9001,35.70324],[139.8969,35.70239]]}},{"type":"Feature","properties":{"idx":175,"road":"","cls":"tertiary","shops":0,"st_km":0.38,"mesh":"53394731"},"geometry":{"type":"LineString","coordinates":[[139.89325,35.69356],[139.89432,35.6914]]}},{"type":"Feature","properties":{"idx":503,"road":"","cls":"tertiary","shops":0,"st_km":1.39,"mesh":"53394761"},"geometry":{"type":"LineString","coordinates":[[139.89067,35.72381],[139.89026,35.72239],[139.88993,35.7223]]}},{"type":"Feature","properties":{"idx":469,"road":"","cls":"pedestrian","shops":0,"st_km":0.83,"mesh":"53394722"},"geometry":{"type":"LineString","coordinates":[[139.90224,35.68664],[139.90323,35.68758]]}},{"type":"Feature","properties":{"idx":419,"road":"篠崎街道","cls":"tertiary","shops":1,"st_km":0.92,"mesh":"53394721"},"geometry":{"type":"LineString","coordinates":[[139.89478,35.68383],[139.89477,35.68396],[139.89482,35.68405],[139.89518,35.68441],[139.89565,35.68479],[139.89647,35.68524],[139.89721,35.68577],[139.8976,35.68616],[139.89812,35.68643]]}},{"type":"Feature","properties":{"idx":433,"road":"","cls":"tertiary","shops":0,"st_km":0.44,"mesh":"53394721"},"geometry":{"type":"LineString","coordinates":[[139.89744,35.69063],[139.89329,35.68925]]}},{"type":"Feature","properties":{"idx":511,"road":"","cls":"tertiary","shops":1,"st_km":0.68,"mesh":"53394721"},"geometry":{"type":"LineString","coordinates":[[139.88959,35.68253],[139.88962,35.68325],[139.88992,35.68383],[139.89064,35.68423],[139.89163,35.68442]]}},{"type":"Feature","properties":{"idx":1129,"road":"","cls":"tertiary","shops":1,"st_km":1.02,"mesh":"53394733"},"geometry":{"type":"LineString","coordinates":[[139.91664,35.69639],[139.91476,35.69753]]}},{"type":"Feature","properties":{"idx":264,"road":"環七通り","cls":"primary_link","shops":0,"st_km":1.89,"mesh":"53394740"},"geometry":{"type":"LineString","coordinates":[[139.88087,35.70524],[139.88161,35.70246]]}},{"type":"Feature","properties":{"idx":579,"road":"","cls":"tertiary","shops":0,"st_km":0.36,"mesh":"53394752"},"geometry":{"type":"LineString","coordinates":[[139.90654,35.70799],[139.90644,35.7092]]}},{"type":"Feature","properties":{"idx":551,"road":"","cls":"tertiary","shops":0,"st_km":1.23,"mesh":"53394751"},"geometry":{"type":"LineString","coordinates":[[139.8894,35.70888],[139.89223,35.7092]]}},{"type":"Feature","properties":{"idx":455,"road":"","cls":"tertiary","shops":0,"st_km":0.61,"mesh":"53394752"},"geometry":{"type":"LineString","coordinates":[[139.89928,35.71104],[139.90295,35.71124]]}},{"type":"Feature","properties":{"idx":718,"road":"","cls":"tertiary","shops":0,"st_km":0.89,"mesh":"53394751"},"geometry":{"type":"LineString","coordinates":[[139.89223,35.7092],[139.89493,35.70948],[139.89642,35.70954],[139.89755,35.70972],[139.89761,35.70985]]}},{"type":"Feature","properties":{"idx":1455,"road":"","cls":"tertiary","shops":6,"st_km":0.22,"mesh":"53394780"},"geometry":{"type":"LineString","coordinates":[[139.8805,35.73489],[139.88046,35.73497]]}},{"type":"Feature","properties":{"idx":281,"road":"","cls":"pedestrian","shops":0,"st_km":0.59,"mesh":"53394742"},"geometry":{"type":"LineString","coordinates":[[139.91037,35.70623],[139.91047,35.70589]]}},{"type":"Feature","properties":{"idx":282,"road":"","cls":"pedestrian","shops":0,"st_km":0.59,"mesh":"53394742"},"geometry":{"type":"LineString","coordinates":[[139.91036,35.70625],[139.91037,35.70623]]}},{"type":"Feature","properties":{"idx":280,"road":"","cls":"pedestrian","shops":0,"st_km":0.6,"mesh":"53394742"},"geometry":{"type":"LineString","coordinates":[[139.91047,35.70589],[139.91048,35.70586]]}},{"type":"Feature","properties":{"idx":1070,"road":"","cls":"tertiary","shops":8,"st_km":0.06,"mesh":"53394770"},"geometry":{"type":"LineString","coordinates":[[139.88168,35.73268],[139.88169,35.73274],[139.8818,35.73282]]}},{"type":"Feature","properties":{"idx":827,"road":"","cls":"tertiary","shops":6,"st_km":0.1,"mesh":"53394770"},"geometry":{"type":"LineString","coordinates":[[139.8818,35.73234],[139.88171,35.73259]]}},{"type":"Feature","properties":{"idx":257,"road":"","cls":"tertiary","shops":0,"st_km":1.64,"mesh":"53394760"},"geometry":{"type":"LineString","coordinates":[[139.88407,35.7191],[139.88397,35.71884],[139.88382,35.71863],[139.88364,35.71815]]}},{"type":"Feature","properties":{"idx":1072,"road":"","cls":"tertiary","shops":1,"st_km":0.57,"mesh":"53394741"},"geometry":{"type":"LineString","coordinates":[[139.89935,35.70208],[139.89868,35.70378]]}},{"type":"Feature","properties":{"idx":869,"road":"","cls":"tertiary","shops":4,"st_km":0.72,"mesh":"53394700"},"geometry":{"type":"LineString","coordinates":[[139.87857,35.66842],[139.87752,35.66867],[139.87694,35.66859],[139.87653,35.66841]]}},{"type":"Feature","properties":{"idx":310,"road":"","cls":"tertiary","shops":0,"st_km":0.17,"mesh":"53394742"},"geometry":{"type":"LineString","coordinates":[[139.90423,35.70607],[139.9037,35.70711],[139.90348,35.70764],[139.9031,35.7093]]}},{"type":"Feature","properties":{"idx":870,"road":"","cls":"tertiary","shops":0,"st_km":1.25,"mesh":"53394732"},"geometry":{"type":"LineString","coordinates":[[139.91176,35.698],[139.91265,35.69708],[139.91263,35.69646]]}},{"type":"Feature","properties":{"idx":968,"road":"葛西橋通り","cls":"primary","shops":3,"st_km":0.65,"mesh":"53394700"},"geometry":{"type":"LineString","coordinates":[[139.87356,35.66769],[139.88343,35.666]]}},{"type":"Feature","properties":{"idx":196,"road":"","cls":"tertiary","shops":0,"st_km":0.84,"mesh":"53394710"},"geometry":{"type":"LineString","coordinates":[[139.87885,35.67745],[139.88036,35.67801],[139.8827,35.67896],[139.8837,35.67976]]}},{"type":"Feature","properties":{"idx":268,"road":"","cls":"tertiary","shops":0,"st_km":0.52,"mesh":"53394780"},"geometry":{"type":"LineString","coordinates":[[139.87861,35.73648],[139.87649,35.73584],[139.87578,35.73582]]}},{"type":"Feature","properties":{"idx":733,"road":"","cls":"pedestrian","shops":1,"st_km":0.15,"mesh":"53394780"},"geometry":{"type":"LineString","coordinates":[[139.88371,35.74139],[139.88393,35.74086],[139.88411,35.74092],[139.88433,35.74044]]}},{"type":"Feature","properties":{"idx":1909,"road":"","cls":"tertiary","shops":9,"st_km":0.07,"mesh":"53394742"},"geometry":{"type":"LineString","coordinates":[[139.90446,35.70564],[139.90403,35.70554],[139.90391,35.70572],[139.90399,35.70586]]}},{"type":"Feature","properties":{"idx":338,"road":"篠崎街道","cls":"tertiary","shops":0,"st_km":0.7,"mesh":"53394721"},"geometry":{"type":"LineString","coordinates":[[139.8996,35.68778],[139.89907,35.6874],[139.89887,35.68709],[139.89812,35.68643]]}},{"type":"Feature","properties":{"idx":594,"road":"","cls":"pedestrian","shops":1,"st_km":2.04,"mesh":"53394740"},"geometry":{"type":"LineString","coordinates":[[139.87621,35.70612],[139.87632,35.70684]]}},{"type":"Feature","properties":{"idx":801,"road":"柴又街道","cls":"secondary","shops":1,"st_km":1.48,"mesh":"53394761"},"geometry":{"type":"LineString","coordinates":[[139.8858,35.73342],[139.88844,35.72643],[139.89252,35.71524],[139.89461,35.71032]]}},{"type":"Feature","properties":{"idx":672,"road":"柴又街道","cls":"secondary","shops":3,"st_km":0.46,"mesh":"53394790"},"geometry":{"type":"LineString","coordinates":[[139.87926,35.75001],[139.88018,35.74703],[139.88258,35.74131]]}},{"type":"Feature","properties":{"idx":257,"road":"","cls":"tertiary","shops":0,"st_km":1.64,"mesh":"53394760"},"geometry":{"type":"LineString","coordinates":[[139.88095,35.7225],[139.88184,35.72118],[139.88364,35.71815],[139.88486,35.71433]]}},{"type":"Feature","properties":{"idx":305,"road":"上平井橋江戸川大橋線（補助第288号線）","cls":"tertiary","shops":1,"st_km":1.85,"mesh":"53394750"},"geometry":{"type":"LineString","coordinates":[[139.88789,35.71505],[139.88486,35.71433]]}},{"type":"Feature","properties":{"idx":848,"road":"今井街道","cls":"tertiary","shops":13,"st_km":0.1,"mesh":"53394720"},"geometry":{"type":"LineString","coordinates":[[139.88279,35.68723],[139.88398,35.6863]]}},{"type":"Feature","properties":{"idx":589,"road":"今井街道","cls":"tertiary","shops":9,"st_km":0.15,"mesh":"53394720"},"geometry":{"type":"LineString","coordinates":[[139.88257,35.68741],[139.88279,35.68723]]}},{"type":"Feature","properties":{"idx":1128,"road":"","cls":"tertiary","shops":8,"st_km":0.13,"mesh":"53394731"},"geometry":{"type":"LineString","coordinates":[[139.89762,35.6925],[139.89665,35.69218]]}},{"type":"Feature","properties":{"idx":766,"road":"環七通り","cls":"primary","shops":3,"st_km":0.91,"mesh":"53394700"},"geometry":{"type":"LineString","coordinates":[[139.8745,35.66967],[139.87659,35.67324]]}},{"type":"Feature","properties":{"idx":352,"road":"環七通り","cls":"primary","shops":3,"st_km":0.11,"mesh":"53394720"},"geometry":{"type":"LineString","coordinates":[[139.88219,35.6855],[139.88208,35.68495]]}},{"type":"Feature","properties":{"idx":1076,"road":"篠崎街道","cls":"tertiary","shops":4,"st_km":0.64,"mesh":"53394721"},"geometry":{"type":"LineString","coordinates":[[139.90004,35.68794],[139.8996,35.68778]]}},{"type":"Feature","properties":{"idx":687,"road":"","cls":"tertiary","shops":10,"st_km":0.09,"mesh":"53394720"},"geometry":{"type":"LineString","coordinates":[[139.88363,35.68619],[139.88381,35.68621],[139.88398,35.6863]]}},{"type":"Feature","properties":{"idx":367,"road":"","cls":"tertiary","shops":0,"st_km":0.61,"mesh":"53394721"},"geometry":{"type":"LineString","coordinates":[[139.89665,35.69218],[139.89251,35.69081],[139.88898,35.68994],[139.88831,35.68994],[139.88696,35.69011]]}},{"type":"Feature","properties":{"idx":123,"road":"","cls":"tertiary","shops":0,"st_km":0.75,"mesh":"53394731"},"geometry":{"type":"LineString","coordinates":[[139.89374,35.69799],[139.893,35.6995],[139.89264,35.70009]]}},{"type":"Feature","properties":{"idx":942,"road":"","cls":"tertiary","shops":6,"st_km":0.09,"mesh":"53394731"},"geometry":{"type":"LineString","coordinates":[[139.89805,35.69265],[139.89762,35.6925]]}},{"type":"Feature","properties":{"idx":347,"road":"","cls":"tertiary","shops":1,"st_km":1.83,"mesh":"53394760"},"geometry":{"type":"LineString","coordinates":[[139.88789,35.71505],[139.88744,35.71696],[139.88736,35.71754],[139.88859,35.71959]]}},{"type":"Feature","properties":{"idx":77,"road":"","cls":"primary_link","shops":0,"st_km":0.34,"mesh":"53394720"},"geometry":{"type":"LineString","coordinates":[[139.88257,35.68741],[139.88285,35.68834],[139.88292,35.68875],[139.88275,35.69068]]}},{"type":"Feature","properties":{"idx":208,"road":"","cls":"tertiary","shops":1,"st_km":0.62,"mesh":"53394731"},"geometry":{"type":"LineString","coordinates":[[139.89383,35.69782],[139.89374,35.69799]]}},{"type":"Feature","properties":{"idx":3272,"road":"篠崎街道","cls":"tertiary","shops":5,"st_km":1.16,"mesh":"53394732"},"geometry":{"type":"LineString","coordinates":[[139.91276,35.70026],[139.91254,35.69988],[139.91193,35.69823],[139.91159,35.69772],[139.91097,35.69642],[139.90933,35.69421],[139.90884,35.69371],[139.90823,35.69347],[139.90703,35.69266],[139.90681,35.69248],[139.90661,35.69217],[139.9063,35.69195]]}},{"type":"Feature","properties":{"idx":474,"road":"","cls":"primary_link","shops":7,"st_km":0.04,"mesh":"53394720"},"geometry":{"type":"LineString","coordinates":[[139.88244,35.68608],[139.88238,35.68587]]}},{"type":"Feature","properties":{"idx":352,"road":"","cls":"primary_link","shops":5,"st_km":0.09,"mesh":"53394720"},"geometry":{"type":"LineString","coordinates":[[139.88235,35.68578],[139.88208,35.68495]]}},{"type":"Feature","properties":{"idx":1189,"road":"蔵前橋通り","cls":"primary","shops":4,"st_km":0.35,"mesh":"53394780"},"geometry":{"type":"LineString","coordinates":[[139.87911,35.73447],[139.87887,35.73435],[139.87694,35.73301]]}},{"type":"Feature","properties":{"idx":2080,"road":"","cls":"tertiary","shops":17,"st_km":0.04,"mesh":"53394770"},"geometry":{"type":"LineString","coordinates":[[139.8818,35.73282],[139.88219,35.73307]]}},{"type":"Feature","properties":{"idx":928,"road":"","cls":"tertiary","shops":7,"st_km":0.1,"mesh":"53394770"},"geometry":{"type":"LineString","coordinates":[[139.88191,35.73253],[139.8818,35.73234]]}},{"type":"Feature","properties":{"idx":245,"road":"環七通り","cls":"primary","shops":3,"st_km":0.46,"mesh":"53394720"},"geometry":{"type":"LineString","coordinates":[[139.88293,35.68955],[139.88275,35.69068]]}},{"type":"Feature","properties":{"idx":239,"road":"環七通り","cls":"primary","shops":0,"st_km":2.04,"mesh":"53394750"},"geometry":{"type":"LineString","coordinates":[[139.87915,35.71218],[139.87944,35.71097]]}},{"type":"Feature","properties":{"idx":179,"road":"新荒川葛西堤防線","cls":"secondary","shops":0,"st_km":1.1,"mesh":"53394710"},"geometry":{"type":"LineString","coordinates":[[139.88453,35.6744],[139.88468,35.67492],[139.88486,35.67499],[139.88493,35.67508],[139.88511,35.67567],[139.88535,35.67683],[139.88536,35.67808]]}},{"type":"Feature","properties":{"idx":219,"road":"新荒川葛西堤防線","cls":"secondary","shops":0,"st_km":0.85,"mesh":"53394710"},"geometry":{"type":"LineString","coordinates":[[139.88536,35.67808],[139.88533,35.67896]]}},{"type":"Feature","properties":{"idx":240,"road":"新荒川葛西堤防線","cls":"secondary","shops":0,"st_km":0.75,"mesh":"53394710"},"geometry":{"type":"LineString","coordinates":[[139.88533,35.67896],[139.88526,35.67958],[139.88527,35.67995]]}},{"type":"Feature","properties":{"idx":517,"road":"","cls":"tertiary","shops":1,"st_km":0.82,"mesh":"53394722"},"geometry":{"type":"LineString","coordinates":[[139.90319,35.68532],[139.90224,35.68664],[139.90004,35.68794]]}},{"type":"Feature","properties":{"idx":275,"road":"","cls":"tertiary","shops":3,"st_km":0.88,"mesh":"53394731"},"geometry":{"type":"LineString","coordinates":[[139.89056,35.69749],[139.89037,35.69967]]}},{"type":"Feature","properties":{"idx":118,"road":"","cls":"tertiary","shops":0,"st_km":0.79,"mesh":"53394731"},"geometry":{"type":"LineString","coordinates":[[139.89055,35.69733],[139.89056,35.69749]]}},{"type":"Feature","properties":{"idx":288,"road":"","cls":"tertiary","shops":0,"st_km":1.03,"mesh":"53394722"},"geometry":{"type":"LineString","coordinates":[[139.90319,35.68532],[139.9033,35.68514]]}},{"type":"Feature","properties":{"idx":997,"road":"","cls":"tertiary","shops":3,"st_km":0.53,"mesh":"53394721"},"geometry":{"type":"LineString","coordinates":[[139.90004,35.68794],[139.89956,35.68849],[139.8993,35.68872],[139.89845,35.68915],[139.89811,35.68941]]}},{"type":"Feature","properties":{"idx":577,"road":"篠崎街道","cls":"secondary","shops":0,"st_km":1.36,"mesh":"53394761"},"geometry":{"type":"LineString","coordinates":[[139.90785,35.70916],[139.90789,35.70948],[139.90783,35.70964],[139.90739,35.71003],[139.90722,35.71035],[139.90719,35.71064],[139.90724,35.71122],[139.90717,35.71145],[139.90697,35.71179],[139.90618,35.71274],[139.90601,35.71316],[139.90589,35.71332],[139.9052,35.71389],[139.90236,35.71593],[139.90115,35.71702],[139.89851,35.71925],[139.8975,35.72025],[139.89654,35.72155],[139.89623,35.72209],[139.89592,35.72276],[139.89545,35.72444],[139.89457,35.72675],[139.89424,35.7278],[139.89395,35.72942],[139.89383,35.73249],[139.8934,35.73429]]}},{"type":"Feature","properties":{"idx":418,"road":"江戸川堤防線","cls":"secondary","shops":0,"st_km":0.3,"mesh":"53394781"},"geometry":{"type":"LineString","coordinates":[[139.8934,35.73429],[139.89275,35.73653],[139.89269,35.73707],[139.89268,35.73772],[139.89248,35.7384],[139.89248,35.73905],[139.89211,35.73957],[139.89197,35.74012],[139.89185,35.74189],[139.89166,35.74247]]}},{"type":"Feature","properties":{"idx":430,"road":"","cls":"tertiary","shops":0,"st_km":0.45,"mesh":"53394721"},"geometry":{"type":"LineString","coordinates":[[139.89568,35.68869],[139.89432,35.6914]]}},{"type":"Feature","properties":{"idx":1903,"road":"柴又街道","cls":"secondary","shops":7,"st_km":0.72,"mesh":"53394722"},"geometry":{"type":"LineString","coordinates":[[139.90153,35.69451],[139.90199,35.69388],[139.9024,35.69349],[139.90927,35.68818]]}},{"type":"Feature","properties":{"idx":264,"road":"","cls":"tertiary","shops":0,"st_km":1.59,"mesh":"53394760"},"geometry":{"type":"LineString","coordinates":[[139.87749,35.71952],[139.87754,35.71932]]}},{"type":"Feature","properties":{"idx":413,"road":"","cls":"tertiary","shops":0,"st_km":1.71,"mesh":"53394761"},"geometry":{"type":"LineString","coordinates":[[139.8919,35.72158],[139.89209,35.72082],[139.89237,35.72008],[139.893,35.72027],[139.8929,35.72054]]}},{"type":"Feature","properties":{"idx":264,"road":"","cls":"tertiary","shops":0,"st_km":2.22,"mesh":"53394740"},"geometry":{"type":"LineString","coordinates":[[139.88055,35.70642],[139.87758,35.70608]]}},{"type":"Feature","properties":{"idx":478,"road":"","cls":"tertiary","shops":1,"st_km":0.91,"mesh":"53394722"},"geometry":{"type":"LineString","coordinates":[[139.90039,35.68481],[139.90061,35.68508],[139.90224,35.68664]]}},{"type":"Feature","properties":{"idx":592,"road":"環七通り","cls":"primary","shops":1,"st_km":1.8,"mesh":"53394740"},"geometry":{"type":"LineString","coordinates":[[139.88167,35.70057],[139.88145,35.70244],[139.88094,35.70451]]}},{"type":"Feature","properties":{"idx":396,"road":"環七通り","cls":"primary","shops":0,"st_km":1.79,"mesh":"53394740"},"geometry":{"type":"LineString","coordinates":[[139.88103,35.70453],[139.88151,35.70261],[139.88176,35.70057]]}},{"type":"Feature","properties":{"idx":769,"road":"環七通り","cls":"primary","shops":0,"st_km":1.03,"mesh":"53394730"},"geometry":{"type":"LineString","coordinates":[[139.88188,35.69978],[139.88227,35.6968],[139.88294,35.69066]]}},{"type":"Feature","properties":{"idx":495,"road":"","cls":"tertiary","shops":2,"st_km":1.71,"mesh":"53394760"},"geometry":{"type":"LineString","coordinates":[[139.88364,35.71815],[139.88482,35.71801]]}},{"type":"Feature","properties":{"idx":640,"road":"","cls":"tertiary","shops":1,"st_km":1.6,"mesh":"53394761"},"geometry":{"type":"LineString","coordinates":[[139.89421,35.72096],[139.89583,35.71633]]}},{"type":"Feature","properties":{"idx":385,"road":"","cls":"tertiary","shops":0,"st_km":1.32,"mesh":"53394741"},"geometry":{"type":"LineString","coordinates":[[139.89037,35.69967],[139.89015,35.70212],[139.88898,35.7064],[139.889,35.70685],[139.88929,35.70767],[139.88943,35.70852],[139.88921,35.70992]]}},{"type":"Feature","properties":{"idx":245,"road":"環七通り","cls":"primary","shops":3,"st_km":0.46,"mesh":"53394720"},"geometry":{"type":"LineString","coordinates":[[139.88294,35.69066],[139.88302,35.68955]]}},{"type":"Feature","properties":{"idx":234,"road":"","cls":"tertiary","shops":0,"st_km":0.65,"mesh":"53394710"},"geometry":{"type":"LineString","coordinates":[[139.88521,35.68092],[139.88531,35.68077],[139.88527,35.67995]]}},{"type":"Feature","properties":{"idx":650,"road":"","cls":"tertiary","shops":1,"st_km":0.66,"mesh":"53394752"},"geometry":{"type":"LineString","coordinates":[[139.90295,35.71124],[139.90292,35.71208],[139.90282,35.71236],[139.90287,35.71286]]}},{"type":"Feature","properties":{"idx":1871,"road":"","cls":"pedestrian","shops":9,"st_km":0.04,"mesh":"53394731"},"geometry":{"type":"LineString","coordinates":[[139.89727,35.69344],[139.89755,35.69288]]}},{"type":"Feature","properties":{"idx":281,"road":"","cls":"tertiary","shops":0,"st_km":0.47,"mesh":"53394780"},"geometry":{"type":"LineString","coordinates":[[139.87861,35.73648],[139.88572,35.73864]]}},{"type":"Feature","properties":{"idx":74,"road":"","cls":"tertiary","shops":0,"st_km":0.52,"mesh":"53394720"},"geometry":{"type":"LineString","coordinates":[[139.8782,35.68388],[139.87802,35.68339],[139.87804,35.68294]]}},{"type":"Feature","properties":{"idx":72,"road":"","cls":"tertiary","shops":0,"st_km":0.56,"mesh":"53394720"},"geometry":{"type":"LineString","coordinates":[[139.88696,35.69011],[139.88521,35.69035]]}},{"type":"Feature","properties":{"idx":778,"road":"","cls":"tertiary","shops":0,"st_km":0.79,"mesh":"53394751"},"geometry":{"type":"LineString","coordinates":[[139.8996,35.71023],[139.89822,35.71381]]}},{"type":"Feature","properties":{"idx":237,"road":"","cls":"tertiary","shops":0,"st_km":0.63,"mesh":"53394710"},"geometry":{"type":"LineString","coordinates":[[139.8837,35.67976],[139.88508,35.68089],[139.88521,35.68092]]}},{"type":"Feature","properties":{"idx":119,"road":"今井街道","cls":"tertiary","shops":1,"st_km":0.45,"mesh":"53394720"},"geometry":{"type":"LineString","coordinates":[[139.88672,35.68424],[139.88769,35.68352]]}},{"type":"Feature","properties":{"idx":486,"road":"新大橋通り","cls":"primary","shops":1,"st_km":0.54,"mesh":"53394710"},"geometry":{"type":"LineString","coordinates":[[139.87504,35.68362],[139.87747,35.68309],[139.87802,35.68302],[139.87859,35.68301],[139.88134,35.68317]]}},{"type":"Feature","properties":{"idx":252,"road":"柴又街道","cls":"secondary","shops":1,"st_km":0.54,"mesh":"53394731"},"geometry":{"type":"LineString","coordinates":[[139.89795,35.70152],[139.90153,35.69451]]}},{"type":"Feature","properties":{"idx":763,"road":"柴又街道","cls":"primary","shops":0,"st_km":0.74,"mesh":"53394741"},"geometry":{"type":"LineString","coordinates":[[139.8979,35.70166],[139.89795,35.70152]]}},{"type":"Feature","properties":{"idx":550,"road":"","cls":"pedestrian","shops":1,"st_km":0.32,"mesh":"53394742"},"geometry":{"type":"LineString","coordinates":[[139.90048,35.70656],[139.90039,35.70654],[139.90041,35.70648]]}},{"type":"Feature","properties":{"idx":2333,"road":"","cls":"pedestrian","shops":2,"st_km":0.39,"mesh":"53394741"},"geometry":{"type":"LineString","coordinates":[[139.89964,35.70623],[139.89955,35.70625]]}},{"type":"Feature","properties":{"idx":235,"road":"","cls":"tertiary","shops":0,"st_km":0.45,"mesh":"53394791"},"geometry":{"type":"LineString","coordinates":[[139.89484,35.73818],[139.89479,35.73867],[139.89459,35.73942],[139.89445,35.74082],[139.89328,35.74481],[139.8935,35.74507]]}},{"type":"Feature","properties":{"idx":1374,"road":"葛西橋通り","cls":"primary","shops":5,"st_km":0.63,"mesh":"53394700"},"geometry":{"type":"LineString","coordinates":[[139.88341,35.66593],[139.87329,35.66767]]}},{"type":"Feature","properties":{"idx":280,"road":"新荒川葛西堤防線","cls":"secondary","shops":0,"st_km":0.88,"mesh":"53394700"},"geometry":{"type":"LineString","coordinates":[[139.88483,35.66563],[139.88386,35.66753],[139.88379,35.66775],[139.88362,35.66882],[139.88369,35.67026]]}},{"type":"Feature","properties":{"idx":843,"road":"鹿島神社参道","cls":"pedestrian","shops":1,"st_km":1.7,"mesh":"53394751"},"geometry":{"type":"LineString","coordinates":[[139.88827,35.71514],[139.88837,35.71439]]}},{"type":"Feature","properties":{"idx":551,"road":"参道","cls":"pedestrian","shops":1,"st_km":1.57,"mesh":"53394760"},"geometry":{"type":"LineString","coordinates":[[139.87921,35.71981],[139.87926,35.7196],[139.87918,35.71878]]}},{"type":"Feature","properties":{"idx":779,"road":"","cls":"primary_link","shops":2,"st_km":0.58,"mesh":"53394711"},"geometry":{"type":"LineString","coordinates":[[139.88837,35.68284],[139.88802,35.68328]]}},{"type":"Feature","properties":{"idx":232,"road":"","cls":"tertiary","shops":0,"st_km":0.42,"mesh":"53394790"},"geometry":{"type":"LineString","coordinates":[[139.88215,35.74866],[139.88429,35.74888]]}},{"type":"Feature","properties":{"idx":420,"road":"","cls":"tertiary","shops":2,"st_km":0.53,"mesh":"53394790"},"geometry":{"type":"LineString","coordinates":[[139.88298,35.74746],[139.88342,35.74751]]}},{"type":"Feature","properties":{"idx":417,"road":"","cls":"tertiary","shops":2,"st_km":0.53,"mesh":"53394790"},"geometry":{"type":"LineString","coordinates":[[139.8852,35.75014],[139.88527,35.7497],[139.88525,35.74922],[139.88538,35.74894],[139.88541,35.74873]]}},{"type":"Feature","properties":{"idx":197,"road":"","cls":"tertiary","shops":0,"st_km":0.69,"mesh":"53394791"},"geometry":{"type":"LineString","coordinates":[[139.88836,35.74799],[139.88828,35.74779],[139.88858,35.7461]]}},{"type":"Feature","properties":{"idx":2530,"road":"","cls":"pedestrian","shops":8,"st_km":0.03,"mesh":"53394790"},"geometry":{"type":"LineString","coordinates":[[139.88323,35.74201],[139.88363,35.74205],[139.88372,35.74198],[139.88377,35.74145]]}},{"type":"Feature","properties":{"idx":261,"road":"","cls":"tertiary","shops":0,"st_km":0.46,"mesh":"53394780"},"geometry":{"type":"LineString","coordinates":[[139.88121,35.74067],[139.88344,35.73577]]}},{"type":"Feature","properties":{"idx":196,"road":"","cls":"tertiary","shops":0,"st_km":0.67,"mesh":"53394790"},"geometry":{"type":"LineString","coordinates":[[139.87614,35.74237],[139.87639,35.74108]]}},{"type":"Feature","properties":{"idx":737,"road":"","cls":"tertiary","shops":4,"st_km":0.43,"mesh":"53394790"},"geometry":{"type":"LineString","coordinates":[[139.87877,35.74301],[139.87919,35.74304]]}},{"type":"Feature","properties":{"idx":316,"road":"","cls":"tertiary","shops":0,"st_km":0.27,"mesh":"53394780"},"geometry":{"type":"LineString","coordinates":[[139.88332,35.74135],[139.8847,35.73833]]}},{"type":"Feature","properties":{"idx":586,"road":"","cls":"tertiary_link","shops":7,"st_km":0.09,"mesh":"53394770"},"geometry":{"type":"LineString","coordinates":[[139.88191,35.73253],[139.88179,35.73253],[139.88171,35.73259]]}},{"type":"Feature","properties":{"idx":294,"road":"","cls":"tertiary","shops":0,"st_km":0.69,"mesh":"53394781"},"geometry":{"type":"LineString","coordinates":[[139.88971,35.73172],[139.88927,35.73478],[139.88909,35.73667],[139.88891,35.73735]]}},{"type":"Feature","properties":{"idx":283,"road":"","cls":"tertiary","shops":0,"st_km":0.38,"mesh":"53394780"},"geometry":{"type":"LineString","coordinates":[[139.88032,35.74035],[139.88089,35.73939]]}},{"type":"Feature","properties":{"idx":2134,"road":"","cls":"tertiary","shops":9,"st_km":0.16,"mesh":"53394780"},"geometry":{"type":"LineString","coordinates":[[139.88247,35.73556],[139.8828,35.73476],[139.8836,35.73321]]}},{"type":"Feature","properties":{"idx":232,"road":"","cls":"tertiary","shops":0,"st_km":0.49,"mesh":"53394790"},"geometry":{"type":"LineString","coordinates":[[139.88468,35.74635],[139.88575,35.74646]]}},{"type":"Feature","properties":{"idx":214,"road":"","cls":"tertiary","shops":0,"st_km":0.57,"mesh":"53394790"},"geometry":{"type":"LineString","coordinates":[[139.88478,35.74572],[139.88428,35.74897]]}},{"type":"Feature","properties":{"idx":231,"road":"","cls":"tertiary","shops":0,"st_km":0.47,"mesh":"53394742"},"geometry":{"type":"LineString","coordinates":[[139.90911,35.70845],[139.90888,35.70837],[139.90848,35.70815],[139.90811,35.70808],[139.90757,35.70807]]}},{"type":"Feature","properties":{"idx":705,"road":"新荒川葛西堤防線","cls":"secondary","shops":0,"st_km":1.05,"mesh":"53394743"},"geometry":{"type":"LineString","coordinates":[[139.91634,35.70213],[139.91602,35.70285],[139.91569,35.70339],[139.91446,35.70477],[139.91346,35.70565]]}},{"type":"Feature","properties":{"idx":714,"road":"柴又街道","cls":"secondary","shops":0,"st_km":0.69,"mesh":"53394741"},"geometry":{"type":"LineString","coordinates":[[139.89719,35.70358],[139.8979,35.70166]]}},{"type":"Feature","properties":{"idx":844,"road":"鹿骨街道","cls":"tertiary","shops":0,"st_km":0.7,"mesh":"53394751"},"geometry":{"type":"LineString","coordinates":[[139.89461,35.71032],[139.9006,35.70939]]}},{"type":"Feature","properties":{"idx":692,"road":"柴又街道","cls":"secondary","shops":0,"st_km":0.73,"mesh":"53394741"},"geometry":{"type":"LineString","coordinates":[[139.89461,35.71032],[139.89719,35.70358]]}},{"type":"Feature","properties":{"idx":458,"road":"","cls":"tertiary","shops":0,"st_km":1.08,"mesh":"53394741"},"geometry":{"type":"LineString","coordinates":[[139.88772,35.70869],[139.88775,35.70863],[139.88929,35.70767],[139.89623,35.70353]]}},{"type":"Feature","properties":{"idx":249,"road":"","cls":"tertiary","shops":0,"st_km":1.7,"mesh":"53394760"},"geometry":{"type":"LineString","coordinates":[[139.88237,35.71786],[139.88369,35.71823]]}},{"type":"Feature","properties":{"idx":237,"road":"","cls":"tertiary","shops":0,"st_km":1.79,"mesh":"53394760"},"geometry":{"type":"LineString","coordinates":[[139.8797,35.71721],[139.88045,35.71733]]}},{"type":"Feature","properties":{"idx":674,"road":"篠崎街道","cls":"tertiary","shops":0,"st_km":0.96,"mesh":"53394743"},"geometry":{"type":"LineString","coordinates":[[139.91346,35.70565],[139.91343,35.70552],[139.91382,35.70376],[139.91383,35.70347],[139.91365,35.7028],[139.91312,35.70158],[139.91286,35.7012],[139.91276,35.70026]]}},{"type":"Feature","properties":{"idx":819,"road":"","cls":"tertiary","shops":2,"st_km":0.98,"mesh":"53394760"},"geometry":{"type":"LineString","coordinates":[[139.87825,35.72693],[139.87875,35.72596],[139.88095,35.7225]]}},{"type":"Feature","properties":{"idx":245,"road":"","cls":"tertiary","shops":1,"st_km":0.45,"mesh":"53394731"},"geometry":{"type":"LineString","coordinates":[[139.89118,35.69403],[139.89133,35.69404],[139.89508,35.69531]]}},{"type":"Feature","properties":{"idx":177,"road":"","cls":"tertiary","shops":0,"st_km":0.37,"mesh":"53394731"},"geometry":{"type":"LineString","coordinates":[[139.8917,35.69237],[139.89587,35.69373]]}},{"type":"Feature","properties":{"idx":752,"road":"","cls":"pedestrian","shops":2,"st_km":0.95,"mesh":"53394721"},"geometry":{"type":"LineString","coordinates":[[139.8947,35.68619],[139.89481,35.68587],[139.89462,35.68568],[139.89455,35.6853],[139.89456,35.68511],[139.89461,35.68497],[139.89519,35.68447]]}},{"type":"Feature","properties":{"idx":1532,"road":"","cls":"pedestrian","shops":4,"st_km":0.6,"mesh":"53394721"},"geometry":{"type":"LineString","coordinates":[[139.89941,35.68808],[139.89976,35.68825]]}},{"type":"Feature","properties":{"idx":2358,"road":"","cls":"pedestrian","shops":12,"st_km":0.05,"mesh":"53394731"},"geometry":{"type":"LineString","coordinates":[[139.89814,35.69275],[139.89807,35.69278],[139.8979,35.69314]]}},{"type":"Feature","properties":{"idx":1150,"road":"","cls":"pedestrian","shops":5,"st_km":0.08,"mesh":"53394731"},"geometry":{"type":"LineString","coordinates":[[139.89745,35.69252],[139.89746,35.6926],[139.89731,35.69291],[139.8975,35.69297]]}},{"type":"Feature","properties":{"idx":2071,"road":"","cls":"pedestrian","shops":10,"st_km":0.03,"mesh":"53394731"},"geometry":{"type":"LineString","coordinates":[[139.89748,35.69301],[139.89812,35.69323]]}},{"type":"Feature","properties":{"idx":454,"road":"新荒川葛西堤防線","cls":"secondary","shops":0,"st_km":0.68,"mesh":"53394711"},"geometry":{"type":"LineString","coordinates":[[139.8868,35.68055],[139.88722,35.68091],[139.88809,35.68145],[139.88935,35.68212]]}},{"type":"Feature","properties":{"idx":566,"road":"篠崎街道","cls":"secondary","shops":1,"st_km":0.9,"mesh":"53394711"},"geometry":{"type":"LineString","coordinates":[[139.88956,35.68221],[139.8906,35.68244],[139.89296,35.68345],[139.89478,35.68383]]}},{"type":"Feature","properties":{"idx":251,"road":"新荒川葛西堤防線","cls":"secondary","shops":0,"st_km":0.7,"mesh":"53394710"},"geometry":{"type":"LineString","coordinates":[[139.88527,35.67995],[139.88535,35.67995]]}},{"type":"Feature","properties":{"idx":111,"road":"","cls":"tertiary","shops":1,"st_km":0.52,"mesh":"53394720"},"geometry":{"type":"LineString","coordinates":[[139.88315,35.69063],[139.88521,35.69035]]}},{"type":"Feature","properties":{"idx":74,"road":"","cls":"tertiary","shops":0,"st_km":0.52,"mesh":"53394720"},"geometry":{"type":"LineString","coordinates":[[139.88294,35.69066],[139.88315,35.69063]]}},{"type":"Feature","properties":{"idx":289,"road":"環七通り","cls":"primary_link","shops":0,"st_km":1.71,"mesh":"53394740"},"geometry":{"type":"LineString","coordinates":[[139.88161,35.70246],[139.88184,35.70058]]}},{"type":"Feature","properties":{"idx":261,"road":"環七通り","cls":"primary_link","shops":0,"st_km":1.91,"mesh":"53394740"},"geometry":{"type":"LineString","coordinates":[[139.88136,35.70256],[139.88074,35.7052]]}},{"type":"Feature","properties":{"idx":118,"road":"","cls":"pedestrian","shops":0,"st_km":0.37,"mesh":"53394720"},"geometry":{"type":"LineString","coordinates":[[139.88411,35.69046],[139.88342,35.68903],[139.88339,35.6885],[139.88324,35.68798]]}},{"type":"Feature","properties":{"idx":408,"road":"新大橋通り","cls":"primary","shops":0,"st_km":0.3,"mesh":"53394710"},"geometry":{"type":"LineString","coordinates":[[139.88239,35.6832],[139.88312,35.6832]]}},{"type":"Feature","properties":{"idx":398,"road":"新大橋通り","cls":"primary","shops":0,"st_km":0.33,"mesh":"53394710"},"geometry":{"type":"LineString","coordinates":[[139.88215,35.68311],[139.88154,35.6831]]}},{"type":"Feature","properties":{"idx":335,"road":"","cls":"primary_link","shops":0,"st_km":0.74,"mesh":"53394711"},"geometry":{"type":"LineString","coordinates":[[139.88956,35.68221],[139.88971,35.68206]]}},{"type":"Feature","properties":{"idx":389,"road":"","cls":"tertiary","shops":0,"st_km":0.73,"mesh":"53394711"},"geometry":{"type":"LineString","coordinates":[[139.88965,35.68224],[139.88959,35.68253]]}},{"type":"Feature","properties":{"idx":338,"road":"","cls":"primary_link","shops":0,"st_km":0.73,"mesh":"53394711"},"geometry":{"type":"LineString","coordinates":[[139.88951,35.68196],[139.88935,35.68212]]}},{"type":"Feature","properties":{"idx":605,"road":"新大橋通り","cls":"primary","shops":1,"st_km":0.32,"mesh":"53394710"},"geometry":{"type":"LineString","coordinates":[[139.88157,35.68318],[139.88239,35.6832]]}},{"type":"Feature","properties":{"idx":404,"road":"新大橋通り","cls":"primary","shops":0,"st_km":0.31,"mesh":"53394710"},"geometry":{"type":"LineString","coordinates":[[139.88312,35.68313],[139.88215,35.68311]]}},{"type":"Feature","properties":{"idx":612,"road":"新大橋通り","cls":"primary_link","shops":1,"st_km":0.53,"mesh":"53394711"},"geometry":{"type":"LineString","coordinates":[[139.88779,35.6831],[139.88743,35.68314]]}},{"type":"Feature","properties":{"idx":614,"road":"新大橋通り","cls":"primary_link","shops":1,"st_km":0.53,"mesh":"53394711"},"geometry":{"type":"LineString","coordinates":[[139.88742,35.68333],[139.88802,35.68328]]}},{"type":"Feature","properties":{"idx":861,"road":"篠崎街道","cls":"secondary","shops":0,"st_km":0.81,"mesh":"53394743"},"geometry":{"type":"LineString","coordinates":[[139.91346,35.70565],[139.91282,35.70636],[139.91263,35.70642],[139.91193,35.70651],[139.9117,35.70659]]}},{"type":"Feature","properties":{"idx":209,"road":"篠崎街道","cls":"secondary","shops":0,"st_km":0.69,"mesh":"53394742"},"geometry":{"type":"LineString","coordinates":[[139.9117,35.70659],[139.91133,35.70677]]}},{"type":"Feature","properties":{"idx":615,"road":"柴又街道","cls":"secondary","shops":2,"st_km":0.5,"mesh":"53394780"},"geometry":{"type":"LineString","coordinates":[[139.88258,35.74131],[139.88456,35.73665],[139.8858,35.73342]]}},{"type":"Feature","properties":{"idx":1323,"road":"","cls":"tertiary","shops":5,"st_km":0.09,"mesh":"53394780"},"geometry":{"type":"LineString","coordinates":[[139.88258,35.74131],[139.88379,35.74139],[139.88485,35.74155]]}},{"type":"Feature","properties":{"idx":1361,"road":"","cls":"tertiary","shops":11,"st_km":0.08,"mesh":"53394770"},"geometry":{"type":"LineString","coordinates":[[139.88202,35.73261],[139.88191,35.73253]]}},{"type":"Feature","properties":{"idx":2186,"road":"","cls":"tertiary","shops":18,"st_km":0.04,"mesh":"53394770"},"geometry":{"type":"LineString","coordinates":[[139.88219,35.73307],[139.88229,35.73308]]}},{"type":"Feature","properties":{"idx":395,"road":"","cls":"tertiary","shops":5,"st_km":0.1,"mesh":"53394720"},"geometry":{"type":"LineString","coordinates":[[139.8843,35.68606],[139.88414,35.686],[139.88376,35.68599]]}},{"type":"Feature","properties":{"idx":443,"road":"環七通り","cls":"primary","shops":0,"st_km":1.58,"mesh":"53394740"},"geometry":{"type":"LineString","coordinates":[[139.88172,35.69965],[139.88167,35.70057]]}},{"type":"Feature","properties":{"idx":501,"road":"今井街道","cls":"tertiary","shops":7,"st_km":0.12,"mesh":"53394720"},"geometry":{"type":"LineString","coordinates":[[139.88398,35.6863],[139.8843,35.68606]]}},{"type":"Feature","properties":{"idx":210,"road":"今井街道","cls":"tertiary","shops":2,"st_km":0.17,"mesh":"53394720"},"geometry":{"type":"LineString","coordinates":[[139.8843,35.68606],[139.88524,35.68536]]}},{"type":"Feature","properties":{"idx":360,"road":"環七通り","cls":"primary","shops":0,"st_km":1.99,"mesh":"53394740"},"geometry":{"type":"LineString","coordinates":[[139.88094,35.70451],[139.88074,35.7052]]}},{"type":"Feature","properties":{"idx":361,"road":"環七通り","cls":"primary","shops":0,"st_km":1.99,"mesh":"53394740"},"geometry":{"type":"LineString","coordinates":[[139.88087,35.70524],[139.88103,35.70453]]}},{"type":"Feature","properties":{"idx":346,"road":"環七通り","cls":"primary","shops":0,"st_km":1.52,"mesh":"53394760"},"geometry":{"type":"LineString","coordinates":[[139.87676,35.7199],[139.87579,35.72092]]}},{"type":"Feature","properties":{"idx":347,"road":"環七通り","cls":"primary","shops":0,"st_km":1.51,"mesh":"53394760"},"geometry":{"type":"LineString","coordinates":[[139.87589,35.72093],[139.87683,35.71994]]}},{"type":"Feature","properties":{"idx":589,"road":"今井街道","cls":"tertiary","shops":1,"st_km":0.53,"mesh":"53394721"},"geometry":{"type":"LineString","coordinates":[[139.88769,35.68352],[139.88802,35.68328]]}},{"type":"Feature","properties":{"idx":91,"road":"今井街道","cls":"tertiary","shops":0,"st_km":0.32,"mesh":"53394720"},"geometry":{"type":"LineString","coordinates":[[139.88541,35.68523],[139.8867,35.68426]]}},{"type":"Feature","properties":{"idx":99,"road":"今井街道","cls":"tertiary","shops":0,"st_km":0.23,"mesh":"53394720"},"geometry":{"type":"LineString","coordinates":[[139.88524,35.68536],[139.88541,35.68523]]}},{"type":"Feature","properties":{"idx":3436,"road":"","cls":"tertiary","shops":17,"st_km":0.03,"mesh":"53394742"},"geometry":{"type":"LineString","coordinates":[[139.90399,35.70586],[139.90423,35.70607]]}},{"type":"Feature","properties":{"idx":2996,"road":"","cls":"tertiary","shops":15,"st_km":0.05,"mesh":"53394742"},"geometry":{"type":"LineString","coordinates":[[139.90446,35.70564],[139.90423,35.70607]]}},{"type":"Feature","properties":{"idx":1877,"road":"","cls":"tertiary","shops":10,"st_km":0.16,"mesh":"53394742"},"geometry":{"type":"LineString","coordinates":[[139.90527,35.70412],[139.90446,35.70564]]}},{"type":"Feature","properties":{"idx":985,"road":"","cls":"tertiary","shops":5,"st_km":0.27,"mesh":"53394742"},"geometry":{"type":"LineString","coordinates":[[139.90536,35.70393],[139.90527,35.70412]]}},{"type":"Feature","properties":{"idx":632,"road":"","cls":"tertiary","shops":3,"st_km":0.37,"mesh":"53394742"},"geometry":{"type":"LineString","coordinates":[[139.90618,35.70236],[139.90536,35.70393]]}},{"type":"Feature","properties":{"idx":446,"road":"松江四中通り","cls":"tertiary","shops":1,"st_km":1.91,"mesh":"53394740"},"geometry":{"type":"LineString","coordinates":[[139.87828,35.70281],[139.87827,35.70272]]}},{"type":"Feature","properties":{"idx":302,"road":"今井街道","cls":"tertiary","shops":5,"st_km":0.37,"mesh":"53394720"},"geometry":{"type":"LineString","coordinates":[[139.879,35.6901],[139.88257,35.68741]]}},{"type":"Feature","properties":{"idx":70,"road":"","cls":"tertiary","shops":0,"st_km":0.59,"mesh":"53394720"},"geometry":{"type":"LineString","coordinates":[[139.879,35.6901],[139.88016,35.69088],[139.88044,35.69096],[139.88294,35.69066]]}},{"type":"Feature","properties":{"idx":419,"road":"","cls":"primary_link","shops":6,"st_km":0.05,"mesh":"53394720"},"geometry":{"type":"LineString","coordinates":[[139.88238,35.68587],[139.88235,35.68578]]}},{"type":"Feature","properties":{"idx":302,"road":"","cls":"primary_link","shops":4,"st_km":0.08,"mesh":"53394720"},"geometry":{"type":"LineString","coordinates":[[139.88195,35.68527],[139.88215,35.68594]]}},{"type":"Feature","properties":{"idx":283,"road":"","cls":"primary_link","shops":4,"st_km":0.15,"mesh":"53394720"},"geometry":{"type":"LineString","coordinates":[[139.88178,35.68457],[139.88195,35.68527]]}},{"type":"Feature","properties":{"idx":429,"road":"","cls":"tertiary","shops":6,"st_km":0.15,"mesh":"53394720"},"geometry":{"type":"LineString","coordinates":[[139.88139,35.68528],[139.88147,35.68528]]}},{"type":"Feature","properties":{"idx":275,"road":"","cls":"tertiary","shops":3,"st_km":0.13,"mesh":"53394720"},"geometry":{"type":"LineString","coordinates":[[139.88147,35.68528],[139.88195,35.68527]]}},{"type":"Feature","properties":{"idx":437,"road":"篠崎街道","cls":"secondary","shops":0,"st_km":0.73,"mesh":"53394711"},"geometry":{"type":"LineString","coordinates":[[139.88935,35.68212],[139.88956,35.68221]]}},{"type":"Feature","properties":{"idx":786,"road":"新荒川葛西堤防線","cls":"secondary","shops":5,"st_km":1.16,"mesh":"53394700"},"geometry":{"type":"LineString","coordinates":[[139.8833,35.67237],[139.88334,35.67258]]}},{"type":"Feature","properties":{"idx":308,"road":"","cls":"tertiary","shops":0,"st_km":1.89,"mesh":"53394740"},"geometry":{"type":"LineString","coordinates":[[139.87575,35.7076],[139.87475,35.70765]]}},{"type":"Feature","properties":{"idx":2269,"road":"","cls":"tertiary","shops":1,"st_km":0.6,"mesh":"53394732"},"geometry":{"type":"LineString","coordinates":[[139.90442,35.69348],[139.90438,35.69346]]}},{"type":"Feature","properties":{"idx":2264,"road":"","cls":"tertiary","shops":1,"st_km":0.6,"mesh":"53394732"},"geometry":{"type":"LineString","coordinates":[[139.90443,35.69349],[139.90442,35.69348]]}},{"type":"Feature","properties":{"idx":407,"road":"篠崎街道","cls":"tertiary","shops":0,"st_km":0.63,"mesh":"53394722"},"geometry":{"type":"LineString","coordinates":[[139.90627,35.69193],[139.90554,35.69128],[139.90406,35.69023],[139.90208,35.68926],[139.90126,35.68856],[139.90082,35.68826],[139.90004,35.68794]]}},{"type":"Feature","properties":{"idx":1275,"road":"篠崎街道","cls":"tertiary","shops":0,"st_km":0.78,"mesh":"53394732"},"geometry":{"type":"LineString","coordinates":[[139.9063,35.69195],[139.90627,35.69193]]}},{"type":"Feature","properties":{"idx":273,"road":"二之江宮前通り","cls":"tertiary","shops":1,"st_km":1.29,"mesh":"53394700"},"geometry":{"type":"LineString","coordinates":[[139.87729,35.67454],[139.87749,35.67459]]}},{"type":"Feature","properties":{"idx":235,"road":"環七通り","cls":"primary","shops":0,"st_km":1.25,"mesh":"53394700"},"geometry":{"type":"LineString","coordinates":[[139.87749,35.67459],[139.87702,35.67376]]}},{"type":"Feature","properties":{"idx":236,"road":"環七通り","cls":"primary","shops":0,"st_km":1.24,"mesh":"53394700"},"geometry":{"type":"LineString","coordinates":[[139.87691,35.6738],[139.87729,35.67454]]}},{"type":"Feature","properties":{"idx":662,"road":"新荒川葛西堤防線","cls":"secondary","shops":4,"st_km":1.18,"mesh":"53394700"},"geometry":{"type":"LineString","coordinates":[[139.88334,35.67258],[139.88343,35.67284],[139.88353,35.673],[139.88435,35.67367],[139.88453,35.6744]]}},{"type":"Feature","properties":{"idx":594,"road":"新大橋通り","cls":"primary","shops":1,"st_km":0.33,"mesh":"53394710"},"geometry":{"type":"LineString","coordinates":[[139.88134,35.68317],[139.88157,35.68318]]}},{"type":"Feature","properties":{"idx":540,"road":"環七通り","cls":"primary","shops":7,"st_km":0.26,"mesh":"53394720"},"geometry":{"type":"LineString","coordinates":[[139.88134,35.68317],[139.88178,35.68457]]}},{"type":"Feature","properties":{"idx":493,"road":"環七通り","cls":"primary","shops":6,"st_km":0.23,"mesh":"53394720"},"geometry":{"type":"LineString","coordinates":[[139.88208,35.68495],[139.88154,35.6831]]}},{"type":"Feature","properties":{"idx":562,"road":"環七通り","cls":"primary_link","shops":2,"st_km":1.77,"mesh":"53394740"},"geometry":{"type":"LineString","coordinates":[[139.88148,35.7015],[139.88136,35.70256]]}},{"type":"Feature","properties":{"idx":309,"road":"環七通り","cls":"primary_link","shops":0,"st_km":1.58,"mesh":"53394740"},"geometry":{"type":"LineString","coordinates":[[139.88184,35.70058],[139.88188,35.69978]]}},{"type":"Feature","properties":{"idx":1054,"road":"","cls":"tertiary","shops":8,"st_km":0.08,"mesh":"53394770"},"geometry":{"type":"LineString","coordinates":[[139.88171,35.73259],[139.88168,35.73268]]}},{"type":"Feature","properties":{"idx":1723,"road":"蔵前橋通り","cls":"primary","shops":5,"st_km":0.24,"mesh":"53394781"},"geometry":{"type":"LineString","coordinates":[[139.89473,35.73583],[139.89492,35.73576]]}},{"type":"Feature","properties":{"idx":1291,"road":"蔵前橋通り","cls":"primary","shops":4,"st_km":0.38,"mesh":"53394781"},"geometry":{"type":"LineString","coordinates":[[139.89469,35.73575],[139.88982,35.73731],[139.88936,35.73739],[139.88891,35.73735]]}},{"type":"Feature","properties":{"idx":292,"road":"","cls":"tertiary","shops":1,"st_km":0.65,"mesh":"53394742"},"geometry":{"type":"LineString","coordinates":[[139.90768,35.69936],[139.90756,35.69968],[139.90618,35.70236]]}},{"type":"Feature","properties":{"idx":1206,"road":"","cls":"tertiary","shops":0,"st_km":0.83,"mesh":"53394732"},"geometry":{"type":"LineString","coordinates":[[139.90768,35.69919],[139.90768,35.69936]]}},{"type":"Feature","properties":{"idx":194,"road":"上平井橋江戸川大橋線","cls":"tertiary","shops":0,"st_km":2.01,"mesh":"53394750"},"geometry":{"type":"LineString","coordinates":[[139.87991,35.7132],[139.87878,35.71304]]}},{"type":"Feature","properties":{"idx":189,"road":"鹿骨街道","cls":"tertiary","shops":0,"st_km":2.07,"mesh":"53394750"},"geometry":{"type":"LineString","coordinates":[[139.88026,35.71326],[139.87991,35.7132]]}},{"type":"Feature","properties":{"idx":689,"road":"","cls":"tertiary","shops":1,"st_km":1.5,"mesh":"53394751"},"geometry":{"type":"LineString","coordinates":[[139.89222,35.71603],[139.89329,35.71627]]}},{"type":"Feature","properties":{"idx":501,"road":"","cls":"tertiary","shops":0,"st_km":1.36,"mesh":"53394751"},"geometry":{"type":"LineString","coordinates":[[139.89583,35.71633],[139.89413,35.71577]]}},{"type":"Feature","properties":{"idx":481,"road":"篠崎街道","cls":"secondary","shops":2,"st_km":0.54,"mesh":"53394742"},"geometry":{"type":"LineString","coordinates":[[139.91133,35.70677],[139.90997,35.70752],[139.90888,35.70837],[139.90815,35.70875],[139.90788,35.70902],[139.90785,35.70916]]}},{"type":"Feature","properties":{"idx":1027,"road":"","cls":"pedestrian","shops":0,"st_km":1.03,"mesh":"53394733"},"geometry":{"type":"LineString","coordinates":[[139.91272,35.69076],[139.91234,35.69096],[139.91231,35.69111],[139.91363,35.6927],[139.91379,35.69274],[139.9142,35.69251]]}},{"type":"Feature","properties":{"idx":361,"road":"新荒川葛西堤防線","cls":"secondary","shops":1,"st_km":1.07,"mesh":"53394700"},"geometry":{"type":"LineString","coordinates":[[139.88369,35.67026],[139.88369,35.67092],[139.88325,35.6719],[139.8833,35.67237]]}},{"type":"Feature","properties":{"idx":681,"road":"","cls":"tertiary","shops":0,"st_km":1.15,"mesh":"53394733"},"geometry":{"type":"LineString","coordinates":[[139.91476,35.69753],[139.91469,35.69759],[139.91472,35.69767],[139.91542,35.69852],[139.9158,35.69888]]}},{"type":"Feature","properties":{"idx":900,"road":"","cls":"tertiary","shops":6,"st_km":0.13,"mesh":"53394731"},"geometry":{"type":"LineString","coordinates":[[139.89745,35.69611],[139.89905,35.69299]]}},{"type":"Feature","properties":{"idx":477,"road":"","cls":"tertiary","shops":3,"st_km":0.29,"mesh":"53394731"},"geometry":{"type":"LineString","coordinates":[[139.89745,35.69611],[139.89508,35.69531]]}},{"type":"Feature","properties":{"idx":651,"road":"","cls":"primary_link","shops":3,"st_km":0.4,"mesh":"53394710"},"geometry":{"type":"LineString","coordinates":[[139.8809,35.68208],[139.88123,35.68258],[139.88146,35.68313],[139.88157,35.68318]]}},{"type":"Feature","properties":{"idx":662,"road":"","cls":"tertiary","shops":0,"st_km":1.19,"mesh":"53394733"},"geometry":{"type":"LineString","coordinates":[[139.91397,35.69828],[139.91484,35.69782]]}},{"type":"Feature","properties":{"idx":126,"road":"","cls":"tertiary","shops":0,"st_km":0.72,"mesh":"53394731"},"geometry":{"type":"LineString","coordinates":[[139.89085,35.69391],[139.89029,35.69571],[139.8903,35.69613],[139.89055,35.69733]]}},{"type":"Feature","properties":{"idx":137,"road":"","cls":"tertiary","shops":0,"st_km":0.63,"mesh":"53394731"},"geometry":{"type":"LineString","coordinates":[[139.89088,35.69385],[139.89085,35.69391]]}},{"type":"Feature","properties":{"idx":139,"road":"","cls":"tertiary","shops":0,"st_km":0.61,"mesh":"53394731"},"geometry":{"type":"LineString","coordinates":[[139.89118,35.69403],[139.89095,35.6937]]}},{"type":"Feature","properties":{"idx":306,"road":"江戸川堤防線","cls":"secondary","shops":1,"st_km":0.78,"mesh":"53394791"},"geometry":{"type":"LineString","coordinates":[[139.89092,35.7457],[139.89084,35.74632],[139.89077,35.74651]]}},{"type":"Feature","properties":{"idx":219,"road":"江戸川堤防線","cls":"secondary","shops":0,"st_km":0.71,"mesh":"53394791"},"geometry":{"type":"LineString","coordinates":[[139.89166,35.74247],[139.8914,35.74309],[139.89115,35.74386],[139.89105,35.74439],[139.89103,35.74497],[139.89092,35.7457]]}},{"type":"Feature","properties":{"idx":206,"road":"親水さくら街道","cls":"tertiary","shops":0,"st_km":0.59,"mesh":"53394791"},"geometry":{"type":"LineString","coordinates":[[139.89166,35.74247],[139.89392,35.74291],[139.89489,35.7432]]}},{"type":"Feature","properties":{"idx":304,"road":"","cls":"tertiary","shops":0,"st_km":0.57,"mesh":"53394781"},"geometry":{"type":"LineString","coordinates":[[139.8889,35.73744],[139.889,35.73911],[139.88919,35.74029],[139.88881,35.74209]]}},{"type":"Feature","properties":{"idx":549,"road":"","cls":"tertiary","shops":2,"st_km":0.62,"mesh":"53394781"},"geometry":{"type":"LineString","coordinates":[[139.88891,35.73735],[139.8889,35.73744]]}},{"type":"Feature","properties":{"idx":1127,"road":"蔵前橋通り","cls":"primary","shops":4,"st_km":0.4,"mesh":"53394780"},"geometry":{"type":"LineString","coordinates":[[139.88891,35.73735],[139.8805,35.73489]]}},{"type":"Feature","properties":{"idx":1297,"road":"蔵前橋通り","cls":"primary","shops":4,"st_km":0.38,"mesh":"53394781"},"geometry":{"type":"LineString","coordinates":[[139.8889,35.73744],[139.88946,35.73747],[139.88979,35.7374],[139.89473,35.73583]]}},{"type":"Feature","properties":{"idx":1556,"road":"蔵前橋通り","cls":"primary","shops":5,"st_km":0.24,"mesh":"53394780"},"geometry":{"type":"LineString","coordinates":[[139.8805,35.73489],[139.87911,35.73447]]}},{"type":"Feature","properties":{"idx":1540,"road":"蔵前橋通り","cls":"primary","shops":5,"st_km":0.25,"mesh":"53394780"},"geometry":{"type":"LineString","coordinates":[[139.87897,35.7345],[139.88046,35.73497]]}},{"type":"Feature","properties":{"idx":421,"road":"親水さくら街道","cls":"tertiary","shops":1,"st_km":0.29,"mesh":"53394790"},"geometry":{"type":"LineString","coordinates":[[139.88485,35.74155],[139.88881,35.74209]]}},{"type":"Feature","properties":{"idx":346,"road":"","cls":"tertiary","shops":1,"st_km":0.52,"mesh":"53394791"},"geometry":{"type":"LineString","coordinates":[[139.88881,35.74209],[139.88891,35.74271],[139.88897,35.74355],[139.88858,35.7461]]}},{"type":"Feature","properties":{"idx":295,"road":"","cls":"tertiary","shops":0,"st_km":0.33,"mesh":"53394780"},"geometry":{"type":"LineString","coordinates":[[139.8777,35.74112],[139.88258,35.74131]]}},{"type":"Feature","properties":{"idx":329,"road":"","cls":"tertiary","shops":2,"st_km":0.44,"mesh":"53394731"},"geometry":{"type":"LineString","coordinates":[[139.89274,35.69452],[139.89325,35.69356]]}},{"type":"Feature","properties":{"idx":468,"road":"","cls":"tertiary","shops":0,"st_km":1.49,"mesh":"53394761"},"geometry":{"type":"LineString","coordinates":[[139.89416,35.7209],[139.8944,35.72111],[139.89513,35.72137]]}},{"type":"Feature","properties":{"idx":433,"road":"","cls":"tertiary","shops":0,"st_km":1.62,"mesh":"53394761"},"geometry":{"type":"LineString","coordinates":[[139.89209,35.72082],[139.89416,35.7209]]}},{"type":"Feature","properties":{"idx":460,"road":"","cls":"tertiary","shops":0,"st_km":1.48,"mesh":"53394761"},"geometry":{"type":"LineString","coordinates":[[139.89329,35.71627],[139.89355,35.71663],[139.89549,35.7173]]}},{"type":"Feature","properties":{"idx":226,"road":"","cls":"tertiary","shops":0,"st_km":1.0,"mesh":"53394700"},"geometry":{"type":"LineString","coordinates":[[139.88343,35.67029],[139.88369,35.67026]]}},{"type":"Feature","properties":{"idx":126,"road":"今井街道","cls":"tertiary","shops":1,"st_km":0.39,"mesh":"53394720"},"geometry":{"type":"LineString","coordinates":[[139.8867,35.68426],[139.88672,35.68424]]}},{"type":"Feature","properties":{"idx":1157,"road":"","cls":"pedestrian","shops":0,"st_km":0.67,"mesh":"53394730"},"geometry":{"type":"LineString","coordinates":[[139.88451,35.69308],[139.88434,35.69261],[139.88442,35.6915],[139.88413,35.69054]]}}]}