{"type":"FeatureCollection","features":[{"type":"Feature","properties":{"idx":10,"road":"吉田太田部譲原線","cls":"secondary","shops":0,"st_km":10.61,"mesh":"54381749"},"geometry":{"type":"LineString","coordinates":[[138.99401,36.12143],[138.99396,36.12121],[138.99358,36.12104],[138.99326,36.12104],[138.99288,36.12124],[138.99269,36.12121],[138.99263,36.12071],[138.99274,36.12049],[138.99277,36.12019],[138.99273,36.11993],[138.99238,36.11979],[138.99182,36.1197],[138.99168,36.11951],[138.99169,36.11934],[138.99187,36.11911],[138.99198,36.11902],[138.99229,36.11888],[138.99242,36.11876],[138.99264,36.11844],[138.99314,36.1183],[138.99325,36.11816],[138.99324,36.11808],[138.99272,36.11772],[138.99271,36.11723],[138.99263,36.1171],[138.99207,36.11709],[138.99147,36.11683],[138.99144,36.11642],[138.99057,36.11533],[138.99013,36.11492],[138.9901,36.11473],[138.99032,36.11441],[138.99053,36.11378],[138.99046,36.11351],[138.99039,36.11341],[138.99027,36.11335]]}}]}