{"type":"FeatureCollection","features":[{"type":"Feature","properties":{"idx":9,"road":"両神小鹿野線","cls":"secondary","shops":0,"st_km":6.49,"mesh":"54380727"},"geometry":{"type":"LineString","coordinates":[[138.96989,36.01711],[138.97038,36.01757],[138.97076,36.01812],[138.97097,36.01832],[138.97143,36.01849],[138.97238,36.01915],[138.97269,36.01925],[138.97281,36.01924],[138.97286,36.01918]]}},{"type":"Feature","properties":{"idx":24,"road":"両神小鹿野線","cls":"secondary","shops":0,"st_km":6.14,"mesh":"54380717"},"geometry":{"type":"LineString","coordinates":[[138.96322,36.01169],[138.96348,36.0119],[138.96441,36.0123],[138.96456,36.01242],[138.96501,36.013],[138.96565,36.01348],[138.96575,36.0137],[138.96569,36.0144],[138.96572,36.01449],[138.96624,36.01505],[138.96673,36.01538],[138.96695,36.01563],[138.96791,36.01628],[138.96924,36.01673],[138.96968,36.01693]]}},{"type":"Feature","properties":{"idx":18,"road":"両神小鹿野線","cls":"secondary","shops":0,"st_km":6.49,"mesh":"54380716"},"geometry":{"type":"LineString","coordinates":[[138.93779,36.02031],[138.93832,36.02009],[138.93883,36.02005],[138.939,36.02],[138.93967,36.01965],[138.94045,36.0194],[138.9413,36.01892],[138.94207,36.01826],[138.94259,36.01795],[138.94376,36.01745],[138.94426,36.01718],[138.9446,36.01714],[138.94515,36.01718],[138.94546,36.01706],[138.94604,36.01674],[138.94779,36.01655],[138.9484,36.01637],[138.94905,36.01611],[138.94927,36.01599],[138.94987,36.01546],[138.95075,36.01482],[138.95174,36.01442],[138.95185,36.01433],[138.95207,36.01385],[138.95256,36.01349],[138.95262,36.01334],[138.95265,36.01272],[138.95287,36.01246],[138.95315,36.01223],[138.95434,36.01152],[138.95469,36.01142],[138.95547,36.01136],[138.95629,36.01104],[138.95725,36.01096],[138.95774,36.01077],[138.95801,36.01059],[138.95825,36.01031],[138.95823,36.01028],[138.95862,36.01005],[138.9597,36.01],[138.9607,36.01031],[138.96094,36.01045],[138.96179,36.01156],[138.96194,36.01168],[138.96222,36.01178],[138.96322,36.01169]]}},{"type":"Feature","properties":{"idx":49,"road":"両神小鹿野線","cls":"secondary","shops":0,"st_km":7.6,"mesh":"54380725"},"geometry":{"type":"LineString","coordinates":[[138.93747,36.02046],[138.93779,36.02031]]}},{"type":"Feature","properties":{"idx":10,"road":"両神小鹿野線","cls":"secondary","shops":0,"st_km":7.68,"mesh":"54380724"},"geometry":{"type":"LineString","coordinates":[[138.93645,36.02081],[138.93678,36.0207]]}},{"type":"Feature","properties":{"idx":9,"road":"両神小鹿野線","cls":"secondary","shops":0,"st_km":6.35,"mesh":"54380727"},"geometry":{"type":"LineString","coordinates":[[138.96968,36.01693],[138.96989,36.01711]]}},{"type":"Feature","properties":{"idx":10,"road":"両神小鹿野線","cls":"secondary","shops":0,"st_km":7.64,"mesh":"54380724"},"geometry":{"type":"LineString","coordinates":[[138.93678,36.0207],[138.93747,36.02046]]}},{"type":"Feature","properties":{"idx":44,"road":"両神小鹿野線","cls":"secondary","shops":0,"st_km":8.27,"mesh":"54380723"},"geometry":{"type":"LineString","coordinates":[[138.91549,36.01394],[138.91569,36.01417],[138.91582,36.01443],[138.91582,36.01454],[138.91569,36.01487],[138.91574,36.01496],[138.91598,36.01508],[138.91696,36.01521],[138.91736,36.01545],[138.91755,36.01564],[138.91795,36.01638],[138.91836,36.01675],[138.91848,36.01694],[138.91859,36.01735],[138.91857,36.01755],[138.9184,36.01784],[138.91811,36.01812],[138.91775,36.01871],[138.91773,36.0189],[138.91783,36.01902],[138.91797,36.01907],[138.91818,36.01906],[138.92004,36.01846],[138.92082,36.01844],[138.92118,36.01854],[138.92155,36.01885],[138.92181,36.0194],[138.9219,36.0198],[138.92192,36.02015],[138.92183,36.02049],[138.92188,36.02067],[138.92198,36.02072],[138.92222,36.02067],[138.92239,36.02059],[138.92308,36.02005],[138.92343,36.01992],[138.92367,36.01993],[138.92407,36.02003],[138.92444,36.02004],[138.92499,36.02028],[138.9254,36.02037],[138.92573,36.02055],[138.92601,36.02081],[138.92668,36.02178],[138.92698,36.02213],[138.92725,36.02232],[138.92786,36.02254],[138.92825,36.023],[138.92864,36.02321],[138.92944,36.0234],[138.92971,36.02336],[138.93021,36.02311],[138.93122,36.02286],[138.93281,36.02152],[138.93319,36.02142],[138.93553,36.02107],[138.93645,36.02081]]}},{"type":"Feature","properties":{"idx":177,"road":"皆野両神荒川線","cls":"primary","shops":0,"st_km":7.55,"mesh":"54380738"},"geometry":{"type":"LineString","coordinates":[[138.98789,36.02834],[138.98705,36.02711]]}},{"type":"Feature","properties":{"idx":27,"road":"皆野両神荒川線","cls":"primary","shops":0,"st_km":6.27,"mesh":"54380717"},"geometry":{"type":"LineString","coordinates":[[138.97111,36.01684],[138.97148,36.01608]]}},{"type":"Feature","properties":{"idx":94,"road":"皆野両神荒川線","cls":"primary","shops":0,"st_km":8.13,"mesh":"54380739"},"geometry":{"type":"LineString","coordinates":[[138.99089,36.03368],[138.99101,36.03292],[138.99092,36.03232],[138.99057,36.03174]]}},{"type":"Feature","properties":{"idx":94,"road":"皆野両神荒川線","cls":"primary","shops":0,"st_km":7.9,"mesh":"54380739"},"geometry":{"type":"LineString","coordinates":[[138.99057,36.03174],[138.9903,36.03134],[138.98936,36.0304],[138.98884,36.02972]]}},{"type":"Feature","properties":{"idx":800,"road":"皆野両神荒川線","cls":"primary","shops":0,"st_km":6.59,"mesh":"54380728"},"geometry":{"type":"LineString","coordinates":[[138.98368,36.02241],[138.98263,36.02137],[138.98225,36.02106],[138.98199,36.02093],[138.98062,36.02046],[138.97925,36.01987],[138.97798,36.01966],[138.97633,36.01954],[138.97543,36.01941],[138.97398,36.01902],[138.97353,36.01904],[138.973,36.01919],[138.97271,36.01917],[138.97243,36.01908],[138.97132,36.0182],[138.97122,36.01799],[138.97104,36.01731],[138.97102,36.01714],[138.97111,36.01684]]}},{"type":"Feature","properties":{"idx":2,"road":"藤倉吉田線","cls":"secondary","shops":0,"st_km":14.66,"mesh":"54380792"},"geometry":{"type":"LineString","coordinates":[[138.90163,36.07789],[138.90167,36.07725],[138.90186,36.07679],[138.90251,36.07629]]}},{"type":"Feature","properties":{"idx":3,"road":"藤倉吉田線","cls":"secondary","shops":0,"st_km":10.94,"mesh":"54380766"},"geometry":{"type":"LineString","coordinates":[[138.96202,36.05789],[138.96074,36.05794]]}},{"type":"Feature","properties":{"idx":7,"road":"藤倉吉田線","cls":"secondary","shops":0,"st_km":10.77,"mesh":"54380765"},"geometry":{"type":"LineString","coordinates":[[138.94771,36.05416],[138.94802,36.05416]]}},{"type":"Feature","properties":{"idx":3,"road":"藤倉吉田線","cls":"secondary","shops":0,"st_km":10.5,"mesh":"54380766"},"geometry":{"type":"LineString","coordinates":[[138.96074,36.05794],[138.96033,36.05796],[138.95999,36.05789],[138.95885,36.05744],[138.95775,36.05684],[138.9576,36.05663],[138.95744,36.0562],[138.95734,36.05605],[138.95626,36.05535],[138.95607,36.05517],[138.95535,36.05428],[138.95527,36.05405],[138.95516,36.05316],[138.95508,36.05297],[138.95426,36.05212],[138.95399,36.0519],[138.9538,36.05181],[138.95359,36.05176],[138.95259,36.05174],[138.95163,36.05175],[138.95133,36.05184],[138.95113,36.05196],[138.95056,36.05267],[138.95028,36.0529],[138.9498,36.05311],[138.94897,36.05326],[138.94873,36.05348],[138.94848,36.0539],[138.94827,36.0541],[138.94802,36.05416]]}},{"type":"Feature","properties":{"idx":18,"road":"","cls":"tertiary","shops":0,"st_km":8.48,"mesh":"54380748"},"geometry":{"type":"LineString","coordinates":[[138.97414,36.03772],[138.97445,36.03757],[138.97501,36.03741],[138.97539,36.03716],[138.97734,36.03646],[138.97794,36.03597],[138.97859,36.03574],[138.97874,36.03564],[138.97917,36.03485]]}},{"type":"Feature","properties":{"idx":3,"road":"","cls":"tertiary","shops":0,"st_km":10.51,"mesh":"54380766"},"geometry":{"type":"LineString","coordinates":[[138.95706,36.0517],[138.95711,36.05271],[138.95728,36.05289],[138.95769,36.05308],[138.95775,36.05322],[138.95764,36.05342],[138.95746,36.05354],[138.95717,36.0535],[138.95684,36.05326],[138.95584,36.05192],[138.95568,36.05181],[138.95518,36.05168],[138.95486,36.05173]]}},{"type":"Feature","properties":{"idx":494,"road":"","cls":"tertiary","shops":0,"st_km":6.88,"mesh":"54380729"},"geometry":{"type":"LineString","coordinates":[[138.99764,36.0218],[138.99734,36.02127],[138.99736,36.02123],[138.99955,36.02]]}},{"type":"Feature","properties":{"idx":9,"road":"","cls":"tertiary","shops":0,"st_km":10.22,"mesh":"54380767"},"geometry":{"type":"LineString","coordinates":[[138.96632,36.05279],[138.96647,36.05284],[138.9666,36.0526],[138.96668,36.05253],[138.96791,36.05241],[138.96827,36.05223],[138.96877,36.05172],[138.96908,36.05112],[138.96956,36.05071],[138.96959,36.05039],[138.96953,36.05017]]}},{"type":"Feature","properties":{"idx":9,"road":"","cls":"tertiary","shops":0,"st_km":10.23,"mesh":"54380767"},"geometry":{"type":"LineString","coordinates":[[138.96177,36.05131],[138.96342,36.05185]]}},{"type":"Feature","properties":{"idx":22,"road":"","cls":"tertiary","shops":0,"st_km":5.84,"mesh":"54380717"},"geometry":{"type":"LineString","coordinates":[[138.96348,36.01164],[138.96411,36.01152]]}},{"type":"Feature","properties":{"idx":3,"road":"","cls":"tertiary","shops":0,"st_km":10.42,"mesh":"54380766"},"geometry":{"type":"LineString","coordinates":[[138.95426,36.05212],[138.95431,36.05208]]}},{"type":"Feature","properties":{"idx":9,"road":"","cls":"tertiary","shops":0,"st_km":10.26,"mesh":"54380767"},"geometry":{"type":"LineString","coordinates":[[138.96342,36.05185],[138.96369,36.05194]]}},{"type":"Feature","properties":{"idx":3,"road":"","cls":"tertiary","shops":0,"st_km":10.39,"mesh":"54380766"},"geometry":{"type":"LineString","coordinates":[[138.95431,36.05208],[138.95486,36.05173]]}},{"type":"Feature","properties":{"idx":61,"road":"","cls":"tertiary","shops":0,"st_km":5.2,"mesh":"54380707"},"geometry":{"type":"LineString","coordinates":[[138.9748,36.00709],[138.97409,36.00689],[138.97385,36.00687],[138.97305,36.00697],[138.9727,36.00696],[138.97227,36.00709]]}},{"type":"Feature","properties":{"idx":9,"road":"","cls":"tertiary","shops":0,"st_km":10.29,"mesh":"54380767"},"geometry":{"type":"LineString","coordinates":[[138.96632,36.05279],[138.96369,36.05194]]}},{"type":"Feature","properties":{"idx":23,"road":"","cls":"tertiary","shops":0,"st_km":8.85,"mesh":"54380747"},"geometry":{"type":"LineString","coordinates":[[138.97201,36.03982],[138.97221,36.03978]]}},{"type":"Feature","properties":{"idx":22,"road":"","cls":"tertiary","shops":0,"st_km":5.73,"mesh":"54380717"},"geometry":{"type":"LineString","coordinates":[[138.96411,36.01152],[138.9645,36.01144],[138.96556,36.01104],[138.96607,36.01093],[138.96648,36.01094],[138.9673,36.01117],[138.96851,36.01139],[138.96981,36.01198]]}},{"type":"Feature","properties":{"idx":23,"road":"","cls":"tertiary","shops":0,"st_km":8.82,"mesh":"54380747"},"geometry":{"type":"LineString","coordinates":[[138.97221,36.03978],[138.97239,36.03966],[138.9725,36.03954],[138.97258,36.0393]]}},{"type":"Feature","properties":{"idx":22,"road":"","cls":"tertiary","shops":0,"st_km":5.86,"mesh":"54380717"},"geometry":{"type":"LineString","coordinates":[[138.96322,36.01169],[138.96348,36.01164]]}},{"type":"Feature","properties":{"idx":494,"road":"","cls":"tertiary","shops":0,"st_km":7.03,"mesh":"54380729"},"geometry":{"type":"LineString","coordinates":[[138.99796,36.0226],[138.99764,36.0218]]}},{"type":"Feature","properties":{"idx":3,"road":"","cls":"tertiary","shops":0,"st_km":10.2,"mesh":"54380766"},"geometry":{"type":"LineString","coordinates":[[138.95785,36.05075],[138.95849,36.05058],[138.95901,36.05058],[138.95919,36.05064],[138.95945,36.05095],[138.95978,36.05101],[138.96007,36.05093],[138.96045,36.05055],[138.96081,36.05049],[138.96102,36.05059],[138.96135,36.05112],[138.96177,36.05131]]}},{"type":"Feature","properties":{"idx":23,"road":"","cls":"tertiary","shops":0,"st_km":9.06,"mesh":"54380747"},"geometry":{"type":"LineString","coordinates":[[138.96757,36.04253],[138.96765,36.04234],[138.96784,36.04212],[138.96827,36.04181],[138.96868,36.04169],[138.96924,36.04145],[138.97048,36.04042]]}},{"type":"Feature","properties":{"idx":494,"road":"","cls":"tertiary","shops":0,"st_km":7.21,"mesh":"54380729"},"geometry":{"type":"LineString","coordinates":[[138.99806,36.02421],[138.99827,36.02415],[138.99932,36.02343],[138.99972,36.02326]]}},{"type":"Feature","properties":{"idx":142,"road":"","cls":"tertiary","shops":0,"st_km":8.05,"mesh":"54380738"},"geometry":{"type":"LineString","coordinates":[[138.97917,36.03485],[138.97933,36.03427],[138.97956,36.03405],[138.98042,36.03361],[138.981,36.03317],[138.98192,36.03211],[138.98243,36.03178],[138.98335,36.03131],[138.98388,36.03076],[138.98393,36.03065]]}},{"type":"Feature","properties":{"idx":76,"road":"","cls":"tertiary","shops":0,"st_km":7.38,"mesh":"54380739"},"geometry":{"type":"LineString","coordinates":[[138.99118,36.02862],[138.99106,36.02837],[138.99204,36.0265],[138.99224,36.02623],[138.99431,36.02524],[138.99593,36.02393],[138.99679,36.02341],[138.99735,36.02314],[138.99796,36.0226]]}},{"type":"Feature","properties":{"idx":23,"road":"","cls":"tertiary","shops":0,"st_km":8.88,"mesh":"54380747"},"geometry":{"type":"LineString","coordinates":[[138.97201,36.03982],[138.97103,36.04003],[138.97048,36.04042]]}},{"type":"Feature","properties":{"idx":3,"road":"","cls":"tertiary","shops":0,"st_km":10.26,"mesh":"54380766"},"geometry":{"type":"LineString","coordinates":[[138.95706,36.0517],[138.95713,36.05132],[138.95726,36.05116],[138.9576,36.05088],[138.95785,36.05075]]}},{"type":"Feature","properties":{"idx":23,"road":"","cls":"tertiary","shops":0,"st_km":8.7,"mesh":"54380747"},"geometry":{"type":"LineString","coordinates":[[138.97258,36.0393],[138.97286,36.03892],[138.97331,36.0385],[138.9735,36.03825],[138.97414,36.03772]]}},{"type":"Feature","properties":{"idx":43,"road":"","cls":"tertiary","shops":2,"st_km":5.86,"mesh":"54380717"},"geometry":{"type":"LineString","coordinates":[[138.97081,36.01255],[138.97164,36.01274],[138.97203,36.01274]]}},{"type":"Feature","properties":{"idx":6,"road":"皆野両神荒川線","cls":"primary","shops":0,"st_km":9.15,"mesh":"54380759"},"geometry":{"type":"LineString","coordinates":[[138.99684,36.04284],[138.99701,36.04243]]}},{"type":"Feature","properties":{"idx":21,"road":"皆野両神荒川線","cls":"primary","shops":0,"st_km":8.78,"mesh":"54380749"},"geometry":{"type":"LineString","coordinates":[[138.99701,36.04243],[138.99698,36.04204],[138.99644,36.04152],[138.9963,36.04132],[138.99594,36.03998],[138.99566,36.03951],[138.99518,36.0391],[138.99466,36.03878],[138.99358,36.03846],[138.99256,36.03786],[138.99147,36.03712],[138.99117,36.03681],[138.99086,36.03638],[138.99051,36.03585],[138.99038,36.03549],[138.99035,36.03527],[138.99042,36.03484],[138.99081,36.03399],[138.99089,36.03368]]}},{"type":"Feature","properties":{"idx":25,"road":"石間下吉田線","cls":"secondary","shops":0,"st_km":8.88,"mesh":"54380779"},"geometry":{"type":"LineString","coordinates":[[139.00215,36.06139],[139.00171,36.06127],[139.00147,36.06126],[139.00107,36.06141],[139.00088,36.06159],[139.00067,36.06209],[139.00022,36.06227],[138.99946,36.06303],[138.99922,36.0632],[138.99853,36.06346],[138.9984,36.06356],[138.99822,36.0638],[138.99809,36.06417],[138.99782,36.06454],[138.99749,36.06464],[138.99657,36.06465],[138.99605,36.06476],[138.99579,36.0649],[138.99565,36.0651],[138.99545,36.06554],[138.99534,36.06573],[138.9952,36.06583],[138.99489,36.06586],[138.99443,36.06576],[138.99394,36.06574],[138.99341,36.06577],[138.99309,36.06597],[138.99223,36.06671],[138.99179,36.0669],[138.99143,36.0675],[138.99099,36.06787],[138.9905,36.06809],[138.98987,36.06812],[138.9892,36.0685],[138.98854,36.06857],[138.98823,36.06878]]}},{"type":"Feature","properties":{"idx":64,"road":"石間下吉田線","cls":"secondary","shops":0,"st_km":9.92,"mesh":"54380798"},"geometry":{"type":"LineString","coordinates":[[138.98631,36.0836],[138.98651,36.08327],[138.98664,36.08288],[138.98649,36.08252],[138.98632,36.08179],[138.98518,36.081],[138.98503,36.08085],[138.9849,36.08031],[138.9848,36.08017],[138.98424,36.07989],[138.98393,36.07967],[138.98372,36.07946],[138.9837,36.07933],[138.98412,36.078],[138.98413,36.07773],[138.98442,36.07729],[138.9843,36.07679],[138.9843,36.0765],[138.9846,36.07627],[138.9848,36.07605],[138.98507,36.07542],[138.98506,36.07528],[138.98499,36.07516],[138.98458,36.07481],[138.98443,36.07458],[138.9844,36.07433],[138.98446,36.07404],[138.98468,36.07376],[138.98527,36.07354],[138.98583,36.07326],[138.98592,36.07314],[138.98602,36.0728],[138.98613,36.07268],[138.98682,36.07214],[138.98699,36.07187],[138.98711,36.07113],[138.98758,36.07059],[138.98762,36.07021]]}},{"type":"Feature","properties":{"idx":28,"road":"藤倉吉田線","cls":"secondary","shops":0,"st_km":11.28,"mesh":"54380777"},"geometry":{"type":"LineString","coordinates":[[138.96898,36.06266],[138.96902,36.0627]]}},{"type":"Feature","properties":{"idx":28,"road":"藤倉吉田線","cls":"secondary","shops":0,"st_km":11.29,"mesh":"54380777"},"geometry":{"type":"LineString","coordinates":[[138.96885,36.06257],[138.96898,36.06266]]}},{"type":"Feature","properties":{"idx":28,"road":"藤倉吉田線","cls":"secondary","shops":0,"st_km":11.18,"mesh":"54380777"},"geometry":{"type":"LineString","coordinates":[[138.96885,36.06257],[138.96854,36.0623],[138.96843,36.06214],[138.9683,36.06177],[138.96817,36.06152],[138.96798,36.06136],[138.96759,36.06117],[138.96668,36.06088],[138.96608,36.06044],[138.96576,36.06041],[138.96518,36.06051],[138.96496,36.06046],[138.96482,36.05974],[138.96491,36.05922],[138.9649,36.05898],[138.96453,36.05806],[138.96448,36.05797],[138.96429,36.05784],[138.96382,36.05781]]}},{"type":"Feature","properties":{"idx":3,"road":"藤倉吉田線","cls":"secondary","shops":0,"st_km":10.93,"mesh":"54380766"},"geometry":{"type":"LineString","coordinates":[[138.9624,36.05789],[138.96202,36.05789]]}},{"type":"Feature","properties":{"idx":10,"road":"藤倉吉田線","cls":"secondary","shops":0,"st_km":10.92,"mesh":"54380767"},"geometry":{"type":"LineString","coordinates":[[138.96382,36.05781],[138.9624,36.05789]]}},{"type":"Feature","properties":{"idx":4,"road":"","cls":"tertiary","shops":0,"st_km":11.13,"mesh":"54380776"},"geometry":{"type":"LineString","coordinates":[[138.96394,36.05781],[138.9638,36.05846],[138.96371,36.05861],[138.963,36.059],[138.96222,36.05976],[138.96219,36.05997],[138.96229,36.0605],[138.96228,36.06063],[138.96205,36.06125],[138.96195,36.06135],[138.96114,36.06182]]}},{"type":"Feature","properties":{"idx":3,"road":"","cls":"tertiary","shops":0,"st_km":11.75,"mesh":"54380776"},"geometry":{"type":"LineString","coordinates":[[138.95703,36.06757],[138.95716,36.06732],[138.95724,36.06679],[138.95711,36.06625],[138.95713,36.06607],[138.95745,36.06464],[138.95753,36.06451],[138.95772,36.06436],[138.95794,36.06431],[138.95882,36.06448],[138.95903,36.06446],[138.95934,36.06422],[138.95946,36.06375],[138.95979,36.06348]]}},{"type":"Feature","properties":{"idx":6,"road":"","cls":"tertiary","shops":0,"st_km":12.21,"mesh":"54380786"},"geometry":{"type":"LineString","coordinates":[[138.95621,36.06811],[138.95596,36.06862],[138.95587,36.06871],[138.95503,36.06913]]}},{"type":"Feature","properties":{"idx":5,"road":"","cls":"tertiary","shops":0,"st_km":8.97,"mesh":"54380759"},"geometry":{"type":"LineString","coordinates":[[138.99902,36.04506],[138.99842,36.04512]]}},{"type":"Feature","properties":{"idx":3,"road":"","cls":"tertiary","shops":0,"st_km":11.47,"mesh":"54380776"},"geometry":{"type":"LineString","coordinates":[[138.96006,36.06329],[138.96091,36.06266],[138.96098,36.0625],[138.96102,36.06193],[138.96114,36.06182]]}},{"type":"Feature","properties":{"idx":6,"road":"","cls":"tertiary","shops":0,"st_km":12.1,"mesh":"54380786"},"geometry":{"type":"LineString","coordinates":[[138.95621,36.06811],[138.95669,36.06788],[138.95703,36.06757]]}},{"type":"Feature","properties":{"idx":5,"road":"","cls":"tertiary","shops":0,"st_km":9.04,"mesh":"54380759"},"geometry":{"type":"LineString","coordinates":[[138.99842,36.04512],[138.99793,36.04507],[138.99757,36.04494]]}},{"type":"Feature","properties":{"idx":8,"road":"高崎神流秩父線","cls":"primary","shops":0,"st_km":10.5,"mesh":"54380778"},"geometry":{"type":"LineString","coordinates":[[138.9781,36.0565],[138.97811,36.05671],[138.9785,36.05719],[138.97857,36.05739],[138.97848,36.05787],[138.97836,36.05809],[138.97806,36.05843],[138.97782,36.05858],[138.97757,36.05865],[138.97574,36.0587],[138.97556,36.05876]]}},{"type":"Feature","properties":{"idx":31,"road":"高崎神流秩父線","cls":"primary","shops":0,"st_km":11.3,"mesh":"54380777"},"geometry":{"type":"LineString","coordinates":[[138.96802,36.06406],[138.96876,36.06341],[138.96884,36.06296],[138.96889,36.06282],[138.96902,36.0627]]}},{"type":"Feature","properties":{"idx":5,"road":"高崎神流秩父線","cls":"primary","shops":0,"st_km":12.34,"mesh":"54380796"},"geometry":{"type":"LineString","coordinates":[[138.9609,36.07768],[138.96067,36.07789],[138.96022,36.07811],[138.9595,36.07833],[138.95868,36.07843],[138.95859,36.0786],[138.95854,36.07923],[138.95827,36.07966],[138.95811,36.07981],[138.95737,36.08024],[138.95719,36.08042],[138.95642,36.08149],[138.95601,36.0828],[138.95587,36.0836]]}},{"type":"Feature","properties":{"idx":5,"road":"高崎神流秩父線","cls":"primary","shops":0,"st_km":11.91,"mesh":"54380796"},"geometry":{"type":"LineString","coordinates":[[138.96103,36.07735],[138.96114,36.07714],[138.96139,36.07698],[138.96184,36.07654],[138.96232,36.07561],[138.96285,36.07513],[138.96306,36.07484]]}},{"type":"Feature","properties":{"idx":5,"road":"高崎神流秩父線","cls":"primary","shops":0,"st_km":12.02,"mesh":"54380796"},"geometry":{"type":"LineString","coordinates":[[138.96103,36.07735],[138.9609,36.07768]]}},{"type":"Feature","properties":{"idx":7,"road":"高崎神流秩父線","cls":"primary","shops":0,"st_km":10.74,"mesh":"54380778"},"geometry":{"type":"LineString","coordinates":[[138.97556,36.05876],[138.97531,36.05891]]}},{"type":"Feature","properties":{"idx":10,"road":"高崎神流秩父線","cls":"primary","shops":0,"st_km":10.52,"mesh":"54380768"},"geometry":{"type":"LineString","coordinates":[[138.97834,36.05612],[138.9781,36.0565]]}},{"type":"Feature","properties":{"idx":31,"road":"高崎神流秩父線","cls":"primary","shops":0,"st_km":11.37,"mesh":"54380777"},"geometry":{"type":"LineString","coordinates":[[138.96785,36.06421],[138.96802,36.06406]]}},{"type":"Feature","properties":{"idx":31,"road":"高崎神流秩父線","cls":"primary","shops":0,"st_km":11.0,"mesh":"54380777"},"geometry":{"type":"LineString","coordinates":[[138.9697,36.06171],[138.96993,36.06139],[138.97043,36.06092],[138.97076,36.0605],[138.97132,36.05959],[138.97185,36.05914],[138.97255,36.0589],[138.97334,36.05875],[138.97397,36.05871],[138.9751,36.05897],[138.97531,36.05891]]}},{"type":"Feature","properties":{"idx":27,"road":"皆野両神荒川線","cls":"primary","shops":0,"st_km":5.4,"mesh":"54380717"},"geometry":{"type":"LineString","coordinates":[[138.97203,36.01274],[138.97197,36.01257],[138.97177,36.01078],[138.97168,36.01042],[138.9714,36.00974],[138.97137,36.00951],[138.97145,36.00907],[138.97216,36.00754],[138.97227,36.00718],[138.97221,36.00667],[138.97187,36.00528],[138.97187,36.0045]]}},{"type":"Feature","properties":{"idx":556,"road":"小鹿野影森停車場線","cls":"secondary","shops":0,"st_km":7.25,"mesh":"54380729"},"geometry":{"type":"LineString","coordinates":[[138.99797,36.02565],[138.99805,36.02446],[138.99806,36.02314],[138.99796,36.0226]]}},{"type":"Feature","properties":{"idx":22,"road":"","cls":"tertiary","shops":0,"st_km":5.74,"mesh":"54380717"},"geometry":{"type":"LineString","coordinates":[[138.97493,36.01186],[138.9743,36.01189]]}},{"type":"Feature","properties":{"idx":22,"road":"","cls":"tertiary","shops":0,"st_km":5.74,"mesh":"54380717"},"geometry":{"type":"LineString","coordinates":[[138.9743,36.01189],[138.9735,36.0119],[138.97298,36.01177],[138.97279,36.01177],[138.97189,36.0119]]}},{"type":"Feature","properties":{"idx":94,"road":"皆野両神荒川線","cls":"primary","shops":0,"st_km":7.7,"mesh":"54380739"},"geometry":{"type":"LineString","coordinates":[[138.98884,36.02972],[138.98789,36.02834]]}},{"type":"Feature","properties":{"idx":9,"road":"皆野両神荒川線","cls":"primary","shops":1,"st_km":9.19,"mesh":"54380759"},"geometry":{"type":"LineString","coordinates":[[138.99661,36.04343],[138.99684,36.04284]]}},{"type":"Feature","properties":{"idx":31,"road":"高崎神流秩父線","cls":"primary","shops":0,"st_km":11.24,"mesh":"54380777"},"geometry":{"type":"LineString","coordinates":[[138.96902,36.0627],[138.96946,36.06235],[138.9697,36.06171]]}},{"type":"Feature","properties":{"idx":20,"road":"藤倉吉田線","cls":"secondary","shops":0,"st_km":13.55,"mesh":"54380782"},"geometry":{"type":"LineString","coordinates":[[138.90216,36.07438],[138.90195,36.07404],[138.90167,36.07341],[138.9017,36.07324],[138.90177,36.07314],[138.90199,36.07295],[138.90239,36.07273],[138.90298,36.0723],[138.90382,36.07214],[138.90418,36.07194],[138.90444,36.07172],[138.90527,36.07073],[138.9062,36.07047],[138.90714,36.07015],[138.9075,36.06999],[138.90797,36.06988],[138.90813,36.06981],[138.90857,36.06947],[138.91148,36.06896],[138.91162,36.06889],[138.91274,36.06801],[138.91298,36.06791],[138.91339,36.06788],[138.91418,36.06792],[138.9148,36.06777],[138.91568,36.06772],[138.91602,36.06761],[138.91672,36.06723],[138.91676,36.06712],[138.9167,36.06628],[138.91683,36.06608],[138.91822,36.06498],[138.91904,36.06457]]}},{"type":"Feature","properties":{"idx":48,"road":"藤倉吉田線","cls":"secondary","shops":0,"st_km":12.02,"mesh":"54380774"},"geometry":{"type":"LineString","coordinates":[[138.9402,36.0561],[138.93998,36.05633],[138.93983,36.05657],[138.93962,36.05693],[138.93947,36.05738],[138.93957,36.05805],[138.93973,36.05838],[138.93973,36.05856],[138.93952,36.05874],[138.9391,36.05885],[138.93879,36.05937],[138.93838,36.0597],[138.93731,36.06019],[138.93609,36.06115],[138.9359,36.06123],[138.93559,36.06127],[138.93535,36.06123],[138.9339,36.06066],[138.93305,36.06056],[138.93292,36.06061],[138.93285,36.0607],[138.93289,36.06114],[138.93287,36.06145],[138.93238,36.06193],[138.93218,36.06195],[138.9314,36.0618],[138.92987,36.06177],[138.92879,36.0616],[138.92797,36.0617],[138.9266,36.06175],[138.92627,36.06182],[138.92556,36.06208],[138.9248,36.06254],[138.92401,36.06291],[138.9227,36.06321],[138.92246,36.06331],[138.9215,36.06405],[138.92115,36.06423],[138.92075,36.06434],[138.9194,36.06444],[138.91904,36.06457]]}},{"type":"Feature","properties":{"idx":7,"road":"藤倉吉田線","cls":"secondary","shops":0,"st_km":11.12,"mesh":"54380765"},"geometry":{"type":"LineString","coordinates":[[138.9402,36.0561],[138.94084,36.05541]]}},{"type":"Feature","properties":{"idx":7,"road":"藤倉吉田線","cls":"secondary","shops":0,"st_km":10.59,"mesh":"54380765"},"geometry":{"type":"LineString","coordinates":[[138.94084,36.05541],[138.94105,36.05525],[138.94169,36.0549],[138.94205,36.05436],[138.94313,36.05363],[138.94321,36.0535],[138.9431,36.0531],[138.94316,36.05284],[138.94354,36.0525],[138.94384,36.05182],[138.944,36.05174],[138.94466,36.05177],[138.94506,36.0517],[138.94524,36.05155],[138.94538,36.05128],[138.94551,36.05115],[138.94587,36.05104],[138.94632,36.05104],[138.94652,36.05108],[138.94667,36.05123],[138.94658,36.05177],[138.94675,36.05229],[138.94659,36.05297],[138.94666,36.05369],[138.9467,36.05377],[138.94715,36.05409],[138.94771,36.05416]]}},{"type":"Feature","properties":{"idx":16,"road":"両神小鹿野線","cls":"secondary","shops":1,"st_km":11.73,"mesh":"54380730"},"geometry":{"type":"LineString","coordinates":[[138.87848,36.02837],[138.87828,36.02849],[138.87797,36.02847],[138.87788,36.02842],[138.87775,36.02786],[138.87758,36.02773],[138.87757,36.02767],[138.8777,36.02763],[138.87782,36.02767],[138.87804,36.02801],[138.87834,36.02799]]}},{"type":"Feature","properties":{"idx":27,"road":"皆野両神荒川線","cls":"primary","shops":0,"st_km":6.04,"mesh":"54380717"},"geometry":{"type":"LineString","coordinates":[[138.97148,36.01608],[138.97217,36.01466],[138.9725,36.01362],[138.97247,36.01344],[138.97203,36.01274]]}},{"type":"Feature","properties":{"idx":800,"road":"皆野両神荒川線","cls":"primary","shops":0,"st_km":7.2,"mesh":"54380728"},"geometry":{"type":"LineString","coordinates":[[138.98705,36.02711],[138.98421,36.023],[138.98368,36.02241]]}},{"type":"Feature","properties":{"idx":22,"road":"","cls":"tertiary","shops":0,"st_km":5.82,"mesh":"54380717"},"geometry":{"type":"LineString","coordinates":[[138.96981,36.01198],[138.97081,36.01255]]}},{"type":"Feature","properties":{"idx":77,"road":"皆野両神荒川線","cls":"primary","shops":0,"st_km":4.74,"mesh":"54380707"},"geometry":{"type":"LineString","coordinates":[[138.97187,36.0045],[138.97185,36.00396],[138.97146,36.00282],[138.97104,36.00055]]}},{"type":"Feature","properties":{"idx":92,"road":"","cls":"tertiary","shops":1,"st_km":4.95,"mesh":"54380707"},"geometry":{"type":"LineString","coordinates":[[138.97142,36.0045],[138.97187,36.0045]]}},{"type":"Feature","properties":{"idx":3,"road":"","cls":"tertiary","shops":0,"st_km":11.56,"mesh":"54380776"},"geometry":{"type":"LineString","coordinates":[[138.95979,36.06348],[138.96006,36.06329]]}},{"type":"Feature","properties":{"idx":2,"road":"藤倉吉田線","cls":"secondary","shops":0,"st_km":14.89,"mesh":"54380792"},"geometry":{"type":"LineString","coordinates":[[138.89911,36.07946],[138.8997,36.07908],[138.90112,36.07838],[138.90141,36.07817],[138.90154,36.07802]]}},{"type":"Feature","properties":{"idx":2,"road":"藤倉吉田線","cls":"secondary","shops":0,"st_km":14.76,"mesh":"54380792"},"geometry":{"type":"LineString","coordinates":[[138.90154,36.07802],[138.90163,36.07789]]}},{"type":"Feature","properties":{"idx":2,"road":"藤倉吉田線","cls":"secondary","shops":0,"st_km":14.45,"mesh":"54380792"},"geometry":{"type":"LineString","coordinates":[[138.90259,36.0762],[138.90275,36.07556],[138.90216,36.07438]]}},{"type":"Feature","properties":{"idx":2,"road":"藤倉吉田線","cls":"secondary","shops":0,"st_km":14.55,"mesh":"54380792"},"geometry":{"type":"LineString","coordinates":[[138.90251,36.07629],[138.90259,36.0762]]}}]}