{"type":"FeatureCollection","features":[{"type":"Feature","properties":{"idx":2,"road":"中津川三峰口停車場線","cls":"secondary","shops":0,"st_km":16.56,"mesh":"54380614"},"geometry":{"type":"LineString","coordinates":[[138.80406,36.00887],[138.80419,36.00894],[138.80429,36.00915],[138.80465,36.00912]]}},{"type":"Feature","properties":{"idx":2,"road":"中津川三峰口停車場線","cls":"secondary","shops":0,"st_km":15.93,"mesh":"54380604"},"geometry":{"type":"LineString","coordinates":[[138.81164,36.00435],[138.81108,36.00437],[138.81088,36.00446],[138.81074,36.00466],[138.81051,36.00526],[138.81011,36.00539],[138.81003,36.00546],[138.81002,36.00557],[138.81017,36.00597],[138.81012,36.00604],[138.8097,36.00614],[138.80953,36.00628],[138.80948,36.00638],[138.80948,36.00653],[138.80957,36.00684],[138.80951,36.00691]]}},{"type":"Feature","properties":{"idx":2,"road":"中津川三峰口停車場線","cls":"secondary","shops":0,"st_km":16.56,"mesh":"54380614"},"geometry":{"type":"LineString","coordinates":[[138.80991,36.01836],[138.80836,36.01738],[138.80824,36.01726],[138.80811,36.0168],[138.80799,36.01666],[138.80729,36.01636],[138.80624,36.01565],[138.80604,36.0155],[138.80592,36.0153],[138.80564,36.01501],[138.80517,36.01475]]}},{"type":"Feature","properties":{"idx":2,"road":"中津川三峰口停車場線","cls":"secondary","shops":0,"st_km":16.07,"mesh":"54380604"},"geometry":{"type":"LineString","coordinates":[[138.80876,36.00715],[138.80951,36.00691]]}},{"type":"Feature","properties":{"idx":2,"road":"中津川三峰口停車場線","cls":"secondary","shops":0,"st_km":16.48,"mesh":"54380614"},"geometry":{"type":"LineString","coordinates":[[138.80465,36.00912],[138.80556,36.00891]]}},{"type":"Feature","properties":{"idx":1,"road":"中津川三峰口停車場線","cls":"secondary","shops":0,"st_km":16.58,"mesh":"54380614"},"geometry":{"type":"LineString","coordinates":[[138.80406,36.00887],[138.80385,36.00887]]}},{"type":"Feature","properties":{"idx":1,"road":"中津川三峰口停車場線","cls":"secondary","shops":0,"st_km":16.68,"mesh":"54380614"},"geometry":{"type":"LineString","coordinates":[[138.80385,36.00887],[138.80361,36.00887],[138.80349,36.00894],[138.80335,36.00941],[138.80302,36.00994],[138.80202,36.01073]]}},{"type":"Feature","properties":{"idx":2,"road":"中津川三峰口停車場線","cls":"secondary","shops":0,"st_km":16.22,"mesh":"54380604"},"geometry":{"type":"LineString","coordinates":[[138.80625,36.0085],[138.80705,36.00818],[138.80737,36.00814],[138.80789,36.00828],[138.80809,36.00829],[138.80823,36.00823],[138.80833,36.00807],[138.80845,36.00743],[138.80871,36.00719]]}},{"type":"Feature","properties":{"idx":2,"road":"中津川三峰口停車場線","cls":"secondary","shops":0,"st_km":15.74,"mesh":"54380604"},"geometry":{"type":"LineString","coordinates":[[138.81164,36.00435],[138.81199,36.00415]]}},{"type":"Feature","properties":{"idx":1,"road":"中津川三峰口停車場線","cls":"secondary","shops":0,"st_km":16.69,"mesh":"54380614"},"geometry":{"type":"LineString","coordinates":[[138.80505,36.0147],[138.80526,36.01456]]}},{"type":"Feature","properties":{"idx":1,"road":"中津川三峰口停車場線","cls":"secondary","shops":0,"st_km":16.7,"mesh":"54380614"},"geometry":{"type":"LineString","coordinates":[[138.80511,36.01472],[138.80505,36.0147]]}},{"type":"Feature","properties":{"idx":1,"road":"中津川三峰口停車場線","cls":"secondary","shops":0,"st_km":16.7,"mesh":"54380614"},"geometry":{"type":"LineString","coordinates":[[138.80517,36.01475],[138.80511,36.01472]]}},{"type":"Feature","properties":{"idx":2,"road":"中津川三峰口停車場線","cls":"secondary","shops":0,"st_km":16.41,"mesh":"54380614"},"geometry":{"type":"LineString","coordinates":[[138.80556,36.00891],[138.80616,36.00858]]}},{"type":"Feature","properties":{"idx":2,"road":"中津川三峰口停車場線","cls":"secondary","shops":0,"st_km":16.37,"mesh":"54380614"},"geometry":{"type":"LineString","coordinates":[[138.80616,36.00858],[138.80625,36.0085]]}},{"type":"Feature","properties":{"idx":2,"road":"中津川三峰口停車場線","cls":"secondary","shops":0,"st_km":16.11,"mesh":"54380604"},"geometry":{"type":"LineString","coordinates":[[138.80874,36.00717],[138.80876,36.00715]]}},{"type":"Feature","properties":{"idx":2,"road":"中津川三峰口停車場線","cls":"secondary","shops":0,"st_km":16.11,"mesh":"54380604"},"geometry":{"type":"LineString","coordinates":[[138.80871,36.00719],[138.80874,36.00717]]}}]}