{"type":"FeatureCollection","features":[{"type":"Feature","properties":{"idx":135,"road":"長瀞玉淀自然公園線","cls":"primary","shops":0,"st_km":0.66,"mesh":"54391019"},"geometry":{"type":"LineString","coordinates":[[139.11889,36.09004],[139.11903,36.09108],[139.11901,36.09155],[139.11883,36.0923],[139.11836,36.09307],[139.11714,36.09471]]}},{"type":"Feature","properties":{"idx":121,"road":"白鳥通り","cls":"primary","shops":0,"st_km":0.83,"mesh":"54391039"},"geometry":{"type":"LineString","coordinates":[[139.11803,36.1021],[139.11795,36.10267],[139.11765,36.10341],[139.11756,36.10381],[139.11758,36.10438],[139.11775,36.10568],[139.11818,36.10685],[139.11869,36.10928],[139.11902,36.10999],[139.11922,36.11031],[139.11989,36.11111],[139.12022,36.11158],[139.12029,36.11198],[139.12011,36.11286],[139.11956,36.11431],[139.11927,36.11488],[139.11899,36.11523],[139.11864,36.1156],[139.11814,36.11597],[139.1168,36.11652],[139.11645,36.11678],[139.1162,36.11706],[139.11586,36.1179],[139.11521,36.11931],[139.11516,36.11981],[139.1152,36.1207],[139.11546,36.12148],[139.11562,36.12179],[139.11582,36.12205],[139.11667,36.12264],[139.11792,36.12381],[139.11877,36.12431],[139.11923,36.12494],[139.12033,36.12578],[139.12091,36.12634],[139.12143,36.12692]]}},{"type":"Feature","properties":{"idx":56,"road":NaN,"cls":"tertiary","shops":0,"st_km":0.95,"mesh":"54391029"},"geometry":{"type":"LineString","coordinates":[[139.11803,36.1021],[139.11924,36.10081],[139.11945,36.10073],[139.12005,36.10063],[139.12216,36.10076],[139.12252,36.10066],[139.12398,36.10009]]}},{"type":"Feature","properties":{"idx":75,"road":"蔵前通り","cls":"tertiary","shops":0,"st_km":0.31,"mesh":"54391018"},"geometry":{"type":"LineString","coordinates":[[139.10983,36.09858],[139.10969,36.09831],[139.10949,36.09771],[139.10935,36.09706],[139.1091,36.09652],[139.10901,36.0959],[139.10913,36.09518],[139.10978,36.09405]]}},{"type":"Feature","properties":{"idx":532,"road":"北桜通り","cls":"tertiary","shops":0,"st_km":0.36,"mesh":"54391038"},"geometry":{"type":"LineString","coordinates":[[139.11185,36.10527],[139.11193,36.10624],[139.11182,36.10665],[139.11139,36.10748],[139.1113,36.10778],[139.11134,36.10794],[139.11152,36.10813],[139.1143,36.11],[139.11451,36.1102],[139.11517,36.11127]]}},{"type":"Feature","properties":{"idx":148,"road":"長瀞児玉線","cls":"secondary","shops":0,"st_km":0.46,"mesh":"54391039"},"geometry":{"type":"LineString","coordinates":[[139.11621,36.11093],[139.11582,36.1111],[139.11517,36.11127],[139.1154,36.11199],[139.11541,36.11232],[139.11484,36.11326],[139.11462,36.11414],[139.1145,36.11442],[139.11428,36.1147],[139.11346,36.1155],[139.1133,36.11583],[139.11323,36.11624],[139.11311,36.11649],[139.11285,36.11664],[139.11083,36.11706],[139.10998,36.11711]]}},{"type":"Feature","properties":{"idx":8,"road":"前橋長瀞線","cls":"primary","shops":0,"st_km":1.29,"mesh":"54391037"},"geometry":{"type":"LineString","coordinates":[[139.09045,36.10603],[139.09037,36.10622],[139.09006,36.10657],[139.09005,36.10666],[139.09037,36.10721],[139.09074,36.10754],[139.09087,36.10775],[139.09093,36.10826],[139.09108,36.10864],[139.09117,36.10902],[139.09119,36.10962],[139.0916,36.11047],[139.09176,36.11119],[139.09234,36.11209],[139.09253,36.11224],[139.09314,36.11255],[139.09358,36.11318],[139.09381,36.11338],[139.09487,36.1139],[139.09619,36.11442],[139.09728,36.11492],[139.09766,36.11515],[139.09804,36.11556],[139.09827,36.11574],[139.09965,36.11605],[139.10072,36.11651],[139.10154,36.11658],[139.10271,36.11721],[139.10309,36.11734],[139.10438,36.11751],[139.10495,36.11744],[139.10559,36.11722],[139.10588,36.11717],[139.10662,36.11732],[139.10738,36.11734],[139.10998,36.11711]]}},{"type":"Feature","properties":{"idx":497,"road":"駅前通り","cls":"secondary","shops":8,"st_km":0.15,"mesh":"54391018"},"geometry":{"type":"LineString","coordinates":[[139.11164,36.09477],[139.11064,36.09439]]}},{"type":"Feature","properties":{"idx":81,"road":"宝登山参道","cls":"tertiary","shops":0,"st_km":0.24,"mesh":"54391018"},"geometry":{"type":"LineString","coordinates":[[139.11064,36.09439],[139.10978,36.09405]]}},{"type":"Feature","properties":{"idx":4,"road":"前橋長瀞線","cls":"primary","shops":0,"st_km":4.92,"mesh":"54391065"},"geometry":{"type":"LineString","coordinates":[[139.06885,36.1436],[139.06881,36.14264],[139.06891,36.14211],[139.06892,36.14172],[139.06859,36.14082],[139.06858,36.14046],[139.06874,36.14019],[139.06931,36.13978],[139.06967,36.13918],[139.06975,36.13846],[139.07005,36.13782],[139.07021,36.13734],[139.07034,36.13719],[139.07052,36.1371],[139.07097,36.13696]]}},{"type":"Feature","properties":{"idx":3,"road":NaN,"cls":"tertiary","shops":0,"st_km":3.31,"mesh":"54391099"},"geometry":{"type":"LineString","coordinates":[[139.11919,36.16612],[139.11996,36.16597],[139.12059,36.16562],[139.12104,36.16561],[139.12127,36.16557],[139.12181,36.16529]]}},{"type":"Feature","properties":{"idx":3,"road":NaN,"cls":"tertiary","shops":0,"st_km":3.43,"mesh":"54391099"},"geometry":{"type":"LineString","coordinates":[[139.1139,36.16728],[139.11411,36.16718],[139.11418,36.16702],[139.11417,36.16658],[139.11425,36.16626],[139.11577,36.16646],[139.11606,36.1663],[139.11653,36.16617],[139.11756,36.16628],[139.11919,36.16612]]}},{"type":"Feature","properties":{"idx":3,"road":NaN,"cls":"tertiary","shops":0,"st_km":3.32,"mesh":"54391099"},"geometry":{"type":"LineString","coordinates":[[139.1242,36.16467],[139.12424,36.16411]]}},{"type":"Feature","properties":{"idx":3,"road":NaN,"cls":"tertiary","shops":0,"st_km":3.07,"mesh":"54391099"},"geometry":{"type":"LineString","coordinates":[[139.12489,36.16705],[139.12503,36.16639],[139.12487,36.16607]]}},{"type":"Feature","properties":{"idx":3,"road":NaN,"cls":"tertiary","shops":0,"st_km":3.3,"mesh":"54391099"},"geometry":{"type":"LineString","coordinates":[[139.12331,36.16496],[139.12373,36.16471],[139.1242,36.16467]]}},{"type":"Feature","properties":{"idx":3,"road":NaN,"cls":"tertiary","shops":0,"st_km":3.21,"mesh":"54391099"},"geometry":{"type":"LineString","coordinates":[[139.12487,36.16607],[139.12439,36.16529],[139.1242,36.16467]]}},{"type":"Feature","properties":{"idx":3,"road":NaN,"cls":"tertiary","shops":0,"st_km":3.29,"mesh":"54391099"},"geometry":{"type":"LineString","coordinates":[[139.12331,36.16496],[139.1229,36.16514],[139.12181,36.16529]]}},{"type":"Feature","properties":{"idx":8,"road":"前橋長瀞線","cls":"primary","shops":0,"st_km":3.66,"mesh":"54391056"},"geometry":{"type":"LineString","coordinates":[[139.07866,36.1327],[139.07844,36.13215],[139.07822,36.13189],[139.07701,36.13103],[139.07595,36.13035],[139.07566,36.13005],[139.07553,36.12971],[139.07558,36.12938],[139.07637,36.12845],[139.07659,36.12804],[139.07668,36.12773],[139.07665,36.12721],[139.07643,36.12657],[139.07638,36.12614],[139.07667,36.12433],[139.07669,36.12378]]}},{"type":"Feature","properties":{"idx":11,"road":NaN,"cls":"primary","shops":0,"st_km":4.1,"mesh":"54391097"},"geometry":{"type":"LineString","coordinates":[[139.10124,36.16458],[139.10059,36.16414],[139.10038,36.16393],[139.09911,36.16248],[139.09862,36.16183],[139.09835,36.16137],[139.09816,36.16085]]}},{"type":"Feature","properties":{"idx":39,"road":NaN,"cls":"primary","shops":0,"st_km":4.19,"mesh":"54391098"},"geometry":{"type":"LineString","coordinates":[[139.10169,36.16488],[139.10124,36.16458]]}},{"type":"Feature","properties":{"idx":59,"road":"秩父児玉線","cls":"primary","shops":0,"st_km":3.89,"mesh":"54391076"},"geometry":{"type":"LineString","coordinates":[[139.09815,36.16072],[139.09837,36.1595],[139.09839,36.15866],[139.09817,36.15834],[139.09779,36.15813],[139.09691,36.15753],[139.09644,36.15751],[139.09597,36.15769],[139.09551,36.15771],[139.09511,36.15756],[139.09487,36.1573],[139.0948,36.15701],[139.09494,36.15598],[139.09497,36.15537],[139.0948,36.15426],[139.0947,36.15407],[139.09435,36.15369],[139.09417,36.15355],[139.0938,36.15337],[139.09336,36.15332],[139.09293,36.15342],[139.09148,36.15391],[139.09128,36.15393],[139.09097,36.15387],[139.09076,36.15374],[139.09062,36.15349],[139.0906,36.15244],[139.09068,36.15192],[139.09063,36.15177],[139.09045,36.15161],[139.09016,36.15156],[139.0883,36.15187],[139.08782,36.15184],[139.08762,36.1518],[139.08709,36.15156],[139.086,36.15082],[139.08569,36.15028],[139.08567,36.15008],[139.08604,36.14904],[139.08615,36.14866],[139.08611,36.14857],[139.086,36.14843],[139.08585,36.14839],[139.08496,36.14832],[139.08468,36.14825],[139.08442,36.14811],[139.08412,36.14785],[139.08403,36.14762],[139.08409,36.14693],[139.08375,36.14525],[139.08357,36.14476],[139.08281,36.1438],[139.08193,36.1429],[139.08167,36.1425],[139.08165,36.14219],[139.08173,36.14197],[139.08211,36.14148],[139.08247,36.1411],[139.08277,36.14058],[139.08302,36.13991],[139.08302,36.13968],[139.08289,36.13944],[139.08264,36.13925],[139.08244,36.13918],[139.08145,36.13906],[139.08087,36.13908],[139.07886,36.13941],[139.07845,36.13942],[139.0776,36.13931],[139.07738,36.1392],[139.07721,36.13904],[139.07711,36.13881],[139.07712,36.13856],[139.07723,36.13835],[139.07742,36.13819],[139.07941,36.13758],[139.07956,36.13749],[139.07962,36.13738],[139.07957,36.13722],[139.07934,36.13714],[139.07764,36.1374],[139.07737,36.13741],[139.07699,36.13726],[139.07679,36.13696],[139.07679,36.13673],[139.07697,36.13646],[139.07767,36.1357],[139.07854,36.13492],[139.07887,36.13444],[139.07898,36.13405],[139.07896,36.13359],[139.07866,36.1327]]}},{"type":"Feature","properties":{"idx":17,"road":NaN,"cls":"primary","shops":1,"st_km":3.96,"mesh":"54391097"},"geometry":{"type":"LineString","coordinates":[[139.09816,36.16085],[139.09815,36.16072]]}},{"type":"Feature","properties":{"idx":63,"road":"前橋長瀞線","cls":"primary","shops":0,"st_km":3.35,"mesh":"54391046"},"geometry":{"type":"LineString","coordinates":[[139.07669,36.12378],[139.07671,36.12342]]}},{"type":"Feature","properties":{"idx":20,"road":"矢納浄法寺線","cls":"secondary","shops":0,"st_km":6.03,"mesh":"54391085"},"geometry":{"type":"LineString","coordinates":[[139.06257,36.1631],[139.06305,36.16205],[139.06362,36.16112],[139.0637,36.16037],[139.06429,36.15904],[139.0643,36.15783],[139.06416,36.15751],[139.06278,36.15559],[139.06268,36.15538],[139.0626,36.15513],[139.06252,36.15408],[139.06278,36.15343],[139.06283,36.15295],[139.06274,36.1526],[139.0622,36.15153],[139.062,36.15134],[139.06171,36.15121],[139.06058,36.15112]]}},{"type":"Feature","properties":{"idx":147,"road":NaN,"cls":"tertiary","shops":0,"st_km":7.04,"mesh":"54391073"},"geometry":{"type":"LineString","coordinates":[[139.04879,36.14934],[139.04832,36.14921],[139.04793,36.14899],[139.04589,36.14717],[139.04567,36.1471],[139.04497,36.14711],[139.04391,36.14728]]}},{"type":"Feature","properties":{"idx":147,"road":NaN,"cls":"tertiary","shops":0,"st_km":6.93,"mesh":"54391073"},"geometry":{"type":"LineString","coordinates":[[139.04879,36.14934],[139.04922,36.14944]]}},{"type":"Feature","properties":{"idx":221,"road":NaN,"cls":"tertiary","shops":1,"st_km":6.87,"mesh":"54391073"},"geometry":{"type":"LineString","coordinates":[[139.05031,36.14972],[139.04922,36.14944]]}},{"type":"Feature","properties":{"idx":618,"road":NaN,"cls":"tertiary","shops":1,"st_km":6.6,"mesh":"54391074"},"geometry":{"type":"LineString","coordinates":[[139.05031,36.14972],[139.05083,36.14981],[139.05149,36.14984],[139.05559,36.14964]]}},{"type":"Feature","properties":{"idx":192,"road":"前橋長瀞線","cls":"primary","shops":0,"st_km":6.05,"mesh":"54391084"},"geometry":{"type":"LineString","coordinates":[[139.06021,36.15184],[139.06035,36.15109]]}},{"type":"Feature","properties":{"idx":173,"road":"矢納浄法寺線","cls":"secondary","shops":0,"st_km":6.02,"mesh":"54391084"},"geometry":{"type":"LineString","coordinates":[[139.06044,36.15111],[139.06058,36.15112]]}},{"type":"Feature","properties":{"idx":85,"road":"吉田太田部譲原線","cls":"secondary","shops":0,"st_km":7.34,"mesh":"54391052"},"geometry":{"type":"LineString","coordinates":[[139.0365,36.12593],[139.03644,36.12556],[139.03554,36.12474],[139.0352,36.12426],[139.03486,36.12398],[139.03455,36.12386],[139.0344,36.12367],[139.03445,36.1231],[139.03456,36.12289],[139.03539,36.12235],[139.03563,36.12199],[139.03555,36.12168],[139.03529,36.12144],[139.03497,36.12125],[139.03472,36.12117],[139.03376,36.12117],[139.03344,36.12097],[139.03278,36.12106],[139.03234,36.12091],[139.03211,36.12091],[139.03032,36.12109],[139.03009,36.12099],[139.02978,36.12072],[139.0297,36.12075],[139.02969,36.12085],[139.03022,36.1212],[139.03081,36.12129],[139.03171,36.12129],[139.0324,36.12151],[139.03296,36.12155],[139.03313,36.12164],[139.03299,36.12171],[139.03274,36.12173],[139.0315,36.12147],[139.03099,36.12172],[139.03076,36.12175],[139.0308,36.12187],[139.03098,36.12188],[139.03141,36.12168],[139.03164,36.1217],[139.03216,36.12194],[139.03307,36.12219],[139.03313,36.12227],[139.03303,36.12253],[139.03271,36.12278],[139.03099,36.12322],[139.03072,36.12332],[139.03049,36.12357],[139.03044,36.12397],[139.03073,36.1244],[139.0311,36.12473],[139.0312,36.12489],[139.03101,36.1255],[139.03102,36.12582],[139.03095,36.12591],[139.0308,36.12594],[139.03062,36.12588],[139.02968,36.12532],[139.02916,36.12532],[139.02887,36.12548],[139.02873,36.12575],[139.02872,36.12602],[139.02866,36.12618],[139.02838,36.12633],[139.02784,36.1264],[139.02769,36.12639],[139.02748,36.12627],[139.02718,36.12626],[139.02695,36.12634],[139.02676,36.12675],[139.02692,36.12727],[139.02679,36.12735],[139.02664,36.12739],[139.02641,36.12736],[139.0263,36.12728],[139.02623,36.12709],[139.02612,36.12702],[139.0257,36.12693],[139.02555,36.12679],[139.02547,36.12659],[139.0252,36.12626],[139.02503,36.12623],[139.02484,36.12627],[139.02443,36.12618],[139.02429,36.12619],[139.02398,36.1264],[139.02379,36.12645],[139.02355,36.12643],[139.02294,36.12652],[139.02277,36.12656],[139.02267,36.12668],[139.02269,36.1269],[139.02266,36.12707],[139.02245,36.12729],[139.02231,36.1277],[139.02215,36.1277],[139.02182,36.12739],[139.0217,36.12734],[139.02136,36.12733],[139.02095,36.12724],[139.02077,36.12725],[139.0205,36.12752],[139.02042,36.12777],[139.02013,36.12792],[139.01963,36.12828],[139.01907,36.12819],[139.01816,36.12777],[139.01799,36.12785],[139.01778,36.12812],[139.01756,36.1282],[139.01745,36.1283],[139.01727,36.12891],[139.01697,36.12923],[139.01647,36.12945],[139.01522,36.12974],[139.01495,36.12972],[139.01478,36.12965],[139.01454,36.12927],[139.0144,36.1289],[139.01426,36.12879],[139.01396,36.12873],[139.01249,36.12863],[139.01155,36.12821]]}},{"type":"Feature","properties":{"idx":85,"road":"吉田太田部譲原線","cls":"secondary","shops":0,"st_km":6.88,"mesh":"54391052"},"geometry":{"type":"LineString","coordinates":[[139.0365,36.12593],[139.03658,36.1265]]}},{"type":"Feature","properties":{"idx":26,"road":"矢納浄法寺線","cls":"secondary","shops":0,"st_km":6.38,"mesh":"54391053"},"geometry":{"type":"LineString","coordinates":[[139.03602,36.12194],[139.03617,36.12208],[139.03622,36.12221],[139.03621,36.12231],[139.03606,36.12254],[139.03559,36.12294],[139.03556,36.12312],[139.03578,36.1234],[139.03611,36.12367],[139.03659,36.12429],[139.03673,36.1244],[139.0374,36.12463],[139.0383,36.12474],[139.03954,36.12473],[139.03972,36.12482],[139.0399,36.12536],[139.0401,36.12556],[139.0409,36.12551],[139.04122,36.12559],[139.04145,36.12573],[139.04207,36.1264],[139.04252,36.12655],[139.0427,36.12653],[139.04317,36.12625],[139.0435,36.12585],[139.04362,36.12581],[139.04381,36.12584],[139.0439,36.12606],[139.04413,36.12629],[139.04435,36.12641],[139.04464,36.12642],[139.04524,36.12602],[139.0455,36.12594],[139.0459,36.12592],[139.04609,36.12596],[139.04626,36.12587],[139.04641,36.12571],[139.04673,36.12575],[139.047,36.12565],[139.04738,36.1254],[139.04781,36.12504],[139.04802,36.12466],[139.04813,36.12466],[139.04818,36.12472],[139.04814,36.12508],[139.04803,36.12532],[139.04803,36.12553],[139.04811,36.12561],[139.04852,36.12574],[139.04847,36.12588],[139.04826,36.12598],[139.0472,36.12625]]}},{"type":"Feature","properties":{"idx":6,"road":NaN,"cls":"tertiary","shops":0,"st_km":1.27,"mesh":"54391037"},"geometry":{"type":"LineString","coordinates":[[139.09666,36.11656],[139.09753,36.11659],[139.09871,36.11642],[139.0988,36.11637],[139.09899,36.11608],[139.09916,36.11594]]}},{"type":"Feature","properties":{"idx":270,"road":NaN,"cls":"tertiary","shops":0,"st_km":1.2,"mesh":"54391048"},"geometry":{"type":"LineString","coordinates":[[139.10981,36.12266],[139.10885,36.12229],[139.1087,36.12227],[139.10842,36.12227],[139.1075,36.12246]]}},{"type":"Feature","properties":{"idx":218,"road":NaN,"cls":"tertiary","shops":0,"st_km":1.57,"mesh":"54391048"},"geometry":{"type":"LineString","coordinates":[[139.10573,36.12385],[139.10519,36.12383],[139.10421,36.12411],[139.10297,36.12419],[139.10239,36.12431],[139.10184,36.12466],[139.10141,36.12506],[139.10073,36.12582]]}},{"type":"Feature","properties":{"idx":260,"road":NaN,"cls":"tertiary","shops":0,"st_km":1.26,"mesh":"54391048"},"geometry":{"type":"LineString","coordinates":[[139.1075,36.12246],[139.10741,36.12279]]}},{"type":"Feature","properties":{"idx":229,"road":NaN,"cls":"tertiary","shops":0,"st_km":0.75,"mesh":"54391069"},"geometry":{"type":"LineString","coordinates":[[139.12308,36.13864],[139.12458,36.13729],[139.12472,36.13713],[139.1249,36.13669]]}},{"type":"Feature","properties":{"idx":21,"road":NaN,"cls":"tertiary","shops":0,"st_km":1.43,"mesh":"54391047"},"geometry":{"type":"LineString","coordinates":[[139.09601,36.11698],[139.09625,36.11684],[139.09641,36.11666],[139.09666,36.11656]]}},{"type":"Feature","properties":{"idx":250,"road":NaN,"cls":"tertiary","shops":0,"st_km":0.64,"mesh":"54391069"},"geometry":{"type":"LineString","coordinates":[[139.1249,36.13669],[139.12498,36.13645]]}},{"type":"Feature","properties":{"idx":20,"road":NaN,"cls":"tertiary","shops":0,"st_km":1.58,"mesh":"54391047"},"geometry":{"type":"LineString","coordinates":[[139.09503,36.11734],[139.09474,36.11743]]}},{"type":"Feature","properties":{"idx":21,"road":NaN,"cls":"tertiary","shops":0,"st_km":1.44,"mesh":"54391047"},"geometry":{"type":"LineString","coordinates":[[139.09474,36.11743],[139.09466,36.11751],[139.09466,36.11764],[139.09475,36.11769],[139.09544,36.11758],[139.09586,36.11758],[139.09657,36.1177],[139.09672,36.11778],[139.0971,36.11823],[139.09724,36.11899],[139.09732,36.11907],[139.09756,36.11913],[139.0979,36.1191],[139.09825,36.11881],[139.09839,36.11877],[139.09849,36.11882],[139.09852,36.11935]]}},{"type":"Feature","properties":{"idx":20,"road":NaN,"cls":"tertiary","shops":0,"st_km":1.51,"mesh":"54391047"},"geometry":{"type":"LineString","coordinates":[[139.09503,36.11734],[139.09601,36.11698]]}},{"type":"Feature","properties":{"idx":19,"road":NaN,"cls":"tertiary","shops":0,"st_km":2.06,"mesh":"54391057"},"geometry":{"type":"LineString","coordinates":[[139.09964,36.12935],[139.09983,36.12893],[139.10009,36.12809]]}},{"type":"Feature","properties":{"idx":239,"road":NaN,"cls":"tertiary","shops":0,"st_km":1.4,"mesh":"54391048"},"geometry":{"type":"LineString","coordinates":[[139.10666,36.12353],[139.10573,36.12385]]}},{"type":"Feature","properties":{"idx":249,"road":NaN,"cls":"tertiary","shops":0,"st_km":1.33,"mesh":"54391048"},"geometry":{"type":"LineString","coordinates":[[139.10741,36.12279],[139.10719,36.12315],[139.10699,36.12335],[139.10666,36.12353]]}},{"type":"Feature","properties":{"idx":785,"road":"野上停車場線","cls":"secondary","shops":0,"st_km":0.08,"mesh":"54391038"},"geometry":{"type":"LineString","coordinates":[[139.11059,36.11166],[139.10941,36.11182]]}},{"type":"Feature","properties":{"idx":139,"road":"長瀞児玉線","cls":"secondary","shops":0,"st_km":0.53,"mesh":"54391039"},"geometry":{"type":"LineString","coordinates":[[139.11621,36.11093],[139.11711,36.11035]]}},{"type":"Feature","properties":{"idx":124,"road":"長瀞児玉線","cls":"secondary","shops":0,"st_km":0.66,"mesh":"54391039"},"geometry":{"type":"LineString","coordinates":[[139.11711,36.11035],[139.11788,36.10977],[139.11869,36.10928]]}},{"type":"Feature","properties":{"idx":17,"road":NaN,"cls":"tertiary","shops":0,"st_km":0.84,"mesh":"54391008"},"geometry":{"type":"LineString","coordinates":[[139.10347,36.09073],[139.10354,36.09081],[139.1037,36.09123],[139.10481,36.09201],[139.10492,36.09215],[139.10502,36.09261]]}},{"type":"Feature","properties":{"idx":130,"road":"上長瀞停車場線","cls":"secondary","shops":1,"st_km":0.04,"mesh":"54391009"},"geometry":{"type":"LineString","coordinates":[[139.11537,36.08563],[139.11452,36.08596],[139.11386,36.08608],[139.1136,36.08592],[139.11356,36.08578],[139.11361,36.08553],[139.11346,36.08537],[139.11256,36.08507],[139.1124,36.08507]]}},{"type":"Feature","properties":{"idx":13,"road":"前橋長瀞線","cls":"primary","shops":0,"st_km":2.49,"mesh":"54391026"},"geometry":{"type":"LineString","coordinates":[[139.07945,36.11523],[139.0796,36.11515],[139.08,36.11466],[139.08097,36.1131],[139.08121,36.11255],[139.08185,36.11047],[139.08203,36.1101],[139.08274,36.10926],[139.08332,36.10883],[139.08354,36.10857],[139.08355,36.10827],[139.08326,36.10783],[139.08322,36.1077],[139.08326,36.10747],[139.0836,36.10691],[139.08376,36.10678],[139.08395,36.10672],[139.08467,36.10673],[139.08496,36.10669],[139.08542,36.10645],[139.08572,36.10619],[139.0865,36.10567],[139.08685,36.1055],[139.08739,36.10538],[139.08776,36.10536],[139.08944,36.10571],[139.08993,36.10567],[139.09029,36.1057],[139.09042,36.10579],[139.09048,36.10591],[139.09045,36.10603]]}},{"type":"Feature","properties":{"idx":65,"road":"前橋長瀞線","cls":"primary","shops":0,"st_km":3.08,"mesh":"54391046"},"geometry":{"type":"LineString","coordinates":[[139.07945,36.11523],[139.07943,36.11599],[139.07935,36.11644],[139.0792,36.11681],[139.07868,36.11754],[139.07822,36.11847],[139.07746,36.12106],[139.07677,36.12251],[139.07671,36.12342]]}},{"type":"Feature","properties":{"idx":19,"road":"下日野沢東門平吉田線","cls":"secondary","shops":1,"st_km":4.86,"mesh":"54391003"},"geometry":{"type":"LineString","coordinates":[[139.02914,36.08706],[139.02931,36.08701],[139.02974,36.08675],[139.03036,36.08677],[139.03127,36.08663],[139.03151,36.08653],[139.03179,36.08576],[139.03203,36.0853],[139.03191,36.08521],[139.03158,36.08529],[139.03137,36.08551],[139.03119,36.0859],[139.0308,36.08642],[139.03058,36.08648],[139.03026,36.08649],[139.03002,36.08643],[139.02987,36.0863],[139.02987,36.08622],[139.03023,36.08592],[139.03029,36.08579],[139.03028,36.08568],[139.03007,36.08543],[139.03002,36.08513],[139.02988,36.0848],[139.02991,36.08464],[139.03042,36.08394],[139.03068,36.08366],[139.03087,36.08322],[139.03094,36.08315],[139.03128,36.08306],[139.0316,36.0829],[139.03266,36.08277],[139.03275,36.08269],[139.03292,36.08238],[139.03325,36.08237],[139.03347,36.08217],[139.03393,36.08227],[139.03403,36.08226],[139.03459,36.08176],[139.03507,36.08157],[139.03524,36.08121],[139.03527,36.08101],[139.03527,36.08089],[139.03495,36.08036],[139.03496,36.08023],[139.03505,36.0802],[139.03514,36.08024],[139.03541,36.0806],[139.03597,36.08092],[139.03606,36.08114],[139.03624,36.08133],[139.03627,36.08149],[139.03624,36.08159],[139.03605,36.08173],[139.03554,36.08183],[139.03531,36.08195],[139.0352,36.08208],[139.03526,36.08223],[139.03619,36.08212],[139.03699,36.0819],[139.03723,36.0819],[139.03746,36.08196],[139.03786,36.08224],[139.03791,36.08243],[139.03783,36.08255],[139.0379,36.08279],[139.03851,36.08344],[139.03903,36.08366],[139.03972,36.08378],[139.03998,36.08378],[139.04091,36.08362],[139.04169,36.0833],[139.04184,36.08331],[139.04258,36.08369],[139.04271,36.08368],[139.04318,36.08343],[139.04334,36.08341],[139.04428,36.08335],[139.04578,36.08342],[139.04618,36.08333],[139.04671,36.08302],[139.0469,36.083],[139.04747,36.08312],[139.04781,36.08315],[139.04797,36.08323],[139.04816,36.08342],[139.04842,36.08352],[139.04892,36.08355],[139.04962,36.0837],[139.0499,36.08366],[139.05046,36.08347],[139.05069,36.08334],[139.05117,36.08294],[139.0513,36.08288],[139.05166,36.0828],[139.0525,36.08278],[139.05294,36.08288],[139.0535,36.08318],[139.05421,36.08381],[139.05455,36.08397],[139.05491,36.08398],[139.05574,36.08376],[139.05592,36.08375],[139.05651,36.08383],[139.05836,36.08389],[139.06066,36.08422],[139.06108,36.08418],[139.06134,36.08409],[139.06144,36.084],[139.06179,36.08319],[139.06192,36.08307],[139.06217,36.08299],[139.06261,36.08308],[139.06293,36.08322],[139.06317,36.08327],[139.06369,36.08328],[139.06488,36.0832],[139.0671,36.08289],[139.06913,36.08333],[139.07052,36.08337],[139.07088,36.0833],[139.07185,36.08293],[139.07258,36.08288]]}},{"type":"Feature","properties":{"idx":51,"road":NaN,"cls":"tertiary","shops":0,"st_km":3.18,"mesh":"54391036"},"geometry":{"type":"LineString","coordinates":[[139.0731,36.11476],[139.07481,36.11438],[139.07503,36.11421],[139.07547,36.11364],[139.07567,36.11347],[139.0762,36.11327],[139.07667,36.11327],[139.07812,36.11362],[139.07854,36.11365]]}},{"type":"Feature","properties":{"idx":16,"road":NaN,"cls":"tertiary","shops":0,"st_km":0.83,"mesh":"54391008"},"geometry":{"type":"LineString","coordinates":[[139.10119,36.08438],[139.10225,36.08455],[139.10284,36.08456],[139.10297,36.08448],[139.10347,36.08375],[139.10373,36.08364],[139.10393,36.08364]]}},{"type":"Feature","properties":{"idx":13,"road":NaN,"cls":"tertiary","shops":0,"st_km":1.17,"mesh":"54391008"},"geometry":{"type":"LineString","coordinates":[[139.0998,36.08838],[139.0996,36.08803],[139.09964,36.08778],[139.09987,36.08703],[139.09998,36.08692],[139.10012,36.08688],[139.10024,36.08692],[139.1005,36.08742],[139.10064,36.08755],[139.10085,36.08767],[139.10105,36.08767],[139.10118,36.08754],[139.1014,36.08716],[139.10152,36.08692],[139.10162,36.0865]]}},{"type":"Feature","properties":{"idx":20,"road":NaN,"cls":"tertiary","shops":0,"st_km":3.42,"mesh":"54391035"},"geometry":{"type":"LineString","coordinates":[[139.0731,36.11476],[139.07304,36.11478]]}},{"type":"Feature","properties":{"idx":90,"road":NaN,"cls":"tertiary","shops":0,"st_km":1.42,"mesh":"54391007"},"geometry":{"type":"LineString","coordinates":[[139.09104,36.08836],[139.09279,36.08777],[139.09355,36.08763],[139.09519,36.08755],[139.09679,36.08772],[139.09769,36.08744],[139.09806,36.0875],[139.09837,36.088],[139.09912,36.08862],[139.09977,36.089],[139.10005,36.08907],[139.10014,36.089],[139.10013,36.08889],[139.0998,36.08838]]}},{"type":"Feature","properties":{"idx":54,"road":NaN,"cls":"tertiary","shops":0,"st_km":2.78,"mesh":"54391036"},"geometry":{"type":"LineString","coordinates":[[139.08084,36.11331],[139.07936,36.11394]]}},{"type":"Feature","properties":{"idx":20,"road":NaN,"cls":"tertiary","shops":0,"st_km":3.96,"mesh":"54391035"},"geometry":{"type":"LineString","coordinates":[[139.06461,36.11686],[139.06479,36.11652],[139.06488,36.11643],[139.06508,36.11639],[139.067,36.11613],[139.06787,36.11612],[139.06836,36.11598],[139.06879,36.11602],[139.06919,36.11613],[139.06961,36.11615],[139.06983,36.11614],[139.07023,36.11602]]}},{"type":"Feature","properties":{"idx":114,"road":NaN,"cls":"tertiary","shops":1,"st_km":0.05,"mesh":"54391009"},"geometry":{"type":"LineString","coordinates":[[139.11313,36.08526],[139.113,36.08603],[139.1129,36.08614],[139.11276,36.08619]]}},{"type":"Feature","properties":{"idx":15,"road":NaN,"cls":"tertiary","shops":0,"st_km":0.98,"mesh":"54391008"},"geometry":{"type":"LineString","coordinates":[[139.10162,36.0865],[139.10166,36.08622],[139.10157,36.08603],[139.10125,36.08569],[139.10109,36.08532],[139.10108,36.08505],[139.10119,36.08438]]}},{"type":"Feature","properties":{"idx":20,"road":NaN,"cls":"tertiary","shops":0,"st_km":3.43,"mesh":"54391035"},"geometry":{"type":"LineString","coordinates":[[139.07304,36.11478],[139.07299,36.1148]]}},{"type":"Feature","properties":{"idx":20,"road":NaN,"cls":"tertiary","shops":0,"st_km":3.59,"mesh":"54391035"},"geometry":{"type":"LineString","coordinates":[[139.07023,36.11602],[139.07136,36.11581],[139.07179,36.11559],[139.07198,36.11524]]}},{"type":"Feature","properties":{"idx":19,"road":NaN,"cls":"tertiary","shops":0,"st_km":0.67,"mesh":"54391008"},"geometry":{"type":"LineString","coordinates":[[139.10393,36.08364],[139.10434,36.08363],[139.10602,36.08341]]}},{"type":"Feature","properties":{"idx":55,"road":"長瀞玉淀自然公園線","cls":"primary","shops":0,"st_km":0.65,"mesh":"54391009"},"geometry":{"type":"LineString","coordinates":[[139.11965,36.08344],[139.11974,36.08375]]}},{"type":"Feature","properties":{"idx":59,"road":"長瀞玉淀自然公園線","cls":"primary","shops":0,"st_km":0.56,"mesh":"54391009"},"geometry":{"type":"LineString","coordinates":[[139.11974,36.08375],[139.11975,36.08397],[139.11963,36.08469],[139.11957,36.08572],[139.11935,36.08791],[139.11916,36.08848],[139.11887,36.08902],[139.11878,36.08939],[139.11879,36.08968],[139.11889,36.09004]]}},{"type":"Feature","properties":{"idx":20,"road":"秩父児玉線","cls":"primary","shops":0,"st_km":3.0,"mesh":"54391016"},"geometry":{"type":"LineString","coordinates":[[139.07862,36.08403],[139.07843,36.08418],[139.07822,36.08561],[139.07817,36.08637],[139.07796,36.08667],[139.0776,36.087],[139.07751,36.0873],[139.07834,36.08947],[139.07838,36.08971],[139.07834,36.09043],[139.07874,36.09103],[139.07883,36.09124],[139.07866,36.09285],[139.07897,36.094],[139.0791,36.09439],[139.07932,36.09484],[139.07992,36.09561],[139.08014,36.09603],[139.08004,36.09649],[139.07969,36.09735],[139.07949,36.09839],[139.07949,36.09918],[139.07987,36.09966],[139.07992,36.1002],[139.07999,36.10031],[139.08026,36.10051],[139.08031,36.10065],[139.08029,36.10074],[139.07993,36.10121],[139.07986,36.10159]]}},{"type":"Feature","properties":{"idx":48,"road":"秩父児玉線","cls":"primary","shops":0,"st_km":2.18,"mesh":"54391006"},"geometry":{"type":"LineString","coordinates":[[139.07912,36.08399],[139.07862,36.08403]]}},{"type":"Feature","properties":{"idx":28,"road":NaN,"cls":"secondary_link","shops":0,"st_km":2.2,"mesh":"54391006"},"geometry":{"type":"LineString","coordinates":[[139.07862,36.08403],[139.07845,36.08396]]}},{"type":"Feature","properties":{"idx":76,"road":"前橋長瀞線","cls":"primary","shops":0,"st_km":5.43,"mesh":"54391075"},"geometry":{"type":"LineString","coordinates":[[139.06035,36.15109],[139.06056,36.15011],[139.06076,36.14975],[139.06148,36.14925],[139.0623,36.14885],[139.06259,36.1488],[139.0637,36.1489],[139.06429,36.14874],[139.06523,36.14836],[139.06547,36.14835],[139.06555,36.1485],[139.0651,36.14915],[139.06489,36.14966],[139.06489,36.14988],[139.06496,36.14992],[139.06512,36.14989],[139.06551,36.14926],[139.06577,36.14894],[139.06606,36.1487],[139.06633,36.1486],[139.06639,36.14863],[139.06639,36.14873],[139.06598,36.14901],[139.06589,36.14926],[139.06572,36.14944],[139.06574,36.14958],[139.06581,36.14961],[139.066,36.14958],[139.06629,36.14919],[139.06637,36.14913],[139.06659,36.14908],[139.06668,36.14912],[139.06673,36.14921],[139.06684,36.14984],[139.06703,36.15],[139.06728,36.15001],[139.06798,36.14974],[139.0681,36.14965],[139.06816,36.14946],[139.06808,36.14915],[139.06814,36.14896],[139.06863,36.14886],[139.06909,36.14853],[139.06954,36.14849],[139.06987,36.14824],[139.07029,36.14807],[139.07032,36.1479],[139.07022,36.14737],[139.07022,36.14714],[139.07031,36.14679],[139.0704,36.14669],[139.07066,36.14655],[139.07138,36.14639],[139.07153,36.14631],[139.07171,36.14612],[139.07178,36.14591],[139.07122,36.14389],[139.07108,36.14374],[139.07085,36.14373],[139.07017,36.14415],[139.06992,36.14426],[139.06969,36.14433],[139.0694,36.14433],[139.06908,36.14413],[139.06885,36.1436]]}},{"type":"Feature","properties":{"idx":12,"road":"前橋長瀞線","cls":"primary","shops":1,"st_km":3.8,"mesh":"54391056"},"geometry":{"type":"LineString","coordinates":[[139.0769,36.13302],[139.07817,36.13271],[139.07866,36.1327]]}},{"type":"Feature","properties":{"idx":4,"road":"前橋長瀞線","cls":"primary","shops":0,"st_km":4.52,"mesh":"54391065"},"geometry":{"type":"LineString","coordinates":[[139.07097,36.13696],[139.07155,36.13683],[139.07187,36.13664]]}},{"type":"Feature","properties":{"idx":12,"road":"秩父児玉線","cls":"primary","shops":0,"st_km":3.0,"mesh":"54391026"},"geometry":{"type":"LineString","coordinates":[[139.07986,36.10159],[139.07983,36.10175]]}},{"type":"Feature","properties":{"idx":66,"road":"秩父児玉線","cls":"primary","shops":0,"st_km":2.9,"mesh":"54391036"},"geometry":{"type":"LineString","coordinates":[[139.07983,36.10175],[139.07976,36.10215],[139.07993,36.10272],[139.0798,36.10335],[139.0799,36.10424],[139.07989,36.10478],[139.07984,36.105],[139.07972,36.1052],[139.07931,36.10553],[139.07919,36.10575],[139.07919,36.10603],[139.07935,36.10633],[139.07923,36.10684],[139.0793,36.10723],[139.07923,36.10742],[139.07891,36.10781],[139.07886,36.10814],[139.07887,36.10856],[139.07876,36.10891],[139.07881,36.10978],[139.07862,36.11082],[139.07843,36.11241],[139.07847,36.11341],[139.07854,36.11365],[139.07872,36.11378],[139.07936,36.11394],[139.07947,36.11413],[139.07945,36.11523]]}},{"type":"Feature","properties":{"idx":293,"road":"上里鬼石線","cls":"primary","shops":0,"st_km":6.48,"mesh":"54391094"},"geometry":{"type":"LineString","coordinates":[[139.06257,36.1631],[139.06214,36.16283]]}},{"type":"Feature","properties":{"idx":87,"road":NaN,"cls":"pedestrian","shops":0,"st_km":0.76,"mesh":"54391029"},"geometry":{"type":"LineString","coordinates":[[139.11388,36.10578],[139.11403,36.10553],[139.11417,36.10515],[139.11464,36.10506]]}},{"type":"Feature","properties":{"idx":63,"road":"宝登山参道","cls":"tertiary","shops":0,"st_km":0.5,"mesh":"54391018"},"geometry":{"type":"LineString","coordinates":[[139.10978,36.09405],[139.10756,36.09321],[139.1051,36.0927]]}},{"type":"Feature","properties":{"idx":21,"road":"小路通り","cls":"tertiary","shops":0,"st_km":0.48,"mesh":"54391008"},"geometry":{"type":"LineString","coordinates":[[139.11009,36.09354],[139.11018,36.09334],[139.11016,36.09293],[139.11043,36.09224],[139.1105,36.0919],[139.11061,36.09087],[139.11103,36.08828],[139.11113,36.08807],[139.11212,36.08674]]}},{"type":"Feature","properties":{"idx":63,"road":"北桜通り","cls":"tertiary","shops":0,"st_km":0.5,"mesh":"54391018"},"geometry":{"type":"LineString","coordinates":[[139.11273,36.09552],[139.1138,36.09584],[139.11346,36.09677],[139.11283,36.09763],[139.11145,36.09998],[139.11143,36.10018],[139.1121,36.10395],[139.11206,36.10417],[139.11186,36.10468],[139.11185,36.10527]]}},{"type":"Feature","properties":{"idx":73,"road":"白鳥通り","cls":"primary","shops":0,"st_km":0.88,"mesh":"54391029"},"geometry":{"type":"LineString","coordinates":[[139.118,36.10185],[139.11803,36.1021]]}},{"type":"Feature","properties":{"idx":150,"road":"白鳥通り","cls":"primary","shops":0,"st_km":0.54,"mesh":"54391019"},"geometry":{"type":"LineString","coordinates":[[139.11714,36.09471],[139.117,36.09495],[139.11689,36.09534],[139.11675,36.09671],[139.11682,36.09704],[139.11718,36.09796],[139.11737,36.09859],[139.11736,36.10007],[139.11741,36.10039],[139.118,36.10185]]}},{"type":"Feature","properties":{"idx":20,"road":NaN,"cls":"tertiary","shops":0,"st_km":3.47,"mesh":"54391035"},"geometry":{"type":"LineString","coordinates":[[139.07162,36.11233],[139.07166,36.11248],[139.07197,36.11275],[139.07204,36.1131],[139.07218,36.11341],[139.07242,36.11357],[139.07294,36.11373],[139.073,36.11382],[139.0731,36.11409],[139.0731,36.11476]]}},{"type":"Feature","properties":{"idx":13,"road":"矢納浄法寺線","cls":"secondary","shops":0,"st_km":6.83,"mesh":"54391063"},"geometry":{"type":"LineString","coordinates":[[139.0472,36.12625],[139.04693,36.12637],[139.04671,36.12658],[139.04668,36.12698],[139.04627,36.12751],[139.04527,36.12818],[139.04523,36.12831],[139.04537,36.12918],[139.04566,36.12949],[139.04565,36.12969],[139.04553,36.1302],[139.04525,36.1304],[139.04515,36.13052],[139.04505,36.13101],[139.04507,36.13114],[139.04531,36.1313],[139.04603,36.1314],[139.0461,36.13147],[139.04608,36.13185],[139.04593,36.13198],[139.04542,36.13209],[139.04536,36.13214],[139.0454,36.13256],[139.04533,36.13264],[139.04498,36.13278],[139.04476,36.13298],[139.04466,36.13341],[139.04405,36.1343],[139.04396,36.13457],[139.04389,36.13503],[139.04392,36.13522],[139.04404,36.13537],[139.04417,36.13544],[139.04472,36.13561],[139.0448,36.13571],[139.0448,36.13579],[139.04447,36.13596],[139.04393,36.13678],[139.04333,36.1373],[139.04333,36.13777],[139.04359,36.13824],[139.04355,36.13839],[139.04318,36.13898],[139.043,36.13945],[139.04294,36.13974],[139.04295,36.14002],[139.04326,36.14035],[139.04359,36.14061],[139.0437,36.14082],[139.04389,36.14102],[139.04408,36.14113],[139.04482,36.14127],[139.04482,36.14142],[139.04456,36.14171],[139.04449,36.14189],[139.04458,36.14202],[139.04513,36.1424],[139.04511,36.14289],[139.04514,36.1431],[139.04538,36.1434],[139.04559,36.14347],[139.04586,36.14343],[139.04623,36.14349],[139.04712,36.14399],[139.04724,36.14412],[139.04747,36.14455],[139.04771,36.14476],[139.05164,36.14621],[139.05411,36.1472],[139.05435,36.14735],[139.05466,36.14768],[139.05534,36.14938],[139.05559,36.14964]]}},{"type":"Feature","properties":{"idx":41,"road":"下日野沢東門平吉田線","cls":"secondary","shops":0,"st_km":2.32,"mesh":"54391006"},"geometry":{"type":"LineString","coordinates":[[139.07258,36.08288],[139.07307,36.08295],[139.07327,36.08303],[139.07346,36.08321],[139.07376,36.08382],[139.07425,36.08433],[139.07447,36.08474],[139.07481,36.08493],[139.07528,36.08495],[139.07559,36.08489],[139.07591,36.0847],[139.07615,36.08438],[139.07624,36.08385],[139.0759,36.08308],[139.07593,36.08271],[139.07609,36.08247],[139.07657,36.08226],[139.07702,36.08215],[139.07725,36.08216],[139.07817,36.08241],[139.07834,36.0825],[139.07844,36.08262],[139.07853,36.08321],[139.07843,36.08418]]}},{"type":"Feature","properties":{"idx":35,"road":"長瀞児玉線","cls":"secondary","shops":0,"st_km":3.78,"mesh":"54391098"},"geometry":{"type":"LineString","coordinates":[[139.11385,36.16748],[139.11395,36.16682],[139.11379,36.16659],[139.11165,36.1652],[139.11147,36.16504],[139.11135,36.16485],[139.11107,36.16413],[139.111,36.16403],[139.11044,36.16365],[139.10982,36.16342],[139.10964,36.16325],[139.10961,36.16311],[139.10971,36.16205],[139.10923,36.16181],[139.10882,36.16076],[139.10857,36.16045],[139.10818,36.1601],[139.10815,36.15989],[139.10829,36.1596],[139.10827,36.15944]]}},{"type":"Feature","properties":{"idx":173,"road":"矢納浄法寺線","cls":"secondary","shops":0,"st_km":6.07,"mesh":"54391084"},"geometry":{"type":"LineString","coordinates":[[139.05925,36.1508],[139.06035,36.15109]]}},{"type":"Feature","properties":{"idx":173,"road":"矢納浄法寺線","cls":"secondary","shops":0,"st_km":6.11,"mesh":"54391084"},"geometry":{"type":"LineString","coordinates":[[139.05915,36.15077],[139.05925,36.1508]]}},{"type":"Feature","properties":{"idx":20,"road":NaN,"cls":"tertiary","shops":0,"st_km":3.44,"mesh":"54391035"},"geometry":{"type":"LineString","coordinates":[[139.07299,36.1148],[139.07275,36.11488]]}},{"type":"Feature","properties":{"idx":20,"road":NaN,"cls":"tertiary","shops":0,"st_km":3.49,"mesh":"54391035"},"geometry":{"type":"LineString","coordinates":[[139.07275,36.11488],[139.07221,36.11506],[139.07198,36.11524]]}},{"type":"Feature","properties":{"idx":3,"road":NaN,"cls":"tertiary","shops":0,"st_km":3.35,"mesh":"54391099"},"geometry":{"type":"LineString","coordinates":[[139.12424,36.16411],[139.12424,36.16406]]}},{"type":"Feature","properties":{"idx":3,"road":NaN,"cls":"tertiary","shops":0,"st_km":3.36,"mesh":"54391099"},"geometry":{"type":"LineString","coordinates":[[139.12424,36.16406],[139.12425,36.16401]]}},{"type":"Feature","properties":{"idx":173,"road":"矢納浄法寺線","cls":"secondary","shops":0,"st_km":6.24,"mesh":"54391084"},"geometry":{"type":"LineString","coordinates":[[139.05559,36.14964],[139.05705,36.15002],[139.05915,36.15077]]}},{"type":"Feature","properties":{"idx":173,"road":"矢納浄法寺線","cls":"secondary","shops":0,"st_km":6.02,"mesh":"54391084"},"geometry":{"type":"LineString","coordinates":[[139.06035,36.15109],[139.06044,36.15111]]}},{"type":"Feature","properties":{"idx":293,"road":"上里鬼石線","cls":"primary","shops":0,"st_km":6.56,"mesh":"54391094"},"geometry":{"type":"LineString","coordinates":[[139.06198,36.16504],[139.06202,36.16445],[139.06209,36.16416],[139.06257,36.1631]]}},{"type":"Feature","properties":{"idx":175,"road":"長瀞自然のみち","cls":"pedestrian","shops":0,"st_km":0.48,"mesh":"54391019"},"geometry":{"type":"LineString","coordinates":[[139.117,36.09495],[139.11694,36.0949],[139.11699,36.0946],[139.11695,36.09447],[139.11729,36.09362],[139.11745,36.09283],[139.11752,36.09271]]}},{"type":"Feature","properties":{"idx":180,"road":"白鳥通り","cls":"primary","shops":0,"st_km":0.47,"mesh":"54391059"},"geometry":{"type":"LineString","coordinates":[[139.12143,36.12692],[139.12148,36.12699]]}},{"type":"Feature","properties":{"idx":208,"road":"白鳥通り","cls":"primary","shops":0,"st_km":0.31,"mesh":"54391059"},"geometry":{"type":"LineString","coordinates":[[139.12148,36.12699],[139.12184,36.12741],[139.1228,36.12812],[139.12328,36.12834],[139.12505,36.12886],[139.12535,36.129],[139.12598,36.1294],[139.12653,36.1295]]}},{"type":"Feature","properties":{"idx":29,"road":"矢納浄法寺線","cls":"secondary","shops":0,"st_km":6.86,"mesh":"54391042"},"geometry":{"type":"LineString","coordinates":[[139.03555,36.12168],[139.03592,36.12187]]}},{"type":"Feature","properties":{"idx":30,"road":"矢納浄法寺線","cls":"secondary","shops":0,"st_km":6.84,"mesh":"54391042"},"geometry":{"type":"LineString","coordinates":[[139.03592,36.12187],[139.03602,36.12194]]}},{"type":"Feature","properties":{"idx":4,"road":"前橋長瀞線","cls":"primary","shops":0,"st_km":4.38,"mesh":"54391065"},"geometry":{"type":"LineString","coordinates":[[139.07187,36.13664],[139.0726,36.13617],[139.07279,36.13611],[139.07338,36.13603],[139.07371,36.13585]]}},{"type":"Feature","properties":{"idx":4,"road":"前橋長瀞線","cls":"primary","shops":0,"st_km":4.29,"mesh":"54391065"},"geometry":{"type":"LineString","coordinates":[[139.07371,36.13585],[139.0738,36.13578]]}},{"type":"Feature","properties":{"idx":4,"road":"前橋長瀞線","cls":"primary","shops":0,"st_km":4.27,"mesh":"54391065"},"geometry":{"type":"LineString","coordinates":[[139.0738,36.13578],[139.07406,36.13559]]}},{"type":"Feature","properties":{"idx":4,"road":"前橋長瀞線","cls":"primary","shops":0,"st_km":4.25,"mesh":"54391065"},"geometry":{"type":"LineString","coordinates":[[139.07406,36.13559],[139.07412,36.13552]]}},{"type":"Feature","properties":{"idx":4,"road":"前橋長瀞線","cls":"primary","shops":0,"st_km":4.16,"mesh":"54391065"},"geometry":{"type":"LineString","coordinates":[[139.07412,36.13552],[139.07427,36.13526],[139.07412,36.13486],[139.07414,36.13474],[139.07538,36.13392]]}},{"type":"Feature","properties":{"idx":9,"road":"前橋長瀞線","cls":"primary","shops":0,"st_km":4.04,"mesh":"54391066"},"geometry":{"type":"LineString","coordinates":[[139.07538,36.13392],[139.07549,36.13386]]}},{"type":"Feature","properties":{"idx":9,"road":"前橋長瀞線","cls":"primary","shops":0,"st_km":3.96,"mesh":"54391066"},"geometry":{"type":"LineString","coordinates":[[139.07549,36.13386],[139.07599,36.1336],[139.07646,36.13321],[139.07679,36.13305]]}},{"type":"Feature","properties":{"idx":8,"road":"前橋長瀞線","cls":"primary","shops":0,"st_km":3.88,"mesh":"54391056"},"geometry":{"type":"LineString","coordinates":[[139.07679,36.13305],[139.0769,36.13302]]}},{"type":"Feature","properties":{"idx":77,"road":"小路通り","cls":"tertiary","shops":0,"st_km":0.28,"mesh":"54391018"},"geometry":{"type":"LineString","coordinates":[[139.10978,36.09405],[139.11004,36.09361]]}},{"type":"Feature","properties":{"idx":76,"road":"小路通り","cls":"tertiary","shops":0,"st_km":0.29,"mesh":"54391018"},"geometry":{"type":"LineString","coordinates":[[139.11004,36.09361],[139.11009,36.09354]]}},{"type":"Feature","properties":{"idx":31,"road":"小路通り","cls":"tertiary","shops":0,"st_km":0.08,"mesh":"54391008"},"geometry":{"type":"LineString","coordinates":[[139.11217,36.08667],[139.11243,36.08638],[139.11276,36.08619]]}},{"type":"Feature","properties":{"idx":30,"road":"小路通り","cls":"tertiary","shops":0,"st_km":0.12,"mesh":"54391008"},"geometry":{"type":"LineString","coordinates":[[139.11212,36.08674],[139.11217,36.08667]]}}]}