{"type":"FeatureCollection","features":[{"type":"Feature","properties":{"idx":40,"road":"埼葛広域農道","cls":"tertiary","shops":0,"st_km":3.87,"mesh":"54390641"},"geometry":{"type":"LineString","coordinates":[[139.75766,36.05832],[139.76362,36.04796],[139.76376,36.04749],[139.76381,36.04706],[139.76372,36.04651],[139.76303,36.04417],[139.76305,36.04364],[139.76315,36.04329],[139.76329,36.043],[139.76353,36.04271],[139.76704,36.03936],[139.76728,36.03905],[139.76752,36.0386],[139.76759,36.03836],[139.76827,36.03426],[139.76957,36.02705],[139.7697,36.02609],[139.77098,36.01924],[139.77315,36.01366],[139.77329,36.0134],[139.77411,36.01242],[139.77426,36.01217],[139.77445,36.01161],[139.77451,36.01124],[139.77442,36.01055],[139.77337,36.00765]]}},{"type":"Feature","properties":{"idx":56,"road":"西宝珠花屏風線","cls":"secondary","shops":0,"st_km":6.71,"mesh":"54390644"},"geometry":{"type":"LineString","coordinates":[[139.78699,36.04458],[139.7892,36.04515],[139.7902,36.04568],[139.79045,36.04576],[139.79209,36.04588],[139.79591,36.04429],[139.79703,36.04372],[139.79959,36.04223],[139.80148,36.04132],[139.8027,36.04091],[139.80735,36.0398],[139.80789,36.03959],[139.80822,36.0394],[139.80848,36.03918],[139.80913,36.03839],[139.80951,36.03804],[139.81048,36.03721],[139.81176,36.0363],[139.81204,36.03596],[139.81251,36.03521],[139.81338,36.03323],[139.81345,36.03257],[139.81327,36.03125]]}},{"type":"Feature","properties":{"idx":43,"road":"下吉羽幸手線","cls":"secondary","shops":0,"st_km":3.6,"mesh":"54390680"},"geometry":{"type":"LineString","coordinates":[[139.76099,36.0719],[139.75836,36.07322],[139.74828,36.07517]]}},{"type":"Feature","properties":{"idx":35,"road":"境杉戸線","cls":"primary","shops":1,"st_km":5.61,"mesh":"54390692"},"geometry":{"type":"LineString","coordinates":[[139.7772,36.0811],[139.77605,36.08094]]}},{"type":"Feature","properties":{"idx":108,"road":"惣新田幸手線","cls":"secondary","shops":0,"st_km":3.7,"mesh":"54390660"},"geometry":{"type":"LineString","coordinates":[[139.75199,36.05875],[139.75287,36.05833],[139.7532,36.05825],[139.75411,36.05815],[139.75753,36.05855]]}},{"type":"Feature","properties":{"idx":39,"road":"惣新田春日部線","cls":"secondary","shops":0,"st_km":4.61,"mesh":"54390642"},"geometry":{"type":"LineString","coordinates":[[139.77514,36.03507],[139.77484,36.03591],[139.77478,36.03644],[139.77488,36.03709],[139.77514,36.03792],[139.77523,36.03897],[139.77559,36.04002],[139.77598,36.04081],[139.77626,36.04113],[139.77648,36.04128]]}},{"type":"Feature","properties":{"idx":85,"road":NaN,"cls":"tertiary","shops":0,"st_km":3.51,"mesh":"54390621"},"geometry":{"type":"LineString","coordinates":[[139.76621,36.01988],[139.77456,36.02385],[139.77566,36.02434]]}},{"type":"Feature","properties":{"idx":48,"road":"西宝珠花春日部線","cls":"secondary","shops":0,"st_km":4.18,"mesh":"54390624"},"geometry":{"type":"LineString","coordinates":[[139.81172,36.02404],[139.80416,36.01925],[139.79934,36.01688],[139.79581,36.01542],[139.79566,36.01529],[139.7955,36.01507],[139.79485,36.01298],[139.79405,36.01168],[139.79391,36.01135],[139.79371,36.01049],[139.7936,36.01031],[139.79342,36.01015]]}},{"type":"Feature","properties":{"idx":42,"road":NaN,"cls":"tertiary","shops":0,"st_km":4.85,"mesh":"54390623"},"geometry":{"type":"LineString","coordinates":[[139.79996,36.02611],[139.79703,36.02419],[139.79064,36.01979]]}},{"type":"Feature","properties":{"idx":57,"road":"藤搦橋","cls":"secondary","shops":0,"st_km":2.58,"mesh":"54390630"},"geometry":{"type":"LineString","coordinates":[[139.7543,36.03084],[139.75464,36.03098]]}},{"type":"Feature","properties":{"idx":51,"road":"根古橋","cls":"secondary","shops":0,"st_km":3.21,"mesh":"54390630"},"geometry":{"type":"LineString","coordinates":[[139.76133,36.0325],[139.76117,36.03242]]}},{"type":"Feature","properties":{"idx":54,"road":"次木杉戸線","cls":"secondary","shops":0,"st_km":2.9,"mesh":"54390630"},"geometry":{"type":"LineString","coordinates":[[139.76117,36.03242],[139.76017,36.03209],[139.75859,36.03173],[139.7571,36.03128],[139.75542,36.03118],[139.75464,36.03098]]}},{"type":"Feature","properties":{"idx":39,"road":"次木杉戸線","cls":"secondary","shops":0,"st_km":4.75,"mesh":"54390642"},"geometry":{"type":"LineString","coordinates":[[139.78248,36.03568],[139.77901,36.0345],[139.77612,36.03344],[139.7759,36.03357],[139.77514,36.03507]]}},{"type":"Feature","properties":{"idx":157,"road":NaN,"cls":"tertiary","shops":0,"st_km":1.65,"mesh":"54390610"},"geometry":{"type":"LineString","coordinates":[[139.75172,36.01534],[139.75233,36.01459],[139.75352,36.01347],[139.75366,36.01318],[139.75398,36.01213],[139.75407,36.01172],[139.75409,36.01123],[139.75441,36.01063],[139.75469,36.00994]]}},{"type":"Feature","properties":{"idx":526,"road":NaN,"cls":"tertiary","shops":0,"st_km":1.66,"mesh":"54390600"},"geometry":{"type":"LineString","coordinates":[[139.75331,36.00527],[139.75454,36.00503],[139.75542,36.00529],[139.75629,36.00543],[139.75837,36.00611],[139.75914,36.00621],[139.75946,36.00622],[139.75976,36.00617],[139.7606,36.00575]]}},{"type":"Feature","properties":{"idx":48,"road":NaN,"cls":"tertiary","shops":0,"st_km":2.92,"mesh":"54390650"},"geometry":{"type":"LineString","coordinates":[[139.75283,36.04356],[139.75178,36.04207],[139.75042,36.03994]]}},{"type":"Feature","properties":{"idx":519,"road":NaN,"cls":"tertiary","shops":0,"st_km":3.43,"mesh":"54390613"},"geometry":{"type":"LineString","coordinates":[[139.80536,36.01084],[139.80114,36.01072],[139.79375,36.0106]]}},{"type":"Feature","properties":{"idx":18,"road":"幸松橋","cls":"secondary","shops":0,"st_km":2.51,"mesh":"54390602"},"geometry":{"type":"LineString","coordinates":[[139.77893,36.00291],[139.77901,36.003]]}},{"type":"Feature","properties":{"idx":18,"road":"西宝珠花春日部線","cls":"secondary","shops":0,"st_km":2.61,"mesh":"54390602"},"geometry":{"type":"LineString","coordinates":[[139.78067,36.00452],[139.78038,36.00444],[139.78018,36.00427],[139.77901,36.003]]}},{"type":"Feature","properties":{"idx":167,"road":NaN,"cls":"tertiary","shops":0,"st_km":6.24,"mesh":"54390643"},"geometry":{"type":"LineString","coordinates":[[139.79756,36.03596],[139.7986,36.03648]]}},{"type":"Feature","properties":{"idx":42,"road":"庄和中央通り","cls":"tertiary","shops":0,"st_km":2.85,"mesh":"54390604"},"geometry":{"type":"LineString","coordinates":[[139.80485,35.99311],[139.80538,35.99608],[139.80636,36.00099],[139.80462,36.01806],[139.80447,36.01865],[139.80416,36.01925]]}},{"type":"Feature","properties":{"idx":167,"road":NaN,"cls":"tertiary","shops":0,"st_km":6.2,"mesh":"54390643"},"geometry":{"type":"LineString","coordinates":[[139.79685,36.03558],[139.79756,36.03596]]}},{"type":"Feature","properties":{"idx":167,"road":NaN,"cls":"tertiary","shops":0,"st_km":6.04,"mesh":"54390643"},"geometry":{"type":"LineString","coordinates":[[139.79685,36.03558],[139.7924,36.03317]]}},{"type":"Feature","properties":{"idx":193,"road":"次木杉戸線","cls":"secondary","shops":0,"st_km":5.22,"mesh":"54390633"},"geometry":{"type":"LineString","coordinates":[[139.81293,36.0286],[139.81187,36.02849],[139.81144,36.02849],[139.81002,36.02892],[139.8092,36.02901],[139.8084,36.02896],[139.80731,36.02865],[139.80654,36.02859],[139.80419,36.02872],[139.80383,36.02868],[139.80352,36.02855],[139.80223,36.02772],[139.79996,36.02611],[139.79536,36.03035],[139.7924,36.03317],[139.78752,36.03051]]}},{"type":"Feature","properties":{"idx":98,"road":NaN,"cls":"tertiary","shops":0,"st_km":2.79,"mesh":"54390603"},"geometry":{"type":"LineString","coordinates":[[139.79064,36.0033],[139.79043,36.0033]]}},{"type":"Feature","properties":{"idx":18,"road":"松富橋","cls":"secondary","shops":0,"st_km":2.7,"mesh":"54390602"},"geometry":{"type":"LineString","coordinates":[[139.78067,36.00452],[139.78122,36.00458]]}},{"type":"Feature","properties":{"idx":98,"road":NaN,"cls":"tertiary","shops":0,"st_km":2.75,"mesh":"54390603"},"geometry":{"type":"LineString","coordinates":[[139.7903,36.00331],[139.78887,36.00325]]}},{"type":"Feature","properties":{"idx":101,"road":NaN,"cls":"tertiary","shops":0,"st_km":4.75,"mesh":"54390691"},"geometry":{"type":"LineString","coordinates":[[139.76679,36.07945],[139.76684,36.07935],[139.76699,36.07932],[139.76783,36.0795]]}},{"type":"Feature","properties":{"idx":59,"road":NaN,"cls":"tertiary","shops":0,"st_km":3.77,"mesh":"54390690"},"geometry":{"type":"LineString","coordinates":[[139.7615,36.07547],[139.75164,36.07844]]}},{"type":"Feature","properties":{"idx":70,"road":NaN,"cls":"tertiary","shops":0,"st_km":4.37,"mesh":"54390681"},"geometry":{"type":"LineString","coordinates":[[139.7654,36.0743],[139.7615,36.07547]]}},{"type":"Feature","properties":{"idx":102,"road":NaN,"cls":"tertiary","shops":0,"st_km":4.51,"mesh":"54390691"},"geometry":{"type":"LineString","coordinates":[[139.76502,36.07829],[139.76549,36.07917],[139.76467,36.07947],[139.76353,36.07974],[139.76309,36.07877]]}},{"type":"Feature","properties":{"idx":101,"road":NaN,"cls":"tertiary","shops":0,"st_km":4.82,"mesh":"54390691"},"geometry":{"type":"LineString","coordinates":[[139.76831,36.07882],[139.76783,36.0795]]}},{"type":"Feature","properties":{"idx":101,"road":NaN,"cls":"tertiary","shops":0,"st_km":4.71,"mesh":"54390691"},"geometry":{"type":"LineString","coordinates":[[139.76675,36.07984],[139.76679,36.07945]]}},{"type":"Feature","properties":{"idx":60,"road":NaN,"cls":"tertiary","shops":0,"st_km":3.45,"mesh":"54390690"},"geometry":{"type":"LineString","coordinates":[[139.73691,36.08546],[139.74048,36.0847],[139.74254,36.08408],[139.7462,36.08277],[139.74684,36.0827],[139.74863,36.0828],[139.75102,36.08234],[139.75143,36.08221],[139.75242,36.08168],[139.75281,36.08154],[139.75579,36.08071],[139.7615,36.07903],[139.76409,36.07859],[139.76619,36.07792],[139.76653,36.07794],[139.76705,36.07817]]}},{"type":"Feature","properties":{"idx":69,"road":NaN,"cls":"tertiary","shops":0,"st_km":4.64,"mesh":"54390681"},"geometry":{"type":"LineString","coordinates":[[139.76616,36.07041],[139.76626,36.0704]]}},{"type":"Feature","properties":{"idx":69,"road":NaN,"cls":"tertiary","shops":0,"st_km":4.76,"mesh":"54390681"},"geometry":{"type":"LineString","coordinates":[[139.76851,36.07039],[139.76832,36.07024],[139.76798,36.07021],[139.76656,36.07036]]}},{"type":"Feature","properties":{"idx":55,"road":NaN,"cls":"tertiary","shops":0,"st_km":4.65,"mesh":"54390661"},"geometry":{"type":"LineString","coordinates":[[139.76537,36.05154],[139.76693,36.05266]]}},{"type":"Feature","properties":{"idx":55,"road":NaN,"cls":"tertiary","shops":0,"st_km":4.77,"mesh":"54390661"},"geometry":{"type":"LineString","coordinates":[[139.76693,36.05266],[139.76776,36.05327],[139.76781,36.05343]]}},{"type":"Feature","properties":{"idx":69,"road":NaN,"cls":"tertiary","shops":0,"st_km":5.41,"mesh":"54390681"},"geometry":{"type":"LineString","coordinates":[[139.77481,36.06978],[139.7746,36.06982]]}},{"type":"Feature","properties":{"idx":55,"road":NaN,"cls":"tertiary","shops":0,"st_km":4.56,"mesh":"54390661"},"geometry":{"type":"LineString","coordinates":[[139.76517,36.0514],[139.76537,36.05154]]}},{"type":"Feature","properties":{"idx":44,"road":NaN,"cls":"tertiary","shops":0,"st_km":3.81,"mesh":"54390650"},"geometry":{"type":"LineString","coordinates":[[139.75539,36.04444],[139.76267,36.04964]]}},{"type":"Feature","properties":{"idx":56,"road":NaN,"cls":"tertiary","shops":0,"st_km":4.4,"mesh":"54390661"},"geometry":{"type":"LineString","coordinates":[[139.76267,36.04964],[139.76517,36.0514]]}},{"type":"Feature","properties":{"idx":69,"road":"吉田橋","cls":"tertiary","shops":0,"st_km":4.66,"mesh":"54390681"},"geometry":{"type":"LineString","coordinates":[[139.76626,36.0704],[139.76656,36.07036]]}},{"type":"Feature","properties":{"idx":69,"road":NaN,"cls":"tertiary","shops":0,"st_km":5.38,"mesh":"54390681"},"geometry":{"type":"LineString","coordinates":[[139.77427,36.06988],[139.77448,36.06984]]}},{"type":"Feature","properties":{"idx":69,"road":NaN,"cls":"tertiary","shops":0,"st_km":5.26,"mesh":"54390681"},"geometry":{"type":"LineString","coordinates":[[139.77197,36.07033],[139.77427,36.06988]]}},{"type":"Feature","properties":{"idx":69,"road":NaN,"cls":"tertiary","shops":0,"st_km":5.08,"mesh":"54390681"},"geometry":{"type":"LineString","coordinates":[[139.77021,36.07065],[139.77197,36.07033]]}},{"type":"Feature","properties":{"idx":44,"road":NaN,"cls":"tertiary","shops":0,"st_km":6.41,"mesh":"54390663"},"geometry":{"type":"LineString","coordinates":[[139.78876,36.04869],[139.78973,36.04907],[139.79013,36.04936],[139.79021,36.04952],[139.79026,36.05043],[139.79042,36.05091],[139.79061,36.0512],[139.79114,36.05178],[139.79083,36.05324]]}},{"type":"Feature","properties":{"idx":109,"road":NaN,"cls":"tertiary","shops":0,"st_km":6.06,"mesh":"54390662"},"geometry":{"type":"LineString","coordinates":[[139.78191,36.04817],[139.78327,36.04956],[139.78507,36.0519],[139.7851,36.05205],[139.78491,36.05228],[139.78498,36.05236],[139.78618,36.05282],[139.78651,36.05285],[139.78663,36.05291],[139.78864,36.05494],[139.78883,36.05507]]}},{"type":"Feature","properties":{"idx":167,"road":NaN,"cls":"tertiary","shops":0,"st_km":6.3,"mesh":"54390643"},"geometry":{"type":"LineString","coordinates":[[139.79868,36.03654],[139.79973,36.03734]]}},{"type":"Feature","properties":{"idx":69,"road":NaN,"cls":"tertiary","shops":0,"st_km":5.84,"mesh":"54390652"},"geometry":{"type":"LineString","coordinates":[[139.78699,36.04458],[139.78661,36.04582],[139.78635,36.0463],[139.78603,36.04673],[139.7854,36.04724],[139.78267,36.04892]]}},{"type":"Feature","properties":{"idx":250,"road":NaN,"cls":"tertiary","shops":0,"st_km":6.47,"mesh":"54390653"},"geometry":{"type":"LineString","coordinates":[[139.79634,36.04109],[139.7944,36.04381],[139.79506,36.04465]]}},{"type":"Feature","properties":{"idx":50,"road":NaN,"cls":"tertiary","shops":0,"st_km":6.51,"mesh":"54390644"},"geometry":{"type":"LineString","coordinates":[[139.79973,36.03734],[139.80131,36.03871],[139.80154,36.03914],[139.80226,36.04105]]}},{"type":"Feature","properties":{"idx":67,"road":NaN,"cls":"tertiary","shops":1,"st_km":6.53,"mesh":"54390663"},"geometry":{"type":"LineString","coordinates":[[139.78883,36.05507],[139.78925,36.05472],[139.78995,36.05359],[139.79016,36.05304]]}},{"type":"Feature","properties":{"idx":167,"road":NaN,"cls":"tertiary","shops":0,"st_km":6.17,"mesh":"54390643"},"geometry":{"type":"LineString","coordinates":[[139.79634,36.04109],[139.79392,36.04013],[139.78943,36.03814]]}},{"type":"Feature","properties":{"idx":167,"road":NaN,"cls":"tertiary","shops":0,"st_km":5.96,"mesh":"54390643"},"geometry":{"type":"LineString","coordinates":[[139.78753,36.03972],[139.78969,36.04042],[139.79043,36.04074],[139.79153,36.03907]]}},{"type":"Feature","properties":{"idx":167,"road":NaN,"cls":"tertiary","shops":0,"st_km":6.55,"mesh":"54390643"},"geometry":{"type":"LineString","coordinates":[[139.79973,36.03734],[139.79806,36.03871],[139.79634,36.04109],[139.79672,36.0413],[139.79834,36.04295]]}},{"type":"Feature","properties":{"idx":44,"road":NaN,"cls":"tertiary","shops":0,"st_km":6.46,"mesh":"54390663"},"geometry":{"type":"LineString","coordinates":[[139.79261,36.05378],[139.78894,36.05265],[139.78848,36.0524],[139.78826,36.05233],[139.78674,36.05203]]}},{"type":"Feature","properties":{"idx":90,"road":"惣新田春日部線","cls":"secondary","shops":0,"st_km":2.4,"mesh":"54390601"},"geometry":{"type":"LineString","coordinates":[[139.76492,36.00697],[139.76531,36.00709]]}},{"type":"Feature","properties":{"idx":414,"road":"惣新田春日部線","cls":"secondary","shops":0,"st_km":2.98,"mesh":"54390611"},"geometry":{"type":"LineString","coordinates":[[139.76531,36.00709],[139.76609,36.00737],[139.76671,36.0077],[139.76768,36.00834],[139.76857,36.00912],[139.77048,36.01113],[139.77119,36.01178],[139.77271,36.01293],[139.7752,36.0149],[139.77615,36.01557]]}},{"type":"Feature","properties":{"idx":44,"road":NaN,"cls":"tertiary","shops":0,"st_km":6.62,"mesh":"54390663"},"geometry":{"type":"LineString","coordinates":[[139.79091,36.05578],[139.79062,36.05556],[139.78883,36.05507]]}},{"type":"Feature","properties":{"idx":32,"road":NaN,"cls":"tertiary","shops":0,"st_km":2.7,"mesh":"54390640"},"geometry":{"type":"LineString","coordinates":[[139.75042,36.03994],[139.75031,36.03977]]}},{"type":"Feature","properties":{"idx":251,"road":NaN,"cls":"tertiary","shops":1,"st_km":5.64,"mesh":"54390643"},"geometry":{"type":"LineString","coordinates":[[139.78943,36.03814],[139.78757,36.03735],[139.7856,36.03672]]}},{"type":"Feature","properties":{"idx":48,"road":"松伏春日部関宿線","cls":"primary","shops":0,"st_km":5.95,"mesh":"54390672"},"geometry":{"type":"LineString","coordinates":[[139.78341,36.04372],[139.78229,36.04732],[139.78202,36.04802],[139.7818,36.04829],[139.78129,36.04863],[139.77829,36.05017],[139.77757,36.05146],[139.77707,36.05222],[139.77697,36.05252],[139.77697,36.05284],[139.7771,36.0539],[139.77706,36.05539],[139.77719,36.05598],[139.779,36.05912],[139.77916,36.05951],[139.77938,36.06026],[139.77942,36.06097],[139.77923,36.06246],[139.77906,36.06535],[139.77955,36.06709],[139.77956,36.06828],[139.77991,36.06961],[139.77998,36.07023],[139.77992,36.07071],[139.77944,36.07199],[139.77832,36.07577],[139.7781,36.07607],[139.77643,36.07771],[139.7762,36.07806],[139.77567,36.07922],[139.77561,36.07947],[139.77565,36.07977],[139.77629,36.08081],[139.77624,36.081],[139.77602,36.08121]]}},{"type":"Feature","properties":{"idx":43,"road":"松伏春日部関宿線","cls":"primary","shops":0,"st_km":5.4,"mesh":"54390642"},"geometry":{"type":"LineString","coordinates":[[139.78752,36.03051],[139.7856,36.03672]]}},{"type":"Feature","properties":{"idx":19,"road":NaN,"cls":"tertiary","shops":0,"st_km":5.61,"mesh":"54390692"},"geometry":{"type":"LineString","coordinates":[[139.77624,36.081],[139.77648,36.08115],[139.77669,36.0815],[139.77663,36.08161]]}},{"type":"Feature","properties":{"idx":44,"road":"中央橋","cls":"secondary","shops":0,"st_km":4.17,"mesh":"54390641"},"geometry":{"type":"LineString","coordinates":[[139.77145,36.03501],[139.77127,36.03496]]}},{"type":"Feature","properties":{"idx":39,"road":"次木杉戸線","cls":"secondary","shops":0,"st_km":4.49,"mesh":"54390642"},"geometry":{"type":"LineString","coordinates":[[139.77514,36.03507],[139.77498,36.03507]]}},{"type":"Feature","properties":{"idx":44,"road":"惣新田春日部線","cls":"secondary","shops":0,"st_km":4.23,"mesh":"54390641"},"geometry":{"type":"LineString","coordinates":[[139.77215,36.03478],[139.77208,36.03514]]}},{"type":"Feature","properties":{"idx":45,"road":"次木杉戸線","cls":"secondary","shops":0,"st_km":3.69,"mesh":"54390641"},"geometry":{"type":"LineString","coordinates":[[139.77127,36.03496],[139.76618,36.03381],[139.76432,36.03329],[139.76227,36.03307],[139.76195,36.03293],[139.76133,36.0325]]}},{"type":"Feature","properties":{"idx":44,"road":"丸田橋","cls":"secondary","shops":0,"st_km":4.23,"mesh":"54390641"},"geometry":{"type":"LineString","coordinates":[[139.77226,36.0346],[139.77215,36.03478]]}},{"type":"Feature","properties":{"idx":44,"road":"次木杉戸線","cls":"secondary","shops":0,"st_km":4.34,"mesh":"54390641"},"geometry":{"type":"LineString","coordinates":[[139.77441,36.03508],[139.77395,36.03511],[139.773,36.03529],[139.7726,36.03528],[139.77208,36.03514]]}},{"type":"Feature","properties":{"idx":44,"road":"船渡橋","cls":"secondary","shops":0,"st_km":4.46,"mesh":"54390641"},"geometry":{"type":"LineString","coordinates":[[139.77498,36.03507],[139.77441,36.03508]]}},{"type":"Feature","properties":{"idx":44,"road":"次木杉戸線","cls":"secondary","shops":0,"st_km":4.2,"mesh":"54390641"},"geometry":{"type":"LineString","coordinates":[[139.77208,36.03514],[139.77145,36.03501]]}},{"type":"Feature","properties":{"idx":95,"road":"境杉戸線","cls":"primary","shops":0,"st_km":3.8,"mesh":"54390670"},"geometry":{"type":"LineString","coordinates":[[139.76103,36.07145],[139.75962,36.07052],[139.75873,36.06984],[139.75806,36.0692],[139.75728,36.06828],[139.75666,36.06731],[139.75366,36.06161],[139.75247,36.05946]]}},{"type":"Feature","properties":{"idx":62,"road":"惣新田幸手線","cls":"secondary","shops":0,"st_km":4.43,"mesh":"54390661"},"geometry":{"type":"LineString","coordinates":[[139.75998,36.05904],[139.76002,36.05814],[139.76025,36.05715],[139.76034,36.05696],[139.76063,36.05666],[139.76151,36.05633],[139.76252,36.05569],[139.76391,36.05491],[139.76519,36.05438],[139.76781,36.05343],[139.76874,36.05304],[139.76938,36.05302]]}},{"type":"Feature","properties":{"idx":97,"road":"境杉戸線","cls":"primary","shops":0,"st_km":3.5,"mesh":"54390670"},"geometry":{"type":"LineString","coordinates":[[139.75247,36.05946],[139.75199,36.05875]]}},{"type":"Feature","properties":{"idx":87,"road":"境杉戸線","cls":"primary","shops":0,"st_km":4.5,"mesh":"54390681"},"geometry":{"type":"LineString","coordinates":[[139.76777,36.07584],[139.76205,36.07211]]}},{"type":"Feature","properties":{"idx":126,"road":"境杉戸線","cls":"primary","shops":0,"st_km":4.88,"mesh":"54390691"},"geometry":{"type":"LineString","coordinates":[[139.76974,36.07716],[139.76829,36.07617]]}},{"type":"Feature","properties":{"idx":126,"road":"境杉戸線","cls":"primary","shops":0,"st_km":4.79,"mesh":"54390691"},"geometry":{"type":"LineString","coordinates":[[139.76829,36.07617],[139.76777,36.07584]]}},{"type":"Feature","properties":{"idx":124,"road":"境杉戸線","cls":"primary","shops":0,"st_km":3.28,"mesh":"54390660"},"geometry":{"type":"LineString","coordinates":[[139.75199,36.05875],[139.75142,36.05804],[139.75029,36.05686],[139.74931,36.05603],[139.74828,36.05526]]}},{"type":"Feature","properties":{"idx":123,"road":"惣新田幸手線","cls":"secondary","shops":0,"st_km":5.29,"mesh":"54390662"},"geometry":{"type":"LineString","coordinates":[[139.77223,36.05299],[139.77566,36.0515],[139.77829,36.05017]]}},{"type":"Feature","properties":{"idx":62,"road":"惣新田幸手線","cls":"secondary","shops":0,"st_km":4.97,"mesh":"54390661"},"geometry":{"type":"LineString","coordinates":[[139.76938,36.05302],[139.77005,36.05309]]}},{"type":"Feature","properties":{"idx":168,"road":"宮東橋","cls":"tertiary","shops":0,"st_km":1.52,"mesh":"54390610"},"geometry":{"type":"LineString","coordinates":[[139.75023,36.01395],[139.75058,36.01447]]}},{"type":"Feature","properties":{"idx":599,"road":"惣新田春日部線","cls":"secondary","shops":0,"st_km":1.66,"mesh":"54390600"},"geometry":{"type":"LineString","coordinates":[[139.75362,35.99083],[139.75419,35.99202],[139.7553,35.99459],[139.75812,36.00046],[139.76044,36.00554],[139.7606,36.00575],[139.76141,36.00628],[139.7617,36.00634],[139.76223,36.00635],[139.76355,36.00651],[139.76492,36.00697]]}},{"type":"Feature","properties":{"idx":53,"road":"松伏春日部関宿線","cls":"primary","shops":0,"st_km":4.58,"mesh":"54390623"},"geometry":{"type":"LineString","coordinates":[[139.79342,36.01015],[139.78752,36.03051]]}},{"type":"Feature","properties":{"idx":81,"road":NaN,"cls":"pedestrian","shops":0,"st_km":3.69,"mesh":"54390690"},"geometry":{"type":"LineString","coordinates":[[139.75327,36.08175],[139.75348,36.0815],[139.75385,36.08137],[139.75438,36.08141],[139.75451,36.08146],[139.75475,36.08166],[139.7549,36.08195],[139.75485,36.08233],[139.75462,36.0825],[139.754,36.08279]]}},{"type":"Feature","properties":{"idx":24,"road":"境杉戸線","cls":"primary","shops":0,"st_km":5.7,"mesh":"54390692"},"geometry":{"type":"LineString","coordinates":[[139.7779,36.0812],[139.7772,36.0811]]}},{"type":"Feature","properties":{"idx":101,"road":NaN,"cls":"tertiary","shops":0,"st_km":4.74,"mesh":"54390691"},"geometry":{"type":"LineString","coordinates":[[139.76762,36.07846],[139.76705,36.07817]]}},{"type":"Feature","properties":{"idx":101,"road":NaN,"cls":"tertiary","shops":0,"st_km":4.87,"mesh":"54390691"},"geometry":{"type":"LineString","coordinates":[[139.76974,36.07716],[139.76891,36.078],[139.76831,36.07882],[139.76762,36.07846]]}},{"type":"Feature","properties":{"idx":70,"road":NaN,"cls":"tertiary","shops":0,"st_km":4.4,"mesh":"54390681"},"geometry":{"type":"LineString","coordinates":[[139.76616,36.07041],[139.76324,36.07078],[139.76288,36.07092],[139.7614,36.0717]]}},{"type":"Feature","properties":{"idx":75,"road":"埼葛広域農道","cls":"tertiary","shops":0,"st_km":3.96,"mesh":"54390670"},"geometry":{"type":"LineString","coordinates":[[139.75753,36.05855],[139.75766,36.05832]]}},{"type":"Feature","properties":{"idx":39,"road":"埼葛広域農道","cls":"tertiary","shops":0,"st_km":3.49,"mesh":"54390680"},"geometry":{"type":"LineString","coordinates":[[139.74828,36.07517],[139.74794,36.07416],[139.74799,36.07385],[139.75006,36.07146],[139.75753,36.05855]]}},{"type":"Feature","properties":{"idx":84,"road":"惣新田幸手線","cls":"secondary","shops":0,"st_km":4.07,"mesh":"54390670"},"geometry":{"type":"LineString","coordinates":[[139.75753,36.05855],[139.75815,36.05864],[139.75998,36.05904]]}},{"type":"Feature","properties":{"idx":43,"road":"松伏春日部関宿線","cls":"primary","shops":0,"st_km":5.47,"mesh":"54390642"},"geometry":{"type":"LineString","coordinates":[[139.7856,36.03672],[139.78341,36.04372]]}},{"type":"Feature","properties":{"idx":62,"road":"次木杉戸線","cls":"secondary","shops":0,"st_km":2.29,"mesh":"54390630"},"geometry":{"type":"LineString","coordinates":[[139.74844,36.02976],[139.74998,36.02966],[139.7508,36.02973],[139.75319,36.03023],[139.75361,36.03041],[139.7543,36.03084]]}},{"type":"Feature","properties":{"idx":301,"road":"次木杉戸線","cls":"secondary","shops":0,"st_km":5.74,"mesh":"54390635"},"geometry":{"type":"LineString","coordinates":[[139.8143,36.03369],[139.81424,36.03362],[139.81425,36.03352],[139.81465,36.03222],[139.81467,36.03197],[139.8146,36.03169],[139.81439,36.03142],[139.81412,36.03126],[139.81392,36.03121],[139.81327,36.03125]]}},{"type":"Feature","properties":{"idx":167,"road":NaN,"cls":"tertiary","shops":0,"st_km":6.27,"mesh":"54390643"},"geometry":{"type":"LineString","coordinates":[[139.7986,36.03648],[139.79868,36.03654]]}},{"type":"Feature","properties":{"idx":167,"road":NaN,"cls":"tertiary","shops":0,"st_km":5.81,"mesh":"54390643"},"geometry":{"type":"LineString","coordinates":[[139.7924,36.03317],[139.79157,36.034],[139.79092,36.03489],[139.79066,36.03534],[139.78943,36.03814]]}},{"type":"Feature","properties":{"idx":78,"road":"西宝珠花屏風線","cls":"secondary","shops":0,"st_km":5.68,"mesh":"54390652"},"geometry":{"type":"LineString","coordinates":[[139.78341,36.04372],[139.78699,36.04458]]}},{"type":"Feature","properties":{"idx":69,"road":NaN,"cls":"tertiary","shops":0,"st_km":5.83,"mesh":"54390652"},"geometry":{"type":"LineString","coordinates":[[139.78785,36.04178],[139.78699,36.04458]]}},{"type":"Feature","properties":{"idx":167,"road":NaN,"cls":"tertiary","shops":0,"st_km":5.82,"mesh":"54390643"},"geometry":{"type":"LineString","coordinates":[[139.78943,36.03814],[139.78785,36.04178]]}},{"type":"Feature","properties":{"idx":98,"road":NaN,"cls":"tertiary","shops":0,"st_km":2.47,"mesh":"54390620"},"geometry":{"type":"LineString","coordinates":[[139.76007,36.01814],[139.76037,36.01817]]}},{"type":"Feature","properties":{"idx":110,"road":NaN,"cls":"tertiary","shops":0,"st_km":2.09,"mesh":"54390620"},"geometry":{"type":"LineString","coordinates":[[139.75176,36.01557],[139.754,36.01659],[139.75883,36.01796],[139.76007,36.01814]]}},{"type":"Feature","properties":{"idx":70,"road":"埼葛広域農道","cls":"tertiary","shops":0,"st_km":3.05,"mesh":"54390601"},"geometry":{"type":"LineString","coordinates":[[139.77337,36.00765],[139.77331,36.0075]]}},{"type":"Feature","properties":{"idx":89,"road":NaN,"cls":"tertiary","shops":0,"st_km":3.01,"mesh":"54390621"},"geometry":{"type":"LineString","coordinates":[[139.7661,36.01983],[139.76621,36.01988]]}},{"type":"Feature","properties":{"idx":94,"road":NaN,"cls":"tertiary","shops":0,"st_km":2.73,"mesh":"54390621"},"geometry":{"type":"LineString","coordinates":[[139.76037,36.01817],[139.76348,36.01857],[139.76389,36.01872],[139.7661,36.01983]]}},{"type":"Feature","properties":{"idx":54,"road":NaN,"cls":"tertiary","shops":0,"st_km":4.65,"mesh":"54390632"},"geometry":{"type":"LineString","coordinates":[[139.77838,36.02549],[139.77866,36.02566],[139.77937,36.02657],[139.77961,36.02675],[139.78537,36.0295]]}},{"type":"Feature","properties":{"idx":55,"road":NaN,"cls":"tertiary","shops":0,"st_km":4.24,"mesh":"54390632"},"geometry":{"type":"LineString","coordinates":[[139.77773,36.02522],[139.77838,36.02549]]}},{"type":"Feature","properties":{"idx":125,"road":"境杉戸線","cls":"primary","shops":0,"st_km":5.31,"mesh":"54390691"},"geometry":{"type":"LineString","coordinates":[[139.77508,36.08062],[139.77197,36.07857]]}},{"type":"Feature","properties":{"idx":126,"road":"境杉戸線","cls":"primary","shops":0,"st_km":5.07,"mesh":"54390691"},"geometry":{"type":"LineString","coordinates":[[139.77108,36.07799],[139.77092,36.0779]]}},{"type":"Feature","properties":{"idx":128,"road":"松伏春日部関宿線","cls":"primary","shops":0,"st_km":2.6,"mesh":"54390603"},"geometry":{"type":"LineString","coordinates":[[139.79625,35.99278],[139.7954,36.00344],[139.79342,36.01015]]}},{"type":"Feature","properties":{"idx":17,"road":"西宝珠花春日部線","cls":"secondary","shops":0,"st_km":2.82,"mesh":"54390602"},"geometry":{"type":"LineString","coordinates":[[139.78862,36.00711],[139.78594,36.00541],[139.78508,36.00501],[139.78434,36.00484],[139.78122,36.00458]]}},{"type":"Feature","properties":{"idx":301,"road":"次木杉戸線","cls":"secondary","shops":0,"st_km":5.49,"mesh":"54390635"},"geometry":{"type":"LineString","coordinates":[[139.81327,36.03125],[139.81293,36.0286]]}},{"type":"Feature","properties":{"idx":115,"road":NaN,"cls":"tertiary","shops":0,"st_km":3.43,"mesh":"54390615"},"geometry":{"type":"LineString","coordinates":[[139.81285,35.99825],[139.81298,35.99889],[139.81445,36.00233],[139.81485,36.00362],[139.81502,36.00471],[139.81505,36.00602],[139.81497,36.00705],[139.81471,36.00907],[139.81427,36.01197],[139.81332,36.01759],[139.81238,36.02196],[139.81208,36.02264],[139.81186,36.02418]]}},{"type":"Feature","properties":{"idx":42,"road":"庄和中央通り","cls":"tertiary","shops":0,"st_km":4.72,"mesh":"54390624"},"geometry":{"type":"LineString","coordinates":[[139.80416,36.01925],[139.80254,36.02232],[139.80045,36.02646]]}},{"type":"Feature","properties":{"idx":103,"road":NaN,"cls":"tertiary","shops":1,"st_km":5.71,"mesh":"54390652"},"geometry":{"type":"LineString","coordinates":[[139.78635,36.0463],[139.7855,36.046],[139.78289,36.04543]]}},{"type":"Feature","properties":{"idx":155,"road":NaN,"cls":"tertiary","shops":0,"st_km":1.67,"mesh":"54390610"},"geometry":{"type":"LineString","coordinates":[[139.75109,36.01511],[139.75176,36.01557]]}},{"type":"Feature","properties":{"idx":162,"road":NaN,"cls":"tertiary","shops":0,"st_km":1.59,"mesh":"54390610"},"geometry":{"type":"LineString","coordinates":[[139.75058,36.01447],[139.75109,36.01511]]}},{"type":"Feature","properties":{"idx":156,"road":NaN,"cls":"tertiary","shops":0,"st_km":1.66,"mesh":"54390610"},"geometry":{"type":"LineString","coordinates":[[139.75109,36.01511],[139.75118,36.01508],[139.75131,36.01512],[139.75172,36.01534]]}},{"type":"Feature","properties":{"idx":24,"road":"境杉戸線","cls":"primary","shops":0,"st_km":5.82,"mesh":"54390692"},"geometry":{"type":"LineString","coordinates":[[139.77999,36.0815],[139.7779,36.0812]]}},{"type":"Feature","properties":{"idx":24,"road":"境杉戸線","cls":"primary","shops":0,"st_km":5.54,"mesh":"54390692"},"geometry":{"type":"LineString","coordinates":[[139.77605,36.08094],[139.77556,36.08083]]}},{"type":"Feature","properties":{"idx":24,"road":"境杉戸線","cls":"primary","shops":0,"st_km":5.49,"mesh":"54390692"},"geometry":{"type":"LineString","coordinates":[[139.77556,36.08083],[139.77508,36.08062]]}},{"type":"Feature","properties":{"idx":126,"road":"境杉戸線","cls":"primary","shops":0,"st_km":5.12,"mesh":"54390691"},"geometry":{"type":"LineString","coordinates":[[139.77197,36.07857],[139.77108,36.07799]]}},{"type":"Feature","properties":{"idx":126,"road":"境杉戸線","cls":"primary","shops":0,"st_km":5.03,"mesh":"54390691"},"geometry":{"type":"LineString","coordinates":[[139.77092,36.0779],[139.77031,36.07751]]}},{"type":"Feature","properties":{"idx":126,"road":"境杉戸線","cls":"primary","shops":0,"st_km":4.98,"mesh":"54390691"},"geometry":{"type":"LineString","coordinates":[[139.77031,36.07751],[139.76974,36.07716]]}},{"type":"Feature","properties":{"idx":46,"road":"境杉戸線","cls":"primary","shops":0,"st_km":4.22,"mesh":"54390680"},"geometry":{"type":"LineString","coordinates":[[139.76205,36.07211],[139.7614,36.0717]]}},{"type":"Feature","properties":{"idx":46,"road":"境杉戸線","cls":"primary","shops":0,"st_km":4.18,"mesh":"54390680"},"geometry":{"type":"LineString","coordinates":[[139.7614,36.0717],[139.76103,36.07145]]}},{"type":"Feature","properties":{"idx":42,"road":"下吉羽幸手線","cls":"secondary","shops":0,"st_km":4.18,"mesh":"54390680"},"geometry":{"type":"LineString","coordinates":[[139.7614,36.0717],[139.76099,36.0719]]}},{"type":"Feature","properties":{"idx":59,"road":NaN,"cls":"tertiary","shops":0,"st_km":3.78,"mesh":"54390690"},"geometry":{"type":"LineString","coordinates":[[139.75618,36.08174],[139.75572,36.08073]]}},{"type":"Feature","properties":{"idx":101,"road":NaN,"cls":"tertiary","shops":0,"st_km":4.89,"mesh":"54390691"},"geometry":{"type":"LineString","coordinates":[[139.76966,36.08022],[139.76783,36.0795]]}},{"type":"Feature","properties":{"idx":101,"road":NaN,"cls":"tertiary","shops":0,"st_km":4.71,"mesh":"54390691"},"geometry":{"type":"LineString","coordinates":[[139.76675,36.07984],[139.76674,36.07991]]}},{"type":"Feature","properties":{"idx":26,"road":NaN,"cls":"pedestrian","shops":0,"st_km":5.64,"mesh":"54390692"},"geometry":{"type":"LineString","coordinates":[[139.77668,36.08147],[139.77681,36.08141],[139.77688,36.08131],[139.77699,36.08083]]}},{"type":"Feature","properties":{"idx":303,"road":"西宝珠花春日部線","cls":"secondary","shops":0,"st_km":5.09,"mesh":"54390635"},"geometry":{"type":"LineString","coordinates":[[139.81293,36.0286],[139.81273,36.02691],[139.81194,36.02434],[139.81182,36.02414]]}},{"type":"Feature","properties":{"idx":47,"road":"西宝珠花春日部線","cls":"secondary","shops":0,"st_km":4.83,"mesh":"54390624"},"geometry":{"type":"LineString","coordinates":[[139.81182,36.02414],[139.81172,36.02404]]}},{"type":"Feature","properties":{"idx":998,"road":"次木杉戸線","cls":"secondary","shops":0,"st_km":5.92,"mesh":"54390645"},"geometry":{"type":"LineString","coordinates":[[139.8143,36.03369],[139.81436,36.03371]]}},{"type":"Feature","properties":{"idx":24,"road":"松伏春日部関宿線","cls":"primary","shops":0,"st_km":5.5,"mesh":"54390692"},"geometry":{"type":"LineString","coordinates":[[139.77602,36.08121],[139.77571,36.08108],[139.77508,36.081],[139.77499,36.08087],[139.77508,36.08062]]}},{"type":"Feature","properties":{"idx":98,"road":NaN,"cls":"tertiary","shops":0,"st_km":2.78,"mesh":"54390603"},"geometry":{"type":"LineString","coordinates":[[139.79043,36.0033],[139.7903,36.00331]]}},{"type":"Feature","properties":{"idx":587,"road":"西宝珠花春日部線","cls":"secondary","shops":0,"st_km":3.36,"mesh":"54390613"},"geometry":{"type":"LineString","coordinates":[[139.79342,36.01015],[139.78879,36.00722]]}},{"type":"Feature","properties":{"idx":104,"road":"西宝珠花春日部線","cls":"secondary","shops":0,"st_km":3.13,"mesh":"54390603"},"geometry":{"type":"LineString","coordinates":[[139.78879,36.00722],[139.78862,36.00711]]}},{"type":"Feature","properties":{"idx":54,"road":NaN,"cls":"tertiary","shops":0,"st_km":5.17,"mesh":"54390632"},"geometry":{"type":"LineString","coordinates":[[139.78554,36.02958],[139.78752,36.03051]]}},{"type":"Feature","properties":{"idx":54,"road":NaN,"cls":"tertiary","shops":0,"st_km":5.05,"mesh":"54390632"},"geometry":{"type":"LineString","coordinates":[[139.78537,36.0295],[139.78554,36.02958]]}},{"type":"Feature","properties":{"idx":38,"road":"次木杉戸線","cls":"secondary","shops":0,"st_km":5.32,"mesh":"54390642"},"geometry":{"type":"LineString","coordinates":[[139.7856,36.03672],[139.78371,36.03597],[139.78267,36.03573]]}},{"type":"Feature","properties":{"idx":39,"road":"次木杉戸線","cls":"secondary","shops":0,"st_km":5.16,"mesh":"54390642"},"geometry":{"type":"LineString","coordinates":[[139.78267,36.03573],[139.78248,36.03568]]}},{"type":"Feature","properties":{"idx":78,"road":"惣新田春日部線","cls":"secondary","shops":0,"st_km":5.28,"mesh":"54390652"},"geometry":{"type":"LineString","coordinates":[[139.77782,36.04454],[139.77815,36.04648],[139.77836,36.04729],[139.77847,36.0483],[139.77851,36.0495],[139.77829,36.05017]]}},{"type":"Feature","properties":{"idx":78,"road":"惣新田春日部線","cls":"secondary","shops":0,"st_km":5.08,"mesh":"54390652"},"geometry":{"type":"LineString","coordinates":[[139.77778,36.04429],[139.77782,36.04454]]}},{"type":"Feature","properties":{"idx":62,"road":"惣新田幸手線","cls":"secondary","shops":0,"st_km":5.08,"mesh":"54390661"},"geometry":{"type":"LineString","coordinates":[[139.77005,36.05309],[139.77145,36.05318],[139.77201,36.05308]]}},{"type":"Feature","properties":{"idx":62,"road":"惣新田幸手線","cls":"secondary","shops":0,"st_km":5.15,"mesh":"54390661"},"geometry":{"type":"LineString","coordinates":[[139.77201,36.05308],[139.77223,36.05299]]}},{"type":"Feature","properties":{"idx":69,"road":NaN,"cls":"tertiary","shops":0,"st_km":5.39,"mesh":"54390681"},"geometry":{"type":"LineString","coordinates":[[139.7746,36.06982],[139.77448,36.06984]]}},{"type":"Feature","properties":{"idx":61,"road":"惣新田春日部線","cls":"secondary","shops":0,"st_km":4.26,"mesh":"54390632"},"geometry":{"type":"LineString","coordinates":[[139.77679,36.02284],[139.77452,36.03106],[139.77422,36.03168],[139.77295,36.03368],[139.77226,36.0346]]}},{"type":"Feature","properties":{"idx":19,"road":"惣新田春日部線","cls":"secondary","shops":0,"st_km":4.0,"mesh":"54390622"},"geometry":{"type":"LineString","coordinates":[[139.77681,36.02276],[139.77679,36.02284]]}},{"type":"Feature","properties":{"idx":16,"road":NaN,"cls":"tertiary","shops":0,"st_km":4.11,"mesh":"54390622"},"geometry":{"type":"LineString","coordinates":[[139.77571,36.02436],[139.77773,36.02522]]}},{"type":"Feature","properties":{"idx":16,"road":NaN,"cls":"tertiary","shops":0,"st_km":4.0,"mesh":"54390622"},"geometry":{"type":"LineString","coordinates":[[139.77566,36.02434],[139.77571,36.02436]]}},{"type":"Feature","properties":{"idx":19,"road":"惣新田春日部線","cls":"secondary","shops":0,"st_km":3.87,"mesh":"54390622"},"geometry":{"type":"LineString","coordinates":[[139.7762,36.01561],[139.77668,36.01599],[139.77689,36.01627],[139.77713,36.01695],[139.77765,36.01793],[139.77776,36.01833],[139.77777,36.01853],[139.77681,36.02276]]}},{"type":"Feature","properties":{"idx":36,"road":"惣新田春日部線","cls":"secondary","shops":0,"st_km":3.6,"mesh":"54390612"},"geometry":{"type":"LineString","coordinates":[[139.77615,36.01557],[139.7762,36.01561]]}},{"type":"Feature","properties":{"idx":78,"road":"惣新田春日部線","cls":"secondary","shops":0,"st_km":4.97,"mesh":"54390652"},"geometry":{"type":"LineString","coordinates":[[139.77657,36.04133],[139.77687,36.04148],[139.77713,36.04167],[139.77731,36.04194],[139.77738,36.04213],[139.77747,36.0429],[139.77778,36.04429]]}},{"type":"Feature","properties":{"idx":39,"road":"惣新田春日部線","cls":"secondary","shops":0,"st_km":4.84,"mesh":"54390642"},"geometry":{"type":"LineString","coordinates":[[139.77648,36.04128],[139.77657,36.04133]]}},{"type":"Feature","properties":{"idx":46,"road":NaN,"cls":"tertiary","shops":0,"st_km":3.27,"mesh":"54390650"},"geometry":{"type":"LineString","coordinates":[[139.75376,36.04326],[139.75532,36.04439]]}},{"type":"Feature","properties":{"idx":46,"road":NaN,"cls":"tertiary","shops":0,"st_km":3.37,"mesh":"54390650"},"geometry":{"type":"LineString","coordinates":[[139.75532,36.04439],[139.75539,36.04444]]}},{"type":"Feature","properties":{"idx":277,"road":NaN,"cls":"pedestrian","shops":0,"st_km":5.78,"mesh":"54390634"},"geometry":{"type":"LineString","coordinates":[[139.8124,36.03252],[139.81236,36.03259],[139.81227,36.03256],[139.81232,36.03249],[139.8124,36.03252]]}}]}