{"type":"FeatureCollection","features":[{"type":"Feature","properties":{"idx":129,"road":"","cls":"tertiary","shops":0,"st_km":1.38,"mesh":"54392421"},"geometry":{"type":"LineString","coordinates":[[139.51219,36.18885],[139.51354,36.18853],[139.51565,36.18837],[139.51871,36.18801],[139.51909,36.1879],[139.52016,36.18744],[139.52082,36.18732],[139.52188,36.18724],[139.52243,36.18712],[139.52454,36.18626]]}},{"type":"Feature","properties":{"idx":30,"road":"","cls":"tertiary","shops":0,"st_km":5.62,"mesh":"54392409"},"geometry":{"type":"LineString","coordinates":[[139.60131,36.17309],[139.60323,36.17275],[139.60947,36.17184],[139.61224,36.17134],[139.62253,36.17032],[139.62272,36.17029],[139.62325,36.17001],[139.62428,36.16994],[139.62554,36.16965],[139.62721,36.16952],[139.62766,36.16919],[139.6284,36.16897]]}},{"type":"Feature","properties":{"idx":56,"road":"","cls":"tertiary","shops":1,"st_km":0.84,"mesh":"54392402"},"geometry":{"type":"LineString","coordinates":[[139.5252,36.16805],[139.5249,36.16788]]}},{"type":"Feature","properties":{"idx":160,"road":"羽生停車場線","cls":"secondary","shops":2,"st_km":0.16,"mesh":"54392402"},"geometry":{"type":"LineString","coordinates":[[139.53679,36.17049],[139.53463,36.17039]]}},{"type":"Feature","properties":{"idx":22,"road":"","cls":"tertiary","shops":1,"st_km":2.81,"mesh":"54392406"},"geometry":{"type":"LineString","coordinates":[[139.57578,36.16953],[139.57584,36.16979],[139.57569,36.16998]]}},{"type":"Feature","properties":{"idx":45,"road":"","cls":"tertiary","shops":0,"st_km":3.5,"mesh":"54392415"},"geometry":{"type":"LineString","coordinates":[[139.57267,36.17292],[139.57295,36.17375],[139.57295,36.17416],[139.57279,36.17461],[139.57196,36.17616],[139.57176,36.17672],[139.57175,36.17708],[139.57205,36.17822],[139.57245,36.18137],[139.57252,36.18167],[139.57311,36.18266],[139.57358,36.18442]]}},{"type":"Feature","properties":{"idx":511,"road":"今泉館林線","cls":"secondary","shops":0,"st_km":4.2,"mesh":"54392425"},"geometry":{"type":"LineString","coordinates":[[139.57358,36.18442],[139.57395,36.18725],[139.57392,36.18752],[139.57319,36.19008],[139.57274,36.19194],[139.57272,36.19263],[139.57279,36.19315],[139.57276,36.19343],[139.57267,36.19368],[139.57125,36.19646],[139.57084,36.19735],[139.57076,36.19767]]}},{"type":"Feature","properties":{"idx":276,"road":"新郷停車場線旧道","cls":"tertiary","shops":1,"st_km":0.16,"mesh":"54392400"},"geometry":{"type":"LineString","coordinates":[[139.50827,36.17247],[139.50877,36.1719],[139.50935,36.17138],[139.50945,36.1712]]}},{"type":"Feature","properties":{"idx":708,"road":"","cls":"tertiary","shops":16,"st_km":0.06,"mesh":"54392402"},"geometry":{"type":"LineString","coordinates":[[139.53443,36.17046],[139.53452,36.17063]]}},{"type":"Feature","properties":{"idx":345,"road":"","cls":"tertiary","shops":1,"st_km":0.72,"mesh":"54392403"},"geometry":{"type":"LineString","coordinates":[[139.53901,36.17055],[139.54479,36.1712]]}},{"type":"Feature","properties":{"idx":361,"road":"","cls":"tertiary","shops":1,"st_km":0.67,"mesh":"54392403"},"geometry":{"type":"LineString","coordinates":[[139.53874,36.17444],[139.53957,36.17452]]}},{"type":"Feature","properties":{"idx":132,"road":"","cls":"tertiary","shops":0,"st_km":1.45,"mesh":"54392403"},"geometry":{"type":"LineString","coordinates":[[139.54168,36.17466],[139.54309,36.17468],[139.54428,36.17454],[139.5471,36.17435],[139.5492,36.17416],[139.55087,36.1738],[139.55229,36.17372],[139.55556,36.17164],[139.55609,36.17142]]}},{"type":"Feature","properties":{"idx":283,"road":"","cls":"tertiary","shops":1,"st_km":1.61,"mesh":"54392404"},"geometry":{"type":"LineString","coordinates":[[139.55147,36.17035],[139.55191,36.17375]]}},{"type":"Feature","properties":{"idx":981,"road":"","cls":"tertiary","shops":0,"st_km":1.96,"mesh":"54392414"},"geometry":{"type":"LineString","coordinates":[[139.55191,36.17375],[139.55403,36.18381]]}},{"type":"Feature","properties":{"idx":886,"road":"","cls":"tertiary","shops":0,"st_km":1.21,"mesh":"54392413"},"geometry":{"type":"LineString","coordinates":[[139.54416,36.18178],[139.54422,36.18165],[139.54399,36.18132],[139.5422,36.17575],[139.54215,36.17539],[139.54213,36.17467]]}},{"type":"Feature","properties":{"idx":221,"road":"","cls":"tertiary","shops":1,"st_km":1.28,"mesh":"54392403"},"geometry":{"type":"LineString","coordinates":[[139.54783,36.17428],[139.54782,36.17154]]}},{"type":"Feature","properties":{"idx":931,"road":"","cls":"tertiary","shops":0,"st_km":1.14,"mesh":"54392413"},"geometry":{"type":"LineString","coordinates":[[139.54154,36.17593],[139.54141,36.18105]]}},{"type":"Feature","properties":{"idx":141,"road":"","cls":"tertiary","shops":0,"st_km":2.28,"mesh":"54392404"},"geometry":{"type":"LineString","coordinates":[[139.54493,36.17121],[139.54914,36.17168],[139.55057,36.17174],[139.55222,36.17164],[139.55437,36.17123],[139.55494,36.17123],[139.55689,36.17157],[139.55993,36.17229],[139.56184,36.17279],[139.56202,36.17286],[139.56323,36.17375],[139.56387,36.17416],[139.5642,36.17426],[139.56626,36.17444],[139.56718,36.17447],[139.56776,36.17439],[139.57195,36.17327],[139.57267,36.17292]]}},{"type":"Feature","properties":{"idx":192,"road":"","cls":"tertiary","shops":0,"st_km":1.57,"mesh":"54392404"},"geometry":{"type":"LineString","coordinates":[[139.55147,36.17035],[139.55146,36.17017]]}},{"type":"Feature","properties":{"idx":193,"road":"","cls":"tertiary","shops":0,"st_km":1.57,"mesh":"54392404"},"geometry":{"type":"LineString","coordinates":[[139.55146,36.17017],[139.5514,36.16947],[139.55142,36.16877]]}},{"type":"Feature","properties":{"idx":886,"road":"","cls":"tertiary","shops":0,"st_km":1.21,"mesh":"54392413"},"geometry":{"type":"LineString","coordinates":[[139.54145,36.17873],[139.54316,36.17874]]}},{"type":"Feature","properties":{"idx":730,"road":"","cls":"tertiary","shops":0,"st_km":1.51,"mesh":"54392413"},"geometry":{"type":"LineString","coordinates":[[139.5491,36.1777],[139.54879,36.17577],[139.54875,36.17511]]}},{"type":"Feature","properties":{"idx":516,"road":"","cls":"pedestrian","shops":1,"st_km":0.62,"mesh":"54392403"},"geometry":{"type":"LineString","coordinates":[[139.53699,36.17492],[139.53725,36.17498],[139.53787,36.17494],[139.53831,36.17502]]}},{"type":"Feature","properties":{"idx":44,"road":"","cls":"tertiary","shops":0,"st_km":0.64,"mesh":"54392402"},"geometry":{"type":"LineString","coordinates":[[139.52718,36.16871],[139.52825,36.16637]]}},{"type":"Feature","properties":{"idx":152,"road":"","cls":"tertiary","shops":2,"st_km":0.09,"mesh":"54392402"},"geometry":{"type":"LineString","coordinates":[[139.53291,36.17058],[139.53306,36.17008]]}},{"type":"Feature","properties":{"idx":39,"road":"","cls":"tertiary","shops":0,"st_km":0.55,"mesh":"54392402"},"geometry":{"type":"LineString","coordinates":[[139.52574,36.17546],[139.52586,36.17503],[139.52604,36.17464],[139.52889,36.16972],[139.52934,36.16909]]}},{"type":"Feature","properties":{"idx":209,"road":"","cls":"tertiary","shops":0,"st_km":0.11,"mesh":"54392411"},"geometry":{"type":"LineString","coordinates":[[139.52503,36.17481],[139.52436,36.17604],[139.52425,36.17632]]}},{"type":"Feature","properties":{"idx":54,"road":"","cls":"tertiary","shops":0,"st_km":0.2,"mesh":"54392402"},"geometry":{"type":"LineString","coordinates":[[139.52441,36.17463],[139.52586,36.17503]]}},{"type":"Feature","properties":{"idx":107,"road":"羽生外野栗橋線","cls":"primary","shops":0,"st_km":4.71,"mesh":"54392417"},"geometry":{"type":"LineString","coordinates":[[139.58659,36.18447],[139.58717,36.18441],[139.58764,36.18425],[139.58806,36.184],[139.58877,36.18331],[139.58927,36.18301],[139.59131,36.18242],[139.59162,36.1824]]}},{"type":"Feature","properties":{"idx":167,"road":"羽生外野栗橋線","cls":"primary","shops":0,"st_km":4.65,"mesh":"54392426"},"geometry":{"type":"LineString","coordinates":[[139.58481,36.18453],[139.58659,36.18447]]}},{"type":"Feature","properties":{"idx":18,"road":"","cls":"tertiary","shops":0,"st_km":5.57,"mesh":"54392428"},"geometry":{"type":"LineString","coordinates":[[139.60123,36.19613],[139.60123,36.19543],[139.60129,36.19503],[139.60197,36.19314],[139.6022,36.19159],[139.60202,36.19023],[139.60197,36.18575],[139.60204,36.18537],[139.60222,36.18503],[139.60268,36.18438],[139.60288,36.18391],[139.6029,36.18367],[139.60284,36.18335],[139.60211,36.18194]]}},{"type":"Feature","properties":{"idx":112,"road":"","cls":"tertiary","shops":0,"st_km":1.98,"mesh":"54392423"},"geometry":{"type":"LineString","coordinates":[[139.54696,36.19175],[139.54692,36.19161],[139.54663,36.19118],[139.54476,36.1886],[139.54138,36.18312],[139.53993,36.18088]]}},{"type":"Feature","properties":{"idx":265,"road":"","cls":"tertiary","shops":0,"st_km":3.96,"mesh":"54392416"},"geometry":{"type":"LineString","coordinates":[[139.58632,36.17661],[139.58563,36.17676],[139.58495,36.1771]]}},{"type":"Feature","properties":{"idx":86,"road":"","cls":"tertiary","shops":0,"st_km":4.69,"mesh":"54392417"},"geometry":{"type":"LineString","coordinates":[[139.60238,36.17777],[139.59768,36.17755],[139.59232,36.17719],[139.59045,36.17713],[139.59003,36.17691]]}},{"type":"Feature","properties":{"idx":269,"road":"","cls":"tertiary","shops":0,"st_km":3.71,"mesh":"54392416"},"geometry":{"type":"LineString","coordinates":[[139.5835,36.18408],[139.58343,36.18372],[139.58315,36.18314],[139.58293,36.1829],[139.58192,36.18217],[139.58173,36.18188],[139.58155,36.18146],[139.58125,36.18062],[139.58115,36.18004],[139.58066,36.179],[139.58063,36.17854],[139.58079,36.17743],[139.58068,36.17709],[139.58037,36.1768],[139.57974,36.17642],[139.57925,36.176],[139.57866,36.17517],[139.57691,36.17297],[139.57495,36.17088]]}},{"type":"Feature","properties":{"idx":260,"road":"","cls":"tertiary","shops":0,"st_km":4.51,"mesh":"54392416"},"geometry":{"type":"LineString","coordinates":[[139.57827,36.20095],[139.57953,36.19913],[139.58162,36.19571],[139.5819,36.19504],[139.58333,36.19229],[139.58379,36.19109],[139.58483,36.18864],[139.58533,36.18694],[139.58572,36.18586],[139.58584,36.18525],[139.58669,36.18238],[139.58686,36.18222],[139.58705,36.18213],[139.58849,36.18178],[139.58863,36.18164],[139.58869,36.18149],[139.58867,36.18133],[139.58823,36.18024],[139.58747,36.18008],[139.58723,36.17993],[139.58714,36.17972],[139.58744,36.17715],[139.58769,36.17594],[139.58772,36.17529],[139.58809,36.17297],[139.58823,36.17265],[139.58856,36.17125],[139.58868,36.17099],[139.58885,36.17078],[139.58906,36.17062],[139.58977,36.17032],[139.58994,36.17013],[139.58992,36.16958],[139.58968,36.1694],[139.58926,36.16931],[139.58914,36.16922],[139.58909,36.169],[139.58933,36.16824],[139.58941,36.16781],[139.59021,36.16536]]}},{"type":"Feature","properties":{"idx":264,"road":"","cls":"tertiary","shops":0,"st_km":4.05,"mesh":"54392416"},"geometry":{"type":"LineString","coordinates":[[139.58821,36.1765],[139.58632,36.17661]]}},{"type":"Feature","properties":{"idx":86,"road":"","cls":"tertiary","shops":0,"st_km":4.85,"mesh":"54392417"},"geometry":{"type":"LineString","coordinates":[[139.59493,36.17736],[139.59518,36.17829],[139.59505,36.17938],[139.59521,36.18029],[139.59534,36.18059],[139.5958,36.18134],[139.59592,36.18207],[139.5964,36.18334]]}},{"type":"Feature","properties":{"idx":88,"road":"","cls":"tertiary","shops":0,"st_km":2.53,"mesh":"54392405"},"geometry":{"type":"LineString","coordinates":[[139.56184,36.17279],[139.56253,36.17253],[139.56289,36.17233],[139.56319,36.17208],[139.56462,36.17042]]}},{"type":"Feature","properties":{"idx":90,"road":"","cls":"tertiary","shops":0,"st_km":2.43,"mesh":"54392405"},"geometry":{"type":"LineString","coordinates":[[139.56702,36.16944],[139.56892,36.16934],[139.569,36.16923],[139.56887,36.16746]]}},{"type":"Feature","properties":{"idx":97,"road":"","cls":"tertiary","shops":0,"st_km":2.18,"mesh":"54392405"},"geometry":{"type":"LineString","coordinates":[[139.56702,36.16944],[139.56676,36.16555]]}},{"type":"Feature","properties":{"idx":286,"road":"","cls":"pedestrian","shops":0,"st_km":4.07,"mesh":"54392407"},"geometry":{"type":"LineString","coordinates":[[139.59504,36.1727],[139.59469,36.17282],[139.59412,36.17282],[139.59369,36.17267],[139.59346,36.17249],[139.59323,36.17216],[139.59317,36.17189],[139.59321,36.17161],[139.59344,36.17124],[139.59384,36.17097],[139.59439,36.17087],[139.59482,36.17093],[139.59506,36.17103],[139.59535,36.17123],[139.59559,36.17164],[139.59559,36.1721],[139.59544,36.17238],[139.59504,36.1727]]}},{"type":"Feature","properties":{"idx":546,"road":"プラザ通り","cls":"tertiary","shops":2,"st_km":0.53,"mesh":"54392403"},"geometry":{"type":"LineString","coordinates":[[139.53901,36.17055],[139.53881,36.17286],[139.53873,36.17465],[139.5387,36.17488],[139.53852,36.17528]]}},{"type":"Feature","properties":{"idx":679,"road":"","cls":"tertiary","shops":15,"st_km":0.04,"mesh":"54392402"},"geometry":{"type":"LineString","coordinates":[[139.53463,36.17039],[139.53441,36.17036],[139.53437,36.17042],[139.53443,36.17046],[139.53463,36.17039]]}},{"type":"Feature","properties":{"idx":44,"road":"","cls":"tertiary","shops":0,"st_km":0.64,"mesh":"54392402"},"geometry":{"type":"LineString","coordinates":[[139.52706,36.16901],[139.52718,36.16871]]}},{"type":"Feature","properties":{"idx":136,"road":"","cls":"tertiary","shops":0,"st_km":1.59,"mesh":"54392423"},"geometry":{"type":"LineString","coordinates":[[139.53971,36.18384],[139.54135,36.18309]]}},{"type":"Feature","properties":{"idx":66,"road":"","cls":"tertiary","shops":0,"st_km":4.48,"mesh":"54392435"},"geometry":{"type":"LineString","coordinates":[[139.57768,36.20053],[139.57709,36.2001],[139.57669,36.19968],[139.57643,36.19949],[139.5752,36.19879],[139.57412,36.19829],[139.57364,36.19812],[139.57152,36.19774],[139.57076,36.19767]]}},{"type":"Feature","properties":{"idx":19,"road":"","cls":"tertiary","shops":0,"st_km":5.04,"mesh":"54392419"},"geometry":{"type":"LineString","coordinates":[[139.61929,36.1808],[139.61963,36.1791],[139.61964,36.17856],[139.61861,36.1752],[139.61792,36.17077]]}},{"type":"Feature","properties":{"idx":184,"road":"","cls":"tertiary","shops":0,"st_km":0.98,"mesh":"54392403"},"geometry":{"type":"LineString","coordinates":[[139.54479,36.1712],[139.54493,36.17121]]}},{"type":"Feature","properties":{"idx":146,"road":"","cls":"tertiary","shops":1,"st_km":1.15,"mesh":"54392422"},"geometry":{"type":"LineString","coordinates":[[139.52983,36.18507],[139.53056,36.18488],[139.53181,36.18437],[139.53311,36.184],[139.53352,36.18382],[139.53492,36.18306],[139.53518,36.1828],[139.53534,36.18246],[139.53579,36.18045]]}},{"type":"Feature","properties":{"idx":104,"road":"","cls":"tertiary","shops":0,"st_km":1.06,"mesh":"54392422"},"geometry":{"type":"LineString","coordinates":[[139.52968,36.1851],[139.52983,36.18507]]}},{"type":"Feature","properties":{"idx":134,"road":"","cls":"tertiary","shops":0,"st_km":4.66,"mesh":"54392426"},"geometry":{"type":"LineString","coordinates":[[139.58712,36.16929],[139.58719,36.16939],[139.58773,36.16971],[139.58784,36.16985],[139.58792,36.17009],[139.58791,36.17078],[139.58721,36.17524],[139.587,36.17607],[139.58701,36.17641],[139.58686,36.17723],[139.58671,36.17848],[139.58637,36.17959],[139.58624,36.17983],[139.58586,36.17997],[139.58535,36.18005],[139.58474,36.18046],[139.58465,36.18059],[139.58463,36.1807],[139.58498,36.18157],[139.58519,36.18166],[139.58588,36.18182],[139.58599,36.18193],[139.58604,36.18216],[139.5857,36.18381],[139.58535,36.18514],[139.58511,36.1858],[139.58501,36.18634],[139.5847,36.18733],[139.58423,36.18843],[139.58387,36.18942],[139.58383,36.18967],[139.5835,36.1905],[139.58314,36.19137],[139.5827,36.19216],[139.58238,36.19301],[139.58152,36.19465],[139.58094,36.1955],[139.58072,36.19599],[139.5799,36.1974],[139.57887,36.19892],[139.57768,36.20053]]}},{"type":"Feature","properties":{"idx":13,"road":"","cls":"tertiary","shops":0,"st_km":3.47,"mesh":"54392406"},"geometry":{"type":"LineString","coordinates":[[139.58727,36.16893],[139.58712,36.16929]]}},{"type":"Feature","properties":{"idx":377,"road":"羽生外野栗橋線","cls":"primary","shops":0,"st_km":0.94,"mesh":"54392412"},"geometry":{"type":"LineString","coordinates":[[139.53196,36.18007],[139.53579,36.18045]]}},{"type":"Feature","properties":{"idx":550,"road":"羽生外野栗橋線","cls":"primary","shops":0,"st_km":0.47,"mesh":"54392412"},"geometry":{"type":"LineString","coordinates":[[139.52571,36.17947],[139.53043,36.17991]]}},{"type":"Feature","properties":{"idx":206,"road":"羽生外野栗橋線","cls":"primary","shops":0,"st_km":0.36,"mesh":"54392411"},"geometry":{"type":"LineString","coordinates":[[139.51809,36.1787],[139.52571,36.17947]]}},{"type":"Feature","properties":{"idx":496,"road":"","cls":"tertiary","shops":0,"st_km":5.43,"mesh":"54392436"},"geometry":{"type":"LineString","coordinates":[[139.5844,36.1897],[139.58442,36.18984],[139.58431,36.1908],[139.5852,36.1934],[139.58541,36.19518],[139.58516,36.19617],[139.58524,36.19733],[139.58522,36.1976],[139.58417,36.20069],[139.58409,36.20184],[139.58393,36.20276]]}},{"type":"Feature","properties":{"idx":95,"road":"","cls":"tertiary","shops":0,"st_km":2.23,"mesh":"54392405"},"geometry":{"type":"LineString","coordinates":[[139.56373,36.16864],[139.56696,36.16849]]}},{"type":"Feature","properties":{"idx":70,"road":"","cls":"tertiary","shops":0,"st_km":5.73,"mesh":"54392437"},"geometry":{"type":"LineString","coordinates":[[139.58131,36.1962],[139.58519,36.1968],[139.59271,36.19702],[139.59308,36.19701],[139.59345,36.1968],[139.59564,36.19687]]}},{"type":"Feature","properties":{"idx":23,"road":"佐野行田線","cls":"primary","shops":0,"st_km":2.05,"mesh":"54392420"},"geometry":{"type":"LineString","coordinates":[[139.50982,36.18947],[139.50884,36.18973],[139.50839,36.18974],[139.50811,36.18964],[139.50783,36.18943],[139.50753,36.18882]]}},{"type":"Feature","properties":{"idx":1083,"road":"羽生外野栗橋線","cls":"primary","shops":0,"st_km":1.24,"mesh":"54392413"},"geometry":{"type":"LineString","coordinates":[[139.53845,36.18072],[139.53867,36.18075]]}},{"type":"Feature","properties":{"idx":348,"road":"羽生外野栗橋線","cls":"primary","shops":0,"st_km":2.54,"mesh":"54392424"},"geometry":{"type":"LineString","coordinates":[[139.53867,36.18075],[139.54082,36.18097],[139.54224,36.18123],[139.54456,36.18191],[139.54786,36.18303],[139.54894,36.18325],[139.55073,36.18373],[139.55292,36.18384],[139.55451,36.18379],[139.55487,36.18381],[139.55528,36.18396],[139.55636,36.18474],[139.55673,36.18496],[139.55764,36.1854],[139.55795,36.18549],[139.55855,36.1855],[139.56198,36.18516],[139.56239,36.18507],[139.56322,36.18455],[139.56387,36.18427],[139.56419,36.1842],[139.56489,36.18417],[139.56568,36.18423],[139.56765,36.18412],[139.56982,36.18419],[139.57202,36.18417],[139.57358,36.18442]]}},{"type":"Feature","properties":{"idx":47,"road":"羽生外野栗橋線","cls":"primary","shops":0,"st_km":5.63,"mesh":"54392418"},"geometry":{"type":"LineString","coordinates":[[139.59184,36.1824],[139.59237,36.18243],[139.5964,36.18334],[139.59739,36.18361],[139.59778,36.18364],[139.59804,36.18358],[139.5987,36.1832],[139.59929,36.18294],[139.60013,36.18271],[139.60161,36.1821],[139.6032,36.18164],[139.60724,36.18204],[139.60761,36.18203],[139.61104,36.1816],[139.61185,36.18155],[139.61442,36.18191],[139.61687,36.18117],[139.6177,36.18096],[139.61929,36.1808]]}},{"type":"Feature","properties":{"idx":107,"road":"羽生外野栗橋線","cls":"primary","shops":0,"st_km":4.8,"mesh":"54392417"},"geometry":{"type":"LineString","coordinates":[[139.59162,36.1824],[139.59184,36.1824]]}},{"type":"Feature","properties":{"idx":26,"road":"","cls":"primary","shops":0,"st_km":1.78,"mesh":"54392420"},"geometry":{"type":"LineString","coordinates":[[139.50679,36.18702],[139.50676,36.18696]]}},{"type":"Feature","properties":{"idx":29,"road":"佐野行田線","cls":"primary","shops":0,"st_km":1.5,"mesh":"54392420"},"geometry":{"type":"LineString","coordinates":[[139.50581,36.18426],[139.50576,36.18411]]}},{"type":"Feature","properties":{"idx":298,"road":"佐野行田線","cls":"primary","shops":1,"st_km":1.38,"mesh":"54392410"},"geometry":{"type":"LineString","coordinates":[[139.50576,36.18411],[139.50507,36.18223],[139.50506,36.182],[139.50514,36.18178]]}},{"type":"Feature","properties":{"idx":27,"road":"佐野行田線","cls":"primary","shops":0,"st_km":1.64,"mesh":"54392420"},"geometry":{"type":"LineString","coordinates":[[139.50676,36.18696],[139.50581,36.18426]]}},{"type":"Feature","properties":{"idx":269,"road":"","cls":"tertiary","shops":0,"st_km":4.79,"mesh":"54392446"},"geometry":{"type":"LineString","coordinates":[[139.58013,36.20249],[139.57931,36.20172],[139.57768,36.20053]]}},{"type":"Feature","properties":{"idx":322,"road":"羽生妻沼線","cls":"primary","shops":1,"st_km":1.24,"mesh":"54392410"},"geometry":{"type":"LineString","coordinates":[[139.51069,36.18119],[139.50863,36.18171],[139.50772,36.1818],[139.50589,36.18167],[139.50364,36.182],[139.50292,36.18228],[139.50178,36.18292],[139.50095,36.18355]]}},{"type":"Feature","properties":{"idx":28,"road":"羽生妻沼線","cls":"primary","shops":0,"st_km":1.62,"mesh":"54392420"},"geometry":{"type":"LineString","coordinates":[[139.50095,36.18355],[139.50077,36.18369]]}},{"type":"Feature","properties":{"idx":156,"road":"","cls":"tertiary","shops":0,"st_km":1.07,"mesh":"54392421"},"geometry":{"type":"LineString","coordinates":[[139.5246,36.18623],[139.52477,36.18615]]}},{"type":"Feature","properties":{"idx":106,"road":"","cls":"tertiary","shops":0,"st_km":1.03,"mesh":"54392422"},"geometry":{"type":"LineString","coordinates":[[139.52477,36.18615],[139.5253,36.18597],[139.52968,36.1851]]}},{"type":"Feature","properties":{"idx":154,"road":"羽生外野栗橋線","cls":"primary","shops":0,"st_km":0.7,"mesh":"54392411"},"geometry":{"type":"LineString","coordinates":[[139.51809,36.1787],[139.51718,36.17848],[139.51601,36.178]]}},{"type":"Feature","properties":{"idx":143,"road":"羽生外野栗橋線","cls":"primary","shops":0,"st_km":0.79,"mesh":"54392411"},"geometry":{"type":"LineString","coordinates":[[139.51601,36.178],[139.51565,36.17785]]}},{"type":"Feature","properties":{"idx":113,"road":"","cls":"tertiary","shops":0,"st_km":0.81,"mesh":"54392411"},"geometry":{"type":"LineString","coordinates":[[139.51527,36.17743],[139.51514,36.1775],[139.51521,36.1776]]}},{"type":"Feature","properties":{"idx":593,"road":"羽生外野栗橋線旧道","cls":"tertiary","shops":1,"st_km":0.82,"mesh":"54392412"},"geometry":{"type":"LineString","coordinates":[[139.53852,36.17528],[139.53812,36.17611],[139.53791,36.17634],[139.53628,36.17717],[139.53613,36.1773],[139.53608,36.17748],[139.53579,36.18045]]}},{"type":"Feature","properties":{"idx":128,"road":"熊谷羽生線旧道","cls":"tertiary","shops":2,"st_km":0.26,"mesh":"54392402"},"geometry":{"type":"LineString","coordinates":[[139.53652,36.1715],[139.53679,36.17049]]}},{"type":"Feature","properties":{"idx":18,"road":"羽生栗橋線","cls":"primary","shops":0,"st_km":3.02,"mesh":"54392406"},"geometry":{"type":"LineString","coordinates":[[139.58406,36.16672],[139.58066,36.16844],[139.58004,36.16865]]}},{"type":"Feature","properties":{"idx":18,"road":"羽生栗橋線","cls":"primary","shops":0,"st_km":3.06,"mesh":"54392406"},"geometry":{"type":"LineString","coordinates":[[139.58245,36.16763],[139.58346,36.16711]]}},{"type":"Feature","properties":{"idx":18,"road":"羽生栗橋線","cls":"primary","shops":0,"st_km":3.09,"mesh":"54392406"},"geometry":{"type":"LineString","coordinates":[[139.58346,36.16711],[139.58406,36.16682]]}},{"type":"Feature","properties":{"idx":208,"road":"羽生栗橋線","cls":"primary","shops":0,"st_km":1.85,"mesh":"54392404"},"geometry":{"type":"LineString","coordinates":[[139.557,36.16958],[139.55441,36.16902],[139.55314,36.16868],[139.55208,36.16833]]}},{"type":"Feature","properties":{"idx":109,"road":"羽生栗橋線","cls":"primary","shops":0,"st_km":2.54,"mesh":"54392405"},"geometry":{"type":"LineString","coordinates":[[139.57403,36.16978],[139.56937,36.17017],[139.56523,36.17034],[139.56464,36.17033]]}},{"type":"Feature","properties":{"idx":241,"road":"羽生栗橋線","cls":"primary","shops":0,"st_km":1.57,"mesh":"54392404"},"geometry":{"type":"LineString","coordinates":[[139.55091,36.16801],[139.55149,36.16822]]}},{"type":"Feature","properties":{"idx":191,"road":"","cls":"tertiary","shops":0,"st_km":1.58,"mesh":"54392404"},"geometry":{"type":"LineString","coordinates":[[139.55142,36.16877],[139.55145,36.16839],[139.55153,36.16815]]}},{"type":"Feature","properties":{"idx":108,"road":"羽生栗橋線","cls":"primary","shops":0,"st_km":2.58,"mesh":"54392405"},"geometry":{"type":"LineString","coordinates":[[139.56708,36.17033],[139.56938,36.17024],[139.57352,36.16991]]}},{"type":"Feature","properties":{"idx":28,"road":"羽生栗橋線","cls":"primary","shops":1,"st_km":2.76,"mesh":"54392406"},"geometry":{"type":"LineString","coordinates":[[139.57578,36.16953],[139.57457,36.16972]]}},{"type":"Feature","properties":{"idx":172,"road":"羽生栗橋線","cls":"primary","shops":0,"st_km":2.28,"mesh":"54392404"},"geometry":{"type":"LineString","coordinates":[[139.56373,36.17026],[139.56147,36.17002],[139.55874,36.16991],[139.55788,36.16977]]}},{"type":"Feature","properties":{"idx":18,"road":"羽生栗橋線","cls":"primary","shops":0,"st_km":2.95,"mesh":"54392406"},"geometry":{"type":"LineString","coordinates":[[139.58004,36.16865],[139.57957,36.16876]]}},{"type":"Feature","properties":{"idx":114,"road":"羽生栗橋線","cls":"primary","shops":0,"st_km":2.37,"mesh":"54392405"},"geometry":{"type":"LineString","coordinates":[[139.5631,36.17029],[139.5637,36.17034]]}},{"type":"Feature","properties":{"idx":184,"road":"羽生栗橋線","cls":"primary","shops":0,"st_km":2.15,"mesh":"54392404"},"geometry":{"type":"LineString","coordinates":[[139.55788,36.16977],[139.55781,36.16976]]}},{"type":"Feature","properties":{"idx":188,"road":"羽生栗橋線","cls":"primary","shops":0,"st_km":2.1,"mesh":"54392404"},"geometry":{"type":"LineString","coordinates":[[139.55758,36.16971],[139.557,36.16958]]}},{"type":"Feature","properties":{"idx":105,"road":"羽生栗橋線","cls":"primary","shops":0,"st_km":2.72,"mesh":"54392405"},"geometry":{"type":"LineString","coordinates":[[139.57457,36.16972],[139.57403,36.16978]]}},{"type":"Feature","properties":{"idx":14,"road":"","cls":"tertiary","shops":0,"st_km":2.92,"mesh":"54392406"},"geometry":{"type":"LineString","coordinates":[[139.57943,36.1683],[139.57939,36.16836],[139.57961,36.16883]]}},{"type":"Feature","properties":{"idx":18,"road":"羽生栗橋線","cls":"primary","shops":0,"st_km":3.0,"mesh":"54392406"},"geometry":{"type":"LineString","coordinates":[[139.57961,36.16883],[139.58015,36.16872],[139.58072,36.16852],[139.58245,36.16763]]}},{"type":"Feature","properties":{"idx":113,"road":"羽生栗橋線","cls":"primary","shops":0,"st_km":2.4,"mesh":"54392405"},"geometry":{"type":"LineString","coordinates":[[139.56405,36.17038],[139.56456,36.17041]]}},{"type":"Feature","properties":{"idx":196,"road":"羽生栗橋線","cls":"primary","shops":0,"st_km":1.99,"mesh":"54392404"},"geometry":{"type":"LineString","coordinates":[[139.5561,36.16948],[139.5562,36.1695]]}},{"type":"Feature","properties":{"idx":105,"road":"羽生栗橋線","cls":"primary","shops":0,"st_km":2.75,"mesh":"54392405"},"geometry":{"type":"LineString","coordinates":[[139.57411,36.16986],[139.57521,36.16971]]}},{"type":"Feature","properties":{"idx":105,"road":"羽生栗橋線","cls":"primary","shops":0,"st_km":2.71,"mesh":"54392405"},"geometry":{"type":"LineString","coordinates":[[139.57352,36.16991],[139.57411,36.16986]]}},{"type":"Feature","properties":{"idx":18,"road":"羽生栗橋線","cls":"primary","shops":0,"st_km":2.94,"mesh":"54392406"},"geometry":{"type":"LineString","coordinates":[[139.57902,36.16896],[139.57961,36.16883]]}},{"type":"Feature","properties":{"idx":114,"road":"羽生栗橋線","cls":"primary","shops":0,"st_km":2.38,"mesh":"54392405"},"geometry":{"type":"LineString","coordinates":[[139.5637,36.17034],[139.56405,36.17038]]}},{"type":"Feature","properties":{"idx":113,"road":"羽生栗橋線","cls":"primary","shops":0,"st_km":2.39,"mesh":"54392405"},"geometry":{"type":"LineString","coordinates":[[139.56464,36.17033],[139.56412,36.17029]]}},{"type":"Feature","properties":{"idx":192,"road":"羽生栗橋線","cls":"primary","shops":0,"st_km":2.04,"mesh":"54392404"},"geometry":{"type":"LineString","coordinates":[[139.5564,36.16954],[139.557,36.16967]]}},{"type":"Feature","properties":{"idx":172,"road":"羽生栗橋線","cls":"primary","shops":0,"st_km":2.28,"mesh":"54392404"},"geometry":{"type":"LineString","coordinates":[[139.557,36.16967],[139.55876,36.16997],[139.56159,36.17009],[139.5631,36.17029]]}},{"type":"Feature","properties":{"idx":18,"road":"羽生栗橋線","cls":"primary","shops":0,"st_km":2.84,"mesh":"54392406"},"geometry":{"type":"LineString","coordinates":[[139.57521,36.16971],[139.57902,36.16896]]}},{"type":"Feature","properties":{"idx":18,"road":"羽生栗橋線","cls":"primary","shops":0,"st_km":2.87,"mesh":"54392406"},"geometry":{"type":"LineString","coordinates":[[139.57957,36.16876],[139.57645,36.16939]]}},{"type":"Feature","properties":{"idx":112,"road":"羽生栗橋線","cls":"primary","shops":0,"st_km":2.43,"mesh":"54392405"},"geometry":{"type":"LineString","coordinates":[[139.56456,36.17041],[139.56524,36.17043],[139.56647,36.17037]]}},{"type":"Feature","properties":{"idx":194,"road":"羽生栗橋線","cls":"primary","shops":0,"st_km":2.01,"mesh":"54392404"},"geometry":{"type":"LineString","coordinates":[[139.5562,36.1695],[139.5564,36.16954]]}},{"type":"Feature","properties":{"idx":114,"road":"羽生栗橋線","cls":"primary","shops":0,"st_km":2.38,"mesh":"54392405"},"geometry":{"type":"LineString","coordinates":[[139.56412,36.17029],[139.56373,36.17026]]}},{"type":"Feature","properties":{"idx":18,"road":"羽生栗橋線","cls":"primary","shops":0,"st_km":2.8,"mesh":"54392406"},"geometry":{"type":"LineString","coordinates":[[139.57645,36.16939],[139.57578,36.16953]]}},{"type":"Feature","properties":{"idx":185,"road":"羽生栗橋線","cls":"primary","shops":0,"st_km":2.13,"mesh":"54392404"},"geometry":{"type":"LineString","coordinates":[[139.55781,36.16976],[139.55758,36.16971]]}},{"type":"Feature","properties":{"idx":215,"road":"羽生栗橋線","cls":"primary","shops":0,"st_km":1.78,"mesh":"54392404"},"geometry":{"type":"LineString","coordinates":[[139.55149,36.16822],[139.55313,36.16876],[139.55472,36.16918],[139.5561,36.16948]]}},{"type":"Feature","properties":{"idx":111,"road":"羽生栗橋線","cls":"primary","shops":0,"st_km":2.46,"mesh":"54392405"},"geometry":{"type":"LineString","coordinates":[[139.56647,36.17037],[139.56708,36.17033]]}},{"type":"Feature","properties":{"idx":235,"road":"羽生栗橋線","cls":"primary","shops":0,"st_km":1.62,"mesh":"54392404"},"geometry":{"type":"LineString","coordinates":[[139.55208,36.16833],[139.55153,36.16815]]}},{"type":"Feature","properties":{"idx":167,"road":"羽生栗橋線","cls":"primary","shops":0,"st_km":1.44,"mesh":"54392403"},"geometry":{"type":"LineString","coordinates":[[139.55153,36.16815],[139.55042,36.16774],[139.54898,36.16712],[139.54768,36.16649]]}},{"type":"Feature","properties":{"idx":82,"road":"","cls":"tertiary","shops":0,"st_km":2.9,"mesh":"54392405"},"geometry":{"type":"LineString","coordinates":[[139.57569,36.16998],[139.57414,36.17192],[139.57372,36.17238],[139.5735,36.17254],[139.57267,36.17292]]}},{"type":"Feature","properties":{"idx":172,"road":"羽生栗橋線","cls":"primary","shops":0,"st_km":1.38,"mesh":"54392403"},"geometry":{"type":"LineString","coordinates":[[139.54698,36.16617],[139.54869,36.16708],[139.55091,36.16801]]}},{"type":"Feature","properties":{"idx":25,"road":"","cls":"primary","shops":0,"st_km":1.87,"mesh":"54392420"},"geometry":{"type":"LineString","coordinates":[[139.50753,36.18882],[139.50728,36.18829],[139.50679,36.18702]]}},{"type":"Feature","properties":{"idx":253,"road":"佐野行田線","cls":"primary","shops":0,"st_km":0.99,"mesh":"54392410"},"geometry":{"type":"LineString","coordinates":[[139.50514,36.18178],[139.50518,36.18157],[139.50477,36.17817],[139.50481,36.17611]]}},{"type":"Feature","properties":{"idx":318,"road":"羽生停車場線","cls":"secondary","shops":0,"st_km":0.49,"mesh":"54392403"},"geometry":{"type":"LineString","coordinates":[[139.53954,36.16769],[139.53901,36.17055]]}},{"type":"Feature","properties":{"idx":59,"road":"","cls":"tertiary","shops":1,"st_km":0.77,"mesh":"54392402"},"geometry":{"type":"LineString","coordinates":[[139.52613,36.16852],[139.5253,36.1681]]}},{"type":"Feature","properties":{"idx":57,"road":"","cls":"tertiary","shops":1,"st_km":0.82,"mesh":"54392402"},"geometry":{"type":"LineString","coordinates":[[139.5253,36.1681],[139.5252,36.16805]]}},{"type":"Feature","properties":{"idx":42,"road":"三田ヶ谷礼羽線","cls":"secondary","shops":0,"st_km":5.44,"mesh":"54392418"},"geometry":{"type":"LineString","coordinates":[[139.60287,36.18171],[139.60278,36.18149]]}},{"type":"Feature","properties":{"idx":98,"road":"羽生外野栗橋線旧道","cls":"tertiary","shops":1,"st_km":0.24,"mesh":"54392402"},"geometry":{"type":"LineString","coordinates":[[139.53482,36.16753],[139.53611,36.16898],[139.53693,36.1693],[139.53706,36.16944],[139.537,36.16987],[139.53679,36.17049]]}},{"type":"Feature","properties":{"idx":87,"road":"","cls":"tertiary","shops":0,"st_km":4.16,"mesh":"54392417"},"geometry":{"type":"LineString","coordinates":[[139.59003,36.17691],[139.58948,36.17661],[139.58922,36.17652],[139.58898,36.17648],[139.58821,36.1765]]}},{"type":"Feature","properties":{"idx":266,"road":"","cls":"tertiary","shops":0,"st_km":3.9,"mesh":"54392416"},"geometry":{"type":"LineString","coordinates":[[139.58495,36.1771],[139.58412,36.17755],[139.58399,36.17758],[139.58072,36.17804]]}},{"type":"Feature","properties":{"idx":10,"road":"","cls":"pedestrian","shops":1,"st_km":5.11,"mesh":"54392438"},"geometry":{"type":"LineString","coordinates":[[139.60207,36.19556],[139.60216,36.19542],[139.60237,36.19541],[139.60268,36.19533],[139.60297,36.1954]]}},{"type":"Feature","properties":{"idx":10,"road":"","cls":"pedestrian","shops":1,"st_km":5.11,"mesh":"54392438"},"geometry":{"type":"LineString","coordinates":[[139.60211,36.1955],[139.60229,36.19562],[139.6023,36.19574]]}},{"type":"Feature","properties":{"idx":14,"road":"","cls":"tertiary","shops":0,"st_km":2.61,"mesh":"54392433"},"geometry":{"type":"LineString","coordinates":[[139.56118,36.19609],[139.55955,36.19552],[139.5553,36.19464],[139.55272,36.19351],[139.55051,36.19241],[139.54976,36.19214],[139.54864,36.19193],[139.54607,36.19174],[139.54562,36.19165],[139.54451,36.1913],[139.54413,36.19127],[139.54302,36.19096],[139.53712,36.18919],[139.53339,36.18794],[139.53186,36.18768]]}},{"type":"Feature","properties":{"idx":65,"road":"","cls":"tertiary","shops":0,"st_km":3.43,"mesh":"54392434"},"geometry":{"type":"LineString","coordinates":[[139.56118,36.19609],[139.56118,36.19605]]}},{"type":"Feature","properties":{"idx":7,"road":"","cls":"tertiary","shops":1,"st_km":5.14,"mesh":"54392438"},"geometry":{"type":"LineString","coordinates":[[139.60247,36.19402],[139.6022,36.19509],[139.60207,36.19535],[139.60153,36.19609],[139.60141,36.19615],[139.60123,36.19613]]}},{"type":"Feature","properties":{"idx":20,"road":"","cls":"tertiary","shops":0,"st_km":1.9,"mesh":"54392420"},"geometry":{"type":"LineString","coordinates":[[139.51,36.18943],[139.51076,36.18924]]}},{"type":"Feature","properties":{"idx":24,"road":"佐野行田線","cls":"primary","shops":0,"st_km":1.94,"mesh":"54392420"},"geometry":{"type":"LineString","coordinates":[[139.51,36.18943],[139.50982,36.18947]]}},{"type":"Feature","properties":{"idx":85,"road":"三田ヶ谷礼羽線","cls":"secondary","shops":0,"st_km":4.69,"mesh":"54392408"},"geometry":{"type":"LineString","coordinates":[[139.60278,36.18149],[139.60211,36.1798],[139.60202,36.17936],[139.6025,36.17733],[139.60256,36.17686],[139.60246,36.17647],[139.59796,36.16362],[139.59769,36.163]]}},{"type":"Feature","properties":{"idx":10,"road":"","cls":"pedestrian","shops":1,"st_km":5.07,"mesh":"54392438"},"geometry":{"type":"LineString","coordinates":[[139.60255,36.19577],[139.60261,36.1958]]}},{"type":"Feature","properties":{"idx":7,"road":"","cls":"pedestrian","shops":0,"st_km":5.05,"mesh":"54392438"},"geometry":{"type":"LineString","coordinates":[[139.60261,36.1958],[139.60303,36.19606]]}},{"type":"Feature","properties":{"idx":10,"road":"","cls":"pedestrian","shops":1,"st_km":5.07,"mesh":"54392438"},"geometry":{"type":"LineString","coordinates":[[139.60303,36.19534],[139.60207,36.19631]]}},{"type":"Feature","properties":{"idx":68,"road":"","cls":"tertiary","shops":0,"st_km":3.75,"mesh":"54392435"},"geometry":{"type":"LineString","coordinates":[[139.57012,36.1975],[139.5688,36.19746],[139.56798,36.19728],[139.56714,36.19732],[139.56647,36.19727],[139.56253,36.19633],[139.56118,36.19609]]}},{"type":"Feature","properties":{"idx":484,"road":"","cls":"tertiary","shops":0,"st_km":3.29,"mesh":"54392425"},"geometry":{"type":"LineString","coordinates":[[139.5612,36.19601],[139.56146,36.19518],[139.56166,36.19439],[139.56227,36.19326],[139.56242,36.19284],[139.56275,36.19237],[139.56379,36.19129],[139.56399,36.19097],[139.56404,36.19073],[139.56397,36.19046],[139.5623,36.18722],[139.5622,36.18608],[139.56198,36.18516],[139.56128,36.18354],[139.56065,36.18163],[139.56054,36.18081],[139.56058,36.18031]]}},{"type":"Feature","properties":{"idx":65,"road":"","cls":"tertiary","shops":0,"st_km":3.43,"mesh":"54392434"},"geometry":{"type":"LineString","coordinates":[[139.56118,36.19605],[139.5612,36.19601]]}},{"type":"Feature","properties":{"idx":19,"road":"","cls":"tertiary","shops":0,"st_km":4.57,"mesh":"54392419"},"geometry":{"type":"LineString","coordinates":[[139.61939,36.18309],[139.6193,36.18261],[139.61923,36.18157],[139.61929,36.1808]]}},{"type":"Feature","properties":{"idx":24,"road":"羽生外野栗橋線","cls":"primary","shops":0,"st_km":4.43,"mesh":"54392419"},"geometry":{"type":"LineString","coordinates":[[139.61929,36.1808],[139.62016,36.18072],[139.62135,36.1807],[139.62259,36.18041],[139.62387,36.1802],[139.62642,36.18026]]}},{"type":"Feature","properties":{"idx":83,"road":"","cls":"tertiary","shops":1,"st_km":0.41,"mesh":"54392402"},"geometry":{"type":"LineString","coordinates":[[139.53306,36.17008],[139.52934,36.16909],[139.52613,36.16852]]}},{"type":"Feature","properties":{"idx":270,"road":"西口","cls":"tertiary","shops":5,"st_km":0.08,"mesh":"54392402"},"geometry":{"type":"LineString","coordinates":[[139.53306,36.17008],[139.5332,36.17021]]}},{"type":"Feature","properties":{"idx":232,"road":"西口","cls":"tertiary","shops":4,"st_km":0.07,"mesh":"54392402"},"geometry":{"type":"LineString","coordinates":[[139.53332,36.17009],[139.53306,36.17008]]}},{"type":"Feature","properties":{"idx":306,"road":"西口","cls":"tertiary","shops":6,"st_km":0.08,"mesh":"54392402"},"geometry":{"type":"LineString","coordinates":[[139.5332,36.17021],[139.53311,36.17044],[139.53316,36.17053],[139.53329,36.17054],[139.53337,36.1703]]}},{"type":"Feature","properties":{"idx":102,"road":"","cls":"tertiary","shops":1,"st_km":0.2,"mesh":"54392402"},"geometry":{"type":"LineString","coordinates":[[139.53306,36.17008],[139.53421,36.16684],[139.53434,36.16673]]}},{"type":"Feature","properties":{"idx":448,"road":"羽生外野栗橋線","cls":"primary","shops":0,"st_km":0.71,"mesh":"54392412"},"geometry":{"type":"LineString","coordinates":[[139.53043,36.17991],[139.53196,36.18007]]}},{"type":"Feature","properties":{"idx":169,"road":"羽生外野栗橋線","cls":"primary","shops":0,"st_km":4.33,"mesh":"54392426"},"geometry":{"type":"LineString","coordinates":[[139.57358,36.18442],[139.57513,36.18446],[139.57801,36.18425],[139.58307,36.184],[139.5835,36.18408],[139.58433,36.18447],[139.58481,36.18453]]}},{"type":"Feature","properties":{"idx":235,"road":"新郷停車場線","cls":"secondary","shops":0,"st_km":0.03,"mesh":"54392400"},"geometry":{"type":"LineString","coordinates":[[139.50945,36.1712],[139.51,36.17128],[139.51075,36.17158]]}},{"type":"Feature","properties":{"idx":443,"road":"熊谷羽生線旧道","cls":"tertiary","shops":0,"st_km":0.47,"mesh":"54392401"},"geometry":{"type":"LineString","coordinates":[[139.50827,36.17247],[139.51053,36.17267],[139.51293,36.17241],[139.51347,36.17227],[139.51507,36.17236],[139.51757,36.1726],[139.51853,36.17254],[139.52084,36.1722],[139.5214,36.1722],[139.52206,36.17231],[139.52333,36.1727],[139.52378,36.17288],[139.52446,36.17326],[139.52516,36.17354],[139.5266,36.17402],[139.52699,36.17409],[139.5273,36.17409],[139.52869,36.1739],[139.53065,36.17376],[139.53118,36.17367],[139.53223,36.17318],[139.53259,36.17306],[139.53351,36.17257],[139.53541,36.17173],[139.53583,36.17158],[139.53652,36.1715]]}},{"type":"Feature","properties":{"idx":14,"road":"","cls":"tertiary","shops":0,"st_km":2.63,"mesh":"54392433"},"geometry":{"type":"LineString","coordinates":[[139.54696,36.1918],[139.54696,36.19175]]}},{"type":"Feature","properties":{"idx":14,"road":"","cls":"tertiary","shops":0,"st_km":2.64,"mesh":"54392433"},"geometry":{"type":"LineString","coordinates":[[139.54696,36.19182],[139.54696,36.1918]]}},{"type":"Feature","properties":{"idx":317,"road":"西口","cls":"tertiary","shops":6,"st_km":0.05,"mesh":"54392402"},"geometry":{"type":"LineString","coordinates":[[139.53337,36.1703],[139.53341,36.17013],[139.53332,36.17009]]}},{"type":"Feature","properties":{"idx":2002,"road":"羽生停車場線","cls":"secondary","shops":9,"st_km":0.35,"mesh":"54392403"},"geometry":{"type":"LineString","coordinates":[[139.53679,36.17049],[139.53901,36.17055]]}},{"type":"Feature","properties":{"idx":140,"road":"羽生外野栗橋線","cls":"primary","shops":0,"st_km":0.82,"mesh":"54392411"},"geometry":{"type":"LineString","coordinates":[[139.51565,36.17785],[139.51521,36.1776]]}},{"type":"Feature","properties":{"idx":83,"road":"","cls":"tertiary","shops":0,"st_km":2.79,"mesh":"54392405"},"geometry":{"type":"LineString","coordinates":[[139.57495,36.17088],[139.57493,36.1708],[139.57403,36.16978]]}},{"type":"Feature","properties":{"idx":557,"road":"羽生外野栗橋線","cls":"primary","shops":1,"st_km":1.19,"mesh":"54392412"},"geometry":{"type":"LineString","coordinates":[[139.53579,36.18045],[139.53845,36.18072]]}},{"type":"Feature","properties":{"idx":20,"road":"","cls":"tertiary","shops":0,"st_km":1.81,"mesh":"54392420"},"geometry":{"type":"LineString","coordinates":[[139.51076,36.18924],[139.51219,36.18885]]}},{"type":"Feature","properties":{"idx":155,"road":"","cls":"tertiary","shops":0,"st_km":1.07,"mesh":"54392421"},"geometry":{"type":"LineString","coordinates":[[139.52454,36.18626],[139.5246,36.18623]]}},{"type":"Feature","properties":{"idx":75,"road":"今泉館林線","cls":"secondary","shops":0,"st_km":4.16,"mesh":"54392435"},"geometry":{"type":"LineString","coordinates":[[139.57076,36.19767],[139.57108,36.19904],[139.57109,36.19945]]}},{"type":"Feature","properties":{"idx":134,"road":"熊谷羽生線旧道","cls":"tertiary","shops":0,"st_km":0.5,"mesh":"54392400"},"geometry":{"type":"LineString","coordinates":[[139.50481,36.17611],[139.50526,36.17496],[139.5056,36.1743],[139.50634,36.17361],[139.50684,36.17323],[139.5078,36.17264],[139.50827,36.17247]]}},{"type":"Feature","properties":{"idx":88,"road":"羽生外野栗橋線旧道","cls":"tertiary","shops":1,"st_km":0.34,"mesh":"54392402"},"geometry":{"type":"LineString","coordinates":[[139.53434,36.16673],[139.53482,36.16753]]}},{"type":"Feature","properties":{"idx":26,"road":"","cls":"tertiary","shops":0,"st_km":5.27,"mesh":"54392447"},"geometry":{"type":"LineString","coordinates":[[139.58825,36.20361],[139.58866,36.20311],[139.5889,36.20297],[139.58936,36.20291],[139.59149,36.20291],[139.59313,36.20251],[139.59502,36.20179],[139.59544,36.2016],[139.59607,36.20122],[139.59708,36.20091],[139.59971,36.19947],[139.59994,36.19925],[139.60001,36.1991],[139.60065,36.19704],[139.60116,36.19632],[139.60123,36.19613]]}},{"type":"Feature","properties":{"idx":90,"road":"","cls":"tertiary","shops":0,"st_km":2.44,"mesh":"54392405"},"geometry":{"type":"LineString","coordinates":[[139.56708,36.17033],[139.56703,36.16965]]}},{"type":"Feature","properties":{"idx":91,"road":"弁天橋","cls":"tertiary","shops":0,"st_km":2.39,"mesh":"54392405"},"geometry":{"type":"LineString","coordinates":[[139.56703,36.16965],[139.56702,36.16944]]}}]}