{"type":"FeatureCollection","features":[{"type":"Feature","properties":{"idx":22,"road":"熊谷小川秩父線","cls":"primary","shops":0,"st_km":3.68,"mesh":"54390175"},"geometry":{"type":"LineString","coordinates":[[139.18462,36.06474],[139.18535,36.06417],[139.18658,36.06297],[139.18697,36.0624],[139.18751,36.06135],[139.18779,36.06109],[139.18811,36.06099],[139.18843,36.06101],[139.18926,36.06122],[139.18997,36.06148],[139.19083,36.06154],[139.19156,36.06143],[139.19357,36.06079],[139.19394,36.0606],[139.19421,36.06036],[139.19442,36.06002],[139.19484,36.05909],[139.19579,36.05788],[139.1962,36.05754],[139.1978,36.05651],[139.1982,36.05631],[139.19869,36.05616],[139.19907,36.05613],[139.20027,36.05616],[139.20113,36.05597],[139.20174,36.05574]]}},{"type":"Feature","properties":{"idx":238,"road":"","cls":"tertiary","shops":0,"st_km":1.23,"mesh":"54390169"},"geometry":{"type":"LineString","coordinates":[[139.24733,36.06273],[139.24684,36.06225],[139.24656,36.0618],[139.24634,36.06115],[139.24626,36.06034],[139.24637,36.05969],[139.24648,36.05937],[139.24743,36.05735],[139.24754,36.05672],[139.24743,36.056],[139.24665,36.0539],[139.24634,36.05332],[139.24598,36.05289],[139.24562,36.05255],[139.24459,36.05179],[139.24417,36.0514],[139.24373,36.05083],[139.24322,36.04976]]}},{"type":"Feature","properties":{"idx":169,"road":"赤浜小川線","cls":"secondary","shops":1,"st_km":1.21,"mesh":"54390179"},"geometry":{"type":"LineString","coordinates":[[139.24945,36.06323],[139.24883,36.06321],[139.2483,36.06313],[139.24784,36.06298],[139.24733,36.06273]]}},{"type":"Feature","properties":{"idx":101,"road":"赤浜小川線","cls":"secondary","shops":0,"st_km":1.37,"mesh":"54390179"},"geometry":{"type":"LineString","coordinates":[[139.24762,36.0644],[139.24798,36.06578],[139.24831,36.06651]]}},{"type":"Feature","properties":{"idx":24,"road":"三沢坂本線","cls":"secondary","shops":0,"st_km":5.26,"mesh":"54390162"},"geometry":{"type":"LineString","coordinates":[[139.15848,36.06435],[139.15903,36.06387],[139.15941,36.06367],[139.15953,36.06354],[139.15955,36.06343],[139.15938,36.06253],[139.15939,36.06216],[139.15948,36.06198],[139.15952,36.06173],[139.15919,36.06072],[139.15923,36.06064],[139.15953,36.06059],[139.15983,36.06034],[139.1603,36.0601],[139.16029,36.06003],[139.16022,36.05998],[139.15996,36.05996],[139.15992,36.05992],[139.16001,36.0596],[139.15987,36.0595],[139.15962,36.05941],[139.15964,36.05923],[139.15986,36.0591],[139.15992,36.05901],[139.1599,36.05893],[139.15961,36.0587],[139.15959,36.0584],[139.15938,36.05832],[139.15889,36.05829],[139.15874,36.05817],[139.15887,36.05792],[139.15886,36.05782],[139.15865,36.05755],[139.15865,36.05745],[139.15875,36.05737],[139.15907,36.05746],[139.15918,36.05744],[139.15929,36.05713],[139.15983,36.05717],[139.1599,36.05712],[139.1599,36.05685],[139.16,36.05666],[139.15992,36.05654],[139.15939,36.05644],[139.15926,36.05627],[139.15918,36.05625],[139.15859,36.05646],[139.15833,36.05643],[139.15818,36.05616],[139.15818,36.0558],[139.15808,36.05574],[139.1576,36.05566],[139.15727,36.05546],[139.15719,36.05536],[139.1571,36.05482],[139.15713,36.05467],[139.15727,36.05442],[139.15767,36.05413],[139.15784,36.05391],[139.15809,36.05323],[139.15811,36.0527],[139.15793,36.05188],[139.15796,36.05155],[139.15811,36.05102],[139.15853,36.05025],[139.15899,36.04989]]}},{"type":"Feature","properties":{"idx":61,"road":"熊谷小川秩父線","cls":"primary","shops":0,"st_km":6.02,"mesh":"54390144"},"geometry":{"type":"LineString","coordinates":[[139.17284,36.02901],[139.17289,36.0293],[139.17299,36.02944],[139.17375,36.03013],[139.174,36.0305],[139.17401,36.03063],[139.17395,36.03078],[139.17383,36.03092],[139.17342,36.03119],[139.17337,36.03129],[139.17342,36.03145],[139.17365,36.03169],[139.17424,36.03206],[139.17456,36.03238],[139.1751,36.03265],[139.1757,36.03307],[139.17618,36.03331],[139.17638,36.03352],[139.17656,36.03395],[139.17688,36.03545],[139.1773,36.03622],[139.17789,36.03715],[139.17795,36.03735],[139.17793,36.03764],[139.1775,36.03895],[139.17748,36.03916],[139.1783,36.0429],[139.17856,36.04357],[139.17861,36.04381],[139.17874,36.04546],[139.17874,36.04572],[139.17825,36.04789],[139.17788,36.04866],[139.17782,36.04904],[139.1778,36.04962],[139.178,36.05068],[139.17782,36.05259],[139.17784,36.0528],[139.17796,36.05306],[139.17849,36.05371],[139.17868,36.05428],[139.1788,36.05493],[139.17858,36.05545]]}},{"type":"Feature","properties":{"idx":214,"road":"西平小川線","cls":"secondary","shops":0,"st_km":1.59,"mesh":"54390169"},"geometry":{"type":"LineString","coordinates":[[139.24587,36.05104],[139.24609,36.05072],[139.24644,36.04985],[139.24646,36.04972]]}},{"type":"Feature","properties":{"idx":161,"road":"","cls":"tertiary","shops":0,"st_km":2.09,"mesh":"54390159"},"geometry":{"type":"LineString","coordinates":[[139.24268,36.04672],[139.24315,36.04642],[139.24363,36.04595],[139.24416,36.04482],[139.24434,36.0447]]}},{"type":"Feature","properties":{"idx":71,"road":"","cls":"tertiary","shops":0,"st_km":0.4,"mesh":"54390199"},"geometry":{"type":"LineString","coordinates":[[139.23888,36.07719],[139.23928,36.07736],[139.2399,36.07743],[139.2403,36.0776],[139.24111,36.07838],[139.24228,36.07902]]}},{"type":"Feature","properties":{"idx":27,"road":"","cls":"tertiary","shops":1,"st_km":0.64,"mesh":"54390188"},"geometry":{"type":"LineString","coordinates":[[139.23075,36.07008],[139.23188,36.06986],[139.23231,36.07001],[139.23259,36.06997],[139.23268,36.07],[139.23286,36.07019],[139.2337,36.07078],[139.23422,36.07093],[139.23485,36.071],[139.23503,36.07109]]}},{"type":"Feature","properties":{"idx":17,"road":"","cls":"tertiary","shops":0,"st_km":0.74,"mesh":"54390188"},"geometry":{"type":"LineString","coordinates":[[139.22751,36.06921],[139.22734,36.06914]]}},{"type":"Feature","properties":{"idx":35,"road":"","cls":"tertiary","shops":0,"st_km":0.34,"mesh":"54390188"},"geometry":{"type":"LineString","coordinates":[[139.23567,36.07236],[139.23606,36.07287]]}},{"type":"Feature","properties":{"idx":28,"road":"","cls":"tertiary","shops":1,"st_km":0.6,"mesh":"54390188"},"geometry":{"type":"LineString","coordinates":[[139.23035,36.07015],[139.23075,36.07008]]}},{"type":"Feature","properties":{"idx":32,"road":"","cls":"tertiary","shops":0,"st_km":0.44,"mesh":"54390188"},"geometry":{"type":"LineString","coordinates":[[139.23518,36.07134],[139.23567,36.07236]]}},{"type":"Feature","properties":{"idx":18,"road":"","cls":"tertiary","shops":0,"st_km":2.71,"mesh":"54390158"},"geometry":{"type":"LineString","coordinates":[[139.23657,36.04403],[139.23622,36.04459]]}},{"type":"Feature","properties":{"idx":59,"road":"","cls":"tertiary","shops":0,"st_km":0.6,"mesh":"54390199"},"geometry":{"type":"LineString","coordinates":[[139.24264,36.07918],[139.24228,36.07902]]}},{"type":"Feature","properties":{"idx":17,"road":"","cls":"tertiary","shops":0,"st_km":0.68,"mesh":"54390188"},"geometry":{"type":"LineString","coordinates":[[139.22907,36.06977],[139.22751,36.06921]]}},{"type":"Feature","properties":{"idx":84,"road":"","cls":"tertiary","shops":0,"st_km":0.22,"mesh":"54390199"},"geometry":{"type":"LineString","coordinates":[[139.23869,36.07704],[139.23888,36.07719]]}},{"type":"Feature","properties":{"idx":18,"road":"","cls":"tertiary","shops":0,"st_km":0.61,"mesh":"54390188"},"geometry":{"type":"LineString","coordinates":[[139.23035,36.07015],[139.23015,36.07013],[139.22907,36.06977]]}},{"type":"Feature","properties":{"idx":45,"road":"","cls":"tertiary","shops":1,"st_km":0.51,"mesh":"54390188"},"geometry":{"type":"LineString","coordinates":[[139.23503,36.07109],[139.23518,36.07134]]}},{"type":"Feature","properties":{"idx":101,"road":"","cls":"tertiary","shops":0,"st_km":1.2,"mesh":"54390179"},"geometry":{"type":"LineString","coordinates":[[139.24953,36.06523],[139.2499,36.06505],[139.25004,36.06488]]}},{"type":"Feature","properties":{"idx":88,"road":"","cls":"tertiary","shops":0,"st_km":0.18,"mesh":"54390199"},"geometry":{"type":"LineString","coordinates":[[139.23845,36.07647],[139.23853,36.07679],[139.23869,36.07704]]}},{"type":"Feature","properties":{"idx":89,"road":"","cls":"tertiary","shops":0,"st_km":1.38,"mesh":"54390179"},"geometry":{"type":"LineString","coordinates":[[139.2481,36.06634],[139.2485,36.06593]]}},{"type":"Feature","properties":{"idx":31,"road":"坂本寄居線","cls":"secondary","shops":0,"st_km":2.63,"mesh":"54390194"},"geometry":{"type":"LineString","coordinates":[[139.18037,36.07075],[139.1804,36.07088],[139.18034,36.07107],[139.17956,36.07207],[139.17929,36.07251],[139.17922,36.07457],[139.17889,36.07489],[139.1787,36.07531],[139.17849,36.07551],[139.17836,36.07577],[139.17796,36.07739],[139.17781,36.07764],[139.17747,36.07793],[139.17728,36.07817],[139.17668,36.07934],[139.17602,36.07983],[139.17551,36.08048],[139.17514,36.08146],[139.17493,36.08194],[139.17481,36.08209],[139.17453,36.08229],[139.17412,36.08247],[139.1738,36.08276]]}},{"type":"Feature","properties":{"idx":97,"road":"","cls":"tertiary","shops":0,"st_km":3.49,"mesh":"54390166"},"geometry":{"type":"LineString","coordinates":[[139.20275,36.0534],[139.20211,36.0537],[139.20089,36.05412]]}},{"type":"Feature","properties":{"idx":98,"road":"","cls":"tertiary","shops":0,"st_km":3.42,"mesh":"54390166"},"geometry":{"type":"LineString","coordinates":[[139.20174,36.05574],[139.20108,36.05452]]}},{"type":"Feature","properties":{"idx":16,"road":"","cls":"tertiary","shops":0,"st_km":2.93,"mesh":"54390158"},"geometry":{"type":"LineString","coordinates":[[139.22557,36.04938],[139.22703,36.04921],[139.22721,36.04915],[139.22734,36.04902],[139.22734,36.04853]]}},{"type":"Feature","properties":{"idx":7,"road":"","cls":"tertiary","shops":0,"st_km":4.69,"mesh":"54390155"},"geometry":{"type":"LineString","coordinates":[[139.19186,36.04828],[139.19172,36.04786],[139.19176,36.04756],[139.1917,36.04742],[139.19114,36.04698],[139.19115,36.04682],[139.19135,36.0464],[139.19135,36.04624],[139.19123,36.046]]}},{"type":"Feature","properties":{"idx":7,"road":"","cls":"tertiary","shops":0,"st_km":4.44,"mesh":"54390155"},"geometry":{"type":"LineString","coordinates":[[139.19186,36.04828],[139.19202,36.04873],[139.19215,36.0506],[139.19225,36.05083],[139.19236,36.05098],[139.19265,36.05118]]}},{"type":"Feature","properties":{"idx":98,"road":"","cls":"tertiary","shops":0,"st_km":3.4,"mesh":"54390166"},"geometry":{"type":"LineString","coordinates":[[139.20581,36.05184],[139.2062,36.05184]]}},{"type":"Feature","properties":{"idx":98,"road":"","cls":"tertiary","shops":0,"st_km":3.38,"mesh":"54390166"},"geometry":{"type":"LineString","coordinates":[[139.2062,36.05184],[139.20654,36.05187]]}},{"type":"Feature","properties":{"idx":254,"road":"","cls":"tertiary","shops":0,"st_km":4.3,"mesh":"54390165"},"geometry":{"type":"LineString","coordinates":[[139.19265,36.05118],[139.19285,36.05123]]}},{"type":"Feature","properties":{"idx":16,"road":"","cls":"tertiary","shops":0,"st_km":3.11,"mesh":"54390158"},"geometry":{"type":"LineString","coordinates":[[139.22726,36.04775],[139.22723,36.04743]]}},{"type":"Feature","properties":{"idx":16,"road":"","cls":"tertiary","shops":0,"st_km":3.15,"mesh":"54390158"},"geometry":{"type":"LineString","coordinates":[[139.22723,36.04743],[139.22717,36.04703]]}},{"type":"Feature","properties":{"idx":8,"road":"林道二本木線","cls":"tertiary","shops":0,"st_km":4.81,"mesh":"54390164"},"geometry":{"type":"LineString","coordinates":[[139.17809,36.05506],[139.17835,36.05506],[139.17872,36.05518]]}},{"type":"Feature","properties":{"idx":5,"road":"","cls":"tertiary","shops":0,"st_km":2.95,"mesh":"54390157"},"geometry":{"type":"LineString","coordinates":[[139.22248,36.04975],[139.22336,36.04948],[139.22397,36.04941]]}},{"type":"Feature","properties":{"idx":16,"road":"","cls":"tertiary","shops":0,"st_km":3.05,"mesh":"54390158"},"geometry":{"type":"LineString","coordinates":[[139.22726,36.04775],[139.22734,36.04853]]}},{"type":"Feature","properties":{"idx":7,"road":"","cls":"tertiary","shops":1,"st_km":2.93,"mesh":"54390157"},"geometry":{"type":"LineString","coordinates":[[139.22397,36.04941],[139.22557,36.04938]]}},{"type":"Feature","properties":{"idx":5,"road":"","cls":"tertiary","shops":0,"st_km":3.02,"mesh":"54390157"},"geometry":{"type":"LineString","coordinates":[[139.22009,36.04963],[139.2196,36.04949]]}},{"type":"Feature","properties":{"idx":195,"road":"","cls":"tertiary","shops":2,"st_km":3.45,"mesh":"54390166"},"geometry":{"type":"LineString","coordinates":[[139.2043,36.05248],[139.20348,36.05299]]}},{"type":"Feature","properties":{"idx":5,"road":"","cls":"tertiary","shops":0,"st_km":2.97,"mesh":"54390157"},"geometry":{"type":"LineString","coordinates":[[139.22114,36.04996],[139.22073,36.04991],[139.22009,36.04963]]}},{"type":"Feature","properties":{"idx":5,"road":"","cls":"tertiary","shops":0,"st_km":3.08,"mesh":"54390157"},"geometry":{"type":"LineString","coordinates":[[139.2196,36.04949],[139.21778,36.04914],[139.21769,36.04911],[139.2176,36.049]]}},{"type":"Feature","properties":{"idx":5,"road":"","cls":"tertiary","shops":0,"st_km":2.93,"mesh":"54390157"},"geometry":{"type":"LineString","coordinates":[[139.22248,36.04975],[139.22183,36.04994],[139.22114,36.04996]]}},{"type":"Feature","properties":{"idx":146,"road":"","cls":"tertiary","shops":1,"st_km":3.44,"mesh":"54390166"},"geometry":{"type":"LineString","coordinates":[[139.2043,36.05248],[139.20477,36.05216],[139.20509,36.052],[139.20547,36.05188],[139.20581,36.05184]]}},{"type":"Feature","properties":{"idx":24,"road":"","cls":"tertiary","shops":0,"st_km":5.35,"mesh":"54390145"},"geometry":{"type":"LineString","coordinates":[[139.19045,36.04063],[139.19044,36.04042],[139.19028,36.04001],[139.18967,36.0392],[139.18972,36.03894]]}},{"type":"Feature","properties":{"idx":10,"road":"熊谷小川秩父線","cls":"primary","shops":0,"st_km":3.37,"mesh":"54390120"},"geometry":{"type":"LineString","coordinates":[[139.13059,36.0247],[139.13084,36.02452]]}},{"type":"Feature","properties":{"idx":21,"road":"","cls":"tertiary","shops":0,"st_km":2.77,"mesh":"54390130"},"geometry":{"type":"LineString","coordinates":[[139.125,36.03092],[139.12517,36.03065],[139.12551,36.03036]]}},{"type":"Feature","properties":{"idx":203,"road":"長瀞玉淀自然公園線","cls":"primary","shops":0,"st_km":2.64,"mesh":"54390140"},"geometry":{"type":"LineString","coordinates":[[139.11941,36.02634],[139.11985,36.02682],[139.12098,36.02705],[139.12123,36.02715],[139.12135,36.0282],[139.12142,36.02836],[139.12153,36.0285],[139.12238,36.02888],[139.12286,36.02904],[139.12434,36.02936],[139.12462,36.02947],[139.12497,36.02971],[139.12534,36.03013],[139.12606,36.03117],[139.12605,36.0314],[139.12593,36.03177],[139.12593,36.0319],[139.12598,36.03197],[139.12623,36.03203],[139.12642,36.03201],[139.12655,36.03207],[139.12676,36.03258],[139.12695,36.03284],[139.12759,36.03318],[139.12782,36.03342],[139.12788,36.03359],[139.128,36.03502],[139.12789,36.03668],[139.12817,36.03783],[139.12828,36.03822],[139.12865,36.03895],[139.129,36.04008],[139.12953,36.04089],[139.12977,36.04119],[139.1304,36.04181],[139.13068,36.04227],[139.13091,36.0434],[139.13058,36.04439],[139.13058,36.04463],[139.13091,36.04543],[139.13104,36.04685],[139.13153,36.04744],[139.13197,36.04873],[139.13176,36.04982],[139.13201,36.05057],[139.132,36.05099],[139.13184,36.05117],[139.13051,36.05199],[139.1304,36.05216],[139.13014,36.05293],[139.13037,36.05343],[139.13046,36.05399],[139.13085,36.05475],[139.13089,36.05538],[139.1311,36.05605],[139.13105,36.05664],[139.13117,36.057],[139.13118,36.05725],[139.13069,36.05838],[139.13061,36.05868],[139.13068,36.05974],[139.1306,36.06022],[139.13053,36.06035]]}},{"type":"Feature","properties":{"idx":16,"road":"","cls":"tertiary","shops":0,"st_km":2.75,"mesh":"54390170"},"geometry":{"type":"LineString","coordinates":[[139.13218,36.06538],[139.13235,36.06544],[139.13269,36.06544],[139.13278,36.0655],[139.13296,36.06575],[139.13295,36.06603]]}},{"type":"Feature","properties":{"idx":16,"road":"","cls":"tertiary","shops":0,"st_km":2.65,"mesh":"54390170"},"geometry":{"type":"LineString","coordinates":[[139.13142,36.06438],[139.13117,36.06425],[139.13105,36.06408],[139.13089,36.0641],[139.13076,36.06426],[139.13073,36.06445],[139.13077,36.06459],[139.13102,36.06481],[139.13194,36.06491],[139.1321,36.0651],[139.13218,36.06538]]}},{"type":"Feature","properties":{"idx":20,"road":"長瀞玉淀自然公園線","cls":"primary","shops":0,"st_km":2.9,"mesh":"54390170"},"geometry":{"type":"LineString","coordinates":[[139.13053,36.06035],[139.13048,36.06059]]}},{"type":"Feature","properties":{"idx":37,"road":"長瀞玉淀自然公園線","cls":"primary","shops":0,"st_km":2.51,"mesh":"54390180"},"geometry":{"type":"LineString","coordinates":[[139.13048,36.06059],[139.12971,36.06194],[139.12905,36.06268],[139.12895,36.06304],[139.12894,36.06326],[139.12904,36.06362],[139.12918,36.06386],[139.13003,36.06483],[139.1302,36.06522],[139.1303,36.06651],[139.12978,36.06772],[139.12959,36.06789],[139.12941,36.06794],[139.12697,36.06846],[139.12652,36.06848],[139.12596,36.06842],[139.12544,36.06846],[139.12499,36.0687],[139.12441,36.0694]]}},{"type":"Feature","properties":{"idx":9,"road":"熊谷小川秩父線","cls":"primary","shops":0,"st_km":3.64,"mesh":"54390120"},"geometry":{"type":"LineString","coordinates":[[139.13084,36.02452],[139.13107,36.02427],[139.13124,36.02398],[139.1326,36.02081],[139.13273,36.02057],[139.13292,36.0204],[139.13334,36.02022],[139.13437,36.02015],[139.13486,36.02004],[139.13567,36.01959],[139.13635,36.01915],[139.13682,36.01899],[139.13746,36.01897],[139.13839,36.01919],[139.14001,36.01915],[139.14056,36.01906],[139.14119,36.01908]]}},{"type":"Feature","properties":{"idx":18,"road":"西平小川線","cls":"secondary","shops":0,"st_km":3.09,"mesh":"54390149"},"geometry":{"type":"LineString","coordinates":[[139.24644,36.04933],[139.24626,36.04903],[139.24617,36.04767],[139.24592,36.04711],[139.24421,36.04449],[139.24371,36.04384],[139.24246,36.04243],[139.24162,36.041],[139.24045,36.0395],[139.23991,36.03826],[139.23976,36.03802],[139.23966,36.03773],[139.23967,36.03665],[139.23962,36.03642],[139.23885,36.03457],[139.23875,36.03419],[139.23873,36.03318],[139.23916,36.0321],[139.2392,36.03161],[139.23886,36.03056],[139.23868,36.0302],[139.23763,36.02946],[139.23755,36.02935],[139.23755,36.0292],[139.23766,36.02856],[139.23774,36.02828],[139.238,36.0278],[139.23801,36.02768],[139.23763,36.02687],[139.23758,36.02664],[139.23762,36.02656],[139.2377,36.02649],[139.23786,36.02648],[139.2381,36.02655],[139.23844,36.02683],[139.23871,36.02721],[139.23895,36.02734],[139.23924,36.02736],[139.23935,36.0273],[139.23941,36.02712],[139.23938,36.02703],[139.23907,36.02676],[139.23903,36.02662],[139.23933,36.02619]]}},{"type":"Feature","properties":{"idx":223,"road":"西平小川線","cls":"secondary","shops":0,"st_km":1.64,"mesh":"54390159"},"geometry":{"type":"LineString","coordinates":[[139.24646,36.04972],[139.24644,36.04933]]}},{"type":"Feature","properties":{"idx":343,"road":"","cls":"tertiary","shops":1,"st_km":0.19,"mesh":"54390189"},"geometry":{"type":"LineString","coordinates":[[139.23853,36.07372],[139.23852,36.07397]]}},{"type":"Feature","properties":{"idx":149,"road":"","cls":"tertiary","shops":1,"st_km":0.06,"mesh":"54390199"},"geometry":{"type":"LineString","coordinates":[[139.23845,36.07647],[139.23845,36.07581],[139.2382,36.07522],[139.23818,36.07501],[139.23825,36.07475],[139.23845,36.07446],[139.23849,36.07427]]}},{"type":"Feature","properties":{"idx":42,"road":"","cls":"tertiary","shops":0,"st_km":1.03,"mesh":"54390199"},"geometry":{"type":"LineString","coordinates":[[139.2444,36.07617],[139.2461,36.0771],[139.24713,36.07778],[139.25016,36.07951],[139.25051,36.07966],[139.25098,36.07973],[139.25275,36.07957]]}},{"type":"Feature","properties":{"idx":237,"road":"","cls":"tertiary","shops":0,"st_km":0.15,"mesh":"54390189"},"geometry":{"type":"LineString","coordinates":[[139.23851,36.07415],[139.23849,36.07427]]}},{"type":"Feature","properties":{"idx":351,"road":"","cls":"tertiary","shops":1,"st_km":0.17,"mesh":"54390189"},"geometry":{"type":"LineString","coordinates":[[139.23852,36.07397],[139.23851,36.07415]]}},{"type":"Feature","properties":{"idx":4,"road":"熊谷小川秩父線","cls":"primary","shops":0,"st_km":5.66,"mesh":"54390123"},"geometry":{"type":"LineString","coordinates":[[139.17016,36.01921],[139.16996,36.01924]]}},{"type":"Feature","properties":{"idx":4,"road":"熊谷小川秩父線","cls":"primary","shops":0,"st_km":6.16,"mesh":"54390123"},"geometry":{"type":"LineString","coordinates":[[139.16996,36.01924],[139.16976,36.01936],[139.16938,36.02009],[139.16939,36.02061],[139.16919,36.02124],[139.16918,36.02143],[139.16941,36.02216],[139.16955,36.02347],[139.16964,36.02387],[139.16973,36.024],[139.17065,36.02462],[139.17091,36.02476],[139.17147,36.02486],[139.17166,36.02497],[139.17174,36.0251],[139.17189,36.02588],[139.172,36.026],[139.17253,36.02635],[139.17258,36.02644],[139.17259,36.02655],[139.17238,36.0272],[139.1725,36.02798],[139.17256,36.02808],[139.1729,36.02829],[139.17298,36.02839],[139.17301,36.02866],[139.17293,36.02882]]}},{"type":"Feature","properties":{"idx":18,"road":"坂本寄居線","cls":"secondary","shops":0,"st_km":2.44,"mesh":"54390193"},"geometry":{"type":"LineString","coordinates":[[139.1738,36.08276],[139.17367,36.08295]]}},{"type":"Feature","properties":{"idx":161,"road":"","cls":"tertiary","shops":0,"st_km":2.1,"mesh":"54390159"},"geometry":{"type":"LineString","coordinates":[[139.24245,36.04685],[139.24268,36.04672]]}},{"type":"Feature","properties":{"idx":161,"road":"","cls":"tertiary","shops":0,"st_km":2.11,"mesh":"54390159"},"geometry":{"type":"LineString","coordinates":[[139.24064,36.04878],[139.24103,36.04829],[139.24136,36.048],[139.24187,36.04727],[139.24245,36.04685]]}},{"type":"Feature","properties":{"idx":17,"road":"坂本寄居線","cls":"secondary","shops":0,"st_km":3.14,"mesh":"54390184"},"geometry":{"type":"LineString","coordinates":[[139.18028,36.07057],[139.18037,36.07075]]}},{"type":"Feature","properties":{"idx":16,"road":"坂本寄居線","cls":"secondary","shops":0,"st_km":3.4,"mesh":"54390184"},"geometry":{"type":"LineString","coordinates":[[139.18462,36.06474],[139.18249,36.06663],[139.18144,36.06789],[139.18121,36.06805],[139.18013,36.06848],[139.17983,36.06879],[139.17968,36.06919],[139.17971,36.06948],[139.18028,36.07057]]}},{"type":"Feature","properties":{"idx":13,"road":"熊谷小川秩父線","cls":"primary","shops":5,"st_km":5.61,"mesh":"54390123"},"geometry":{"type":"LineString","coordinates":[[139.17342,36.0167],[139.17363,36.0168]]}},{"type":"Feature","properties":{"idx":8,"road":"熊谷小川秩父線","cls":"primary","shops":2,"st_km":5.63,"mesh":"54390123"},"geometry":{"type":"LineString","coordinates":[[139.17363,36.0168],[139.17368,36.01687]]}},{"type":"Feature","properties":{"idx":7,"road":"","cls":"tertiary","shops":0,"st_km":4.89,"mesh":"54390155"},"geometry":{"type":"LineString","coordinates":[[139.19123,36.046],[139.19082,36.0455],[139.19077,36.04528],[139.19084,36.04497],[139.19115,36.04458],[139.19111,36.0444],[139.19087,36.04396]]}},{"type":"Feature","properties":{"idx":20,"road":"三沢坂本線","cls":"secondary","shops":0,"st_km":3.46,"mesh":"54390191"},"geometry":{"type":"LineString","coordinates":[[139.13846,36.06659],[139.13893,36.06673],[139.13943,36.06705],[139.14036,36.06717],[139.14095,36.06747],[139.14138,36.06759],[139.14157,36.06758],[139.14214,36.06741],[139.14339,36.06733],[139.14356,36.06735],[139.14418,36.06768],[139.14444,36.0677],[139.14459,36.06777],[139.14529,36.06858],[139.14559,36.06898],[139.14614,36.06943],[139.14617,36.0698],[139.14585,36.07005],[139.14572,36.07026],[139.14585,36.07139],[139.14597,36.07156],[139.14654,36.07187],[139.14669,36.072],[139.14676,36.07216],[139.14645,36.07232],[139.14644,36.07242],[139.14653,36.07266],[139.14646,36.07285],[139.14636,36.07285],[139.14623,36.07275],[139.14602,36.07243],[139.14587,36.07247],[139.14585,36.07265],[139.14592,36.07314],[139.1463,36.07385],[139.14641,36.0742],[139.14655,36.0743],[139.14669,36.07428],[139.14699,36.074],[139.14715,36.07392],[139.14732,36.07396],[139.14752,36.07424],[139.14765,36.07423],[139.14792,36.07401],[139.14806,36.07397],[139.1482,36.07396],[139.1484,36.07403],[139.14845,36.07414],[139.14826,36.07455],[139.14822,36.0749],[139.14853,36.07514],[139.14889,36.07513],[139.14903,36.0752],[139.14933,36.07564],[139.14946,36.07571],[139.14973,36.07565],[139.15058,36.07588],[139.1513,36.07586],[139.15141,36.07589],[139.15145,36.07597],[139.15139,36.07637],[139.15143,36.07665],[139.15133,36.07692],[139.15116,36.07709],[139.1508,36.07726],[139.15012,36.07771],[139.14988,36.07805],[139.14979,36.07849],[139.14956,36.07883],[139.1496,36.07898],[139.14983,36.07923],[139.14983,36.07938],[139.14966,36.07991],[139.14915,36.08027],[139.14901,36.08044],[139.14891,36.08062],[139.14891,36.08095],[139.14886,36.081],[139.14866,36.08109],[139.14824,36.08139],[139.1481,36.08154],[139.14809,36.08176],[139.14819,36.082],[139.14847,36.08231],[139.14851,36.08255],[139.14861,36.08276],[139.14857,36.08301],[139.14818,36.0834],[139.14785,36.08408],[139.14761,36.08432],[139.14719,36.08443],[139.14668,36.08466],[139.14629,36.08448],[139.14597,36.08447],[139.14585,36.08454],[139.14577,36.08469],[139.14577,36.08493],[139.14584,36.08514],[139.14607,36.08566],[139.14653,36.08652],[139.14707,36.08691],[139.1477,36.08689],[139.14777,36.08693],[139.14779,36.08702],[139.14694,36.08766],[139.14661,36.08799],[139.14656,36.08822],[139.14667,36.08841]]}},{"type":"Feature","properties":{"idx":21,"road":"三沢坂本線","cls":"secondary","shops":0,"st_km":5.87,"mesh":"54390153"},"geometry":{"type":"LineString","coordinates":[[139.15899,36.04989],[139.15907,36.04969],[139.15902,36.04859],[139.1589,36.04841],[139.1586,36.04819],[139.1585,36.04805],[139.15838,36.04768],[139.15842,36.04751],[139.15848,36.04747],[139.15861,36.04745],[139.15875,36.04752],[139.15871,36.04775],[139.15882,36.04785],[139.15928,36.04779],[139.15957,36.04782],[139.15975,36.04789],[139.16014,36.0482],[139.16068,36.04837],[139.16096,36.04886],[139.16098,36.0493],[139.16107,36.04951],[139.1613,36.04979],[139.16153,36.04991],[139.16162,36.04986],[139.16163,36.04976],[139.16146,36.0495],[139.16149,36.0493],[139.16166,36.04913],[139.16199,36.04897],[139.16218,36.04882],[139.16222,36.04867],[139.16206,36.04844],[139.16212,36.04835],[139.16223,36.04831],[139.16232,36.04834],[139.16254,36.04861],[139.16255,36.04871],[139.16237,36.04911],[139.16217,36.04935],[139.16221,36.04946],[139.16233,36.04951],[139.16244,36.04947],[139.16257,36.0493],[139.16292,36.04917],[139.16338,36.04872],[139.16347,36.04846],[139.16338,36.04819],[139.16344,36.04808],[139.16424,36.04789],[139.16475,36.04758],[139.1648,36.04748],[139.16474,36.047],[139.16497,36.04669],[139.16512,36.04662],[139.16535,36.04663],[139.16561,36.04686],[139.16577,36.04692],[139.16648,36.04692],[139.1675,36.04707],[139.16803,36.04696],[139.16834,36.04695],[139.16961,36.04742],[139.17105,36.0477],[139.17131,36.04767],[139.17142,36.04753],[139.1714,36.04741],[139.17104,36.04691],[139.17069,36.04666],[139.17,36.04645],[139.16997,36.04634],[139.17012,36.04606],[139.16997,36.04581],[139.17003,36.04573],[139.17019,36.04571],[139.17064,36.04597],[139.17159,36.0461],[139.17181,36.04636],[139.17222,36.04641],[139.17256,36.0467],[139.17344,36.04691],[139.17372,36.04707],[139.17378,36.0472],[139.17381,36.04755],[139.17434,36.04788],[139.17447,36.04806],[139.17465,36.04901],[139.17461,36.04939],[139.17468,36.04989],[139.17476,36.05014],[139.17497,36.0504],[139.17539,36.05059],[139.17602,36.05066],[139.17679,36.05096],[139.1777,36.05113]]}},{"type":"Feature","properties":{"idx":36,"road":"熊谷小川秩父線","cls":"primary","shops":0,"st_km":4.7,"mesh":"54390121"},"geometry":{"type":"LineString","coordinates":[[139.14119,36.01908],[139.14209,36.01896],[139.1425,36.01879],[139.14407,36.0184],[139.14447,36.01816],[139.14468,36.01792],[139.1448,36.01766],[139.14513,36.01739],[139.14554,36.01734],[139.1462,36.01711],[139.14708,36.01712],[139.14777,36.01684],[139.1481,36.01654],[139.14843,36.01596],[139.14898,36.01551],[139.14904,36.01527],[139.14899,36.01502],[139.14901,36.01495],[139.14917,36.0148],[139.14936,36.01475],[139.14949,36.01486],[139.14951,36.01499],[139.14926,36.01533],[139.1491,36.01572],[139.14879,36.01602],[139.14871,36.01618],[139.14863,36.01644],[139.14871,36.0166],[139.1487,36.01673],[139.14836,36.0169],[139.1483,36.01698],[139.14825,36.01728],[139.14818,36.01732],[139.14791,36.01733],[139.14779,36.01743],[139.14793,36.01805],[139.14783,36.0181],[139.14754,36.01809],[139.14687,36.01793],[139.14635,36.0179],[139.14601,36.01792],[139.14562,36.01801],[139.14551,36.01807],[139.14547,36.01813],[139.14552,36.01849],[139.14548,36.01862],[139.14501,36.01875],[139.14488,36.01881],[139.14481,36.01893],[139.14493,36.01922],[139.14482,36.0199],[139.14528,36.02073],[139.14524,36.02091],[139.14516,36.02096],[139.14485,36.021],[139.1447,36.02109],[139.1445,36.02132],[139.14419,36.02184],[139.14373,36.0221],[139.14356,36.02227],[139.14336,36.02281],[139.14271,36.02317],[139.14212,36.02321],[139.14182,36.0233],[139.14165,36.02342],[139.14161,36.02361],[139.14166,36.02369],[139.14194,36.02377],[139.14254,36.02351],[139.14328,36.02345],[139.1435,36.02347],[139.14368,36.02356],[139.14384,36.02356],[139.14425,36.02317],[139.14471,36.02242],[139.14485,36.0223],[139.1451,36.02224],[139.14544,36.02224],[139.14588,36.02187],[139.14608,36.02184],[139.1465,36.02162],[139.14676,36.02159],[139.14685,36.02152],[139.14685,36.02138],[139.14676,36.02125],[139.14634,36.02101],[139.14617,36.02084],[139.14605,36.02041],[139.14607,36.0202],[139.14623,36.02016],[139.14672,36.02022],[139.14726,36.01998],[139.14759,36.01993],[139.14774,36.02003],[139.14775,36.02022],[139.14704,36.02041],[139.14657,36.02042],[139.14647,36.02051],[139.14652,36.02065],[139.14672,36.02068],[139.1471,36.02055],[139.14847,36.02047],[139.14903,36.0202],[139.14938,36.02012],[139.14965,36.01996],[139.15009,36.01948],[139.15025,36.019],[139.15052,36.01881],[139.15069,36.01863],[139.15078,36.0186],[139.151,36.01865],[139.15132,36.01905],[139.15185,36.02028],[139.15199,36.02033],[139.15216,36.02027],[139.15245,36.02028],[139.15255,36.02033],[139.15264,36.02045],[139.15274,36.02093],[139.15286,36.02099],[139.15294,36.02097],[139.15353,36.02066],[139.15406,36.02052],[139.15451,36.02014],[139.15468,36.01987],[139.15457,36.01943],[139.15463,36.01917],[139.15468,36.01912],[139.1549,36.01908],[139.15535,36.01932],[139.1556,36.01941],[139.15583,36.01934],[139.15613,36.0188],[139.15646,36.01838],[139.15712,36.01798],[139.15719,36.01787],[139.15727,36.01748],[139.15813,36.01692],[139.15814,36.01672],[139.15765,36.0163],[139.15707,36.01615],[139.15699,36.01604],[139.15704,36.01592],[139.15773,36.01553],[139.15782,36.01539],[139.15779,36.01532],[139.15752,36.01521],[139.15741,36.01509],[139.15727,36.01484],[139.15725,36.01458],[139.1577,36.01413],[139.15843,36.01312],[139.15854,36.01289],[139.15852,36.0125],[139.15858,36.01242],[139.1593,36.01206],[139.16025,36.01203],[139.16074,36.0118],[139.16197,36.01172],[139.1629,36.01158],[139.16344,36.01139],[139.16379,36.01147]]}},{"type":"Feature","properties":{"idx":3,"road":"林道奈田良線","cls":"tertiary","shops":0,"st_km":4.55,"mesh":"54390113"},"geometry":{"type":"LineString","coordinates":[[139.16712,36.00938],[139.16698,36.00957],[139.16676,36.00962],[139.16612,36.00942],[139.16594,36.00943],[139.16583,36.0095],[139.16562,36.00979],[139.16539,36.00984],[139.1651,36.00981],[139.16494,36.00991],[139.16487,36.01004]]}},{"type":"Feature","properties":{"idx":270,"road":"熊谷小川秩父線","cls":"primary","shops":0,"st_km":1.38,"mesh":"54390169"},"geometry":{"type":"LineString","coordinates":[[139.24926,36.05059],[139.24951,36.05012]]}},{"type":"Feature","properties":{"idx":277,"road":"熊谷小川秩父線","cls":"primary","shops":0,"st_km":1.34,"mesh":"54390169"},"geometry":{"type":"LineString","coordinates":[[139.24847,36.05214],[139.24926,36.05059]]}},{"type":"Feature","properties":{"idx":97,"road":"","cls":"tertiary","shops":0,"st_km":3.51,"mesh":"54390166"},"geometry":{"type":"LineString","coordinates":[[139.20108,36.05452],[139.20094,36.05423]]}},{"type":"Feature","properties":{"idx":147,"road":"","cls":"tertiary","shops":0,"st_km":2.38,"mesh":"54390159"},"geometry":{"type":"LineString","coordinates":[[139.24322,36.04976],[139.24277,36.04919],[139.24136,36.048],[139.2409,36.04767],[139.23955,36.04689],[139.23711,36.04515],[139.23631,36.04464],[139.23524,36.0441],[139.23448,36.04383],[139.23428,36.04381],[139.23406,36.04387]]}},{"type":"Feature","properties":{"idx":183,"road":"熊谷小川秩父線","cls":"primary","shops":0,"st_km":2.39,"mesh":"54390159"},"geometry":{"type":"LineString","coordinates":[[139.23406,36.04387],[139.23435,36.04432],[139.2346,36.04459],[139.23528,36.04516],[139.23742,36.04718],[139.23795,36.04756],[139.23997,36.04851],[139.24322,36.04976]]}},{"type":"Feature","properties":{"idx":30,"road":"熊谷小川秩父線","cls":"primary","shops":2,"st_km":3.44,"mesh":"54390148"},"geometry":{"type":"LineString","coordinates":[[139.22717,36.04703],[139.22765,36.04678],[139.22816,36.04643],[139.22847,36.04609],[139.22873,36.04558],[139.22883,36.04521],[139.22885,36.04478],[139.22873,36.04431],[139.2284,36.04346],[139.22838,36.04292],[139.22867,36.04157],[139.22906,36.04134],[139.22933,36.04128],[139.23034,36.04136],[139.23194,36.04191],[139.23218,36.04209],[139.23234,36.04229],[139.23267,36.04286],[139.23284,36.04304],[139.23337,36.04342],[139.23372,36.04357],[139.23406,36.04387]]}},{"type":"Feature","properties":{"idx":6,"road":"熊谷小川秩父線","cls":"primary","shops":0,"st_km":3.07,"mesh":"54390157"},"geometry":{"type":"LineString","coordinates":[[139.22102,36.04816],[139.22192,36.04812],[139.22328,36.04833],[139.2239,36.04831],[139.2243,36.0482],[139.22555,36.0476],[139.22717,36.04703]]}},{"type":"Feature","properties":{"idx":21,"road":"熊谷小川秩父線","cls":"primary","shops":0,"st_km":3.28,"mesh":"54390156"},"geometry":{"type":"LineString","coordinates":[[139.20654,36.05187],[139.20675,36.05173],[139.20967,36.05104],[139.21091,36.05027],[139.21245,36.04965],[139.21321,36.04967],[139.21493,36.04999],[139.21518,36.04999],[139.21598,36.04981],[139.2176,36.049]]}},{"type":"Feature","properties":{"idx":97,"road":"","cls":"tertiary","shops":0,"st_km":3.54,"mesh":"54390166"},"geometry":{"type":"LineString","coordinates":[[139.20089,36.05412],[139.20047,36.05424]]}},{"type":"Feature","properties":{"idx":123,"road":"熊谷小川秩父線","cls":"primary","shops":0,"st_km":3.24,"mesh":"54390166"},"geometry":{"type":"LineString","coordinates":[[139.20174,36.05574],[139.2054,36.05428],[139.20577,36.05409],[139.20599,36.05391],[139.2062,36.05368],[139.20624,36.05296],[139.20637,36.05232],[139.20654,36.05187]]}},{"type":"Feature","properties":{"idx":4,"road":"熊谷小川秩父線","cls":"primary","shops":0,"st_km":5.65,"mesh":"54390123"},"geometry":{"type":"LineString","coordinates":[[139.17368,36.01687],[139.17361,36.01711],[139.17336,36.01734],[139.17134,36.01851],[139.17103,36.01882],[139.1708,36.01897],[139.17046,36.01913],[139.17016,36.01921]]}},{"type":"Feature","properties":{"idx":98,"road":"","cls":"tertiary","shops":0,"st_km":3.46,"mesh":"54390166"},"geometry":{"type":"LineString","coordinates":[[139.20348,36.05299],[139.20275,36.0534]]}},{"type":"Feature","properties":{"idx":22,"road":"大野東松山線","cls":"secondary","shops":0,"st_km":4.92,"mesh":"54390108"},"geometry":{"type":"LineString","coordinates":[[139.23691,36.00287],[139.23637,36.00268],[139.23601,36.00267],[139.23381,36.00232],[139.23278,36.00231],[139.23236,36.00225]]}},{"type":"Feature","properties":{"idx":111,"road":"熊谷小川秩父線","cls":"primary","shops":0,"st_km":4.34,"mesh":"54390174"},"geometry":{"type":"LineString","coordinates":[[139.17854,36.05553],[139.17839,36.05592],[139.17839,36.05654],[139.17882,36.05792],[139.17891,36.05851],[139.17887,36.05926],[139.1788,36.05938],[139.17869,36.05997],[139.17884,36.06026],[139.17967,36.06111],[139.18085,36.06185],[139.18141,36.0623],[139.18153,36.0625]]}},{"type":"Feature","properties":{"idx":10,"road":"熊谷小川秩父線","cls":"primary","shops":0,"st_km":4.76,"mesh":"54390164"},"geometry":{"type":"LineString","coordinates":[[139.17858,36.05545],[139.17854,36.05553]]}},{"type":"Feature","properties":{"idx":170,"road":"熊谷小川秩父線","cls":"primary","shops":1,"st_km":3.62,"mesh":"54390174"},"geometry":{"type":"LineString","coordinates":[[139.18451,36.06468],[139.18462,36.06474]]}},{"type":"Feature","properties":{"idx":170,"road":"熊谷小川秩父線","cls":"primary","shops":1,"st_km":3.63,"mesh":"54390174"},"geometry":{"type":"LineString","coordinates":[[139.18437,36.0646],[139.18451,36.06468]]}},{"type":"Feature","properties":{"idx":113,"road":"熊谷小川秩父線","cls":"primary","shops":0,"st_km":3.77,"mesh":"54390174"},"geometry":{"type":"LineString","coordinates":[[139.18157,36.06273],[139.18165,36.06289],[139.18182,36.06304],[139.18437,36.0646]]}},{"type":"Feature","properties":{"idx":112,"road":"熊谷小川秩父線","cls":"primary","shops":0,"st_km":3.93,"mesh":"54390174"},"geometry":{"type":"LineString","coordinates":[[139.18153,36.0625],[139.18157,36.06273]]}},{"type":"Feature","properties":{"idx":97,"road":"","cls":"tertiary","shops":0,"st_km":3.53,"mesh":"54390166"},"geometry":{"type":"LineString","coordinates":[[139.20094,36.05423],[139.20089,36.05412]]}},{"type":"Feature","properties":{"idx":13,"road":"三沢坂本線","cls":"secondary","shops":1,"st_km":5.23,"mesh":"54390164"},"geometry":{"type":"LineString","coordinates":[[139.17789,36.05116],[139.17797,36.05118]]}},{"type":"Feature","properties":{"idx":13,"road":"三沢坂本線","cls":"secondary","shops":1,"st_km":5.24,"mesh":"54390164"},"geometry":{"type":"LineString","coordinates":[[139.1777,36.05113],[139.17789,36.05116]]}},{"type":"Feature","properties":{"idx":11,"road":"大野東松山線","cls":"secondary","shops":0,"st_km":4.44,"mesh":"54390109"},"geometry":{"type":"LineString","coordinates":[[139.24331,36.00669],[139.2417,36.00693],[139.24133,36.00691],[139.24106,36.0068],[139.24087,36.00662],[139.2403,36.0059],[139.23985,36.00484],[139.23959,36.00444],[139.23888,36.00363],[139.23867,36.0035],[139.23841,36.00343],[139.23769,36.00346],[139.23721,36.003],[139.23691,36.00287]]}},{"type":"Feature","properties":{"idx":17,"road":"大野東松山線","cls":"secondary","shops":1,"st_km":4.15,"mesh":"54390109"},"geometry":{"type":"LineString","coordinates":[[139.24348,36.00668],[139.24331,36.00669]]}},{"type":"Feature","properties":{"idx":4,"road":"熊谷小川秩父線","cls":"primary","shops":0,"st_km":5.15,"mesh":"54390113"},"geometry":{"type":"LineString","coordinates":[[139.16395,36.01156],[139.1649,36.01239],[139.16531,36.01292],[139.16541,36.01319],[139.1654,36.01339],[139.16533,36.01353],[139.16439,36.0142],[139.16413,36.01463],[139.16322,36.01554],[139.16324,36.01605],[139.16369,36.01684],[139.16417,36.01725],[139.16456,36.01742],[139.16467,36.01736],[139.16468,36.01721],[139.16409,36.01685],[139.1639,36.01665],[139.16355,36.01591],[139.16355,36.01575],[139.16362,36.01565],[139.16394,36.01546],[139.16488,36.01508],[139.16504,36.01485],[139.16525,36.01436],[139.16594,36.01395],[139.16631,36.01364],[139.1677,36.01319],[139.1679,36.01304],[139.16796,36.01293],[139.16791,36.01256],[139.16802,36.01217],[139.168,36.01206],[139.16785,36.01187],[139.16743,36.01174],[139.1674,36.01167],[139.16745,36.01159],[139.16777,36.01138],[139.16955,36.01138],[139.17018,36.01146],[139.17034,36.01165],[139.1703,36.01194],[139.17022,36.01203],[139.1701,36.01207],[139.16993,36.01202],[139.16956,36.01171],[139.16929,36.01164],[139.16896,36.01172],[139.16859,36.01199],[139.16862,36.01211],[139.16901,36.01273],[139.16909,36.01295],[139.16939,36.0135],[139.16942,36.01371],[139.16935,36.01401],[139.16924,36.01417],[139.16904,36.01425],[139.16859,36.01415],[139.16844,36.01418],[139.16825,36.01432],[139.16788,36.01486],[139.16788,36.01496],[139.16801,36.01511],[139.16836,36.01542],[139.16833,36.01558],[139.16815,36.01566],[139.16787,36.01563],[139.16726,36.0152],[139.16712,36.01514],[139.16692,36.01516],[139.16672,36.01531],[139.16685,36.01597],[139.16666,36.0163],[139.16666,36.0165],[139.16705,36.01675],[139.16707,36.01705],[139.167,36.01767],[139.16709,36.01831],[139.16704,36.01857],[139.16709,36.01873],[139.16728,36.01895],[139.16731,36.01905],[139.16729,36.01932],[139.16723,36.01952],[139.16703,36.01974],[139.16677,36.01988],[139.16669,36.02008],[139.16686,36.02074],[139.16696,36.02139],[139.16714,36.02155],[139.16725,36.02159],[139.16744,36.02156],[139.16749,36.02137],[139.1672,36.02102],[139.16708,36.02065],[139.16701,36.0202],[139.1671,36.02005],[139.16769,36.01993],[139.16788,36.01981],[139.16789,36.01933],[139.16808,36.01912],[139.16811,36.01902],[139.16807,36.01891],[139.16789,36.01873],[139.16789,36.01863],[139.16806,36.01831],[139.16806,36.01793],[139.16814,36.0177],[139.16817,36.01737],[139.1683,36.01731],[139.16841,36.01734],[139.16878,36.01781],[139.16929,36.01807],[139.16945,36.01809],[139.16958,36.01796],[139.16962,36.01761],[139.16922,36.01717],[139.16922,36.0171],[139.16933,36.01702],[139.16951,36.01702],[139.16989,36.01714],[139.17058,36.01766],[139.17089,36.01782],[139.17107,36.01777],[139.17211,36.01715],[139.17311,36.01673],[139.17331,36.01668],[139.17342,36.0167]]}},{"type":"Feature","properties":{"idx":5,"road":"熊谷小川秩父線","cls":"primary","shops":1,"st_km":4.64,"mesh":"54390113"},"geometry":{"type":"LineString","coordinates":[[139.16379,36.01147],[139.16395,36.01156]]}},{"type":"Feature","properties":{"idx":33,"road":"大野東松山線","cls":"secondary","shops":1,"st_km":5.34,"mesh":"54390108"},"geometry":{"type":"LineString","coordinates":[[139.23236,36.00225],[139.23057,36.00211],[139.22946,36.0018],[139.22917,36.00166],[139.22847,36.00104],[139.22805,36.00082]]}},{"type":"Feature","properties":{"idx":22,"road":"大野東松山線","cls":"secondary","shops":0,"st_km":5.53,"mesh":"54390108"},"geometry":{"type":"LineString","coordinates":[[139.22805,36.00082],[139.22793,36.00077]]}},{"type":"Feature","properties":{"idx":50,"road":"西平小川線","cls":"secondary","shops":0,"st_km":4.39,"mesh":"54390119"},"geometry":{"type":"LineString","coordinates":[[139.23886,36.01432],[139.23897,36.01407],[139.23949,36.01364],[139.2396,36.01348],[139.24036,36.01175],[139.24155,36.01006],[139.24186,36.00969],[139.24203,36.00961],[139.24239,36.00954],[139.24272,36.00936],[139.24276,36.00925],[139.24274,36.00843],[139.24292,36.00808],[139.24317,36.00773],[139.24322,36.00759],[139.2432,36.00745],[139.24276,36.00678]]}},{"type":"Feature","properties":{"idx":50,"road":"西平小川線","cls":"secondary","shops":0,"st_km":4.7,"mesh":"54390119"},"geometry":{"type":"LineString","coordinates":[[139.23884,36.01437],[139.23886,36.01432]]}},{"type":"Feature","properties":{"idx":12,"road":"大野東松山線","cls":"secondary","shops":0,"st_km":3.55,"mesh":"54390109"},"geometry":{"type":"LineString","coordinates":[[139.25667,36.00542],[139.25651,36.00548],[139.25507,36.00556],[139.25428,36.0057],[139.25338,36.00566],[139.25305,36.00556],[139.25037,36.00422],[139.2501,36.0042],[139.24879,36.0043],[139.2483,36.00439],[139.24679,36.00497],[139.24629,36.00533],[139.24531,36.00628],[139.24503,36.00647],[139.24475,36.00654],[139.24348,36.00668]]}},{"type":"Feature","properties":{"idx":18,"road":"三沢坂本線","cls":"secondary","shops":0,"st_km":2.74,"mesh":"54390170"},"geometry":{"type":"LineString","coordinates":[[139.13032,36.06632],[139.13073,36.06612],[139.13181,36.06629],[139.132,36.06627],[139.13271,36.06605],[139.13345,36.06601],[139.13385,36.06584],[139.13407,36.0658],[139.1345,36.06588],[139.1351,36.0662],[139.13576,36.06627]]}},{"type":"Feature","properties":{"idx":18,"road":"三沢坂本線","cls":"secondary","shops":0,"st_km":2.95,"mesh":"54390170"},"geometry":{"type":"LineString","coordinates":[[139.13576,36.06627],[139.13593,36.06627]]}},{"type":"Feature","properties":{"idx":17,"road":"三沢坂本線","cls":"secondary","shops":0,"st_km":3.05,"mesh":"54390170"},"geometry":{"type":"LineString","coordinates":[[139.13593,36.06627],[139.13663,36.06618],[139.13703,36.06627],[139.13716,36.06637],[139.13756,36.06651],[139.1383,36.06657]]}},{"type":"Feature","properties":{"idx":17,"road":"三沢坂本線","cls":"secondary","shops":0,"st_km":3.14,"mesh":"54390171"},"geometry":{"type":"LineString","coordinates":[[139.1383,36.06657],[139.13846,36.06659]]}},{"type":"Feature","properties":{"idx":18,"road":"","cls":"tertiary","shops":0,"st_km":2.72,"mesh":"54390158"},"geometry":{"type":"LineString","coordinates":[[139.23673,36.04374],[139.23657,36.04403]]}},{"type":"Feature","properties":{"idx":18,"road":"","cls":"tertiary","shops":0,"st_km":2.72,"mesh":"54390158"},"geometry":{"type":"LineString","coordinates":[[139.23675,36.0437],[139.23673,36.04374]]}},{"type":"Feature","properties":{"idx":6,"road":"熊谷小川秩父線","cls":"primary","shops":0,"st_km":3.14,"mesh":"54390157"},"geometry":{"type":"LineString","coordinates":[[139.2176,36.049],[139.21933,36.04849],[139.22055,36.04824]]}},{"type":"Feature","properties":{"idx":6,"road":"熊谷小川秩父線","cls":"primary","shops":0,"st_km":3.14,"mesh":"54390157"},"geometry":{"type":"LineString","coordinates":[[139.22055,36.04824],[139.22102,36.04816]]}},{"type":"Feature","properties":{"idx":105,"road":"赤浜小川線","cls":"secondary","shops":0,"st_km":1.31,"mesh":"54390179"},"geometry":{"type":"LineString","coordinates":[[139.24733,36.06273],[139.24721,36.0629],[139.24721,36.06302],[139.2474,36.06353],[139.24762,36.0644]]}},{"type":"Feature","properties":{"idx":238,"road":"熊谷小川秩父線","cls":"primary","shops":0,"st_km":1.59,"mesh":"54390169"},"geometry":{"type":"LineString","coordinates":[[139.24322,36.04976],[139.24481,36.05041],[139.24721,36.05182],[139.24847,36.05214]]}}]}