{"type":"FeatureCollection","features":[{"type":"Feature","properties":{"idx":104,"road":"児玉新町線","cls":"secondary","shops":0,"st_km":2.02,"mesh":"54392069"},"geometry":{"type":"LineString","coordinates":[[139.13175,36.20851],[139.13101,36.20965],[139.13057,36.21062],[139.13039,36.2109],[139.1301,36.21125],[139.1296,36.21169],[139.12812,36.21295],[139.12779,36.21317],[139.127,36.21357],[139.12332,36.21495],[139.12234,36.21549],[139.12149,36.2162],[139.12112,36.21665],[139.12008,36.21844],[139.11986,36.21916],[139.1198,36.21985],[139.11983,36.22027],[139.11996,36.22089],[139.12023,36.22158],[139.12051,36.22204],[139.12298,36.22559],[139.12391,36.22672],[139.1241,36.22704],[139.12543,36.22948],[139.12555,36.22981],[139.12565,36.23033],[139.12582,36.23075],[139.12765,36.23384],[139.12817,36.23488],[139.12832,36.23506],[139.13087,36.23719],[139.13133,36.23771],[139.13154,36.23805],[139.13174,36.23863],[139.13245,36.24209],[139.13298,36.24389]]}},{"type":"Feature","properties":{"idx":23,"road":"藤岡本庄線","cls":"primary","shops":0,"st_km":2.1,"mesh":"54392088"},"geometry":{"type":"LineString","coordinates":[[139.10018,36.23555],[139.10032,36.23575],[139.10064,36.23651],[139.10202,36.23926],[139.10209,36.23963],[139.10221,36.2398],[139.10234,36.23992],[139.10251,36.23998],[139.10373,36.24]]}},{"type":"Feature","properties":{"idx":16,"road":NaN,"cls":"tertiary","shops":0,"st_km":2.27,"mesh":"54392088"},"geometry":{"type":"LineString","coordinates":[[139.11507,36.23763],[139.11264,36.23695],[139.11097,36.23692],[139.10981,36.23653],[139.10952,36.23632],[139.10943,36.2362],[139.10917,36.23562],[139.10789,36.23363],[139.1065,36.23192]]}},{"type":"Feature","properties":{"idx":53,"road":"上里鬼石線","cls":"primary","shops":0,"st_km":3.09,"mesh":"54392036"},"geometry":{"type":"LineString","coordinates":[[139.09147,36.20756],[139.09073,36.20665],[139.09039,36.20614],[139.09014,36.2056],[139.08983,36.20472],[139.08942,36.20407],[139.0868,36.20117],[139.08611,36.20009],[139.08572,36.19962],[139.08388,36.19801],[139.08263,36.19674],[139.08135,36.19586],[139.08093,36.19565],[139.0793,36.19533],[139.07766,36.19469],[139.07661,36.19437],[139.07623,36.19413],[139.07536,36.19339],[139.07399,36.19265],[139.07222,36.19212],[139.0708,36.19127],[139.06977,36.19098],[139.06941,36.1908],[139.06752,36.18922],[139.06574,36.18692],[139.06521,36.18639]]}},{"type":"Feature","properties":{"idx":304,"road":NaN,"cls":"tertiary","shops":0,"st_km":1.14,"mesh":"54392059"},"geometry":{"type":"LineString","coordinates":[[139.10966,36.21674],[139.11253,36.21674],[139.11315,36.21652],[139.11448,36.21622],[139.11774,36.2166],[139.12085,36.21708]]}},{"type":"Feature","properties":{"idx":154,"road":NaN,"cls":"tertiary","shops":0,"st_km":2.94,"mesh":"54392018"},"geometry":{"type":"LineString","coordinates":[[139.10821,36.18043],[139.10734,36.18028],[139.10701,36.18018],[139.10682,36.18006],[139.10664,36.17984],[139.10647,36.17959],[139.10642,36.17935]]}},{"type":"Feature","properties":{"idx":26,"road":NaN,"cls":"tertiary","shops":0,"st_km":1.74,"mesh":"54392039"},"geometry":{"type":"LineString","coordinates":[[139.11598,36.1926],[139.11682,36.19079]]}},{"type":"Feature","properties":{"idx":29,"road":NaN,"cls":"tertiary","shops":0,"st_km":1.41,"mesh":"54392039"},"geometry":{"type":"LineString","coordinates":[[139.12004,36.19363],[139.12005,36.19383]]}},{"type":"Feature","properties":{"idx":41,"road":NaN,"cls":"tertiary","shops":0,"st_km":3.35,"mesh":"54392027"},"geometry":{"type":"LineString","coordinates":[[139.09922,36.18643],[139.09916,36.18634]]}},{"type":"Feature","properties":{"idx":18,"road":NaN,"cls":"tertiary","shops":0,"st_km":3.28,"mesh":"54392009"},"geometry":{"type":"LineString","coordinates":[[139.1128,36.16978],[139.11303,36.16978]]}},{"type":"Feature","properties":{"idx":117,"road":NaN,"cls":"tertiary","shops":0,"st_km":2.13,"mesh":"54392028"},"geometry":{"type":"LineString","coordinates":[[139.11227,36.19041],[139.1123,36.19024]]}},{"type":"Feature","properties":{"idx":18,"road":NaN,"cls":"tertiary","shops":0,"st_km":3.31,"mesh":"54392009"},"geometry":{"type":"LineString","coordinates":[[139.11226,36.16969],[139.11276,36.16977]]}},{"type":"Feature","properties":{"idx":28,"road":NaN,"cls":"tertiary","shops":0,"st_km":1.48,"mesh":"54392039"},"geometry":{"type":"LineString","coordinates":[[139.12033,36.20095],[139.12005,36.19383]]}},{"type":"Feature","properties":{"idx":247,"road":NaN,"cls":"tertiary","shops":0,"st_km":1.72,"mesh":"54392029"},"geometry":{"type":"LineString","coordinates":[[139.11682,36.19079],[139.11683,36.19043]]}},{"type":"Feature","properties":{"idx":26,"road":NaN,"cls":"tertiary","shops":0,"st_km":1.78,"mesh":"54392039"},"geometry":{"type":"LineString","coordinates":[[139.1159,36.19277],[139.11598,36.1926]]}},{"type":"Feature","properties":{"idx":19,"road":NaN,"cls":"tertiary","shops":0,"st_km":2.53,"mesh":"54392009"},"geometry":{"type":"LineString","coordinates":[[139.12468,36.17175],[139.12479,36.17191]]}},{"type":"Feature","properties":{"idx":29,"road":NaN,"cls":"tertiary","shops":0,"st_km":1.41,"mesh":"54392039"},"geometry":{"type":"LineString","coordinates":[[139.12004,36.19363],[139.11998,36.19224]]}},{"type":"Feature","properties":{"idx":33,"road":NaN,"cls":"tertiary","shops":0,"st_km":1.12,"mesh":"54392039"},"geometry":{"type":"LineString","coordinates":[[139.12693,36.19957],[139.12564,36.19829],[139.12495,36.19772],[139.12323,36.19707],[139.12237,36.19695],[139.12212,36.19679],[139.12202,36.19658],[139.12202,36.19644]]}},{"type":"Feature","properties":{"idx":18,"road":NaN,"cls":"tertiary","shops":0,"st_km":3.26,"mesh":"54392009"},"geometry":{"type":"LineString","coordinates":[[139.11303,36.16978],[139.11334,36.16968],[139.11366,36.16944]]}},{"type":"Feature","properties":{"idx":73,"road":NaN,"cls":"tertiary","shops":0,"st_km":1.82,"mesh":"54392049"},"geometry":{"type":"LineString","coordinates":[[139.11744,36.20302],[139.11805,36.20294],[139.11828,36.20278],[139.12033,36.20095]]}},{"type":"Feature","properties":{"idx":109,"road":NaN,"cls":"tertiary","shops":0,"st_km":2.55,"mesh":"54392028"},"geometry":{"type":"LineString","coordinates":[[139.1123,36.19024],[139.11278,36.18864],[139.11283,36.18824],[139.11274,36.18799],[139.11186,36.18745],[139.11125,36.18696],[139.10968,36.18606],[139.10857,36.18584],[139.10748,36.18598],[139.10688,36.18619],[139.10572,36.18631],[139.10542,36.1863],[139.105,36.18622],[139.10446,36.18599],[139.10335,36.18587],[139.10236,36.18588],[139.10104,36.18602]]}},{"type":"Feature","properties":{"idx":25,"road":NaN,"cls":"tertiary","shops":0,"st_km":1.89,"mesh":"54392039"},"geometry":{"type":"LineString","coordinates":[[139.11753,36.20083],[139.11711,36.1998],[139.11546,36.19799],[139.11533,36.19777],[139.11529,36.19762],[139.11551,36.19487],[139.11568,36.19349],[139.11575,36.19313],[139.1159,36.19277]]}},{"type":"Feature","properties":{"idx":21,"road":NaN,"cls":"tertiary","shops":0,"st_km":3.34,"mesh":"54392008"},"geometry":{"type":"LineString","coordinates":[[139.11157,36.16977],[139.11191,36.16969],[139.11226,36.16969]]}},{"type":"Feature","properties":{"idx":18,"road":NaN,"cls":"tertiary","shops":0,"st_km":2.7,"mesh":"54392009"},"geometry":{"type":"LineString","coordinates":[[139.12441,36.16967],[139.12432,36.1705],[139.12441,36.17106]]}},{"type":"Feature","properties":{"idx":245,"road":NaN,"cls":"tertiary","shops":0,"st_km":1.74,"mesh":"54392029"},"geometry":{"type":"LineString","coordinates":[[139.11572,36.18872],[139.1166,36.18916],[139.1168,36.18931],[139.11683,36.18944],[139.11683,36.19043]]}},{"type":"Feature","properties":{"idx":18,"road":NaN,"cls":"tertiary","shops":0,"st_km":2.89,"mesh":"54392009"},"geometry":{"type":"LineString","coordinates":[[139.12441,36.16967],[139.12489,36.16705]]}},{"type":"Feature","properties":{"idx":72,"road":NaN,"cls":"tertiary","shops":0,"st_km":1.89,"mesh":"54392049"},"geometry":{"type":"LineString","coordinates":[[139.11753,36.20083],[139.11766,36.20143],[139.11756,36.20213]]}},{"type":"Feature","properties":{"idx":19,"road":NaN,"cls":"tertiary","shops":0,"st_km":2.58,"mesh":"54392009"},"geometry":{"type":"LineString","coordinates":[[139.12468,36.17175],[139.12446,36.17133],[139.12441,36.17106]]}},{"type":"Feature","properties":{"idx":26,"road":NaN,"cls":"tertiary","shops":0,"st_km":1.72,"mesh":"54392039"},"geometry":{"type":"LineString","coordinates":[[139.11159,36.19284],[139.12128,36.19634],[139.12165,36.19643],[139.12202,36.19644]]}},{"type":"Feature","properties":{"idx":271,"road":NaN,"cls":"tertiary","shops":0,"st_km":1.43,"mesh":"54392029"},"geometry":{"type":"LineString","coordinates":[[139.11998,36.19224],[139.1199,36.19047]]}},{"type":"Feature","properties":{"idx":43,"road":NaN,"cls":"tertiary","shops":0,"st_km":2.79,"mesh":"54392027"},"geometry":{"type":"LineString","coordinates":[[139.10177,36.18865],[139.10128,36.18956],[139.10118,36.18967],[139.1009,36.18974],[139.10075,36.18986],[139.10018,36.19098],[139.09925,36.19158],[139.09915,36.19175],[139.09901,36.19237],[139.09786,36.19337],[139.09763,36.19362],[139.09735,36.19383],[139.09691,36.19403],[139.09684,36.19421]]}},{"type":"Feature","properties":{"idx":116,"road":NaN,"cls":"tertiary","shops":0,"st_km":2.14,"mesh":"54392028"},"geometry":{"type":"LineString","coordinates":[[139.11227,36.19041],[139.11159,36.19284]]}},{"type":"Feature","properties":{"idx":41,"road":NaN,"cls":"tertiary","shops":0,"st_km":3.27,"mesh":"54392027"},"geometry":{"type":"LineString","coordinates":[[139.09922,36.18643],[139.09936,36.18663],[139.0994,36.18679],[139.09929,36.18708],[139.09906,36.18737],[139.09887,36.18776]]}},{"type":"Feature","properties":{"idx":20,"road":"長瀞児玉線","cls":"secondary","shops":0,"st_km":2.84,"mesh":"54392009"},"geometry":{"type":"LineString","coordinates":[[139.125,36.17425],[139.12261,36.17321],[139.11886,36.17177],[139.11739,36.17155],[139.11478,36.17041],[139.11433,36.17016],[139.11376,36.1696],[139.11366,36.16944],[139.1136,36.16911],[139.11358,36.16875],[139.11385,36.16748]]}},{"type":"Feature","properties":{"idx":49,"road":NaN,"cls":"tertiary","shops":0,"st_km":2.62,"mesh":"54392099"},"geometry":{"type":"LineString","coordinates":[[139.1219,36.24795],[139.11909,36.24953]]}},{"type":"Feature","properties":{"idx":47,"road":NaN,"cls":"tertiary","shops":0,"st_km":2.77,"mesh":"54392099"},"geometry":{"type":"LineString","coordinates":[[139.12463,36.24307],[139.11741,36.24317]]}},{"type":"Feature","properties":{"idx":48,"road":NaN,"cls":"tertiary","shops":0,"st_km":2.63,"mesh":"54392099"},"geometry":{"type":"LineString","coordinates":[[139.12555,36.24606],[139.12485,36.24606],[139.12345,36.24578],[139.12256,36.24571],[139.12179,36.24547],[139.12126,36.24514],[139.12063,36.24508],[139.11999,36.24487],[139.11921,36.24443],[139.11769,36.24441]]}},{"type":"Feature","properties":{"idx":45,"road":NaN,"cls":"tertiary","shops":0,"st_km":3.01,"mesh":"54392099"},"geometry":{"type":"LineString","coordinates":[[139.12009,36.25094],[139.1189,36.24926],[139.11863,36.24877],[139.11854,36.24848],[139.11679,36.2403],[139.11667,36.23945],[139.11668,36.23702]]}},{"type":"Feature","properties":{"idx":45,"road":NaN,"cls":"tertiary","shops":0,"st_km":2.98,"mesh":"54392099"},"geometry":{"type":"LineString","coordinates":[[139.11831,36.24743],[139.11559,36.24765],[139.1151,36.2476],[139.1147,36.24748]]}},{"type":"Feature","properties":{"idx":47,"road":NaN,"cls":"tertiary","shops":0,"st_km":2.79,"mesh":"54392099"},"geometry":{"type":"LineString","coordinates":[[139.1147,36.24748],[139.11397,36.2473]]}},{"type":"Feature","properties":{"idx":46,"road":NaN,"cls":"tertiary","shops":0,"st_km":2.49,"mesh":"54392098"},"geometry":{"type":"LineString","coordinates":[[139.11008,36.24577],[139.11126,36.24649]]}},{"type":"Feature","properties":{"idx":47,"road":NaN,"cls":"tertiary","shops":0,"st_km":2.69,"mesh":"54392099"},"geometry":{"type":"LineString","coordinates":[[139.11397,36.2473],[139.1133,36.24725],[139.11246,36.24702]]}},{"type":"Feature","properties":{"idx":45,"road":NaN,"cls":"tertiary","shops":0,"st_km":2.58,"mesh":"54392098"},"geometry":{"type":"LineString","coordinates":[[139.11246,36.24702],[139.11126,36.24649]]}},{"type":"Feature","properties":{"idx":47,"road":NaN,"cls":"tertiary","shops":0,"st_km":2.39,"mesh":"54392098"},"geometry":{"type":"LineString","coordinates":[[139.11008,36.24577],[139.10943,36.24532],[139.10916,36.24504],[139.10886,36.24446]]}},{"type":"Feature","properties":{"idx":227,"road":NaN,"cls":"tertiary","shops":0,"st_km":2.03,"mesh":"54392059"},"geometry":{"type":"LineString","coordinates":[[139.12627,36.21387],[139.12339,36.21029],[139.12318,36.21021],[139.12237,36.21027],[139.12168,36.20979]]}},{"type":"Feature","properties":{"idx":219,"road":NaN,"cls":"tertiary","shops":0,"st_km":1.59,"mesh":"54392078"},"geometry":{"type":"LineString","coordinates":[[139.1162,36.23077],[139.10957,36.2292],[139.10447,36.2281]]}},{"type":"Feature","properties":{"idx":122,"road":NaN,"cls":"tertiary","shops":0,"st_km":1.16,"mesh":"54392069"},"geometry":{"type":"LineString","coordinates":[[139.11737,36.22062],[139.11181,36.22004]]}},{"type":"Feature","properties":{"idx":136,"road":NaN,"cls":"tertiary","shops":0,"st_km":0.89,"mesh":"54392068"},"geometry":{"type":"LineString","coordinates":[[139.11181,36.22004],[139.11117,36.21996]]}},{"type":"Feature","properties":{"idx":228,"road":NaN,"cls":"tertiary","shops":0,"st_km":2.01,"mesh":"54392059"},"geometry":{"type":"LineString","coordinates":[[139.12501,36.20521],[139.12471,36.20657],[139.12347,36.2079],[139.12306,36.2087],[139.12282,36.20904],[139.1208,36.21035],[139.11888,36.21149]]}},{"type":"Feature","properties":{"idx":216,"road":NaN,"cls":"tertiary","shops":0,"st_km":0.22,"mesh":"54392068"},"geometry":{"type":"LineString","coordinates":[[139.10054,36.21808],[139.10229,36.21712],[139.10322,36.21714],[139.10543,36.21707],[139.10966,36.21674]]}},{"type":"Feature","properties":{"idx":693,"road":NaN,"cls":"tertiary","shops":0,"st_km":0.32,"mesh":"54392058"},"geometry":{"type":"LineString","coordinates":[[139.10757,36.21692],[139.10752,36.21676],[139.10738,36.2166],[139.10308,36.21242]]}},{"type":"Feature","properties":{"idx":664,"road":NaN,"cls":"tertiary","shops":0,"st_km":0.38,"mesh":"54392058"},"geometry":{"type":"LineString","coordinates":[[139.10308,36.21242],[139.10205,36.21311],[139.09951,36.21374],[139.09798,36.21445]]}},{"type":"Feature","properties":{"idx":445,"road":NaN,"cls":"tertiary","shops":0,"st_km":1.0,"mesh":"54392058"},"geometry":{"type":"LineString","coordinates":[[139.10266,36.21395],[139.10319,36.21388],[139.10418,36.21348],[139.10764,36.21116],[139.11069,36.21021],[139.1151,36.20724],[139.11699,36.20611],[139.1179,36.20549]]}},{"type":"Feature","properties":{"idx":140,"road":NaN,"cls":"tertiary","shops":0,"st_km":1.11,"mesh":"54392048"},"geometry":{"type":"LineString","coordinates":[[139.10675,36.20736],[139.10829,36.20766],[139.10866,36.20779],[139.11013,36.20857],[139.11159,36.20961]]}},{"type":"Feature","properties":{"idx":72,"road":NaN,"cls":"tertiary","shops":0,"st_km":1.85,"mesh":"54392049"},"geometry":{"type":"LineString","coordinates":[[139.11756,36.20213],[139.11714,36.20481],[139.11724,36.2051],[139.11733,36.2052],[139.11835,36.20572],[139.11925,36.20678],[139.11965,36.20717],[139.12064,36.20802],[139.12109,36.20864],[139.12168,36.20979]]}},{"type":"Feature","properties":{"idx":21,"road":"神流グリーンライン","cls":"tertiary","shops":0,"st_km":1.66,"mesh":"54392077"},"geometry":{"type":"LineString","coordinates":[[139.10018,36.23555],[139.10002,36.23533],[139.09967,36.23504],[139.09903,36.2343],[139.09771,36.23264],[139.09633,36.23078],[139.0938,36.2293],[139.09333,36.22898],[139.09283,36.22857],[139.09188,36.22763],[139.09133,36.22693],[139.09096,36.22623],[139.09075,36.22568],[139.09066,36.22489]]}},{"type":"Feature","properties":{"idx":181,"road":NaN,"cls":"tertiary","shops":0,"st_km":0.52,"mesh":"54392067"},"geometry":{"type":"LineString","coordinates":[[139.09504,36.21373],[139.09667,36.21628],[139.09719,36.21686],[139.09784,36.21725],[139.09864,36.21751],[139.09945,36.21759],[139.10029,36.21748]]}},{"type":"Feature","properties":{"idx":142,"road":NaN,"cls":"tertiary","shops":0,"st_km":1.09,"mesh":"54392048"},"geometry":{"type":"LineString","coordinates":[[139.10235,36.20669],[139.10411,36.20671],[139.10519,36.20691],[139.10616,36.20726],[139.10675,36.20736]]}},{"type":"Feature","properties":{"idx":140,"road":NaN,"cls":"tertiary","shops":0,"st_km":1.38,"mesh":"54392047"},"geometry":{"type":"LineString","coordinates":[[139.09247,36.20749],[139.09147,36.20756]]}},{"type":"Feature","properties":{"idx":156,"road":NaN,"cls":"tertiary","shops":0,"st_km":1.13,"mesh":"54392047"},"geometry":{"type":"LineString","coordinates":[[139.10235,36.20669],[139.09614,36.20694],[139.09443,36.20707]]}},{"type":"Feature","properties":{"idx":113,"road":NaN,"cls":"tertiary","shops":0,"st_km":1.67,"mesh":"54392048"},"geometry":{"type":"LineString","coordinates":[[139.10669,36.20075],[139.10639,36.20099],[139.10471,36.20131],[139.10393,36.20149],[139.10355,36.20162],[139.10187,36.20247]]}},{"type":"Feature","properties":{"idx":145,"road":NaN,"cls":"tertiary","shops":0,"st_km":1.3,"mesh":"54392047"},"geometry":{"type":"LineString","coordinates":[[139.09443,36.20707],[139.0932,36.20739],[139.09247,36.20749]]}},{"type":"Feature","properties":{"idx":43,"road":NaN,"cls":"tertiary","shops":0,"st_km":2.72,"mesh":"54392036"},"geometry":{"type":"LineString","coordinates":[[139.08543,36.19935],[139.08547,36.19892],[139.08527,36.19806],[139.08513,36.19773],[139.08514,36.19675],[139.08508,36.19616],[139.0853,36.19507],[139.08575,36.1943],[139.08593,36.19362]]}},{"type":"Feature","properties":{"idx":151,"road":NaN,"cls":"tertiary","shops":0,"st_km":2.48,"mesh":"54392037"},"geometry":{"type":"LineString","coordinates":[[139.10364,36.19469],[139.10304,36.19501],[139.1029,36.19505],[139.10201,36.19492],[139.10089,36.19498],[139.10007,36.19497],[139.09901,36.19484],[139.09715,36.19425],[139.0964,36.19421],[139.09549,36.19427],[139.09497,36.19432],[139.09472,36.19441],[139.09413,36.19495],[139.09313,36.19528],[139.09268,36.19554],[139.09237,36.19561]]}},{"type":"Feature","properties":{"idx":208,"road":NaN,"cls":"tertiary","shops":0,"st_km":2.13,"mesh":"54392038"},"geometry":{"type":"LineString","coordinates":[[139.10775,36.19984],[139.10505,36.19799],[139.10058,36.19564],[139.09936,36.1949]]}},{"type":"Feature","properties":{"idx":230,"road":"神流グリーンライン","cls":"tertiary","shops":0,"st_km":3.29,"mesh":"54392045"},"geometry":{"type":"LineString","coordinates":[[139.0788,36.20613],[139.07859,36.20586],[139.07549,36.20286],[139.07517,36.20262],[139.07468,36.20232],[139.07287,36.20141],[139.07215,36.20144],[139.07201,36.20141],[139.07175,36.20125],[139.0669,36.19477],[139.06685,36.19462],[139.06686,36.19444],[139.06722,36.19406],[139.06736,36.19384]]}},{"type":"Feature","properties":{"idx":229,"road":"上里鬼石線","cls":"primary","shops":1,"st_km":6.14,"mesh":"54392004"},"geometry":{"type":"LineString","coordinates":[[139.06112,36.17932],[139.06125,36.17774],[139.06198,36.16504]]}},{"type":"Feature","properties":{"idx":176,"road":NaN,"cls":"tertiary","shops":0,"st_km":3.49,"mesh":"54392026"},"geometry":{"type":"LineString","coordinates":[[139.08238,36.18973],[139.08138,36.19023],[139.0812,36.19045],[139.08112,36.19043],[139.08103,36.19026],[139.08104,36.18999],[139.08099,36.18989],[139.08067,36.18948],[139.08021,36.18909]]}},{"type":"Feature","properties":{"idx":176,"road":NaN,"cls":"tertiary","shops":0,"st_km":3.55,"mesh":"54392026"},"geometry":{"type":"LineString","coordinates":[[139.0777,36.18481],[139.07771,36.18503],[139.07783,36.18515],[139.07811,36.18525],[139.07836,36.18542],[139.07856,36.18579],[139.07883,36.18644],[139.07935,36.18685],[139.08008,36.18732],[139.08066,36.18794],[139.08133,36.18844],[139.08238,36.18973],[139.08345,36.19067],[139.08412,36.19175],[139.0844,36.19257],[139.08458,36.19294],[139.08477,36.19318],[139.08508,36.19335],[139.08542,36.19343],[139.08591,36.1938]]}},{"type":"Feature","properties":{"idx":256,"road":NaN,"cls":"tertiary","shops":0,"st_km":5.64,"mesh":"54392005"},"geometry":{"type":"LineString","coordinates":[[139.06126,36.17754],[139.06259,36.17729],[139.06306,36.17711],[139.06339,36.1767],[139.06374,36.17639],[139.06463,36.17587],[139.06481,36.17558],[139.06493,36.17546],[139.06513,36.17541],[139.06599,36.17541],[139.06624,36.17534],[139.06726,36.17471],[139.06834,36.17446],[139.06844,36.17439],[139.06846,36.17426],[139.06837,36.17417],[139.06787,36.17419],[139.0678,36.17413],[139.06781,36.17402],[139.06786,36.17397],[139.06813,36.17398],[139.06885,36.17389],[139.06923,36.17393],[139.06949,36.174],[139.06971,36.17415],[139.06989,36.17414],[139.06996,36.17403],[139.06991,36.17392],[139.06935,36.17372],[139.06937,36.17359],[139.06948,36.17355],[139.06996,36.17362],[139.07033,36.17381],[139.07054,36.17401],[139.07063,36.17418],[139.07063,36.17436],[139.07057,36.17452],[139.07015,36.17477],[139.07014,36.17487],[139.07017,36.17496],[139.07056,36.17513],[139.07075,36.17516],[139.07093,36.1751],[139.07105,36.17488],[139.0713,36.17468],[139.07134,36.17442],[139.07163,36.17408],[139.07157,36.17393],[139.07121,36.17346]]}},{"type":"Feature","properties":{"idx":122,"road":NaN,"cls":"tertiary","shops":0,"st_km":6.25,"mesh":"54392004"},"geometry":{"type":"LineString","coordinates":[[139.06112,36.17932],[139.06091,36.17925],[139.06083,36.17914],[139.06031,36.17719],[139.05996,36.17611],[139.05972,36.1727],[139.05993,36.17056],[139.06032,36.16803],[139.06166,36.16514],[139.06176,36.16505],[139.06198,36.16504]]}},{"type":"Feature","properties":{"idx":257,"road":NaN,"cls":"tertiary","shops":0,"st_km":5.56,"mesh":"54392005"},"geometry":{"type":"LineString","coordinates":[[139.07121,36.17346],[139.07173,36.17323],[139.07235,36.17273],[139.07247,36.17244],[139.07212,36.17197]]}},{"type":"Feature","properties":{"idx":49,"road":"上里鬼石線","cls":"primary","shops":0,"st_km":1.98,"mesh":"54392079"},"geometry":{"type":"LineString","coordinates":[[139.12521,36.23435],[139.125,36.23425],[139.12376,36.23326],[139.1234,36.23303],[139.12257,36.23267],[139.11972,36.23157],[139.11947,36.23144],[139.11925,36.23121],[139.11857,36.23018],[139.11788,36.2293],[139.11604,36.22716],[139.11559,36.22676],[139.11489,36.22637],[139.11186,36.225],[139.11028,36.22443]]}},{"type":"Feature","properties":{"idx":573,"road":"藤岡本庄線","cls":"primary","shops":0,"st_km":2.61,"mesh":"54392089"},"geometry":{"type":"LineString","coordinates":[[139.11342,36.23827],[139.11885,36.23622],[139.12016,36.23558]]}},{"type":"Feature","properties":{"idx":20,"road":"藤岡本庄線","cls":"primary","shops":0,"st_km":2.65,"mesh":"54392088"},"geometry":{"type":"LineString","coordinates":[[139.10583,36.24],[139.10886,36.2399],[139.10928,36.23983],[139.11342,36.23827]]}},{"type":"Feature","properties":{"idx":23,"road":"藤岡本庄線","cls":"primary","shops":0,"st_km":2.23,"mesh":"54392088"},"geometry":{"type":"LineString","coordinates":[[139.10373,36.24],[139.10583,36.24]]}},{"type":"Feature","properties":{"idx":567,"road":"藤岡本庄線","cls":"primary","shops":0,"st_km":2.73,"mesh":"54392089"},"geometry":{"type":"LineString","coordinates":[[139.12016,36.23558],[139.12077,36.23531],[139.12143,36.23514],[139.12521,36.23435]]}},{"type":"Feature","properties":{"idx":57,"road":"秩父児玉線","cls":"primary","shops":0,"st_km":2.22,"mesh":"54392019"},"geometry":{"type":"LineString","coordinates":[[139.12429,36.18248],[139.12386,36.18158],[139.12253,36.17981],[139.12233,36.17935],[139.12208,36.17847],[139.12188,36.17815],[139.12157,36.1778],[139.12104,36.17746],[139.11859,36.17643],[139.11793,36.17609],[139.11744,36.17573],[139.11697,36.17526],[139.11607,36.17409],[139.1158,36.17382],[139.1155,36.17363],[139.11522,36.17351],[139.11431,36.17338]]}},{"type":"Feature","properties":{"idx":41,"road":"秩父児玉線","cls":"primary","shops":0,"st_km":1.11,"mesh":"54392039"},"geometry":{"type":"LineString","coordinates":[[139.12651,36.19654],[139.12202,36.19644]]}},{"type":"Feature","properties":{"idx":112,"road":NaN,"cls":"tertiary","shops":0,"st_km":1.4,"mesh":"54392067"},"geometry":{"type":"LineString","coordinates":[[139.09041,36.22438],[139.09036,36.22428]]}},{"type":"Feature","properties":{"idx":19,"road":NaN,"cls":"tertiary","shops":0,"st_km":2.51,"mesh":"54392009"},"geometry":{"type":"LineString","coordinates":[[139.12096,36.1726],[139.11895,36.17584]]}},{"type":"Feature","properties":{"idx":25,"road":"秩父児玉線","cls":"primary","shops":0,"st_km":3.97,"mesh":"54392008"},"geometry":{"type":"LineString","coordinates":[[139.10923,36.16746],[139.10891,36.16725],[139.10838,36.16709],[139.10575,36.16731],[139.10548,36.1673],[139.10508,36.16721],[139.10452,36.16697],[139.10247,36.16581],[139.10205,36.1654],[139.10169,36.16488]]}},{"type":"Feature","properties":{"idx":26,"road":"秩父児玉線","cls":"primary","shops":0,"st_km":3.67,"mesh":"54392008"},"geometry":{"type":"LineString","coordinates":[[139.10949,36.16772],[139.10923,36.16746]]}},{"type":"Feature","properties":{"idx":16,"road":NaN,"cls":"tertiary","shops":0,"st_km":2.03,"mesh":"54392088"},"geometry":{"type":"LineString","coordinates":[[139.10263,36.23305],[139.10251,36.23317],[139.10246,36.23339],[139.10258,36.23411],[139.10258,36.23466],[139.10322,36.23551],[139.10369,36.23639]]}},{"type":"Feature","properties":{"idx":203,"road":NaN,"cls":"tertiary","shops":0,"st_km":1.85,"mesh":"54392078"},"geometry":{"type":"LineString","coordinates":[[139.10263,36.23305],[139.10464,36.23305],[139.10636,36.23297]]}},{"type":"Feature","properties":{"idx":178,"road":NaN,"cls":"tertiary","shops":0,"st_km":3.18,"mesh":"54392026"},"geometry":{"type":"LineString","coordinates":[[139.08596,36.19336],[139.08606,36.19263],[139.08616,36.19239],[139.08663,36.19194],[139.08676,36.19171],[139.08691,36.19117],[139.08712,36.19071],[139.08729,36.19016],[139.08764,36.18864],[139.08807,36.18803],[139.08811,36.18789]]}},{"type":"Feature","properties":{"idx":42,"road":NaN,"cls":"tertiary","shops":0,"st_km":2.95,"mesh":"54392036"},"geometry":{"type":"LineString","coordinates":[[139.08593,36.19362],[139.08595,36.19346]]}},{"type":"Feature","properties":{"idx":257,"road":NaN,"cls":"tertiary","shops":0,"st_km":4.23,"mesh":"54392016"},"geometry":{"type":"LineString","coordinates":[[139.0819,36.18758],[139.08241,36.18708],[139.08253,36.18668],[139.08257,36.18372],[139.08254,36.18346],[139.08246,36.1833],[139.08236,36.18317],[139.08215,36.18305],[139.07978,36.18212],[139.07898,36.18351],[139.08143,36.18446],[139.08179,36.18452],[139.08259,36.18453]]}},{"type":"Feature","properties":{"idx":18,"road":NaN,"cls":"tertiary","shops":0,"st_km":2.29,"mesh":"54392088"},"geometry":{"type":"LineString","coordinates":[[139.10369,36.23639],[139.10521,36.23922],[139.10583,36.24],[139.10599,36.24066],[139.10673,36.24165],[139.10808,36.24276],[139.10831,36.24303],[139.10886,36.24446]]}},{"type":"Feature","properties":{"idx":42,"road":NaN,"cls":"tertiary","shops":0,"st_km":2.97,"mesh":"54392036"},"geometry":{"type":"LineString","coordinates":[[139.08596,36.19338],[139.08596,36.19336]]}},{"type":"Feature","properties":{"idx":42,"road":NaN,"cls":"tertiary","shops":0,"st_km":2.96,"mesh":"54392036"},"geometry":{"type":"LineString","coordinates":[[139.08595,36.19346],[139.08596,36.19338]]}},{"type":"Feature","properties":{"idx":18,"road":NaN,"cls":"tertiary","shops":0,"st_km":3.29,"mesh":"54392009"},"geometry":{"type":"LineString","coordinates":[[139.11276,36.16977],[139.1128,36.16978]]}},{"type":"Feature","properties":{"idx":45,"road":NaN,"cls":"tertiary","shops":0,"st_km":2.36,"mesh":"54392019"},"geometry":{"type":"LineString","coordinates":[[139.11867,36.17629],[139.11832,36.17687],[139.11814,36.17752]]}},{"type":"Feature","properties":{"idx":44,"road":NaN,"cls":"tertiary","shops":0,"st_km":2.4,"mesh":"54392019"},"geometry":{"type":"LineString","coordinates":[[139.11895,36.17584],[139.11867,36.17629]]}},{"type":"Feature","properties":{"idx":162,"road":"川越児玉往還","cls":"tertiary","shops":0,"st_km":0.6,"mesh":"54392068"},"geometry":{"type":"LineString","coordinates":[[139.11183,36.21606],[139.11009,36.21718],[139.10786,36.21985],[139.10742,36.2203],[139.10582,36.22169],[139.10561,36.22197],[139.10516,36.22302],[139.1045,36.22376]]}},{"type":"Feature","properties":{"idx":24,"road":"川越児玉往還","cls":"tertiary","shops":0,"st_km":1.34,"mesh":"54392077"},"geometry":{"type":"LineString","coordinates":[[139.10226,36.22563],[139.10142,36.22613],[139.09777,36.2299],[139.09633,36.23078]]}},{"type":"Feature","properties":{"idx":133,"road":NaN,"cls":"tertiary","shops":0,"st_km":0.93,"mesh":"54392068"},"geometry":{"type":"LineString","coordinates":[[139.1045,36.22376],[139.10373,36.2246],[139.10292,36.22524],[139.10226,36.22563]]}},{"type":"Feature","properties":{"idx":267,"road":"上里鬼石線","cls":"primary","shops":0,"st_km":0.23,"mesh":"54392068"},"geometry":{"type":"LineString","coordinates":[[139.11028,36.22443],[139.10812,36.22372],[139.10511,36.22244],[139.1021,36.2202],[139.10157,36.21955],[139.10054,36.21808],[139.10002,36.21681],[139.09965,36.21626],[139.09822,36.21466],[139.09627,36.21318],[139.09578,36.21273],[139.09478,36.21141],[139.09147,36.20756]]}},{"type":"Feature","properties":{"idx":816,"road":"上里鬼石線","cls":"primary","shops":0,"st_km":5.17,"mesh":"54392024"},"geometry":{"type":"LineString","coordinates":[[139.06521,36.18639],[139.06311,36.18487],[139.06276,36.18447],[139.06161,36.18199],[139.06109,36.18006],[139.06112,36.17932]]}},{"type":"Feature","properties":{"idx":112,"road":"神流グリーンライン","cls":"tertiary","shops":0,"st_km":1.41,"mesh":"54392067"},"geometry":{"type":"LineString","coordinates":[[139.09063,36.2248],[139.09041,36.22438]]}},{"type":"Feature","properties":{"idx":57,"road":NaN,"cls":"pedestrian","shops":0,"st_km":3.34,"mesh":"54392036"},"geometry":{"type":"LineString","coordinates":[[139.07594,36.19491],[139.07688,36.19539]]}},{"type":"Feature","properties":{"idx":96,"road":"神流グリーンライン","cls":"tertiary","shops":0,"st_km":4.3,"mesh":"54392025"},"geometry":{"type":"LineString","coordinates":[[139.06737,36.19375],[139.06729,36.1935],[139.06596,36.19237],[139.06585,36.19221],[139.06581,36.19195],[139.06589,36.1917],[139.06673,36.19062],[139.06688,36.18977],[139.06697,36.18955],[139.06741,36.1891]]}},{"type":"Feature","properties":{"idx":27,"road":"神流グリーンライン","cls":"tertiary","shops":0,"st_km":4.04,"mesh":"54392035"},"geometry":{"type":"LineString","coordinates":[[139.06736,36.19384],[139.06737,36.19375]]}},{"type":"Feature","properties":{"idx":41,"road":NaN,"cls":"tertiary","shops":0,"st_km":3.42,"mesh":"54392027"},"geometry":{"type":"LineString","coordinates":[[139.09916,36.18634],[139.09909,36.18615],[139.09913,36.1859],[139.09908,36.18578],[139.09857,36.18545],[139.09847,36.18527],[139.09841,36.18482]]}},{"type":"Feature","properties":{"idx":39,"road":"秩父児玉線","cls":"primary","shops":0,"st_km":1.24,"mesh":"54392039"},"geometry":{"type":"LineString","coordinates":[[139.12194,36.19376],[139.12194,36.19361]]}},{"type":"Feature","properties":{"idx":38,"road":"秩父児玉線","cls":"primary","shops":0,"st_km":1.26,"mesh":"54392039"},"geometry":{"type":"LineString","coordinates":[[139.12202,36.19644],[139.12194,36.19376]]}},{"type":"Feature","properties":{"idx":38,"road":"秩父児玉線","cls":"primary","shops":0,"st_km":1.25,"mesh":"54392039"},"geometry":{"type":"LineString","coordinates":[[139.12194,36.19361],[139.12183,36.19034]]}},{"type":"Feature","properties":{"idx":340,"road":"秩父児玉線","cls":"primary","shops":0,"st_km":1.42,"mesh":"54392029"},"geometry":{"type":"LineString","coordinates":[[139.12183,36.19034],[139.1218,36.1891],[139.12185,36.18846],[139.12278,36.18392],[139.12297,36.18346],[139.12317,36.1832],[139.1236,36.18286],[139.12429,36.18248]]}},{"type":"Feature","properties":{"idx":297,"road":"川越児玉往還","cls":"tertiary","shops":0,"st_km":1.19,"mesh":"54392059"},"geometry":{"type":"LineString","coordinates":[[139.11888,36.21149],[139.11752,36.21228],[139.11367,36.21491],[139.11183,36.21606]]}},{"type":"Feature","properties":{"idx":50,"road":NaN,"cls":"tertiary","shops":0,"st_km":2.48,"mesh":"54392099"},"geometry":{"type":"LineString","coordinates":[[139.12469,36.24307],[139.12463,36.24307]]}},{"type":"Feature","properties":{"idx":52,"road":NaN,"cls":"tertiary","shops":0,"st_km":2.32,"mesh":"54392099"},"geometry":{"type":"LineString","coordinates":[[139.1253,36.24606],[139.12427,36.24665]]}},{"type":"Feature","properties":{"idx":51,"road":NaN,"cls":"tertiary","shops":0,"st_km":2.1,"mesh":"54392098"},"geometry":{"type":"LineString","coordinates":[[139.10257,36.23998],[139.10248,36.24046],[139.1025,36.24067],[139.10281,36.24122],[139.10401,36.24286],[139.10548,36.24509],[139.10593,36.2459],[139.10748,36.24904],[139.10814,36.25024],[139.10895,36.25114],[139.11025,36.25238],[139.11134,36.25329],[139.11167,36.25365]]}},{"type":"Feature","properties":{"idx":26,"road":"秩父児玉線","cls":"primary","shops":0,"st_km":3.28,"mesh":"54392008"},"geometry":{"type":"LineString","coordinates":[[139.11363,36.17325],[139.11302,36.17293],[139.11278,36.17273],[139.11257,36.17239],[139.11243,36.17185],[139.1124,36.17088],[139.11217,36.17032],[139.11114,36.16942],[139.10949,36.16772]]}},{"type":"Feature","properties":{"idx":23,"road":"秩父児玉線","cls":"primary","shops":0,"st_km":2.92,"mesh":"54392009"},"geometry":{"type":"LineString","coordinates":[[139.11431,36.17338],[139.11363,36.17325]]}},{"type":"Feature","properties":{"idx":21,"road":"神流グリーンライン","cls":"tertiary","shops":0,"st_km":1.53,"mesh":"54392056"},"geometry":{"type":"LineString","coordinates":[[139.09011,36.22381],[139.08985,36.22333],[139.08911,36.22165],[139.08863,36.22094],[139.08794,36.22029],[139.08756,36.21982],[139.08741,36.21955],[139.08703,36.21874],[139.08649,36.21715],[139.08574,36.21597],[139.08563,36.21572],[139.08506,36.2132],[139.0848,36.2125],[139.08458,36.21211],[139.08441,36.21187],[139.0841,36.21158],[139.08325,36.21096],[139.08269,36.21017],[139.08179,36.20943],[139.08047,36.20805]]}},{"type":"Feature","properties":{"idx":304,"road":"神流グリーンライン","cls":"tertiary","shops":0,"st_km":2.32,"mesh":"54392046"},"geometry":{"type":"LineString","coordinates":[[139.08047,36.20805],[139.07937,36.20693],[139.0788,36.20613]]}},{"type":"Feature","properties":{"idx":111,"road":"神流グリーンライン","cls":"tertiary","shops":0,"st_km":1.42,"mesh":"54392067"},"geometry":{"type":"LineString","coordinates":[[139.09066,36.22489],[139.09063,36.2248]]}},{"type":"Feature","properties":{"idx":112,"road":"神流グリーンライン","cls":"tertiary","shops":0,"st_km":1.39,"mesh":"54392067"},"geometry":{"type":"LineString","coordinates":[[139.09036,36.22428],[139.09014,36.22386]]}},{"type":"Feature","properties":{"idx":113,"road":"神流グリーンライン","cls":"tertiary","shops":0,"st_km":1.39,"mesh":"54392067"},"geometry":{"type":"LineString","coordinates":[[139.09014,36.22386],[139.09011,36.22381]]}}]}