{"type":"FeatureCollection","features":[{"type":"Feature","properties":{"idx":164,"road":"旧中山道","cls":"secondary","shops":0,"st_km":1.46,"mesh":"54393103"},"geometry":{"type":"LineString","coordinates":[[139.15435,36.25552],[139.15453,36.25529],[139.15478,36.25508],[139.15496,36.25498],[139.15544,36.25483],[139.16007,36.25428],[139.16117,36.25409],[139.16162,36.25388],[139.16223,36.25338],[139.16249,36.25325],[139.16383,36.25276],[139.16631,36.25202],[139.16816,36.25124],[139.16882,36.25091],[139.17047,36.24985],[139.17141,36.249],[139.17407,36.24688],[139.17435,36.24653]]}},{"type":"Feature","properties":{"idx":162,"road":"","cls":"tertiary","shops":0,"st_km":0.3,"mesh":"54393101"},"geometry":{"type":"LineString","coordinates":[[139.14689,36.25417],[139.14502,36.25503]]}},{"type":"Feature","properties":{"idx":213,"road":"神保原停車場線","cls":"secondary","shops":0,"st_km":0.14,"mesh":"54393101"},"geometry":{"type":"LineString","coordinates":[[139.14945,36.254],[139.15016,36.25543]]}},{"type":"Feature","properties":{"idx":142,"road":"","cls":"tertiary","shops":0,"st_km":0.43,"mesh":"54393101"},"geometry":{"type":"LineString","coordinates":[[139.14713,36.25889],[139.14716,36.25815],[139.14748,36.2555]]}},{"type":"Feature","properties":{"idx":360,"road":"神保原線","cls":"tertiary","shops":2,"st_km":0.78,"mesh":"54393102"},"geometry":{"type":"LineString","coordinates":[[139.15682,36.25715],[139.15656,36.25667]]}},{"type":"Feature","properties":{"idx":138,"road":"旧中山道","cls":"secondary","shops":0,"st_km":1.83,"mesh":"54393110"},"geometry":{"type":"LineString","coordinates":[[139.12342,36.26651],[139.12633,36.26593],[139.12939,36.2665],[139.12965,36.26651],[139.13307,36.26585],[139.13478,36.26559],[139.14082,36.26349],[139.14432,36.26196],[139.14551,36.26118]]}},{"type":"Feature","properties":{"idx":152,"road":"","cls":"tertiary","shops":0,"st_km":1.39,"mesh":"54393103"},"geometry":{"type":"LineString","coordinates":[[139.16511,36.25557],[139.16368,36.25408]]}},{"type":"Feature","properties":{"idx":69,"road":"沼和田杉山線","cls":"secondary","shops":0,"st_km":2.43,"mesh":"54393104"},"geometry":{"type":"LineString","coordinates":[[139.18622,36.2575],[139.18163,36.25786],[139.18084,36.25781],[139.17954,36.25738]]}},{"type":"Feature","properties":{"idx":24,"road":"","cls":"tertiary","shops":0,"st_km":2.09,"mesh":"54393105"},"geometry":{"type":"LineString","coordinates":[[139.19129,36.25465],[139.19099,36.255],[139.19073,36.2554]]}},{"type":"Feature","properties":{"idx":205,"road":"","cls":"tertiary","shops":0,"st_km":2.2,"mesh":"54393106"},"geometry":{"type":"LineString","coordinates":[[139.20245,36.25228],[139.20254,36.25249]]}},{"type":"Feature","properties":{"idx":100,"road":"","cls":"tertiary","shops":0,"st_km":2.35,"mesh":"54393103"},"geometry":{"type":"LineString","coordinates":[[139.17177,36.2638],[139.17201,36.26384],[139.1724,36.26374],[139.17258,36.26363],[139.17292,36.26324],[139.17328,36.26232],[139.17349,36.26134],[139.17353,36.26041],[139.17384,36.25978],[139.17402,36.25902],[139.1742,36.25866],[139.17465,36.25801],[139.17516,36.2574],[139.17526,36.2571],[139.17522,36.25649],[139.1751,36.25594],[139.17419,36.25363],[139.1739,36.25269],[139.1738,36.25248],[139.17355,36.25223]]}},{"type":"Feature","properties":{"idx":29,"road":"","cls":"tertiary","shops":0,"st_km":2.36,"mesh":"54393113"},"geometry":{"type":"LineString","coordinates":[[139.17117,36.26509],[139.17126,36.26476]]}},{"type":"Feature","properties":{"idx":67,"road":"","cls":"tertiary","shops":0,"st_km":2.16,"mesh":"54393104"},"geometry":{"type":"LineString","coordinates":[[139.18671,36.25531],[139.18642,36.25559],[139.1864,36.25567],[139.18702,36.25607]]}},{"type":"Feature","properties":{"idx":200,"road":"","cls":"tertiary","shops":0,"st_km":2.28,"mesh":"54393106"},"geometry":{"type":"LineString","coordinates":[[139.20276,36.253],[139.20291,36.253],[139.20383,36.25239]]}},{"type":"Feature","properties":{"idx":203,"road":"","cls":"tertiary","shops":0,"st_km":2.24,"mesh":"54393106"},"geometry":{"type":"LineString","coordinates":[[139.20254,36.25249],[139.20276,36.253]]}},{"type":"Feature","properties":{"idx":20,"road":"","cls":"tertiary","shops":0,"st_km":2.56,"mesh":"54393114"},"geometry":{"type":"LineString","coordinates":[[139.17521,36.26355],[139.17496,36.26216]]}},{"type":"Feature","properties":{"idx":36,"road":"","cls":"tertiary","shops":0,"st_km":1.76,"mesh":"54393113"},"geometry":{"type":"LineString","coordinates":[[139.16067,36.26657],[139.16617,36.26202],[139.16731,36.2615]]}},{"type":"Feature","properties":{"idx":27,"road":"","cls":"tertiary","shops":0,"st_km":1.83,"mesh":"54393105"},"geometry":{"type":"LineString","coordinates":[[139.19324,36.2522],[139.19313,36.25229]]}},{"type":"Feature","properties":{"idx":23,"road":"","cls":"tertiary","shops":0,"st_km":2.16,"mesh":"54393105"},"geometry":{"type":"LineString","coordinates":[[139.18758,36.25547],[139.18847,36.25602]]}},{"type":"Feature","properties":{"idx":22,"road":"","cls":"tertiary","shops":0,"st_km":2.27,"mesh":"54393105"},"geometry":{"type":"LineString","coordinates":[[139.18702,36.25607],[139.18721,36.25622],[139.18804,36.25739]]}},{"type":"Feature","properties":{"idx":219,"road":"","cls":"tertiary","shops":0,"st_km":2.03,"mesh":"54393106"},"geometry":{"type":"LineString","coordinates":[[139.20129,36.25119],[139.20144,36.25106]]}},{"type":"Feature","properties":{"idx":179,"road":"","cls":"tertiary","shops":0,"st_km":2.7,"mesh":"54393106"},"geometry":{"type":"LineString","coordinates":[[139.21226,36.24959],[139.21251,36.25176]]}},{"type":"Feature","properties":{"idx":23,"road":"","cls":"tertiary","shops":0,"st_km":2.22,"mesh":"54393105"},"geometry":{"type":"LineString","coordinates":[[139.18847,36.25602],[139.18949,36.25666]]}},{"type":"Feature","properties":{"idx":106,"road":"泉坂橋","cls":"tertiary","shops":0,"st_km":2.2,"mesh":"54393103"},"geometry":{"type":"LineString","coordinates":[[139.17346,36.25216],[139.17355,36.25223]]}},{"type":"Feature","properties":{"idx":27,"road":"","cls":"tertiary","shops":0,"st_km":1.8,"mesh":"54393105"},"geometry":{"type":"LineString","coordinates":[[139.19378,36.25167],[139.19324,36.2522]]}},{"type":"Feature","properties":{"idx":28,"road":"","cls":"tertiary","shops":0,"st_km":2.45,"mesh":"54393113"},"geometry":{"type":"LineString","coordinates":[[139.17195,36.26518],[139.17147,36.2664]]}},{"type":"Feature","properties":{"idx":137,"road":"蛭子塚通り","cls":"tertiary","shops":0,"st_km":1.57,"mesh":"54393103"},"geometry":{"type":"LineString","coordinates":[[139.16817,36.25262],[139.16709,36.25171],[139.16409,36.24863]]}},{"type":"Feature","properties":{"idx":125,"road":"","cls":"tertiary","shops":0,"st_km":2.49,"mesh":"54393123"},"geometry":{"type":"LineString","coordinates":[[139.17147,36.2664],[139.17146,36.26713]]}},{"type":"Feature","properties":{"idx":220,"road":"","cls":"tertiary","shops":0,"st_km":2.02,"mesh":"54393106"},"geometry":{"type":"LineString","coordinates":[[139.20144,36.25106],[139.20255,36.25026]]}},{"type":"Feature","properties":{"idx":69,"road":"","cls":"tertiary","shops":0,"st_km":2.1,"mesh":"54393104"},"geometry":{"type":"LineString","coordinates":[[139.18758,36.25547],[139.187,36.25514],[139.18675,36.25519]]}},{"type":"Feature","properties":{"idx":199,"road":"","cls":"tertiary","shops":0,"st_km":2.29,"mesh":"54393106"},"geometry":{"type":"LineString","coordinates":[[139.20383,36.25239],[139.20517,36.25176],[139.20565,36.25156],[139.20586,36.25152]]}},{"type":"Feature","properties":{"idx":68,"road":"","cls":"tertiary","shops":0,"st_km":2.14,"mesh":"54393104"},"geometry":{"type":"LineString","coordinates":[[139.17636,36.24962],[139.17651,36.25182],[139.17744,36.25461],[139.17741,36.25468],[139.17688,36.2548],[139.17686,36.25486],[139.17741,36.25649],[139.1774,36.2566]]}},{"type":"Feature","properties":{"idx":25,"road":"","cls":"tertiary","shops":0,"st_km":1.99,"mesh":"54393105"},"geometry":{"type":"LineString","coordinates":[[139.19224,36.25338],[139.19129,36.25465]]}},{"type":"Feature","properties":{"idx":31,"road":"","cls":"tertiary","shops":0,"st_km":2.12,"mesh":"54393113"},"geometry":{"type":"LineString","coordinates":[[139.16758,36.26138],[139.16793,36.26131],[139.16873,36.26159],[139.16879,36.26158],[139.17465,36.25801]]}},{"type":"Feature","properties":{"idx":63,"road":"","cls":"tertiary","shops":0,"st_km":2.35,"mesh":"54393104"},"geometry":{"type":"LineString","coordinates":[[139.18723,36.25744],[139.18622,36.2575]]}},{"type":"Feature","properties":{"idx":131,"road":"杉の根線","cls":"tertiary","shops":0,"st_km":1.19,"mesh":"54393102"},"geometry":{"type":"LineString","coordinates":[[139.15873,36.25247],[139.1651,36.24965]]}},{"type":"Feature","properties":{"idx":22,"road":"","cls":"tertiary","shops":0,"st_km":2.29,"mesh":"54393105"},"geometry":{"type":"LineString","coordinates":[[139.18949,36.25666],[139.18924,36.25701],[139.18905,36.25717]]}},{"type":"Feature","properties":{"idx":22,"road":"","cls":"tertiary","shops":0,"st_km":2.33,"mesh":"54393105"},"geometry":{"type":"LineString","coordinates":[[139.18905,36.25717],[139.18867,36.25733],[139.18837,36.25738]]}},{"type":"Feature","properties":{"idx":28,"road":"","cls":"tertiary","shops":0,"st_km":1.71,"mesh":"54393105"},"geometry":{"type":"LineString","coordinates":[[139.19378,36.25167],[139.19583,36.24975]]}},{"type":"Feature","properties":{"idx":31,"road":"","cls":"tertiary","shops":0,"st_km":2.13,"mesh":"54393113"},"geometry":{"type":"LineString","coordinates":[[139.17126,36.26476],[139.17141,36.26425],[139.17177,36.2638],[139.17183,36.26356],[139.17178,36.26335],[139.17142,36.2628],[139.17077,36.26162],[139.16988,36.26021],[139.16953,36.25976],[139.16863,36.25917],[139.16806,36.25862]]}},{"type":"Feature","properties":{"idx":25,"road":"","cls":"tertiary","shops":0,"st_km":1.96,"mesh":"54393105"},"geometry":{"type":"LineString","coordinates":[[139.20129,36.25119],[139.20109,36.2513],[139.19992,36.25144],[139.19955,36.25162],[139.19908,36.25177],[139.19696,36.25212],[139.19642,36.25216],[139.19509,36.25196]]}},{"type":"Feature","properties":{"idx":23,"road":"","cls":"tertiary","shops":0,"st_km":2.19,"mesh":"54393105"},"geometry":{"type":"LineString","coordinates":[[139.19073,36.2554],[139.19049,36.2557],[139.19007,36.25605],[139.18949,36.25666]]}},{"type":"Feature","properties":{"idx":19,"road":"","cls":"tertiary","shops":0,"st_km":2.66,"mesh":"54393114"},"geometry":{"type":"LineString","coordinates":[[139.17505,36.26269],[139.17704,36.26268],[139.17708,36.26273],[139.17706,36.26334]]}},{"type":"Feature","properties":{"idx":114,"road":"","cls":"tertiary","shops":0,"st_km":1.34,"mesh":"54393111"},"geometry":{"type":"LineString","coordinates":[[139.14668,36.26551],[139.14679,36.26565]]}},{"type":"Feature","properties":{"idx":207,"road":"","cls":"tertiary","shops":0,"st_km":1.53,"mesh":"54393121"},"geometry":{"type":"LineString","coordinates":[[139.14724,36.26618],[139.1431,36.268]]}},{"type":"Feature","properties":{"idx":112,"road":"","cls":"tertiary","shops":0,"st_km":1.38,"mesh":"54393111"},"geometry":{"type":"LineString","coordinates":[[139.14679,36.26565],[139.14724,36.26618]]}},{"type":"Feature","properties":{"idx":74,"road":"","cls":"tertiary","shops":0,"st_km":1.07,"mesh":"54393112"},"geometry":{"type":"LineString","coordinates":[[139.15271,36.26285],[139.15277,36.2627]]}},{"type":"Feature","properties":{"idx":67,"road":"","cls":"tertiary","shops":0,"st_km":1.2,"mesh":"54393112"},"geometry":{"type":"LineString","coordinates":[[139.15642,36.25982],[139.15715,36.26059],[139.16019,36.263]]}},{"type":"Feature","properties":{"idx":57,"road":"","cls":"tertiary","shops":0,"st_km":1.46,"mesh":"54393112"},"geometry":{"type":"LineString","coordinates":[[139.16019,36.263],[139.16034,36.26312]]}},{"type":"Feature","properties":{"idx":68,"road":"","cls":"tertiary","shops":0,"st_km":1.19,"mesh":"54393112"},"geometry":{"type":"LineString","coordinates":[[139.15468,36.26187],[139.15705,36.26369]]}},{"type":"Feature","properties":{"idx":61,"road":"","cls":"tertiary","shops":0,"st_km":1.35,"mesh":"54393112"},"geometry":{"type":"LineString","coordinates":[[139.15705,36.26369],[139.15731,36.2639]]}},{"type":"Feature","properties":{"idx":129,"road":"","cls":"tertiary","shops":0,"st_km":2.35,"mesh":"54393123"},"geometry":{"type":"LineString","coordinates":[[139.16839,36.26829],[139.16842,36.26751]]}},{"type":"Feature","properties":{"idx":34,"road":"","cls":"tertiary","shops":0,"st_km":1.9,"mesh":"54393113"},"geometry":{"type":"LineString","coordinates":[[139.16034,36.26312],[139.16425,36.26619],[139.16829,36.26697]]}},{"type":"Feature","properties":{"idx":30,"road":"","cls":"tertiary","shops":0,"st_km":1.95,"mesh":"54393122"},"geometry":{"type":"LineString","coordinates":[[139.15731,36.2639],[139.16284,36.26826],[139.16302,36.26836],[139.16618,36.26841],[139.16737,36.26839],[139.16839,36.26829]]}},{"type":"Feature","properties":{"idx":29,"road":"","cls":"tertiary","shops":0,"st_km":2.3,"mesh":"54393113"},"geometry":{"type":"LineString","coordinates":[[139.16842,36.26751],[139.16829,36.26697],[139.16915,36.26645],[139.16967,36.26622],[139.17009,36.26516],[139.17117,36.26509],[139.17161,36.26512],[139.17195,36.26518],[139.17291,36.26557]]}},{"type":"Feature","properties":{"idx":140,"road":"","cls":"tertiary","shops":0,"st_km":2.11,"mesh":"54393123"},"geometry":{"type":"LineString","coordinates":[[139.16218,36.26982],[139.16302,36.26836]]}},{"type":"Feature","properties":{"idx":68,"road":"","cls":"tertiary","shops":0,"st_km":1.19,"mesh":"54393112"},"geometry":{"type":"LineString","coordinates":[[139.15271,36.26285],[139.15193,36.26515]]}},{"type":"Feature","properties":{"idx":89,"road":"","cls":"tertiary","shops":0,"st_km":0.83,"mesh":"54393112"},"geometry":{"type":"LineString","coordinates":[[139.15277,36.2627],[139.15285,36.26238],[139.15279,36.26124],[139.15291,36.26101],[139.15177,36.25842]]}},{"type":"Feature","properties":{"idx":133,"road":"","cls":"tertiary","shops":0,"st_km":1.11,"mesh":"54393111"},"geometry":{"type":"LineString","coordinates":[[139.14139,36.26283],[139.14003,36.26082],[139.13842,36.25831],[139.13833,36.2571]]}},{"type":"Feature","properties":{"idx":128,"road":"","cls":"tertiary","shops":0,"st_km":1.17,"mesh":"54393111"},"geometry":{"type":"LineString","coordinates":[[139.14668,36.26551],[139.14611,36.26484],[139.14593,36.26455],[139.14556,36.26364],[139.14511,36.26198]]}},{"type":"Feature","properties":{"idx":107,"road":"","cls":"tertiary","shops":0,"st_km":2.17,"mesh":"54393110"},"geometry":{"type":"LineString","coordinates":[[139.12592,36.26299],[139.12574,36.25543]]}},{"type":"Feature","properties":{"idx":121,"road":"","cls":"tertiary","shops":0,"st_km":1.85,"mesh":"54393110"},"geometry":{"type":"LineString","coordinates":[[139.12585,36.2601],[139.12616,36.26025],[139.12718,36.26087],[139.12801,36.26098],[139.12873,36.26114],[139.12971,36.26113],[139.13026,36.26103],[139.13101,36.26097],[139.13138,36.26102],[139.13249,36.26139],[139.13498,36.26282]]}},{"type":"Feature","properties":{"idx":78,"road":"","cls":"tertiary","shops":0,"st_km":1.57,"mesh":"54393100"},"geometry":{"type":"LineString","coordinates":[[139.12578,36.25727],[139.13833,36.2571]]}},{"type":"Feature","properties":{"idx":132,"road":"","cls":"tertiary","shops":0,"st_km":1.68,"mesh":"54393110"},"geometry":{"type":"LineString","coordinates":[[139.13128,36.25979],[139.13162,36.25967],[139.1318,36.25966],[139.13194,36.25954],[139.13251,36.25954]]}},{"type":"Feature","properties":{"idx":136,"road":"","cls":"tertiary","shops":0,"st_km":1.61,"mesh":"54393110"},"geometry":{"type":"LineString","coordinates":[[139.13284,36.25954],[139.13251,36.25954]]}},{"type":"Feature","properties":{"idx":100,"road":"","cls":"tertiary","shops":0,"st_km":1.18,"mesh":"54393100"},"geometry":{"type":"LineString","coordinates":[[139.13492,36.25534],[139.13728,36.2553]]}},{"type":"Feature","properties":{"idx":90,"road":"","cls":"tertiary","shops":0,"st_km":1.33,"mesh":"54393100"},"geometry":{"type":"LineString","coordinates":[[139.13378,36.25535],[139.13492,36.25534]]}},{"type":"Feature","properties":{"idx":144,"road":"","cls":"tertiary","shops":0,"st_km":1.51,"mesh":"54393110"},"geometry":{"type":"LineString","coordinates":[[139.13499,36.25952],[139.13284,36.25954]]}},{"type":"Feature","properties":{"idx":81,"road":"","cls":"tertiary","shops":0,"st_km":1.51,"mesh":"54393100"},"geometry":{"type":"LineString","coordinates":[[139.13202,36.25537],[139.13274,36.25536]]}},{"type":"Feature","properties":{"idx":86,"road":"","cls":"tertiary","shops":0,"st_km":1.01,"mesh":"54393101"},"geometry":{"type":"LineString","coordinates":[[139.13872,36.25528],[139.13728,36.2553]]}},{"type":"Feature","properties":{"idx":77,"road":"","cls":"tertiary","shops":0,"st_km":1.58,"mesh":"54393100"},"geometry":{"type":"LineString","coordinates":[[139.13105,36.25545],[139.1314,36.25553],[139.13202,36.25537]]}},{"type":"Feature","properties":{"idx":83,"road":"","cls":"tertiary","shops":0,"st_km":1.45,"mesh":"54393100"},"geometry":{"type":"LineString","coordinates":[[139.13497,36.25819],[139.13279,36.25821]]}},{"type":"Feature","properties":{"idx":126,"road":"","cls":"tertiary","shops":0,"st_km":1.77,"mesh":"54393110"},"geometry":{"type":"LineString","coordinates":[[139.13049,36.25999],[139.13128,36.25979]]}},{"type":"Feature","properties":{"idx":84,"road":"","cls":"tertiary","shops":0,"st_km":1.43,"mesh":"54393100"},"geometry":{"type":"LineString","coordinates":[[139.13274,36.25536],[139.13378,36.25535]]}},{"type":"Feature","properties":{"idx":94,"road":"","cls":"tertiary","shops":0,"st_km":1.26,"mesh":"54393100"},"geometry":{"type":"LineString","coordinates":[[139.13732,36.25815],[139.13497,36.25819]]}},{"type":"Feature","properties":{"idx":131,"road":"","cls":"tertiary","shops":0,"st_km":1.14,"mesh":"54393111"},"geometry":{"type":"LineString","coordinates":[[139.13736,36.25878],[139.13842,36.25831]]}},{"type":"Feature","properties":{"idx":134,"road":"","cls":"tertiary","shops":0,"st_km":1.65,"mesh":"54393110"},"geometry":{"type":"LineString","coordinates":[[139.13251,36.25954],[139.13252,36.25989],[139.13242,36.26096],[139.13503,36.25981]]}},{"type":"Feature","properties":{"idx":162,"road":"","cls":"tertiary","shops":0,"st_km":1.31,"mesh":"54393110"},"geometry":{"type":"LineString","coordinates":[[139.13503,36.25981],[139.13736,36.25878]]}},{"type":"Feature","properties":{"idx":172,"road":"","cls":"tertiary","shops":0,"st_km":0.23,"mesh":"54393101"},"geometry":{"type":"LineString","coordinates":[[139.14747,36.25564],[139.15032,36.25576]]}},{"type":"Feature","properties":{"idx":93,"road":"","cls":"tertiary","shops":0,"st_km":0.91,"mesh":"54393101"},"geometry":{"type":"LineString","coordinates":[[139.14004,36.25239],[139.13935,36.25363],[139.13911,36.25414],[139.139,36.25465],[139.13845,36.25584],[139.13835,36.25617],[139.13833,36.2571]]}},{"type":"Feature","properties":{"idx":161,"road":"神保原駅南大通り線","cls":"tertiary","shops":0,"st_km":0.3,"mesh":"54393101"},"geometry":{"type":"LineString","coordinates":[[139.14639,36.2494],[139.14877,36.25295]]}},{"type":"Feature","properties":{"idx":156,"road":"駅南東西線","cls":"tertiary","shops":0,"st_km":0.33,"mesh":"54393101"},"geometry":{"type":"LineString","coordinates":[[139.14449,36.25241],[139.15189,36.24906]]}},{"type":"Feature","properties":{"idx":100,"road":"","cls":"tertiary","shops":0,"st_km":0.82,"mesh":"54393101"},"geometry":{"type":"LineString","coordinates":[[139.14009,36.25228],[139.14004,36.25239]]}},{"type":"Feature","properties":{"idx":256,"road":"神保原停車場線","cls":"secondary","shops":0,"st_km":0.52,"mesh":"54393102"},"geometry":{"type":"LineString","coordinates":[[139.15125,36.25726],[139.15177,36.25842]]}},{"type":"Feature","properties":{"idx":361,"road":"旧中山道","cls":"secondary","shops":1,"st_km":0.54,"mesh":"54393111"},"geometry":{"type":"LineString","coordinates":[[139.14691,36.26011],[139.14702,36.25981],[139.14713,36.25889],[139.14754,36.25879],[139.14836,36.25851],[139.1511,36.25733]]}},{"type":"Feature","properties":{"idx":264,"road":"旧中山道","cls":"secondary","shops":0,"st_km":0.49,"mesh":"54393102"},"geometry":{"type":"LineString","coordinates":[[139.15125,36.25726],[139.15394,36.25622],[139.15419,36.25599],[139.15432,36.25559]]}},{"type":"Feature","properties":{"idx":272,"road":"旧中山道","cls":"secondary","shops":0,"st_km":0.45,"mesh":"54393102"},"geometry":{"type":"LineString","coordinates":[[139.1511,36.25733],[139.15125,36.25726]]}},{"type":"Feature","properties":{"idx":145,"road":"","cls":"tertiary","shops":0,"st_km":1.47,"mesh":"54393103"},"geometry":{"type":"LineString","coordinates":[[139.1652,36.25567],[139.16511,36.25557]]}},{"type":"Feature","properties":{"idx":27,"road":"","cls":"tertiary","shops":0,"st_km":2.57,"mesh":"54393113"},"geometry":{"type":"LineString","coordinates":[[139.17706,36.26334],[139.17585,36.26339],[139.17521,36.26355],[139.1747,36.2639],[139.17299,36.26556],[139.17291,36.26557]]}},{"type":"Feature","properties":{"idx":131,"road":"児玉新町線","cls":"secondary","shops":0,"st_km":1.95,"mesh":"54393110"},"geometry":{"type":"LineString","coordinates":[[139.13049,36.25999],[139.13027,36.26037],[139.13018,36.26076],[139.1301,36.26397],[139.13004,36.26461]]}},{"type":"Feature","properties":{"idx":85,"road":"児玉新町線","cls":"secondary","shops":0,"st_km":1.63,"mesh":"54393100"},"geometry":{"type":"LineString","coordinates":[[139.13176,36.25136],[139.13172,36.25278],[139.13157,36.25442],[139.13147,36.25469],[139.13113,36.25525],[139.131,36.2556],[139.13099,36.25719],[139.13061,36.25969],[139.13049,36.25999]]}},{"type":"Feature","properties":{"idx":133,"road":"","cls":"tertiary","shops":0,"st_km":1.63,"mesh":"54393103"},"geometry":{"type":"LineString","coordinates":[[139.16801,36.25857],[139.16522,36.25569]]}},{"type":"Feature","properties":{"idx":35,"road":"除ヶ大橋","cls":"tertiary","shops":0,"st_km":1.8,"mesh":"54393113"},"geometry":{"type":"LineString","coordinates":[[139.16806,36.25862],[139.16801,36.25857]]}},{"type":"Feature","properties":{"idx":173,"road":"","cls":"tertiary","shops":1,"st_km":0.66,"mesh":"54393101"},"geometry":{"type":"LineString","coordinates":[[139.14749,36.25535],[139.14751,36.25481],[139.14731,36.25452],[139.14605,36.25356],[139.145,36.25293],[139.14329,36.25129],[139.14314,36.25098],[139.14299,36.24983],[139.14288,36.24945],[139.14272,36.24916],[139.14228,36.24865],[139.14033,36.24718],[139.13818,36.24597],[139.13753,36.24577]]}},{"type":"Feature","properties":{"idx":170,"road":"除ヶ大橋","cls":"tertiary","shops":0,"st_km":0.25,"mesh":"54393101"},"geometry":{"type":"LineString","coordinates":[[139.14748,36.2555],[139.14749,36.25544]]}},{"type":"Feature","properties":{"idx":26,"road":"","cls":"tertiary","shops":0,"st_km":1.88,"mesh":"54393105"},"geometry":{"type":"LineString","coordinates":[[139.19313,36.25229],[139.19224,36.25338]]}},{"type":"Feature","properties":{"idx":114,"road":"沼和田杉山線","cls":"secondary","shops":0,"st_km":2.3,"mesh":"54393103"},"geometry":{"type":"LineString","coordinates":[[139.17954,36.25738],[139.17648,36.25627],[139.17412,36.2557],[139.17353,36.2555],[139.17318,36.25534],[139.16993,36.25352]]}},{"type":"Feature","properties":{"idx":116,"road":"沼和田杉山線","cls":"secondary","shops":1,"st_km":2.1,"mesh":"54393104"},"geometry":{"type":"LineString","coordinates":[[139.18466,36.2524],[139.18423,36.25353],[139.18425,36.254],[139.18552,36.25657],[139.18575,36.25694],[139.18622,36.2575]]}},{"type":"Feature","properties":{"idx":71,"road":"","cls":"tertiary","shops":0,"st_km":1.75,"mesh":"54393100"},"geometry":{"type":"LineString","coordinates":[[139.13709,36.24855],[139.13572,36.24929],[139.13457,36.2498],[139.13177,36.25086],[139.12569,36.25294],[139.12208,36.25404]]}},{"type":"Feature","properties":{"idx":104,"road":"","cls":"tertiary","shops":0,"st_km":0.78,"mesh":"54393101"},"geometry":{"type":"LineString","coordinates":[[139.14009,36.25228],[139.1403,36.25174],[139.14121,36.25058],[139.1418,36.2501],[139.14211,36.24966],[139.14245,36.24895],[139.14251,36.2489]]}},{"type":"Feature","properties":{"idx":34,"road":"","cls":"tertiary","shops":0,"st_km":1.87,"mesh":"54393113"},"geometry":{"type":"LineString","coordinates":[[139.16731,36.2615],[139.16758,36.26138]]}},{"type":"Feature","properties":{"idx":135,"road":"","cls":"tertiary","shops":0,"st_km":1.63,"mesh":"54393110"},"geometry":{"type":"LineString","coordinates":[[139.1338,36.26214],[139.13401,36.26192],[139.13429,36.26179]]}},{"type":"Feature","properties":{"idx":207,"road":"沼和田杉山線","cls":"secondary","shops":1,"st_km":1.78,"mesh":"54393103"},"geometry":{"type":"LineString","coordinates":[[139.16952,36.2533],[139.16817,36.25262]]}},{"type":"Feature","properties":{"idx":133,"road":"沼和田杉山線","cls":"secondary","shops":0,"st_km":1.86,"mesh":"54393103"},"geometry":{"type":"LineString","coordinates":[[139.16993,36.25352],[139.16952,36.2533]]}},{"type":"Feature","properties":{"idx":171,"road":"除ヶ大橋","cls":"tertiary","shops":0,"st_km":0.24,"mesh":"54393101"},"geometry":{"type":"LineString","coordinates":[[139.14749,36.25544],[139.14749,36.25535]]}},{"type":"Feature","properties":{"idx":303,"road":"神保原停車場線","cls":"secondary","shops":0,"st_km":0.34,"mesh":"54393102"},"geometry":{"type":"LineString","coordinates":[[139.15019,36.25549],[139.1511,36.25733]]}},{"type":"Feature","properties":{"idx":339,"road":"神保原停車場線","cls":"secondary","shops":0,"st_km":0.23,"mesh":"54393102"},"geometry":{"type":"LineString","coordinates":[[139.15016,36.25543],[139.15019,36.25549]]}},{"type":"Feature","properties":{"idx":90,"road":"","cls":"tertiary","shops":0,"st_km":0.95,"mesh":"54393101"},"geometry":{"type":"LineString","coordinates":[[139.14487,36.25509],[139.14379,36.25557],[139.14329,36.2556],[139.13584,36.25297],[139.13527,36.25296],[139.13394,36.25312],[139.13368,36.25309],[139.13287,36.2528],[139.13172,36.25278]]}},{"type":"Feature","properties":{"idx":146,"road":"","cls":"tertiary","shops":0,"st_km":0.4,"mesh":"54393101"},"geometry":{"type":"LineString","coordinates":[[139.14502,36.25503],[139.14487,36.25509]]}},{"type":"Feature","properties":{"idx":22,"road":"","cls":"tertiary","shops":0,"st_km":2.34,"mesh":"54393105"},"geometry":{"type":"LineString","coordinates":[[139.18837,36.25738],[139.18723,36.25744]]}},{"type":"Feature","properties":{"idx":70,"road":"","cls":"tertiary","shops":0,"st_km":2.05,"mesh":"54393104"},"geometry":{"type":"LineString","coordinates":[[139.18587,36.25411],[139.18484,36.25522]]}},{"type":"Feature","properties":{"idx":72,"road":"","cls":"tertiary","shops":0,"st_km":1.98,"mesh":"54393104"},"geometry":{"type":"LineString","coordinates":[[139.18595,36.25402],[139.18587,36.25411]]}},{"type":"Feature","properties":{"idx":105,"road":"","cls":"tertiary","shops":0,"st_km":2.17,"mesh":"54393103"},"geometry":{"type":"LineString","coordinates":[[139.17286,36.25151],[139.17286,36.25163],[139.17296,36.25177],[139.17346,36.25216]]}},{"type":"Feature","properties":{"idx":87,"road":"児玉新町線","cls":"secondary","shops":0,"st_km":1.57,"mesh":"54393100"},"geometry":{"type":"LineString","coordinates":[[139.13177,36.25096],[139.13176,36.25136]]}},{"type":"Feature","properties":{"idx":138,"road":"","cls":"tertiary","shops":0,"st_km":1.59,"mesh":"54393110"},"geometry":{"type":"LineString","coordinates":[[139.13498,36.26282],[139.13687,36.26395],[139.13706,36.26419],[139.13729,36.26473]]}},{"type":"Feature","properties":{"idx":147,"road":"","cls":"tertiary","shops":0,"st_km":0.98,"mesh":"54393111"},"geometry":{"type":"LineString","coordinates":[[139.14511,36.26198],[139.14484,36.26163]]}},{"type":"Feature","properties":{"idx":108,"road":"","cls":"tertiary","shops":0,"st_km":2.14,"mesh":"54393110"},"geometry":{"type":"LineString","coordinates":[[139.12592,36.26299],[139.12594,36.26376]]}},{"type":"Feature","properties":{"idx":122,"road":"","cls":"tertiary","shops":0,"st_km":1.24,"mesh":"54393111"},"geometry":{"type":"LineString","coordinates":[[139.14139,36.26283],[139.1416,36.26316]]}},{"type":"Feature","properties":{"idx":65,"road":"","cls":"tertiary","shops":0,"st_km":2.17,"mesh":"54393120"},"geometry":{"type":"LineString","coordinates":[[139.13358,36.26869],[139.13361,36.26861]]}},{"type":"Feature","properties":{"idx":109,"road":"","cls":"tertiary","shops":0,"st_km":1.42,"mesh":"54393111"},"geometry":{"type":"LineString","coordinates":[[139.14724,36.26618],[139.14752,36.26649]]}},{"type":"Feature","properties":{"idx":60,"road":"","cls":"tertiary","shops":0,"st_km":2.51,"mesh":"54393104"},"geometry":{"type":"LineString","coordinates":[[139.1775,36.25663],[139.17756,36.25691],[139.17802,36.25803]]}},{"type":"Feature","properties":{"idx":19,"road":"","cls":"tertiary","shops":0,"st_km":2.64,"mesh":"54393114"},"geometry":{"type":"LineString","coordinates":[[139.17802,36.25803],[139.17858,36.25937]]}},{"type":"Feature","properties":{"idx":188,"road":"旧中山道","cls":"secondary","shops":0,"st_km":0.82,"mesh":"54393111"},"geometry":{"type":"LineString","coordinates":[[139.14556,36.26115],[139.14665,36.2604],[139.14691,36.26011]]}},{"type":"Feature","properties":{"idx":177,"road":"旧中山道","cls":"secondary","shops":0,"st_km":0.89,"mesh":"54393111"},"geometry":{"type":"LineString","coordinates":[[139.14551,36.26118],[139.14556,36.26115]]}},{"type":"Feature","properties":{"idx":139,"road":"","cls":"tertiary","shops":0,"st_km":1.58,"mesh":"54393110"},"geometry":{"type":"LineString","coordinates":[[139.13482,36.26156],[139.13429,36.26179]]}},{"type":"Feature","properties":{"idx":269,"road":"上里鬼石線","cls":"primary","shops":0,"st_km":0.58,"mesh":"54393102"},"geometry":{"type":"LineString","coordinates":[[139.15656,36.25667],[139.1541,36.25266]]}},{"type":"Feature","properties":{"idx":301,"road":"上里鬼石線","cls":"primary","shops":0,"st_km":0.46,"mesh":"54393102"},"geometry":{"type":"LineString","coordinates":[[139.1541,36.25266],[139.1532,36.25118]]}},{"type":"Feature","properties":{"idx":254,"road":"旧中山道","cls":"secondary","shops":0,"st_km":0.52,"mesh":"54393102"},"geometry":{"type":"LineString","coordinates":[[139.15432,36.25559],[139.15435,36.25552]]}}]}