{"type":"FeatureCollection","features":[{"type":"Feature","properties":{"idx":186,"road":NaN,"cls":"tertiary","shops":0,"st_km":4.79,"mesh":"54392500"},"geometry":{"type":"LineString","coordinates":[[139.63147,36.17632],[139.63143,36.17586],[139.63126,36.175],[139.63074,36.17345],[139.63037,36.17258],[139.6284,36.16897],[139.62736,36.16635],[139.62736,36.16624],[139.6275,36.16607]]}},{"type":"Feature","properties":{"idx":103,"road":"加須北川辺線","cls":"primary","shops":1,"st_km":4.12,"mesh":"54392501"},"geometry":{"type":"LineString","coordinates":[[139.64496,36.17168],[139.64472,36.17131]]}},{"type":"Feature","properties":{"idx":165,"road":"佐野古河線","cls":"primary","shops":0,"st_km":0.37,"mesh":"54392534"},"geometry":{"type":"LineString","coordinates":[[139.68177,36.1991],[139.68238,36.19878],[139.68291,36.1984],[139.68554,36.19619],[139.68679,36.195],[139.68926,36.19229]]}},{"type":"Feature","properties":{"idx":69,"road":"加須北川辺線","cls":"primary","shops":0,"st_km":3.54,"mesh":"54392511"},"geometry":{"type":"LineString","coordinates":[[139.64496,36.17168],[139.65079,36.18076]]}},{"type":"Feature","properties":{"idx":128,"road":"麦倉川俣停車場線","cls":"secondary","shops":0,"st_km":1.51,"mesh":"54392532"},"geometry":{"type":"LineString","coordinates":[[139.66023,36.19141],[139.65248,36.19473],[139.65077,36.19529]]}},{"type":"Feature","properties":{"idx":148,"road":"柳生停車場線","cls":"secondary","shops":0,"st_km":1.27,"mesh":"54392532"},"geometry":{"type":"LineString","coordinates":[[139.65077,36.19529],[139.65206,36.19677],[139.65354,36.1988]]}},{"type":"Feature","properties":{"idx":80,"road":"加須北川辺線","cls":"primary","shops":0,"st_km":1.29,"mesh":"54392534"},"geometry":{"type":"LineString","coordinates":[[139.67486,36.19838],[139.67594,36.20059]]}},{"type":"Feature","properties":{"idx":28,"road":NaN,"cls":"tertiary","shops":0,"st_km":0.3,"mesh":"54392552"},"geometry":{"type":"LineString","coordinates":[[139.66129,36.21244],[139.66134,36.21147],[139.66127,36.21121],[139.66108,36.21086],[139.66098,36.21057],[139.66103,36.20949],[139.66076,36.20864],[139.66072,36.20824],[139.6608,36.20707],[139.6613,36.20592]]}},{"type":"Feature","properties":{"idx":39,"road":"飯積向古河線","cls":"secondary","shops":0,"st_km":2.35,"mesh":"54392504"},"geometry":{"type":"LineString","coordinates":[[139.67335,36.17289],[139.67387,36.17309],[139.67473,36.17319],[139.67537,36.17336],[139.67598,36.1734],[139.67625,36.1735],[139.6776,36.17421],[139.67783,36.17449],[139.67811,36.17512]]}},{"type":"Feature","properties":{"idx":66,"road":"飯積向古河線","cls":"secondary","shops":0,"st_km":2.92,"mesh":"54392511"},"geometry":{"type":"LineString","coordinates":[[139.63382,36.18733],[139.63523,36.18708],[139.6374,36.18656],[139.63864,36.18636],[139.64565,36.18309],[139.64726,36.18245],[139.64998,36.18104],[139.65985,36.17702],[139.66057,36.17683],[139.66169,36.17666]]}},{"type":"Feature","properties":{"idx":51,"road":NaN,"cls":"tertiary","shops":0,"st_km":0.7,"mesh":"54392524"},"geometry":{"type":"LineString","coordinates":[[139.68084,36.18453],[139.68128,36.18507],[139.68426,36.18911],[139.6849,36.19014]]}},{"type":"Feature","properties":{"idx":31,"road":"飯積向古河線","cls":"secondary","shops":0,"st_km":1.64,"mesh":"54392514"},"geometry":{"type":"LineString","coordinates":[[139.68194,36.18263],[139.68153,36.18238],[139.681,36.18183],[139.67994,36.18097],[139.67928,36.17948],[139.67867,36.17877],[139.67846,36.17845],[139.67819,36.17788],[139.67811,36.17753],[139.6781,36.17686],[139.67818,36.17546]]}},{"type":"Feature","properties":{"idx":33,"road":"飯積向古河線","cls":"secondary","shops":0,"st_km":3.34,"mesh":"54392520"},"geometry":{"type":"LineString","coordinates":[[139.63382,36.18733],[139.63097,36.18776],[139.62967,36.1883],[139.63101,36.18971],[139.63181,36.19042],[139.63231,36.19065],[139.63386,36.19121]]}},{"type":"Feature","properties":{"idx":6,"road":NaN,"cls":"tertiary","shops":0,"st_km":1.73,"mesh":"54392523"},"geometry":{"type":"LineString","coordinates":[[139.66226,36.19056],[139.66331,36.19117],[139.66497,36.19159],[139.66742,36.19182],[139.66816,36.19179],[139.66885,36.19163]]}},{"type":"Feature","properties":{"idx":39,"road":"飯積向古河線","cls":"secondary","shops":0,"st_km":1.2,"mesh":"54392514"},"geometry":{"type":"LineString","coordinates":[[139.68194,36.18263],[139.68203,36.18266]]}},{"type":"Feature","properties":{"idx":492,"road":NaN,"cls":"tertiary","shops":0,"st_km":2.18,"mesh":"54392521"},"geometry":{"type":"LineString","coordinates":[[139.65338,36.19436],[139.65298,36.19401],[139.65119,36.19294],[139.65063,36.19247],[139.64902,36.19059],[139.64809,36.18932],[139.64743,36.18876],[139.64709,36.1884],[139.64395,36.18389]]}},{"type":"Feature","properties":{"idx":31,"road":NaN,"cls":"tertiary","shops":0,"st_km":2.83,"mesh":"54392504"},"geometry":{"type":"LineString","coordinates":[[139.67962,36.16824],[139.68106,36.1676],[139.68124,36.16761],[139.68237,36.16792]]}},{"type":"Feature","properties":{"idx":36,"road":NaN,"cls":"tertiary","shops":0,"st_km":1.17,"mesh":"54392524"},"geometry":{"type":"LineString","coordinates":[[139.6797,36.18297],[139.68072,36.18439]]}},{"type":"Feature","properties":{"idx":60,"road":NaN,"cls":"tertiary","shops":0,"st_km":2.7,"mesh":"54392512"},"geometry":{"type":"LineString","coordinates":[[139.66169,36.17666],[139.66183,36.17761],[139.66205,36.17827],[139.6631,36.18039],[139.66345,36.1809]]}},{"type":"Feature","properties":{"idx":43,"road":"飯積向古河線","cls":"secondary","shops":0,"st_km":2.53,"mesh":"54392503"},"geometry":{"type":"LineString","coordinates":[[139.67333,36.17288],[139.6732,36.17282]]}},{"type":"Feature","properties":{"idx":392,"road":NaN,"cls":"tertiary","shops":0,"st_km":0.11,"mesh":"54392535"},"geometry":{"type":"LineString","coordinates":[[139.68796,36.19223],[139.68819,36.19233],[139.68826,36.19313],[139.68838,36.19327]]}},{"type":"Feature","properties":{"idx":115,"road":NaN,"cls":"tertiary","shops":0,"st_km":1.98,"mesh":"54392513"},"geometry":{"type":"LineString","coordinates":[[139.65778,36.18972],[139.6598,36.18851],[139.66027,36.18835],[139.66147,36.18779],[139.66349,36.18671],[139.6669,36.18461],[139.66753,36.18417],[139.66807,36.18372],[139.66829,36.18323],[139.66869,36.18279],[139.67729,36.17569],[139.6781,36.17508]]}},{"type":"Feature","properties":{"idx":6,"road":NaN,"cls":"tertiary","shops":0,"st_km":1.55,"mesh":"54392523"},"geometry":{"type":"LineString","coordinates":[[139.67596,36.18472],[139.66694,36.18857]]}},{"type":"Feature","properties":{"idx":243,"road":NaN,"cls":"tertiary","shops":0,"st_km":2.29,"mesh":"54392531"},"geometry":{"type":"LineString","coordinates":[[139.65022,36.19218],[139.64988,36.19236],[139.64954,36.1924],[139.64649,36.1921],[139.64152,36.19197],[139.63798,36.19194],[139.63611,36.19186],[139.63554,36.19175],[139.63386,36.19121]]}},{"type":"Feature","properties":{"idx":38,"road":NaN,"cls":"tertiary","shops":0,"st_km":1.07,"mesh":"54392524"},"geometry":{"type":"LineString","coordinates":[[139.68072,36.18439],[139.68081,36.1845]]}},{"type":"Feature","properties":{"idx":130,"road":NaN,"cls":"tertiary","shops":0,"st_km":0.11,"mesh":"54392542"},"geometry":{"type":"LineString","coordinates":[[139.65846,36.20591],[139.65937,36.20575],[139.66123,36.20516]]}},{"type":"Feature","properties":{"idx":58,"road":NaN,"cls":"tertiary","shops":0,"st_km":2.89,"mesh":"54392512"},"geometry":{"type":"LineString","coordinates":[[139.65093,36.18065],[139.65161,36.18168],[139.6518,36.18187],[139.65209,36.18204],[139.65213,36.18211]]}},{"type":"Feature","properties":{"idx":7,"road":NaN,"cls":"tertiary","shops":0,"st_km":1.28,"mesh":"54392523"},"geometry":{"type":"LineString","coordinates":[[139.67316,36.19132],[139.67271,36.19064]]}},{"type":"Feature","properties":{"idx":153,"road":NaN,"cls":"tertiary","shops":0,"st_km":1.79,"mesh":"54392522"},"geometry":{"type":"LineString","coordinates":[[139.65778,36.18972],[139.65074,36.19258]]}},{"type":"Feature","properties":{"idx":37,"road":NaN,"cls":"tertiary","shops":0,"st_km":1.13,"mesh":"54392514"},"geometry":{"type":"LineString","coordinates":[[139.68925,36.18568],[139.68927,36.1856],[139.68903,36.18501],[139.68886,36.18425],[139.68881,36.18418],[139.68578,36.18172],[139.68406,36.18047],[139.68311,36.17988]]}},{"type":"Feature","properties":{"idx":30,"road":NaN,"cls":"tertiary","shops":0,"st_km":1.47,"mesh":"54392514"},"geometry":{"type":"LineString","coordinates":[[139.68311,36.17988],[139.68299,36.17981]]}},{"type":"Feature","properties":{"idx":30,"road":NaN,"cls":"tertiary","shops":0,"st_km":3.01,"mesh":"54392520"},"geometry":{"type":"LineString","coordinates":[[139.63386,36.19121],[139.63441,36.18824],[139.63435,36.18809],[139.63382,36.18733]]}},{"type":"Feature","properties":{"idx":440,"road":"飯積向古河線","cls":"secondary","shops":0,"st_km":0.58,"mesh":"54392525"},"geometry":{"type":"LineString","coordinates":[[139.68968,36.1903],[139.68979,36.18908],[139.68977,36.18817],[139.68956,36.18678],[139.68932,36.18576],[139.68925,36.18568]]}},{"type":"Feature","properties":{"idx":125,"road":NaN,"cls":"tertiary","shops":0,"st_km":0.43,"mesh":"54392534"},"geometry":{"type":"LineString","coordinates":[[139.68141,36.19011],[139.68135,36.19213],[139.68238,36.19355],[139.68246,36.19356],[139.68611,36.19181]]}},{"type":"Feature","properties":{"idx":26,"road":NaN,"cls":"tertiary","shops":0,"st_km":1.75,"mesh":"54392514"},"geometry":{"type":"LineString","coordinates":[[139.68299,36.17981],[139.68048,36.17829],[139.67967,36.17764],[139.67901,36.17698],[139.67877,36.17668],[139.67857,36.17634],[139.67825,36.17553],[139.67818,36.17546]]}},{"type":"Feature","properties":{"idx":32,"road":NaN,"cls":"tertiary","shops":0,"st_km":2.71,"mesh":"54392504"},"geometry":{"type":"LineString","coordinates":[[139.67962,36.16824],[139.67284,36.17138],[139.67241,36.17163],[139.67176,36.1722]]}},{"type":"Feature","properties":{"idx":47,"road":NaN,"cls":"tertiary","shops":0,"st_km":0.8,"mesh":"54392524"},"geometry":{"type":"LineString","coordinates":[[139.68411,36.18603],[139.68408,36.1859],[139.68414,36.18586],[139.68509,36.1857],[139.68692,36.18526]]}},{"type":"Feature","properties":{"idx":25,"road":"飯積向古河線","cls":"secondary","shops":0,"st_km":2.1,"mesh":"54392514"},"geometry":{"type":"LineString","coordinates":[[139.67811,36.17512],[139.67814,36.17523]]}},{"type":"Feature","properties":{"idx":6,"road":NaN,"cls":"tertiary","shops":0,"st_km":1.74,"mesh":"54392523"},"geometry":{"type":"LineString","coordinates":[[139.66694,36.18857],[139.66885,36.19163]]}},{"type":"Feature","properties":{"idx":55,"road":NaN,"cls":"tertiary","shops":0,"st_km":4.39,"mesh":"54392501"},"geometry":{"type":"LineString","coordinates":[[139.63678,36.17163],[139.63826,36.17131]]}},{"type":"Feature","properties":{"idx":54,"road":NaN,"cls":"tertiary","shops":0,"st_km":4.58,"mesh":"54392501"},"geometry":{"type":"LineString","coordinates":[[139.63772,36.16955],[139.63812,36.16929]]}},{"type":"Feature","properties":{"idx":68,"road":"羽生外野栗橋線","cls":"primary","shops":0,"st_km":3.89,"mesh":"54392511"},"geometry":{"type":"LineString","coordinates":[[139.6315,36.17768],[139.63277,36.17738],[139.63597,36.17698],[139.63889,36.17613],[139.63914,36.17604],[139.63947,36.17582],[139.63964,36.1756],[139.63979,36.1751],[139.63985,36.17352],[139.64008,36.17153],[139.63997,36.1711],[139.64017,36.17093],[139.6403,36.17048],[139.6405,36.17009],[139.6413,36.16905]]}},{"type":"Feature","properties":{"idx":55,"road":NaN,"cls":"tertiary","shops":0,"st_km":4.34,"mesh":"54392501"},"geometry":{"type":"LineString","coordinates":[[139.63994,36.17273],[139.63879,36.17264],[139.63866,36.17255],[139.63772,36.16955]]}},{"type":"Feature","properties":{"idx":54,"road":NaN,"cls":"tertiary","shops":0,"st_km":4.55,"mesh":"54392501"},"geometry":{"type":"LineString","coordinates":[[139.63997,36.1711],[139.63669,36.16789]]}},{"type":"Feature","properties":{"idx":15,"road":"国道354号旧道","cls":"tertiary","shops":0,"st_km":1.02,"mesh":"54392552"},"geometry":{"type":"LineString","coordinates":[[139.65094,36.21158],[139.65066,36.21247]]}},{"type":"Feature","properties":{"idx":26,"road":"佐野古河線","cls":"primary","shops":0,"st_km":1.26,"mesh":"54392544"},"geometry":{"type":"LineString","coordinates":[[139.67611,36.20095],[139.67803,36.20036]]}},{"type":"Feature","properties":{"idx":139,"road":"国道354号旧道","cls":"tertiary","shops":0,"st_km":0.84,"mesh":"54392543"},"geometry":{"type":"LineString","coordinates":[[139.65794,36.20451],[139.65831,36.20447],[139.66071,36.20456],[139.66271,36.20432],[139.66423,36.20442],[139.6648,36.20441],[139.66517,36.20431],[139.66823,36.2032],[139.671,36.20171],[139.67275,36.2014],[139.67392,36.2011],[139.67503,36.20089],[139.67609,36.20047],[139.67712,36.20035],[139.67772,36.20014],[139.67788,36.20016],[139.67803,36.20036]]}},{"type":"Feature","properties":{"idx":41,"road":"飯積向古河線","cls":"secondary","shops":0,"st_km":2.72,"mesh":"54392503"},"geometry":{"type":"LineString","coordinates":[[139.66169,36.17666],[139.66215,36.17653],[139.67176,36.1722]]}},{"type":"Feature","properties":{"idx":50,"road":"加須北川辺線","cls":"primary","shops":0,"st_km":1.28,"mesh":"54392533"},"geometry":{"type":"LineString","coordinates":[[139.67264,36.19453],[139.67309,36.19519],[139.67368,36.19624]]}},{"type":"Feature","properties":{"idx":221,"road":"飯積向古河線","cls":"secondary","shops":0,"st_km":2.78,"mesh":"54392530"},"geometry":{"type":"LineString","coordinates":[[139.63386,36.19121],[139.63335,36.19226],[139.6355,36.19296],[139.63556,36.1932],[139.63552,36.19375],[139.63557,36.19391]]}},{"type":"Feature","properties":{"idx":25,"road":"加須北川辺線","cls":"primary","shops":0,"st_km":1.33,"mesh":"54392544"},"geometry":{"type":"LineString","coordinates":[[139.67594,36.20059],[139.67611,36.20095]]}},{"type":"Feature","properties":{"idx":442,"road":"佐野古河線","cls":"primary","shops":0,"st_km":0.21,"mesh":"54392535"},"geometry":{"type":"LineString","coordinates":[[139.68926,36.19229],[139.68937,36.19232]]}},{"type":"Feature","properties":{"idx":42,"road":"飯積向古河線","cls":"secondary","shops":0,"st_km":2.59,"mesh":"54392503"},"geometry":{"type":"LineString","coordinates":[[139.67176,36.1722],[139.6732,36.17282]]}},{"type":"Feature","properties":{"idx":137,"road":"柳生停車場線","cls":"secondary","shops":0,"st_km":0.17,"mesh":"54392542"},"geometry":{"type":"LineString","coordinates":[[139.65794,36.20451],[139.65804,36.20463],[139.65834,36.20565],[139.65846,36.20591],[139.65878,36.20623],[139.65938,36.20657]]}},{"type":"Feature","properties":{"idx":29,"road":"佐野古河線","cls":"primary","shops":0,"st_km":1.08,"mesh":"54392544"},"geometry":{"type":"LineString","coordinates":[[139.67803,36.20036],[139.67872,36.2002],[139.68035,36.1997]]}},{"type":"Feature","properties":{"idx":103,"road":"佐野古河線","cls":"primary","shops":0,"st_km":0.92,"mesh":"54392534"},"geometry":{"type":"LineString","coordinates":[[139.68035,36.1997],[139.68092,36.19949],[139.68177,36.1991]]}},{"type":"Feature","properties":{"idx":99,"road":NaN,"cls":"tertiary","shops":0,"st_km":2.49,"mesh":"54392513"},"geometry":{"type":"LineString","coordinates":[[139.66345,36.1809],[139.66351,36.18098]]}},{"type":"Feature","properties":{"idx":5,"road":NaN,"cls":"tertiary","shops":0,"st_km":1.89,"mesh":"54392523"},"geometry":{"type":"LineString","coordinates":[[139.66354,36.18101],[139.66611,36.18383],[139.66661,36.18436],[139.6673,36.18496],[139.66764,36.18534],[139.66786,36.18566],[139.67071,36.19117]]}},{"type":"Feature","properties":{"idx":117,"road":NaN,"cls":"tertiary","shops":0,"st_km":0.21,"mesh":"54392542"},"geometry":{"type":"LineString","coordinates":[[139.66125,36.20551],[139.6612,36.20452]]}},{"type":"Feature","properties":{"idx":43,"road":"加須北川辺線","cls":"primary","shops":0,"st_km":1.52,"mesh":"54392533"},"geometry":{"type":"LineString","coordinates":[[139.66023,36.19141],[139.66091,36.19203],[139.66158,36.19245],[139.6644,36.19356],[139.66492,36.19371],[139.66553,36.19381],[139.66622,36.19381],[139.66685,36.19374],[139.66896,36.1933],[139.67007,36.19324],[139.67065,36.19333],[139.67132,36.19354],[139.67163,36.19369],[139.67223,36.19411]]}},{"type":"Feature","properties":{"idx":72,"road":"加須北川辺線","cls":"primary","shops":0,"st_km":2.93,"mesh":"54392512"},"geometry":{"type":"LineString","coordinates":[[139.65079,36.18076],[139.65139,36.1816]]}},{"type":"Feature","properties":{"idx":232,"road":"加須北川辺線","cls":"primary","shops":0,"st_km":4.91,"mesh":"54392500"},"geometry":{"type":"LineString","coordinates":[[139.6413,36.16905],[139.63927,36.16844],[139.63776,36.16807],[139.62858,36.16658],[139.62791,36.16635],[139.6275,36.16607]]}},{"type":"Feature","properties":{"idx":73,"road":"加須北川辺線","cls":"primary","shops":0,"st_km":2.83,"mesh":"54392512"},"geometry":{"type":"LineString","coordinates":[[139.65139,36.1816],[139.65194,36.18229]]}},{"type":"Feature","properties":{"idx":301,"road":"麦倉川俣停車場線","cls":"secondary","shops":0,"st_km":1.98,"mesh":"54392531"},"geometry":{"type":"LineString","coordinates":[[139.65077,36.19529],[139.65038,36.19506],[139.64924,36.19456],[139.64763,36.19411],[139.64718,36.19404],[139.64479,36.19427],[139.64443,36.19439],[139.64336,36.19486],[139.643,36.19492],[139.63852,36.19465],[139.63707,36.19442],[139.63595,36.19397],[139.63557,36.19391]]}},{"type":"Feature","properties":{"idx":17,"road":"国道354号旧道","cls":"tertiary","shops":0,"st_km":0.87,"mesh":"54392552"},"geometry":{"type":"LineString","coordinates":[[139.65047,36.21036],[139.65047,36.21003],[139.65078,36.2087],[139.65111,36.2084],[139.65226,36.208]]}},{"type":"Feature","properties":{"idx":56,"road":"羽生外野栗橋線","cls":"primary","shops":0,"st_km":4.13,"mesh":"54392510"},"geometry":{"type":"LineString","coordinates":[[139.62642,36.18026],[139.62719,36.18015],[139.62863,36.17962],[139.62917,36.17956],[139.63,36.17956]]}},{"type":"Feature","properties":{"idx":45,"road":"羽生外野栗橋線旧道","cls":"tertiary","shops":0,"st_km":4.17,"mesh":"54392510"},"geometry":{"type":"LineString","coordinates":[[139.6315,36.17768],[139.63142,36.17712],[139.63147,36.17632]]}},{"type":"Feature","properties":{"idx":102,"road":"加須北川辺線","cls":"primary","shops":1,"st_km":4.38,"mesh":"54392501"},"geometry":{"type":"LineString","coordinates":[[139.64429,36.17065],[139.64373,36.17008],[139.64297,36.1696],[139.64247,36.1694],[139.6413,36.16905]]}},{"type":"Feature","properties":{"idx":172,"road":"加須北川辺線","cls":"primary","shops":3,"st_km":4.19,"mesh":"54392501"},"geometry":{"type":"LineString","coordinates":[[139.64472,36.17131],[139.64429,36.17065]]}},{"type":"Feature","properties":{"idx":172,"road":"加須北川辺線","cls":"primary","shops":0,"st_km":2.05,"mesh":"54392522"},"geometry":{"type":"LineString","coordinates":[[139.65454,36.18514],[139.66023,36.19141]]}},{"type":"Feature","properties":{"idx":157,"road":NaN,"cls":"tertiary","shops":0,"st_km":1.72,"mesh":"54392522"},"geometry":{"type":"LineString","coordinates":[[139.66182,36.19074],[139.66023,36.19141]]}},{"type":"Feature","properties":{"idx":51,"road":"加須北川辺線","cls":"primary","shops":0,"st_km":1.25,"mesh":"54392533"},"geometry":{"type":"LineString","coordinates":[[139.67368,36.19624],[139.67486,36.19838]]}},{"type":"Feature","properties":{"idx":78,"road":"柳生停車場線","cls":"secondary","shops":0,"st_km":0.79,"mesh":"54392542"},"geometry":{"type":"LineString","coordinates":[[139.65354,36.1988],[139.65633,36.20264]]}},{"type":"Feature","properties":{"idx":38,"road":NaN,"cls":"tertiary","shops":0,"st_km":1.36,"mesh":"54392533"},"geometry":{"type":"LineString","coordinates":[[139.67134,36.19225],[139.67233,36.19388],[139.67232,36.19403],[139.67223,36.19411]]}},{"type":"Feature","properties":{"idx":52,"road":NaN,"cls":"tertiary","shops":0,"st_km":0.68,"mesh":"54392524"},"geometry":{"type":"LineString","coordinates":[[139.67549,36.19004],[139.6849,36.19014]]}},{"type":"Feature","properties":{"idx":49,"road":"加須北川辺線","cls":"primary","shops":0,"st_km":1.32,"mesh":"54392533"},"geometry":{"type":"LineString","coordinates":[[139.67223,36.19411],[139.67264,36.19453]]}},{"type":"Feature","properties":{"idx":75,"road":NaN,"cls":"tertiary","shops":0,"st_km":0.28,"mesh":"54392524"},"geometry":{"type":"LineString","coordinates":[[139.6849,36.19014],[139.68761,36.19018],[139.68869,36.19011],[139.68968,36.1903]]}},{"type":"Feature","properties":{"idx":81,"road":NaN,"cls":"tertiary","shops":0,"st_km":0.21,"mesh":"54392524"},"geometry":{"type":"LineString","coordinates":[[139.6849,36.19014],[139.68643,36.19224]]}},{"type":"Feature","properties":{"idx":124,"road":"佐野古河線","cls":"primary","shops":0,"st_km":1.32,"mesh":"54392543"},"geometry":{"type":"LineString","coordinates":[[139.67143,36.20387],[139.67274,36.20288],[139.6737,36.20222],[139.67449,36.20183],[139.67555,36.2012],[139.67611,36.20095]]}},{"type":"Feature","properties":{"idx":148,"road":"佐野古河線","cls":"primary","shops":0,"st_km":1.05,"mesh":"54392543"},"geometry":{"type":"LineString","coordinates":[[139.67107,36.20415],[139.67143,36.20387]]}},{"type":"Feature","properties":{"idx":172,"road":"佐野古河線","cls":"primary","shops":0,"st_km":0.86,"mesh":"54392543"},"geometry":{"type":"LineString","coordinates":[[139.66766,36.20673],[139.67107,36.20415]]}},{"type":"Feature","properties":{"idx":39,"road":NaN,"cls":"tertiary","shops":0,"st_km":1.07,"mesh":"54392524"},"geometry":{"type":"LineString","coordinates":[[139.68081,36.1845],[139.68084,36.18453]]}},{"type":"Feature","properties":{"idx":34,"road":NaN,"cls":"tertiary","shops":0,"st_km":1.26,"mesh":"54392524"},"geometry":{"type":"LineString","coordinates":[[139.68135,36.18218],[139.68,36.18277],[139.67872,36.18354],[139.67609,36.18467]]}},{"type":"Feature","properties":{"idx":32,"road":NaN,"cls":"tertiary","shops":0,"st_km":1.33,"mesh":"54392524"},"geometry":{"type":"LineString","coordinates":[[139.67609,36.18467],[139.67596,36.18472]]}},{"type":"Feature","properties":{"idx":25,"road":"佐野古河線","cls":"primary","shops":0,"st_km":0.67,"mesh":"54392552"},"geometry":{"type":"LineString","coordinates":[[139.66072,36.21344],[139.66156,36.21252],[139.66244,36.21165]]}},{"type":"Feature","properties":{"idx":16,"road":"国道354号旧道","cls":"tertiary","shops":0,"st_km":0.94,"mesh":"54392552"},"geometry":{"type":"LineString","coordinates":[[139.65094,36.21158],[139.65104,36.21116],[139.65099,36.21088],[139.65087,36.21069],[139.65047,36.21036]]}},{"type":"Feature","properties":{"idx":57,"road":"羽生外野栗橋線","cls":"primary","shops":0,"st_km":4.03,"mesh":"54392510"},"geometry":{"type":"LineString","coordinates":[[139.63011,36.17956],[139.63073,36.17956],[139.63083,36.17949],[139.63141,36.17807],[139.6315,36.17768]]}},{"type":"Feature","properties":{"idx":57,"road":"羽生外野栗橋線","cls":"primary","shops":0,"st_km":4.03,"mesh":"54392510"},"geometry":{"type":"LineString","coordinates":[[139.63,36.17956],[139.63011,36.17956]]}},{"type":"Feature","properties":{"idx":394,"road":"佐野古河線","cls":"primary","shops":0,"st_km":0.33,"mesh":"54392535"},"geometry":{"type":"LineString","coordinates":[[139.68937,36.19232],[139.69196,36.19281]]}},{"type":"Feature","properties":{"idx":66,"road":"佐野古河線","cls":"primary","shops":1,"st_km":0.58,"mesh":"54392553"},"geometry":{"type":"LineString","coordinates":[[139.66244,36.21165],[139.66327,36.21079]]}},{"type":"Feature","properties":{"idx":23,"road":"佐野古河線","cls":"primary","shops":0,"st_km":0.81,"mesh":"54392552"},"geometry":{"type":"LineString","coordinates":[[139.66008,36.21426],[139.66072,36.21344]]}},{"type":"Feature","properties":{"idx":153,"road":NaN,"cls":"tertiary","shops":0,"st_km":1.78,"mesh":"54392522"},"geometry":{"type":"LineString","coordinates":[[139.66226,36.19056],[139.66182,36.19074]]}},{"type":"Feature","properties":{"idx":98,"road":"国道354号旧道","cls":"tertiary","shops":0,"st_km":0.39,"mesh":"54392542"},"geometry":{"type":"LineString","coordinates":[[139.65226,36.208],[139.65517,36.20706],[139.65553,36.20687],[139.65597,36.20646],[139.65678,36.20555],[139.65794,36.20451]]}},{"type":"Feature","properties":{"idx":108,"road":"柳生停車場線","cls":"secondary","shops":0,"st_km":0.42,"mesh":"54392542"},"geometry":{"type":"LineString","coordinates":[[139.65633,36.20264],[139.65728,36.20392],[139.65794,36.20451]]}},{"type":"Feature","properties":{"idx":25,"road":"飯積向古河線","cls":"secondary","shops":0,"st_km":2.08,"mesh":"54392514"},"geometry":{"type":"LineString","coordinates":[[139.67814,36.17523],[139.67818,36.17546]]}},{"type":"Feature","properties":{"idx":584,"road":"飯積向古河線","cls":"secondary","shops":0,"st_km":0.28,"mesh":"54392525"},"geometry":{"type":"LineString","coordinates":[[139.68926,36.19229],[139.68951,36.19157],[139.68968,36.1903]]}},{"type":"Feature","properties":{"idx":58,"road":NaN,"cls":"tertiary","shops":0,"st_km":2.8,"mesh":"54392512"},"geometry":{"type":"LineString","coordinates":[[139.65213,36.18211],[139.6521,36.18218],[139.65194,36.18229]]}},{"type":"Feature","properties":{"idx":5,"road":NaN,"cls":"tertiary","shops":0,"st_km":1.93,"mesh":"54392523"},"geometry":{"type":"LineString","coordinates":[[139.66694,36.18857],[139.66226,36.19056]]}},{"type":"Feature","properties":{"idx":6,"road":NaN,"cls":"tertiary","shops":0,"st_km":1.56,"mesh":"54392523"},"geometry":{"type":"LineString","coordinates":[[139.66885,36.19163],[139.67071,36.19117]]}},{"type":"Feature","properties":{"idx":223,"road":"麦倉川俣停車場線","cls":"secondary","shops":0,"st_km":2.74,"mesh":"54392530"},"geometry":{"type":"LineString","coordinates":[[139.63557,36.19391],[139.63526,36.19398],[139.63121,36.19588],[139.63052,36.19599]]}},{"type":"Feature","properties":{"idx":99,"road":NaN,"cls":"tertiary","shops":0,"st_km":2.48,"mesh":"54392513"},"geometry":{"type":"LineString","coordinates":[[139.66351,36.18098],[139.66354,36.18101]]}},{"type":"Feature","properties":{"idx":43,"road":"飯積向古河線","cls":"secondary","shops":0,"st_km":2.52,"mesh":"54392503"},"geometry":{"type":"LineString","coordinates":[[139.67333,36.17288],[139.67335,36.17289]]}},{"type":"Feature","properties":{"idx":14,"road":NaN,"cls":"tertiary_link","shops":0,"st_km":2.05,"mesh":"54392514"},"geometry":{"type":"LineString","coordinates":[[139.67816,36.1757],[139.67821,36.17566],[139.67831,36.17568]]}},{"type":"Feature","properties":{"idx":48,"road":"飯積向古河線","cls":"secondary","shops":0,"st_km":0.93,"mesh":"54392524"},"geometry":{"type":"LineString","coordinates":[[139.68925,36.18568],[139.68858,36.18552],[139.68753,36.18559],[139.68692,36.18526],[139.6847,36.1839],[139.68318,36.18323],[139.68203,36.18266]]}},{"type":"Feature","properties":{"idx":148,"road":"加須北川辺線","cls":"primary","shops":0,"st_km":2.61,"mesh":"54392522"},"geometry":{"type":"LineString","coordinates":[[139.65194,36.18229],[139.6545,36.18509]]}},{"type":"Feature","properties":{"idx":154,"road":"加須北川辺線","cls":"primary","shops":0,"st_km":2.43,"mesh":"54392522"},"geometry":{"type":"LineString","coordinates":[[139.6545,36.18509],[139.65454,36.18514]]}},{"type":"Feature","properties":{"idx":98,"road":NaN,"cls":"tertiary","shops":0,"st_km":1.82,"mesh":"54392532"},"geometry":{"type":"LineString","coordinates":[[139.65028,36.19214],[139.65022,36.19218]]}},{"type":"Feature","properties":{"idx":98,"road":NaN,"cls":"tertiary","shops":0,"st_km":1.82,"mesh":"54392532"},"geometry":{"type":"LineString","coordinates":[[139.65033,36.19212],[139.65028,36.19214]]}},{"type":"Feature","properties":{"idx":7,"road":NaN,"cls":"tertiary","shops":0,"st_km":1.25,"mesh":"54392523"},"geometry":{"type":"LineString","coordinates":[[139.6732,36.19139],[139.67316,36.19132]]}},{"type":"Feature","properties":{"idx":7,"road":NaN,"cls":"tertiary","shops":0,"st_km":1.25,"mesh":"54392523"},"geometry":{"type":"LineString","coordinates":[[139.67322,36.19142],[139.6732,36.19139]]}},{"type":"Feature","properties":{"idx":36,"road":NaN,"cls":"tertiary","shops":0,"st_km":1.45,"mesh":"54392533"},"geometry":{"type":"LineString","coordinates":[[139.67071,36.19117],[139.6713,36.1922]]}},{"type":"Feature","properties":{"idx":37,"road":NaN,"cls":"tertiary","shops":0,"st_km":1.41,"mesh":"54392533"},"geometry":{"type":"LineString","coordinates":[[139.6713,36.1922],[139.67134,36.19225]]}},{"type":"Feature","properties":{"idx":7,"road":NaN,"cls":"tertiary","shops":0,"st_km":1.29,"mesh":"54392523"},"geometry":{"type":"LineString","coordinates":[[139.67071,36.19117],[139.67407,36.19025],[139.67481,36.19007],[139.67518,36.19004]]}},{"type":"Feature","properties":{"idx":38,"road":NaN,"cls":"tertiary","shops":0,"st_km":1.1,"mesh":"54392524"},"geometry":{"type":"LineString","coordinates":[[139.67518,36.19004],[139.67528,36.19004]]}},{"type":"Feature","properties":{"idx":38,"road":NaN,"cls":"tertiary","shops":0,"st_km":1.08,"mesh":"54392524"},"geometry":{"type":"LineString","coordinates":[[139.67534,36.19004],[139.67549,36.19004]]}},{"type":"Feature","properties":{"idx":38,"road":NaN,"cls":"tertiary","shops":0,"st_km":1.09,"mesh":"54392524"},"geometry":{"type":"LineString","coordinates":[[139.67528,36.19004],[139.67534,36.19004]]}}]}