{"type":"FeatureCollection","features":[{"type":"Feature","properties":{"idx":85,"road":"長瀞玉淀自然公園線","cls":"primary","shops":0,"st_km":0.72,"mesh":"54391152"},"geometry":{"type":"LineString","coordinates":[[139.14114,36.12909],[139.14185,36.12844],[139.14222,36.12827],[139.14546,36.12791],[139.14623,36.12755],[139.14654,36.1275],[139.14667,36.12752],[139.14692,36.12767],[139.14725,36.12813],[139.14743,36.12828],[139.14819,36.12865],[139.1493,36.12907],[139.15129,36.12937],[139.15182,36.12951],[139.15228,36.12975],[139.15329,36.13065],[139.15364,36.13077],[139.15387,36.13075],[139.15408,36.13065],[139.15425,36.13041],[139.15447,36.1294],[139.15447,36.12915],[139.15428,36.12864],[139.15424,36.12834],[139.15429,36.12814],[139.15466,36.12761],[139.15474,36.12737],[139.15474,36.12636],[139.15463,36.12588],[139.15552,36.12581]]}},{"type":"Feature","properties":{"idx":133,"road":"長瀞玉淀自然公園線","cls":"primary","shops":0,"st_km":0.21,"mesh":"54391152"},"geometry":{"type":"LineString","coordinates":[[139.15552,36.12581],[139.15696,36.1257]]}},{"type":"Feature","properties":{"idx":141,"road":"長瀞玉淀自然公園線","cls":"primary","shops":0,"st_km":0.14,"mesh":"54391152"},"geometry":{"type":"LineString","coordinates":[[139.15696,36.1257],[139.15772,36.12563]]}},{"type":"Feature","properties":{"idx":109,"road":NaN,"cls":"tertiary","shops":0,"st_km":0.19,"mesh":"54391135"},"geometry":{"type":"LineString","coordinates":[[139.19793,36.11714],[139.19813,36.11666],[139.19954,36.11464],[139.19965,36.11458],[139.19978,36.11461]]}},{"type":"Feature","properties":{"idx":115,"road":"飯能寄居線","cls":"primary","shops":0,"st_km":0.5,"mesh":"54391135"},"geometry":{"type":"LineString","coordinates":[[139.19524,36.11495],[139.1956,36.1137],[139.19579,36.11324],[139.19608,36.1128],[139.19676,36.11208]]}},{"type":"Feature","properties":{"idx":183,"road":"坂本寄居線","cls":"secondary","shops":0,"st_km":0.74,"mesh":"54391136"},"geometry":{"type":"LineString","coordinates":[[139.19951,36.10933],[139.20028,36.11056],[139.20038,36.11079],[139.20042,36.1112]]}},{"type":"Feature","properties":{"idx":450,"road":"飯能寄居線","cls":"primary","shops":1,"st_km":0.33,"mesh":"54391136"},"geometry":{"type":"LineString","coordinates":[[139.21499,36.10903],[139.21445,36.1096],[139.21427,36.10986],[139.21418,36.11007],[139.21398,36.11095],[139.21384,36.11126],[139.2128,36.11248],[139.21182,36.1131],[139.2114,36.1132],[139.20969,36.11321],[139.20675,36.11255]]}},{"type":"Feature","properties":{"idx":26,"road":NaN,"cls":"tertiary","shops":0,"st_km":1.21,"mesh":"54391129"},"geometry":{"type":"LineString","coordinates":[[139.24843,36.10852],[139.24841,36.10778],[139.24812,36.10662],[139.24803,36.10644],[139.24714,36.10527],[139.24537,36.10344],[139.24511,36.10324],[139.24374,36.10285],[139.24356,36.10264]]}},{"type":"Feature","properties":{"idx":149,"road":"熊谷寄居線","cls":"primary","shops":0,"st_km":0.8,"mesh":"54391138"},"geometry":{"type":"LineString","coordinates":[[139.22109,36.10845],[139.22132,36.1097],[139.22161,36.11008],[139.22208,36.11034],[139.22275,36.11043],[139.22612,36.11065],[139.22829,36.11057],[139.22874,36.11066],[139.23031,36.11115],[139.23194,36.11145]]}},{"type":"Feature","properties":{"idx":597,"road":"菅谷寄居線","cls":"secondary","shops":1,"st_km":1.15,"mesh":"54391149"},"geometry":{"type":"LineString","coordinates":[[139.2384,36.12621],[139.24045,36.1222],[139.24172,36.12008],[139.24196,36.11945]]}},{"type":"Feature","properties":{"idx":164,"road":NaN,"cls":"tertiary","shops":0,"st_km":0.32,"mesh":"54391145"},"geometry":{"type":"LineString","coordinates":[[139.20051,36.11926],[139.19911,36.11939],[139.19708,36.11976],[139.19659,36.11981]]}},{"type":"Feature","properties":{"idx":6,"road":"広木折原線","cls":"secondary","shops":0,"st_km":1.97,"mesh":"54391133"},"geometry":{"type":"LineString","coordinates":[[139.17017,36.11317],[139.17052,36.11324],[139.17109,36.11344],[139.17133,36.11346],[139.17168,36.11337],[139.17217,36.11303],[139.17239,36.11293],[139.17256,36.11288],[139.17295,36.11289],[139.17341,36.11309],[139.17355,36.11323],[139.17366,36.11343],[139.17371,36.11382],[139.17362,36.11427]]}},{"type":"Feature","properties":{"idx":116,"road":"岩田樋口停車場線","cls":"secondary","shops":0,"st_km":0.42,"mesh":"54391150"},"geometry":{"type":"LineString","coordinates":[[139.12727,36.13351],[139.12729,36.13334],[139.12723,36.13327],[139.12672,36.13311],[139.12604,36.13279],[139.12597,36.13272],[139.12599,36.13259]]}},{"type":"Feature","properties":{"idx":55,"road":"寄居岡部深谷線","cls":"secondary","shops":0,"st_km":0.3,"mesh":"54391186"},"geometry":{"type":"LineString","coordinates":[[139.19848,36.14179],[139.20086,36.14369],[139.20114,36.144],[139.20135,36.1444],[139.20143,36.14502],[139.2011,36.14617],[139.20104,36.14664],[139.20136,36.14773],[139.2013,36.14961],[139.20134,36.1498],[139.20149,36.15017],[139.20174,36.15046],[139.20267,36.15118],[139.20284,36.15138],[139.20287,36.15187],[139.20327,36.15288],[139.20334,36.15326],[139.20333,36.15371],[139.20309,36.15492],[139.20313,36.15547],[139.20464,36.16112],[139.20482,36.1615],[139.20527,36.16219],[139.20548,36.1629]]}},{"type":"Feature","properties":{"idx":103,"road":NaN,"cls":"tertiary","shops":0,"st_km":1.17,"mesh":"54391196"},"geometry":{"type":"LineString","coordinates":[[139.2161,36.15579],[139.21557,36.15631],[139.21536,36.15644],[139.21519,36.15668],[139.2138,36.15797],[139.21158,36.15974],[139.20953,36.16116],[139.20741,36.16249],[139.20588,36.16336]]}},{"type":"Feature","properties":{"idx":99,"road":NaN,"cls":"tertiary","shops":0,"st_km":1.27,"mesh":"54391196"},"geometry":{"type":"LineString","coordinates":[[139.20632,36.16535],[139.20635,36.16523],[139.20618,36.16489],[139.20588,36.16336]]}},{"type":"Feature","properties":{"idx":46,"road":"赤浜小川線","cls":"secondary","shops":0,"st_km":0.63,"mesh":"54391129"},"geometry":{"type":"LineString","coordinates":[[139.2419,36.11184],[139.2419,36.11123],[139.24186,36.11111],[139.24173,36.11089],[139.24085,36.10995],[139.24085,36.10978],[139.241,36.10925],[139.24099,36.10917],[139.24047,36.10851],[139.24039,36.10822],[139.24049,36.10787],[139.24094,36.10722],[139.24114,36.10622],[139.24125,36.10596],[139.24133,36.10523],[139.24134,36.10491],[139.24069,36.10375],[139.24055,36.10315],[139.24052,36.10284],[139.24059,36.1026],[139.24068,36.10245],[139.24087,36.10229]]}},{"type":"Feature","properties":{"idx":122,"road":NaN,"cls":"tertiary","shops":0,"st_km":0.17,"mesh":"54391128"},"geometry":{"type":"LineString","coordinates":[[139.23002,36.1071],[139.23122,36.10761],[139.23257,36.10796],[139.2333,36.10825],[139.23344,36.10838],[139.23348,36.10891],[139.2336,36.10898]]}},{"type":"Feature","properties":{"idx":33,"road":"花植木街道（北線）","cls":"tertiary","shops":0,"st_km":1.32,"mesh":"54391177"},"geometry":{"type":"LineString","coordinates":[[139.2161,36.15497],[139.21588,36.15419],[139.21559,36.15354],[139.21374,36.14853],[139.21361,36.14802],[139.21354,36.14709],[139.21337,36.14677],[139.21244,36.14578],[139.21141,36.14511],[139.21058,36.14459],[139.20891,36.14391]]}},{"type":"Feature","properties":{"idx":17,"road":"花植木街道（北線）","cls":"tertiary","shops":0,"st_km":1.4,"mesh":"54391187"},"geometry":{"type":"LineString","coordinates":[[139.2161,36.1556],[139.2161,36.15497]]}},{"type":"Feature","properties":{"idx":106,"road":"寄居岡部深谷線","cls":"secondary","shops":0,"st_km":1.39,"mesh":"54391196"},"geometry":{"type":"LineString","coordinates":[[139.20566,36.16352],[139.20605,36.16491],[139.20667,36.16582],[139.20722,36.16651],[139.20738,36.16664],[139.2075,36.16672],[139.20777,36.16676],[139.20813,36.1667]]}},{"type":"Feature","properties":{"idx":172,"road":NaN,"cls":"tertiary","shops":0,"st_km":3.58,"mesh":"54391199"},"geometry":{"type":"LineString","coordinates":[[139.24296,36.16699],[139.24366,36.16653],[139.24428,36.16653],[139.24515,36.16608],[139.2482,36.1638]]}},{"type":"Feature","properties":{"idx":65,"road":NaN,"cls":"tertiary","shops":0,"st_km":2.04,"mesh":"54391197"},"geometry":{"type":"LineString","coordinates":[[139.21726,36.16472],[139.21979,36.16413],[139.2213,36.1632]]}},{"type":"Feature","properties":{"idx":218,"road":"深谷寄居線","cls":"primary","shops":0,"st_km":3.42,"mesh":"54391199"},"geometry":{"type":"LineString","coordinates":[[139.24992,36.16517],[139.25004,36.16528]]}},{"type":"Feature","properties":{"idx":89,"road":"深谷寄居線","cls":"primary","shops":0,"st_km":1.55,"mesh":"54391178"},"geometry":{"type":"LineString","coordinates":[[139.22538,36.14124],[139.22604,36.1418],[139.22675,36.14253],[139.22762,36.144]]}},{"type":"Feature","properties":{"idx":53,"road":NaN,"cls":"tertiary","shops":0,"st_km":2.33,"mesh":"54391178"},"geometry":{"type":"LineString","coordinates":[[139.2309,36.14893],[139.23138,36.14852]]}},{"type":"Feature","properties":{"idx":416,"road":NaN,"cls":"tertiary","shops":0,"st_km":2.36,"mesh":"54391189"},"geometry":{"type":"LineString","coordinates":[[139.24867,36.15656],[139.24825,36.15622],[139.24609,36.15422],[139.24382,36.15207],[139.2432,36.15138],[139.24204,36.15064],[139.24105,36.14982]]}},{"type":"Feature","properties":{"idx":59,"road":NaN,"cls":"tertiary","shops":0,"st_km":1.12,"mesh":"54391169"},"geometry":{"type":"LineString","coordinates":[[139.24101,36.13919],[139.24096,36.13858]]}},{"type":"Feature","properties":{"idx":189,"road":NaN,"cls":"tertiary","shops":0,"st_km":2.15,"mesh":"54391179"},"geometry":{"type":"LineString","coordinates":[[139.24105,36.14982],[139.23868,36.14788]]}},{"type":"Feature","properties":{"idx":215,"road":NaN,"cls":"tertiary","shops":0,"st_km":1.78,"mesh":"54391179"},"geometry":{"type":"LineString","coordinates":[[139.23653,36.14376],[139.23755,36.14413],[139.2388,36.14477],[139.23927,36.14509],[139.24025,36.14552]]}},{"type":"Feature","properties":{"idx":61,"road":NaN,"cls":"tertiary","shops":0,"st_km":1.8,"mesh":"54391178"},"geometry":{"type":"LineString","coordinates":[[139.23572,36.14328],[139.23634,36.14369],[139.23653,36.14376]]}},{"type":"Feature","properties":{"idx":233,"road":NaN,"cls":"tertiary","shops":0,"st_km":1.59,"mesh":"54391179"},"geometry":{"type":"LineString","coordinates":[[139.23868,36.14788],[139.24045,36.1452],[139.24128,36.14232],[139.24134,36.14208],[139.24136,36.14156],[139.24105,36.13976],[139.24101,36.13919]]}},{"type":"Feature","properties":{"idx":202,"road":NaN,"cls":"tertiary","shops":0,"st_km":2.43,"mesh":"54391188"},"geometry":{"type":"LineString","coordinates":[[139.23868,36.14788],[139.23604,36.15087],[139.23581,36.15142],[139.23533,36.15317]]}},{"type":"Feature","properties":{"idx":112,"road":NaN,"cls":"tertiary","shops":0,"st_km":1.3,"mesh":"54391167"},"geometry":{"type":"LineString","coordinates":[[139.2243,36.14037],[139.22516,36.14063]]}},{"type":"Feature","properties":{"idx":158,"road":"深谷寄居線","cls":"primary","shops":0,"st_km":1.12,"mesh":"54391167"},"geometry":{"type":"LineString","coordinates":[[139.2251,36.14101],[139.22272,36.13914],[139.22108,36.13822],[139.22025,36.13753],[139.21973,36.13719]]}},{"type":"Feature","properties":{"idx":67,"road":NaN,"cls":"tertiary","shops":0,"st_km":1.7,"mesh":"54391178"},"geometry":{"type":"LineString","coordinates":[[139.22823,36.14142],[139.23005,36.14165],[139.23246,36.14212],[139.2344,36.14274],[139.23513,36.14293],[139.23572,36.14328]]}},{"type":"Feature","properties":{"idx":34,"road":NaN,"cls":"tertiary","shops":0,"st_km":1.42,"mesh":"54391168"},"geometry":{"type":"LineString","coordinates":[[139.22583,36.14084],[139.22727,36.14129],[139.22823,36.14142]]}},{"type":"Feature","properties":{"idx":36,"road":NaN,"cls":"tertiary","shops":0,"st_km":1.33,"mesh":"54391168"},"geometry":{"type":"LineString","coordinates":[[139.22516,36.14063],[139.22538,36.1407]]}},{"type":"Feature","properties":{"idx":36,"road":NaN,"cls":"tertiary","shops":0,"st_km":1.64,"mesh":"54391177"},"geometry":{"type":"LineString","coordinates":[[139.22357,36.14359],[139.22394,36.14372]]}},{"type":"Feature","properties":{"idx":60,"road":"花植木街道（南線）","cls":"tertiary","shops":0,"st_km":1.09,"mesh":"54391169"},"geometry":{"type":"LineString","coordinates":[[139.22959,36.13631],[139.23511,36.13816],[139.24286,36.1395],[139.24905,36.14109],[139.24939,36.14121],[139.25304,36.14283],[139.25732,36.14638],[139.25828,36.14712],[139.25979,36.1482]]}},{"type":"Feature","properties":{"idx":157,"road":NaN,"cls":"tertiary","shops":1,"st_km":0.38,"mesh":"54391169"},"geometry":{"type":"LineString","coordinates":[[139.24559,36.13467],[139.24617,36.13237]]}},{"type":"Feature","properties":{"idx":96,"road":NaN,"cls":"tertiary","shops":0,"st_km":0.49,"mesh":"54391169"},"geometry":{"type":"LineString","coordinates":[[139.24449,36.1345],[139.24898,36.1352],[139.25091,36.13539],[139.25219,36.13544]]}},{"type":"Feature","properties":{"idx":92,"road":NaN,"cls":"tertiary","shops":0,"st_km":0.54,"mesh":"54391169"},"geometry":{"type":"LineString","coordinates":[[139.24553,36.13525],[139.24559,36.13467]]}},{"type":"Feature","properties":{"idx":40,"road":"花園本庄線","cls":"primary","shops":0,"st_km":1.47,"mesh":"54391168"},"geometry":{"type":"LineString","coordinates":[[139.23743,36.13081],[139.23749,36.13123],[139.23757,36.13773],[139.23749,36.13857],[139.23684,36.14104],[139.23662,36.14166],[139.23616,36.14259],[139.23572,36.14328],[139.23247,36.14738],[139.23197,36.14795],[139.23138,36.14852]]}},{"type":"Feature","properties":{"idx":104,"road":NaN,"cls":"tertiary","shops":1,"st_km":0.25,"mesh":"54391159"},"geometry":{"type":"LineString","coordinates":[[139.24617,36.13237],[139.24626,36.13176]]}},{"type":"Feature","properties":{"idx":155,"road":NaN,"cls":"tertiary","shops":0,"st_km":1.12,"mesh":"54391158"},"geometry":{"type":"LineString","coordinates":[[139.23597,36.13173],[139.23604,36.13181]]}},{"type":"Feature","properties":{"idx":73,"road":NaN,"cls":"tertiary","shops":0,"st_km":0.2,"mesh":"54391159"},"geometry":{"type":"LineString","coordinates":[[139.24626,36.13176],[139.24636,36.13102]]}},{"type":"Feature","properties":{"idx":68,"road":NaN,"cls":"tertiary","shops":0,"st_km":0.9,"mesh":"54391169"},"geometry":{"type":"LineString","coordinates":[[139.24449,36.1345],[139.24089,36.13417],[139.23384,36.13312]]}},{"type":"Feature","properties":{"idx":43,"road":NaN,"cls":"tertiary","shops":0,"st_km":1.06,"mesh":"54391168"},"geometry":{"type":"LineString","coordinates":[[139.23203,36.13448],[139.23191,36.13444]]}},{"type":"Feature","properties":{"idx":209,"road":"花園本庄線","cls":"primary","shops":0,"st_km":1.0,"mesh":"54391158"},"geometry":{"type":"LineString","coordinates":[[139.23736,36.13045],[139.23727,36.12977],[139.23735,36.12942]]}},{"type":"Feature","properties":{"idx":211,"road":"花園本庄線","cls":"primary","shops":0,"st_km":0.99,"mesh":"54391158"},"geometry":{"type":"LineString","coordinates":[[139.23736,36.13045],[139.23743,36.13081]]}},{"type":"Feature","properties":{"idx":62,"road":NaN,"cls":"tertiary","shops":0,"st_km":0.37,"mesh":"54391159"},"geometry":{"type":"LineString","coordinates":[[139.24644,36.12816],[139.24681,36.12789],[139.24733,36.12765],[139.24934,36.12703],[139.24991,36.12649]]}},{"type":"Feature","properties":{"idx":152,"road":NaN,"cls":"tertiary","shops":0,"st_km":1.15,"mesh":"54391158"},"geometry":{"type":"LineString","coordinates":[[139.23557,36.13128],[139.23565,36.13136]]}},{"type":"Feature","properties":{"idx":47,"road":NaN,"cls":"tertiary","shops":0,"st_km":0.69,"mesh":"54391159"},"geometry":{"type":"LineString","coordinates":[[139.24099,36.12938],[139.24053,36.13044],[139.24045,36.13072]]}},{"type":"Feature","properties":{"idx":75,"road":NaN,"cls":"tertiary","shops":0,"st_km":0.16,"mesh":"54391159"},"geometry":{"type":"LineString","coordinates":[[139.24636,36.13102],[139.2465,36.1307],[139.2467,36.13057],[139.247,36.13054]]}},{"type":"Feature","properties":{"idx":153,"road":NaN,"cls":"tertiary","shops":0,"st_km":1.13,"mesh":"54391158"},"geometry":{"type":"LineString","coordinates":[[139.23565,36.13136],[139.23597,36.13173]]}},{"type":"Feature","properties":{"idx":40,"road":NaN,"cls":"tertiary","shops":0,"st_km":1.16,"mesh":"54391168"},"geometry":{"type":"LineString","coordinates":[[139.2402,36.12937],[139.2399,36.12964],[139.23575,36.13197],[139.23387,36.13318],[139.23203,36.13448],[139.23057,36.13563],[139.22974,36.13636],[139.22747,36.13869],[139.22626,36.14023],[139.2255,36.14133],[139.22477,36.1425],[139.22393,36.14406],[139.22247,36.14703],[139.22184,36.14822],[139.22094,36.14975],[139.22022,36.15079]]}},{"type":"Feature","properties":{"idx":46,"road":NaN,"cls":"tertiary","shops":0,"st_km":0.98,"mesh":"54391168"},"geometry":{"type":"LineString","coordinates":[[139.23106,36.13417],[139.23125,36.13423]]}},{"type":"Feature","properties":{"idx":44,"road":NaN,"cls":"tertiary","shops":0,"st_km":1.02,"mesh":"54391168"},"geometry":{"type":"LineString","coordinates":[[139.23125,36.13423],[139.23191,36.13444]]}},{"type":"Feature","properties":{"idx":47,"road":NaN,"cls":"tertiary","shops":0,"st_km":0.68,"mesh":"54391159"},"geometry":{"type":"LineString","coordinates":[[139.241,36.12935],[139.24105,36.12922]]}},{"type":"Feature","properties":{"idx":52,"road":NaN,"cls":"tertiary","shops":0,"st_km":0.56,"mesh":"54391159"},"geometry":{"type":"LineString","coordinates":[[139.24113,36.12875],[139.24127,36.12876],[139.24158,36.12866],[139.24378,36.12734],[139.24595,36.12618]]}},{"type":"Feature","properties":{"idx":46,"road":NaN,"cls":"tertiary","shops":0,"st_km":0.71,"mesh":"54391159"},"geometry":{"type":"LineString","coordinates":[[139.24149,36.1268],[139.24105,36.12922]]}},{"type":"Feature","properties":{"idx":24,"road":"小前田児玉線","cls":"secondary","shops":0,"st_km":0.78,"mesh":"54391176"},"geometry":{"type":"LineString","coordinates":[[139.18134,36.15927],[139.18449,36.15851],[139.18637,36.15789],[139.18886,36.15695],[139.18982,36.15681],[139.19033,36.15667],[139.19297,36.15552],[139.19394,36.15481],[139.1959,36.15379],[139.1967,36.15332],[139.19706,36.15318],[139.19986,36.15244],[139.20009,36.15231],[139.20275,36.15018],[139.20349,36.14981],[139.20481,36.1487],[139.20568,36.14804],[139.20612,36.14757],[139.20639,36.14718],[139.20685,36.1463],[139.20711,36.14595],[139.20819,36.14483],[139.209,36.14379],[139.20988,36.14298],[139.21211,36.13992],[139.21223,36.13964],[139.2124,36.1388],[139.21407,36.13427],[139.21418,36.13415],[139.21544,36.13366],[139.21627,36.1334],[139.2166,36.1332],[139.21744,36.13228],[139.2189,36.1304],[139.21991,36.12895]]}},{"type":"Feature","properties":{"idx":46,"road":"花園本庄線","cls":"primary","shops":0,"st_km":1.0,"mesh":"54391159"},"geometry":{"type":"LineString","coordinates":[[139.2384,36.12621],[139.23738,36.12931]]}},{"type":"Feature","properties":{"idx":209,"road":"花園本庄線","cls":"primary","shops":0,"st_km":1.0,"mesh":"54391158"},"geometry":{"type":"LineString","coordinates":[[139.23735,36.12942],[139.23738,36.12931]]}},{"type":"Feature","properties":{"idx":306,"road":NaN,"cls":"tertiary","shops":1,"st_km":0.83,"mesh":"54391158"},"geometry":{"type":"LineString","coordinates":[[139.23018,36.13041],[139.23069,36.12989],[139.2314,36.12896],[139.2316,36.12861],[139.23171,36.12831],[139.2312,36.12705],[139.23113,36.12675]]}},{"type":"Feature","properties":{"idx":232,"road":NaN,"cls":"tertiary","shops":0,"st_km":0.67,"mesh":"54391158"},"geometry":{"type":"LineString","coordinates":[[139.22395,36.12827],[139.22912,36.1276],[139.22962,36.12742],[139.22955,36.12686],[139.23113,36.12675],[139.23191,36.12651],[139.23284,36.12597],[139.23404,36.12516]]}},{"type":"Feature","properties":{"idx":372,"road":NaN,"cls":"tertiary","shops":0,"st_km":0.08,"mesh":"54391157"},"geometry":{"type":"LineString","coordinates":[[139.22245,36.12865],[139.22342,36.12875],[139.22405,36.12876]]}},{"type":"Feature","properties":{"idx":346,"road":NaN,"cls":"tertiary","shops":0,"st_km":0.15,"mesh":"54391157"},"geometry":{"type":"LineString","coordinates":[[139.22405,36.12876],[139.22395,36.12827]]}},{"type":"Feature","properties":{"idx":3079,"road":NaN,"cls":"tertiary","shops":0,"st_km":0.6,"mesh":"54391148"},"geometry":{"type":"LineString","coordinates":[[139.22462,36.12004],[139.22522,36.12453],[139.22543,36.12585],[139.22586,36.12803]]}},{"type":"Feature","properties":{"idx":32,"road":NaN,"cls":"tertiary","shops":0,"st_km":1.92,"mesh":"54391177"},"geometry":{"type":"LineString","coordinates":[[139.22233,36.14615],[139.22271,36.14626]]}},{"type":"Feature","properties":{"idx":32,"road":NaN,"cls":"tertiary","shops":0,"st_km":1.91,"mesh":"54391177"},"geometry":{"type":"LineString","coordinates":[[139.22221,36.14612],[139.22233,36.14615]]}},{"type":"Feature","properties":{"idx":27,"road":NaN,"cls":"tertiary","shops":0,"st_km":1.95,"mesh":"54391177"},"geometry":{"type":"LineString","coordinates":[[139.22102,36.14843],[139.22147,36.1486]]}},{"type":"Feature","properties":{"idx":179,"road":"深谷寄居線","cls":"primary","shops":0,"st_km":0.94,"mesh":"54391167"},"geometry":{"type":"LineString","coordinates":[[139.21962,36.13712],[139.21973,36.13719]]}},{"type":"Feature","properties":{"idx":37,"road":NaN,"cls":"tertiary","shops":0,"st_km":1.61,"mesh":"54391177"},"geometry":{"type":"LineString","coordinates":[[139.21958,36.14145],[139.21531,36.14367],[139.21487,36.14375],[139.21448,36.14371]]}},{"type":"Feature","properties":{"idx":113,"road":NaN,"cls":"tertiary","shops":0,"st_km":1.29,"mesh":"54391167"},"geometry":{"type":"LineString","coordinates":[[139.22272,36.13914],[139.22249,36.13979],[139.2222,36.14008],[139.21958,36.14145]]}},{"type":"Feature","properties":{"idx":330,"road":"深谷寄居線","cls":"primary","shops":0,"st_km":0.5,"mesh":"54391156"},"geometry":{"type":"LineString","coordinates":[[139.21962,36.13712],[139.21777,36.13589],[139.2169,36.13506],[139.21601,36.13433],[139.21261,36.13253],[139.20882,36.13087],[139.20764,36.13028],[139.20687,36.1298],[139.20596,36.12934],[139.20369,36.12832],[139.20319,36.12818]]}},{"type":"Feature","properties":{"idx":36,"road":NaN,"cls":"tertiary","shops":0,"st_km":1.65,"mesh":"54391177"},"geometry":{"type":"LineString","coordinates":[[139.22394,36.14372],[139.22409,36.14377]]}},{"type":"Feature","properties":{"idx":37,"road":NaN,"cls":"tertiary","shops":0,"st_km":1.63,"mesh":"54391177"},"geometry":{"type":"LineString","coordinates":[[139.22346,36.14355],[139.22357,36.14359]]}},{"type":"Feature","properties":{"idx":32,"road":NaN,"cls":"tertiary","shops":0,"st_km":1.93,"mesh":"54391177"},"geometry":{"type":"LineString","coordinates":[[139.22271,36.14626],[139.22283,36.14629]]}},{"type":"Feature","properties":{"idx":44,"road":"花植木街道（南線）","cls":"tertiary","shops":0,"st_km":1.03,"mesh":"54391168"},"geometry":{"type":"LineString","coordinates":[[139.22914,36.13616],[139.22959,36.13631]]}},{"type":"Feature","properties":{"idx":47,"road":NaN,"cls":"tertiary","shops":0,"st_km":0.93,"mesh":"54391168"},"geometry":{"type":"LineString","coordinates":[[139.23106,36.13417],[139.23009,36.13384]]}},{"type":"Feature","properties":{"idx":180,"road":NaN,"cls":"tertiary","shops":0,"st_km":0.99,"mesh":"54391158"},"geometry":{"type":"LineString","coordinates":[[139.23304,36.133],[139.23149,36.1327]]}},{"type":"Feature","properties":{"idx":269,"road":NaN,"cls":"tertiary","shops":0,"st_km":0.41,"mesh":"54391157"},"geometry":{"type":"LineString","coordinates":[[139.21681,36.12939],[139.21903,36.13022]]}},{"type":"Feature","properties":{"idx":41,"road":NaN,"cls":"tertiary","shops":0,"st_km":1.13,"mesh":"54391168"},"geometry":{"type":"LineString","coordinates":[[139.22685,36.13837],[139.22697,36.13844]]}},{"type":"Feature","properties":{"idx":228,"road":NaN,"cls":"tertiary","shops":0,"st_km":0.69,"mesh":"54391158"},"geometry":{"type":"LineString","coordinates":[[139.23008,36.13051],[139.22978,36.13084],[139.22829,36.13324]]}},{"type":"Feature","properties":{"idx":54,"road":"花植木街道（南線）","cls":"tertiary","shops":0,"st_km":0.77,"mesh":"54391168"},"geometry":{"type":"LineString","coordinates":[[139.22352,36.13431],[139.22401,36.13454],[139.22476,36.1348],[139.22525,36.13493],[139.2264,36.13507],[139.22771,36.13566],[139.22914,36.13616]]}},{"type":"Feature","properties":{"idx":189,"road":"花植木街道（南線）","cls":"tertiary","shops":0,"st_km":0.6,"mesh":"54391167"},"geometry":{"type":"LineString","coordinates":[[139.22338,36.13423],[139.22352,36.13431]]}},{"type":"Feature","properties":{"idx":50,"road":NaN,"cls":"tertiary","shops":0,"st_km":0.85,"mesh":"54391168"},"geometry":{"type":"LineString","coordinates":[[139.23009,36.13384],[139.22952,36.13365]]}},{"type":"Feature","properties":{"idx":40,"road":NaN,"cls":"tertiary","shops":0,"st_km":1.17,"mesh":"54391168"},"geometry":{"type":"LineString","coordinates":[[139.22734,36.13862],[139.22747,36.13869]]}},{"type":"Feature","properties":{"idx":59,"road":NaN,"cls":"tertiary","shops":0,"st_km":0.67,"mesh":"54391168"},"geometry":{"type":"LineString","coordinates":[[139.22706,36.13283],[139.22598,36.13499]]}},{"type":"Feature","properties":{"idx":223,"road":NaN,"cls":"tertiary","shops":0,"st_km":0.71,"mesh":"54391158"},"geometry":{"type":"LineString","coordinates":[[139.22952,36.13365],[139.22706,36.13283]]}},{"type":"Feature","properties":{"idx":167,"road":NaN,"cls":"tertiary","shops":0,"st_km":1.1,"mesh":"54391158"},"geometry":{"type":"LineString","coordinates":[[139.23304,36.133],[139.23384,36.13312]]}},{"type":"Feature","properties":{"idx":49,"road":NaN,"cls":"tertiary","shops":0,"st_km":0.88,"mesh":"54391168"},"geometry":{"type":"LineString","coordinates":[[139.22837,36.1359],[139.22952,36.13365]]}},{"type":"Feature","properties":{"idx":223,"road":NaN,"cls":"tertiary","shops":0,"st_km":0.72,"mesh":"54391158"},"geometry":{"type":"LineString","coordinates":[[139.23018,36.13041],[139.23008,36.13051]]}},{"type":"Feature","properties":{"idx":41,"road":NaN,"cls":"tertiary","shops":0,"st_km":1.15,"mesh":"54391168"},"geometry":{"type":"LineString","coordinates":[[139.22697,36.13844],[139.22734,36.13862]]}},{"type":"Feature","properties":{"idx":231,"road":NaN,"cls":"tertiary","shops":0,"st_km":0.58,"mesh":"54391157"},"geometry":{"type":"LineString","coordinates":[[139.21618,36.13148],[139.21766,36.13199]]}},{"type":"Feature","properties":{"idx":206,"road":NaN,"cls":"tertiary","shops":0,"st_km":0.81,"mesh":"54391158"},"geometry":{"type":"LineString","coordinates":[[139.23149,36.1327],[139.23021,36.13105],[139.22978,36.13084]]}},{"type":"Feature","properties":{"idx":186,"road":NaN,"cls":"tertiary","shops":0,"st_km":2.83,"mesh":"54391199"},"geometry":{"type":"LineString","coordinates":[[139.24421,36.16064],[139.24712,36.15815],[139.24867,36.15656]]}},{"type":"Feature","properties":{"idx":381,"road":NaN,"cls":"tertiary","shops":0,"st_km":1.31,"mesh":"54391165"},"geometry":{"type":"LineString","coordinates":[[139.19931,36.13838],[139.19997,36.1382]]}},{"type":"Feature","properties":{"idx":350,"road":NaN,"cls":"tertiary","shops":0,"st_km":0.9,"mesh":"54391166"},"geometry":{"type":"LineString","coordinates":[[139.19998,36.1381],[139.20074,36.13811],[139.20237,36.13825],[139.20434,36.1382],[139.20482,36.13811],[139.2053,36.1379],[139.2112,36.13455],[139.21156,36.13444],[139.21337,36.13413],[139.21418,36.13415]]}},{"type":"Feature","properties":{"idx":27,"road":NaN,"cls":"tertiary","shops":0,"st_km":1.83,"mesh":"54391193"},"geometry":{"type":"LineString","coordinates":[[139.16362,36.16148],[139.16911,36.16287],[139.16944,36.16287],[139.16977,36.1627]]}},{"type":"Feature","properties":{"idx":27,"road":NaN,"cls":"tertiary","shops":0,"st_km":1.75,"mesh":"54391193"},"geometry":{"type":"LineString","coordinates":[[139.16809,36.16701],[139.16773,36.167],[139.16757,36.16682],[139.16721,36.16624],[139.16666,36.16553],[139.1665,36.165],[139.16619,36.16444],[139.1659,36.16417],[139.1654,36.16382],[139.16474,36.16298],[139.16406,36.16247],[139.16387,36.16215],[139.16362,36.16148]]}},{"type":"Feature","properties":{"idx":27,"road":NaN,"cls":"tertiary","shops":0,"st_km":1.75,"mesh":"54391193"},"geometry":{"type":"LineString","coordinates":[[139.16342,36.16472],[139.164,36.16585],[139.1642,36.16614],[139.16462,36.16654],[139.16515,36.16713],[139.16527,36.16739],[139.16538,36.16799]]}},{"type":"Feature","properties":{"idx":30,"road":NaN,"cls":"tertiary","shops":0,"st_km":1.48,"mesh":"54391193"},"geometry":{"type":"LineString","coordinates":[[139.16977,36.1627],[139.17345,36.16296]]}},{"type":"Feature","properties":{"idx":32,"road":NaN,"cls":"tertiary","shops":0,"st_km":1.28,"mesh":"54391193"},"geometry":{"type":"LineString","coordinates":[[139.1752,36.16351],[139.17456,36.16269]]}},{"type":"Feature","properties":{"idx":26,"road":NaN,"cls":"tertiary","shops":0,"st_km":1.34,"mesh":"54391194"},"geometry":{"type":"LineString","coordinates":[[139.17729,36.16246],[139.17702,36.16219],[139.17637,36.16188],[139.17572,36.16122]]}},{"type":"Feature","properties":{"idx":24,"road":NaN,"cls":"tertiary","shops":0,"st_km":1.47,"mesh":"54391194"},"geometry":{"type":"LineString","coordinates":[[139.17856,36.15888],[139.17854,36.15924],[139.17877,36.15995],[139.17877,36.16008],[139.17864,36.16038],[139.17881,36.16086],[139.17888,36.1612]]}},{"type":"Feature","properties":{"idx":35,"road":NaN,"cls":"primary","shops":0,"st_km":1.11,"mesh":"54391194"},"geometry":{"type":"LineString","coordinates":[[139.18454,36.16336],[139.18455,36.16319]]}},{"type":"Feature","properties":{"idx":31,"road":"本庄寄居線","cls":"primary","shops":0,"st_km":1.42,"mesh":"54391194"},"geometry":{"type":"LineString","coordinates":[[139.18455,36.16319],[139.18459,36.16273],[139.18472,36.16232],[139.1861,36.15947],[139.18632,36.15861],[139.18637,36.15789]]}},{"type":"Feature","properties":{"idx":102,"road":"広木折原線","cls":"secondary","shops":0,"st_km":2.92,"mesh":"54391182"},"geometry":{"type":"LineString","coordinates":[[139.16089,36.15798],[139.16105,36.15727],[139.16104,36.15678],[139.16092,36.15646],[139.16046,36.15581],[139.15994,36.15415],[139.15996,36.15367],[139.16017,36.15295],[139.16046,36.15246],[139.16088,36.15206],[139.16136,36.15174],[139.16208,36.15141],[139.16221,36.15122],[139.16227,36.15088],[139.1624,36.15063],[139.16356,36.14953],[139.1638,36.14912]]}},{"type":"Feature","properties":{"idx":71,"road":"広木折原線","cls":"secondary","shops":0,"st_km":2.51,"mesh":"54391192"},"geometry":{"type":"LineString","coordinates":[[139.15885,36.1606],[139.15912,36.15995],[139.1602,36.15903],[139.16076,36.15827],[139.16089,36.15798]]}},{"type":"Feature","properties":{"idx":11,"road":NaN,"cls":"tertiary","shops":0,"st_km":2.4,"mesh":"54391183"},"geometry":{"type":"LineString","coordinates":[[139.16483,36.15747],[139.16404,36.15731],[139.1634,36.15751],[139.16291,36.1576]]}},{"type":"Feature","properties":{"idx":12,"road":NaN,"cls":"tertiary","shops":0,"st_km":2.06,"mesh":"54391183"},"geometry":{"type":"LineString","coordinates":[[139.17169,36.15712],[139.17084,36.157],[139.17033,36.15711],[139.16953,36.157]]}},{"type":"Feature","properties":{"idx":23,"road":NaN,"cls":"tertiary","shops":0,"st_km":1.65,"mesh":"54391194"},"geometry":{"type":"LineString","coordinates":[[139.17881,36.158],[139.17861,36.15848],[139.17856,36.15888]]}},{"type":"Feature","properties":{"idx":49,"road":NaN,"cls":"tertiary","shops":0,"st_km":1.71,"mesh":"54391184"},"geometry":{"type":"LineString","coordinates":[[139.17887,36.15786],[139.17881,36.158]]}},{"type":"Feature","properties":{"idx":12,"road":NaN,"cls":"tertiary","shops":0,"st_km":1.84,"mesh":"54391183"},"geometry":{"type":"LineString","coordinates":[[139.17511,36.15759],[139.17458,36.15757]]}},{"type":"Feature","properties":{"idx":90,"road":NaN,"cls":"tertiary","shops":0,"st_km":2.49,"mesh":"54391182"},"geometry":{"type":"LineString","coordinates":[[139.16291,36.1576],[139.16212,36.15769],[139.16132,36.158],[139.16089,36.15798]]}},{"type":"Feature","properties":{"idx":48,"road":NaN,"cls":"tertiary","shops":0,"st_km":1.81,"mesh":"54391184"},"geometry":{"type":"LineString","coordinates":[[139.17897,36.15692],[139.17672,36.15723]]}},{"type":"Feature","properties":{"idx":48,"road":NaN,"cls":"tertiary","shops":0,"st_km":1.76,"mesh":"54391184"},"geometry":{"type":"LineString","coordinates":[[139.17897,36.15692],[139.17898,36.15743],[139.17887,36.15786]]}},{"type":"Feature","properties":{"idx":65,"road":NaN,"cls":"tertiary","shops":0,"st_km":2.32,"mesh":"54391192"},"geometry":{"type":"LineString","coordinates":[[139.16362,36.16148],[139.1634,36.16107],[139.16321,36.16086],[139.16125,36.15923],[139.16109,36.15896],[139.16104,36.15855],[139.16084,36.15811]]}},{"type":"Feature","properties":{"idx":47,"road":NaN,"cls":"tertiary","shops":0,"st_km":1.84,"mesh":"54391184"},"geometry":{"type":"LineString","coordinates":[[139.17672,36.15723],[139.17579,36.15724],[139.17526,36.15755],[139.17511,36.15759]]}},{"type":"Feature","properties":{"idx":12,"road":NaN,"cls":"tertiary","shops":0,"st_km":1.92,"mesh":"54391183"},"geometry":{"type":"LineString","coordinates":[[139.17458,36.15757],[139.17386,36.15749],[139.17169,36.15712]]}},{"type":"Feature","properties":{"idx":27,"road":"小前田児玉線","cls":"secondary","shops":0,"st_km":1.53,"mesh":"54391194"},"geometry":{"type":"LineString","coordinates":[[139.1812,36.15932],[139.18134,36.15927]]}},{"type":"Feature","properties":{"idx":73,"road":"広木折原線","cls":"secondary","shops":0,"st_km":2.33,"mesh":"54391192"},"geometry":{"type":"LineString","coordinates":[[139.15633,36.16848],[139.15676,36.16784],[139.15685,36.16719],[139.15738,36.16607],[139.15757,36.16581],[139.15814,36.16534],[139.15829,36.16501],[139.15874,36.16239],[139.15873,36.16106],[139.15885,36.1606]]}},{"type":"Feature","properties":{"idx":25,"road":NaN,"cls":"tertiary","shops":0,"st_km":2.04,"mesh":"54391193"},"geometry":{"type":"LineString","coordinates":[[139.16203,36.16208],[139.16254,36.16299],[139.16342,36.16472]]}},{"type":"Feature","properties":{"idx":65,"road":NaN,"cls":"tertiary","shops":0,"st_km":2.34,"mesh":"54391192"},"geometry":{"type":"LineString","coordinates":[[139.1602,36.15903],[139.16203,36.16208]]}},{"type":"Feature","properties":{"idx":68,"road":NaN,"cls":"tertiary","shops":0,"st_km":2.04,"mesh":"54391192"},"geometry":{"type":"LineString","coordinates":[[139.16342,36.16472],[139.16186,36.16523],[139.16166,36.16517],[139.16148,36.16502],[139.16137,36.165],[139.16071,36.165],[139.1601,36.16512],[139.15975,36.16525]]}},{"type":"Feature","properties":{"idx":25,"road":NaN,"cls":"tertiary","shops":0,"st_km":2.14,"mesh":"54391193"},"geometry":{"type":"LineString","coordinates":[[139.16203,36.16208],[139.16362,36.16148]]}},{"type":"Feature","properties":{"idx":44,"road":NaN,"cls":"tertiary","shops":0,"st_km":2.13,"mesh":"54391184"},"geometry":{"type":"LineString","coordinates":[[139.17706,36.15509],[139.17643,36.1547],[139.17604,36.15453],[139.17506,36.1543],[139.1746,36.15425]]}},{"type":"Feature","properties":{"idx":11,"road":NaN,"cls":"tertiary","shops":0,"st_km":2.21,"mesh":"54391183"},"geometry":{"type":"LineString","coordinates":[[139.1746,36.15425],[139.17383,36.15426]]}},{"type":"Feature","properties":{"idx":46,"road":NaN,"cls":"tertiary","shops":0,"st_km":1.94,"mesh":"54391184"},"geometry":{"type":"LineString","coordinates":[[139.17897,36.15692],[139.17867,36.15632],[139.17847,36.15604],[139.17819,36.15578],[139.17706,36.15509]]}},{"type":"Feature","properties":{"idx":11,"road":NaN,"cls":"tertiary","shops":0,"st_km":2.5,"mesh":"54391183"},"geometry":{"type":"LineString","coordinates":[[139.17044,36.15319],[139.17027,36.15318],[139.17016,36.15311],[139.16945,36.15231]]}},{"type":"Feature","properties":{"idx":11,"road":NaN,"cls":"tertiary","shops":0,"st_km":2.31,"mesh":"54391183"},"geometry":{"type":"LineString","coordinates":[[139.17383,36.15426],[139.17331,36.1543],[139.17226,36.15403],[139.17148,36.15374],[139.17081,36.15328],[139.17044,36.15319]]}},{"type":"Feature","properties":{"idx":23,"road":"広木折原線","cls":"secondary","shops":0,"st_km":2.41,"mesh":"54391173"},"geometry":{"type":"LineString","coordinates":[[139.1638,36.14912],[139.16392,36.1479],[139.16384,36.14764],[139.16358,36.14723],[139.16355,36.1469]]}},{"type":"Feature","properties":{"idx":26,"road":"広木折原線","cls":"secondary","shops":0,"st_km":1.98,"mesh":"54391173"},"geometry":{"type":"LineString","coordinates":[[139.16355,36.1469],[139.16354,36.14645],[139.16371,36.14602],[139.16457,36.14438],[139.16499,36.14388],[139.16519,36.14356],[139.16593,36.14172],[139.16607,36.14113],[139.16629,36.14071],[139.1665,36.14046]]}},{"type":"Feature","properties":{"idx":4,"road":"広木折原線","cls":"secondary","shops":0,"st_km":1.66,"mesh":"54391163"},"geometry":{"type":"LineString","coordinates":[[139.16712,36.13993],[139.16722,36.13973]]}},{"type":"Feature","properties":{"idx":3,"road":"広木折原線","cls":"secondary","shops":0,"st_km":1.68,"mesh":"54391163"},"geometry":{"type":"LineString","coordinates":[[139.1665,36.14046],[139.16712,36.13993]]}},{"type":"Feature","properties":{"idx":4,"road":"広木折原線","cls":"secondary","shops":0,"st_km":1.27,"mesh":"54391163"},"geometry":{"type":"LineString","coordinates":[[139.16733,36.13811],[139.16773,36.13729],[139.16764,36.13682],[139.16772,36.13609],[139.16771,36.13574],[139.16751,36.13534],[139.16731,36.13386],[139.16718,36.13339],[139.16724,36.13307],[139.16748,36.13243]]}},{"type":"Feature","properties":{"idx":4,"road":"広木折原線","cls":"secondary","shops":0,"st_km":1.57,"mesh":"54391163"},"geometry":{"type":"LineString","coordinates":[[139.16722,36.13973],[139.16718,36.13851],[139.16733,36.13811]]}},{"type":"Feature","properties":{"idx":441,"road":NaN,"cls":"tertiary","shops":0,"st_km":0.6,"mesh":"54391195"},"geometry":{"type":"LineString","coordinates":[[139.19791,36.15882],[139.19784,36.15867]]}},{"type":"Feature","properties":{"idx":312,"road":NaN,"cls":"tertiary","shops":0,"st_km":1.22,"mesh":"54391195"},"geometry":{"type":"LineString","coordinates":[[139.19402,36.1695],[139.19441,36.16856],[139.19498,36.16692],[139.19564,36.16591],[139.19594,36.16561],[139.19652,36.16523],[139.1966,36.1651],[139.19669,36.16477],[139.19656,36.16441],[139.19651,36.16407],[139.19676,36.16314],[139.19694,36.16264],[139.19724,36.16208],[139.19776,36.16137],[139.1979,36.16114],[139.19799,36.16088],[139.19805,36.16028],[139.19791,36.15882]]}},{"type":"Feature","properties":{"idx":17,"road":NaN,"cls":"tertiary","shops":0,"st_km":1.52,"mesh":"54391187"},"geometry":{"type":"LineString","coordinates":[[139.21725,36.1536],[139.21772,36.15384]]}},{"type":"Feature","properties":{"idx":17,"road":NaN,"cls":"tertiary","shops":0,"st_km":1.55,"mesh":"54391187"},"geometry":{"type":"LineString","coordinates":[[139.2161,36.15579],[139.21646,36.15542],[139.21662,36.15518],[139.21693,36.15491],[139.21758,36.15422],[139.21948,36.15185]]}},{"type":"Feature","properties":{"idx":16,"road":NaN,"cls":"tertiary","shops":0,"st_km":1.68,"mesh":"54391187"},"geometry":{"type":"LineString","coordinates":[[139.21889,36.15157],[139.21937,36.1518]]}},{"type":"Feature","properties":{"idx":185,"road":NaN,"cls":"tertiary","shops":0,"st_km":2.51,"mesh":"54391188"},"geometry":{"type":"LineString","coordinates":[[139.23683,36.15468],[139.23549,36.15433],[139.23333,36.15357],[139.23158,36.15326],[139.22865,36.15263],[139.22757,36.15235],[139.22361,36.15161],[139.2225,36.15134],[139.22106,36.15113],[139.22011,36.15074]]}},{"type":"Feature","properties":{"idx":17,"road":NaN,"cls":"tertiary","shops":0,"st_km":1.54,"mesh":"54391187"},"geometry":{"type":"LineString","coordinates":[[139.21772,36.15384],[139.21784,36.1539]]}},{"type":"Feature","properties":{"idx":16,"road":NaN,"cls":"tertiary","shops":0,"st_km":1.77,"mesh":"54391187"},"geometry":{"type":"LineString","coordinates":[[139.22011,36.15074],[139.21976,36.15056]]}},{"type":"Feature","properties":{"idx":16,"road":NaN,"cls":"tertiary","shops":0,"st_km":1.7,"mesh":"54391187"},"geometry":{"type":"LineString","coordinates":[[139.21937,36.1518],[139.21948,36.15185]]}},{"type":"Feature","properties":{"idx":16,"road":NaN,"cls":"tertiary","shops":0,"st_km":1.75,"mesh":"54391187"},"geometry":{"type":"LineString","coordinates":[[139.21948,36.15185],[139.22022,36.15079]]}},{"type":"Feature","properties":{"idx":106,"road":NaN,"cls":"tertiary","shops":0,"st_km":1.11,"mesh":"54391196"},"geometry":{"type":"LineString","coordinates":[[139.20886,36.16098],[139.20892,36.16155]]}},{"type":"Feature","properties":{"idx":21,"road":NaN,"cls":"tertiary","shops":0,"st_km":0.76,"mesh":"54391176"},"geometry":{"type":"LineString","coordinates":[[139.20662,36.14671],[139.20709,36.14691],[139.20716,36.14697],[139.20722,36.14713],[139.2071,36.14872],[139.20751,36.15207],[139.2075,36.15259]]}},{"type":"Feature","properties":{"idx":44,"road":NaN,"cls":"tertiary","shops":0,"st_km":0.44,"mesh":"54391186"},"geometry":{"type":"LineString","coordinates":[[139.20327,36.15288],[139.20435,36.153],[139.20475,36.153],[139.20616,36.15284],[139.2075,36.15259]]}},{"type":"Feature","properties":{"idx":31,"road":NaN,"cls":"tertiary","shops":0,"st_km":0.97,"mesh":"54391186"},"geometry":{"type":"LineString","coordinates":[[139.2075,36.15259],[139.20985,36.15217],[139.21096,36.15189],[139.21152,36.15166],[139.21279,36.15098],[139.21369,36.15075],[139.21452,36.1506]]}},{"type":"Feature","properties":{"idx":17,"road":NaN,"cls":"tertiary","shops":0,"st_km":1.54,"mesh":"54391187"},"geometry":{"type":"LineString","coordinates":[[139.21976,36.15056],[139.21885,36.15014],[139.21846,36.15009],[139.21452,36.1506]]}},{"type":"Feature","properties":{"idx":417,"road":NaN,"cls":"tertiary","shops":0,"st_km":0.47,"mesh":"54391185"},"geometry":{"type":"LineString","coordinates":[[139.19513,36.15419],[139.19536,36.15462],[139.19607,36.1555],[139.19636,36.15626],[139.19698,36.15752],[139.1974,36.15813],[139.19784,36.15867]]}},{"type":"Feature","properties":{"idx":264,"road":NaN,"cls":"tertiary","shops":0,"st_km":1.57,"mesh":"54391165"},"geometry":{"type":"LineString","coordinates":[[139.19247,36.14072],[139.19424,36.14133]]}},{"type":"Feature","properties":{"idx":604,"road":NaN,"cls":"tertiary","shops":0,"st_km":0.77,"mesh":"54391175"},"geometry":{"type":"LineString","coordinates":[[139.19546,36.14668],[139.19561,36.14689],[139.19588,36.14714],[139.19644,36.14779],[139.19678,36.14799],[139.19719,36.14882],[139.19732,36.14896]]}},{"type":"Feature","properties":{"idx":194,"road":"坂本寄居線","cls":"secondary","shops":0,"st_km":1.22,"mesh":"54391124"},"geometry":{"type":"LineString","coordinates":[[139.17582,36.09945],[139.1764,36.09991],[139.17745,36.10043],[139.1804,36.10174],[139.18252,36.10256],[139.18393,36.10318],[139.18618,36.10344],[139.18809,36.10389],[139.19239,36.10527],[139.19282,36.10529],[139.19318,36.10524],[139.19463,36.10493],[139.19484,36.10495],[139.19495,36.10501]]}},{"type":"Feature","properties":{"idx":137,"road":"広木折原線","cls":"secondary","shops":0,"st_km":0.92,"mesh":"54391153"},"geometry":{"type":"LineString","coordinates":[[139.16748,36.13243],[139.16773,36.13187],[139.16762,36.13154],[139.16764,36.13129],[139.16749,36.13106],[139.16722,36.13087],[139.16677,36.1307],[139.16638,36.13047],[139.1659,36.13029],[139.16571,36.13029],[139.16556,36.13023],[139.16555,36.12995],[139.16538,36.12981]]}},{"type":"Feature","properties":{"idx":207,"road":"広木折原線","cls":"secondary","shops":0,"st_km":0.41,"mesh":"54391153"},"geometry":{"type":"LineString","coordinates":[[139.16538,36.12981],[139.1651,36.12958],[139.16502,36.12956],[139.16469,36.12964],[139.16455,36.12955],[139.16457,36.12944],[139.16494,36.1291],[139.16502,36.12891],[139.16497,36.12874],[139.16453,36.12819],[139.16423,36.12798],[139.16359,36.12784],[139.16345,36.12782],[139.16321,36.12792],[139.16303,36.12791],[139.16271,36.12773],[139.16258,36.12758],[139.16249,36.12679],[139.16238,36.12659],[139.162,36.12615],[139.16191,36.1259],[139.16193,36.12528],[139.162,36.12476],[139.16228,36.12359]]}},{"type":"Feature","properties":{"idx":597,"road":NaN,"cls":"tertiary","shops":0,"st_km":0.5,"mesh":"54391142"},"geometry":{"type":"LineString","coordinates":[[139.15484,36.12448],[139.15496,36.12352],[139.15512,36.12303],[139.15513,36.12285],[139.15451,36.12235],[139.15412,36.12194]]}},{"type":"Feature","properties":{"idx":37,"road":NaN,"cls":"tertiary","shops":0,"st_km":0.77,"mesh":"54391105"},"geometry":{"type":"LineString","coordinates":[[139.19584,36.0899],[139.19508,36.0893],[139.19476,36.08929],[139.19439,36.0894],[139.19412,36.08934],[139.19373,36.08889]]}},{"type":"Feature","properties":{"idx":42,"road":NaN,"cls":"tertiary","shops":0,"st_km":0.56,"mesh":"54391105"},"geometry":{"type":"LineString","coordinates":[[139.19686,36.09249],[139.19676,36.09195],[139.19658,36.09159],[139.19629,36.09112],[139.19585,36.09074],[139.19574,36.09052],[139.19584,36.0899]]}},{"type":"Feature","properties":{"idx":161,"road":"広木折原線","cls":"secondary","shops":0,"st_km":0.81,"mesh":"54391143"},"geometry":{"type":"LineString","coordinates":[[139.16228,36.12359],[139.16563,36.123],[139.16884,36.12292],[139.1693,36.12281]]}},{"type":"Feature","properties":{"idx":92,"road":NaN,"cls":"tertiary","shops":0,"st_km":0.36,"mesh":"54391152"},"geometry":{"type":"LineString","coordinates":[[139.15463,36.12588],[139.15458,36.12561],[139.1546,36.12538],[139.15484,36.12448]]}},{"type":"Feature","properties":{"idx":182,"road":NaN,"cls":"tertiary","shops":0,"st_km":0.1,"mesh":"54391115"},"geometry":{"type":"LineString","coordinates":[[139.19472,36.09711],[139.19466,36.09694],[139.19467,36.09676]]}},{"type":"Feature","properties":{"idx":35,"road":NaN,"cls":"tertiary","shops":0,"st_km":0.87,"mesh":"54391105"},"geometry":{"type":"LineString","coordinates":[[139.19373,36.08889],[139.19348,36.08846],[139.19341,36.08811]]}},{"type":"Feature","properties":{"idx":183,"road":NaN,"cls":"tertiary","shops":0,"st_km":0.1,"mesh":"54391115"},"geometry":{"type":"LineString","coordinates":[[139.19523,36.09604],[139.19558,36.09565],[139.19587,36.09492],[139.19607,36.09462]]}},{"type":"Feature","properties":{"idx":154,"road":NaN,"cls":"tertiary","shops":0,"st_km":0.52,"mesh":"54391145"},"geometry":{"type":"LineString","coordinates":[[139.19727,36.11914],[139.19702,36.11999],[139.1967,36.12227],[139.19656,36.12297],[139.19616,36.12382]]}},{"type":"Feature","properties":{"idx":191,"road":NaN,"cls":"tertiary","shops":0,"st_km":0.04,"mesh":"54391115"},"geometry":{"type":"LineString","coordinates":[[139.19467,36.09676],[139.19487,36.09644],[139.19523,36.09604]]}},{"type":"Feature","properties":{"idx":163,"road":NaN,"cls":"tertiary","shops":0,"st_km":0.23,"mesh":"54391115"},"geometry":{"type":"LineString","coordinates":[[139.19571,36.09934],[139.19554,36.09888],[139.19494,36.09785],[139.19472,36.09711]]}},{"type":"Feature","properties":{"idx":153,"road":NaN,"cls":"tertiary","shops":0,"st_km":0.31,"mesh":"54391115"},"geometry":{"type":"LineString","coordinates":[[139.19607,36.09462],[139.19647,36.09401],[139.19674,36.09345],[139.19687,36.09299],[139.19686,36.09249]]}},{"type":"Feature","properties":{"idx":215,"road":NaN,"cls":"tertiary","shops":0,"st_km":1.44,"mesh":"54391124"},"geometry":{"type":"LineString","coordinates":[[139.18407,36.10614],[139.18419,36.10648],[139.18422,36.10682],[139.18418,36.10693],[139.184,36.10715],[139.18341,36.10753],[139.18394,36.10817]]}},{"type":"Feature","properties":{"idx":108,"road":"広木折原線","cls":"secondary","shops":0,"st_km":1.42,"mesh":"54391143"},"geometry":{"type":"LineString","coordinates":[[139.1708,36.11985],[139.17102,36.11889]]}},{"type":"Feature","properties":{"idx":81,"road":NaN,"cls":"tertiary","shops":0,"st_km":1.68,"mesh":"54391134"},"geometry":{"type":"LineString","coordinates":[[139.18036,36.11123],[139.18,36.11147],[139.17971,36.11196],[139.17946,36.11215],[139.17858,36.11243],[139.17518,36.11369],[139.17416,36.11422],[139.17325,36.1143],[139.17287,36.11451],[139.17221,36.11475],[139.17181,36.11474],[139.1714,36.11461],[139.17079,36.11494],[139.1705,36.11497]]}},{"type":"Feature","properties":{"idx":146,"road":NaN,"cls":"tertiary","shops":0,"st_km":1.68,"mesh":"54391124"},"geometry":{"type":"LineString","coordinates":[[139.18079,36.10942],[139.181,36.1089],[139.18108,36.10784],[139.18094,36.10634],[139.18098,36.10538],[139.18125,36.10499],[139.18204,36.10428],[139.1829,36.1039],[139.1836,36.10305]]}},{"type":"Feature","properties":{"idx":5,"road":NaN,"cls":"tertiary","shops":0,"st_km":1.65,"mesh":"54391133"},"geometry":{"type":"LineString","coordinates":[[139.17008,36.11502],[139.1696,36.11512],[139.16894,36.11504]]}},{"type":"Feature","properties":{"idx":352,"road":NaN,"cls":"tertiary","shops":0,"st_km":0.2,"mesh":"54391156"},"geometry":{"type":"LineString","coordinates":[[139.20881,36.12654],[139.2075,36.12622],[139.20736,36.12625],[139.20653,36.12843],[139.20596,36.12934]]}},{"type":"Feature","properties":{"idx":698,"road":"菅谷寄居線","cls":"secondary","shops":0,"st_km":0.54,"mesh":"54391146"},"geometry":{"type":"LineString","coordinates":[[139.2075,36.12237],[139.20656,36.12224],[139.20576,36.12193],[139.20539,36.12186],[139.20199,36.12161],[139.20169,36.12152],[139.20162,36.12147],[139.20145,36.12119],[139.1997,36.11754]]}},{"type":"Feature","properties":{"idx":286,"road":NaN,"cls":"tertiary","shops":0,"st_km":0.41,"mesh":"54391156"},"geometry":{"type":"LineString","coordinates":[[139.2049,36.12558],[139.20578,36.12572],[139.20604,36.12571],[139.20736,36.12501],[139.20822,36.12493],[139.20955,36.12464]]}},{"type":"Feature","properties":{"idx":223,"road":NaN,"cls":"tertiary","shops":0,"st_km":0.62,"mesh":"54391157"},"geometry":{"type":"LineString","coordinates":[[139.21603,36.12864],[139.21642,36.12771],[139.21621,36.12715],[139.21618,36.12665],[139.21598,36.12553],[139.21598,36.12492],[139.21615,36.12428]]}},{"type":"Feature","properties":{"idx":233,"road":NaN,"cls":"tertiary","shops":0,"st_km":0.57,"mesh":"54391157"},"geometry":{"type":"LineString","coordinates":[[139.21603,36.12864],[139.21597,36.1287],[139.21456,36.1287],[139.21445,36.12861],[139.21459,36.12749],[139.21481,36.12706],[139.215,36.12703],[139.21621,36.12715]]}},{"type":"Feature","properties":{"idx":277,"road":NaN,"cls":"tertiary","shops":0,"st_km":0.45,"mesh":"54391156"},"geometry":{"type":"LineString","coordinates":[[139.203,36.13069],[139.2036,36.13066],[139.2043,36.13075],[139.20479,36.13061]]}},{"type":"Feature","properties":{"idx":551,"road":NaN,"cls":"tertiary","shops":0,"st_km":0.71,"mesh":"54391146"},"geometry":{"type":"LineString","coordinates":[[139.2048,36.12393],[139.20468,36.12379],[139.20454,36.12373],[139.20226,36.12337]]}},{"type":"Feature","properties":{"idx":191,"road":NaN,"cls":"tertiary","shops":0,"st_km":0.31,"mesh":"54391145"},"geometry":{"type":"LineString","coordinates":[[139.19314,36.12004],[139.18994,36.11946]]}},{"type":"Feature","properties":{"idx":258,"road":NaN,"cls":"tertiary","shops":1,"st_km":0.27,"mesh":"54391145"},"geometry":{"type":"LineString","coordinates":[[139.19727,36.11914],[139.19793,36.11714]]}},{"type":"Feature","properties":{"idx":532,"road":NaN,"cls":"tertiary","shops":0,"st_km":0.72,"mesh":"54391146"},"geometry":{"type":"LineString","coordinates":[[139.20256,36.12506],[139.20212,36.12265],[139.20193,36.12203],[139.20162,36.12147]]}},{"type":"Feature","properties":{"idx":215,"road":NaN,"cls":"tertiary","shops":0,"st_km":0.19,"mesh":"54391145"},"geometry":{"type":"LineString","coordinates":[[139.19392,36.11843],[139.19321,36.12],[139.19314,36.12004]]}},{"type":"Feature","properties":{"idx":700,"road":NaN,"cls":"tertiary","shops":4,"st_km":0.11,"mesh":"54391145"},"geometry":{"type":"LineString","coordinates":[[139.19474,36.11732],[139.19481,36.11725],[139.19478,36.11717],[139.1947,36.11714],[139.1946,36.11717],[139.1946,36.11729],[139.19474,36.11732]]}},{"type":"Feature","properties":{"idx":105,"road":"旧秩父往還","cls":"tertiary","shops":0,"st_km":0.36,"mesh":"54391135"},"geometry":{"type":"LineString","coordinates":[[139.19366,36.11422],[139.19346,36.11454],[139.19172,36.1146],[139.19119,36.11476],[139.19023,36.11521],[139.19,36.11523]]}},{"type":"Feature","properties":{"idx":89,"road":NaN,"cls":"tertiary","shops":0,"st_km":0.4,"mesh":"54391135"},"geometry":{"type":"LineString","coordinates":[[139.19653,36.1143],[139.1977,36.11457]]}},{"type":"Feature","properties":{"idx":122,"road":"菅谷寄居線","cls":"secondary","shops":0,"st_km":0.33,"mesh":"54391135"},"geometry":{"type":"LineString","coordinates":[[139.19599,36.11528],[139.19524,36.11495]]}},{"type":"Feature","properties":{"idx":85,"road":"飯能寄居線","cls":"primary","shops":0,"st_km":0.7,"mesh":"54391135"},"geometry":{"type":"LineString","coordinates":[[139.19774,36.11103],[139.19793,36.11089],[139.19845,36.11085]]}},{"type":"Feature","properties":{"idx":25,"road":"坂本寄居線","cls":"secondary","shops":0,"st_km":1.0,"mesh":"54391125"},"geometry":{"type":"LineString","coordinates":[[139.19495,36.10501],[139.19508,36.10513],[139.19542,36.10528]]}},{"type":"Feature","properties":{"idx":25,"road":"坂本寄居線","cls":"secondary","shops":0,"st_km":0.99,"mesh":"54391125"},"geometry":{"type":"LineString","coordinates":[[139.19542,36.10528],[139.19777,36.10484]]}},{"type":"Feature","properties":{"idx":32,"road":"坂本寄居線","cls":"secondary","shops":0,"st_km":1.1,"mesh":"54391125"},"geometry":{"type":"LineString","coordinates":[[139.19951,36.10933],[139.1988,36.10817],[139.19875,36.10776],[139.1989,36.1073],[139.19889,36.10712],[139.19777,36.10484]]}},{"type":"Feature","properties":{"idx":107,"road":NaN,"cls":"tertiary","shops":0,"st_km":0.94,"mesh":"54391138"},"geometry":{"type":"LineString","coordinates":[[139.22823,36.11451],[139.22673,36.11452]]}},{"type":"Feature","properties":{"idx":114,"road":NaN,"cls":"tertiary","shops":0,"st_km":0.97,"mesh":"54391126"},"geometry":{"type":"LineString","coordinates":[[139.20595,36.10539],[139.20527,36.10539],[139.2047,36.10563],[139.20444,36.10567],[139.2041,36.10566],[139.20364,36.10554],[139.20317,36.10555]]}},{"type":"Feature","properties":{"idx":119,"road":NaN,"cls":"tertiary","shops":0,"st_km":1.09,"mesh":"54391118"},"geometry":{"type":"LineString","coordinates":[[139.22567,36.09786],[139.22704,36.09752],[139.22847,36.09772]]}},{"type":"Feature","properties":{"idx":81,"road":NaN,"cls":"tertiary","shops":0,"st_km":1.46,"mesh":"54391127"},"geometry":{"type":"LineString","coordinates":[[139.2195,36.10081],[139.2201,36.10026],[139.22031,36.10012],[139.22078,36.1],[139.22171,36.10004],[139.22275,36.09962]]}},{"type":"Feature","properties":{"idx":159,"road":NaN,"cls":"tertiary","shops":0,"st_km":0.73,"mesh":"54391106"},"geometry":{"type":"LineString","coordinates":[[139.19898,36.09174],[139.19977,36.09162],[139.20188,36.09049],[139.20213,36.0904]]}},{"type":"Feature","properties":{"idx":82,"road":NaN,"cls":"tertiary","shops":3,"st_km":1.05,"mesh":"54391125"},"geometry":{"type":"LineString","coordinates":[[139.18904,36.10836],[139.18944,36.10818],[139.19012,36.10812],[139.19123,36.10787],[139.19208,36.10793],[139.19311,36.1079],[139.19412,36.1081],[139.19494,36.10813],[139.19539,36.10806],[139.19564,36.1081],[139.19584,36.10822],[139.19625,36.10913],[139.19655,36.10961],[139.19702,36.11004],[139.19762,36.11041],[139.19793,36.11089]]}},{"type":"Feature","properties":{"idx":95,"road":NaN,"cls":"tertiary","shops":0,"st_km":1.1,"mesh":"54391138"},"geometry":{"type":"LineString","coordinates":[[139.22673,36.11452],[139.22547,36.11477],[139.22527,36.11476],[139.22422,36.11445],[139.22367,36.11434]]}},{"type":"Feature","properties":{"idx":25,"road":NaN,"cls":"tertiary","shops":0,"st_km":0.82,"mesh":"54391125"},"geometry":{"type":"LineString","coordinates":[[139.19777,36.10484],[139.19682,36.10194]]}},{"type":"Feature","properties":{"idx":73,"road":NaN,"cls":"tertiary","shops":0,"st_km":1.66,"mesh":"54391127"},"geometry":{"type":"LineString","coordinates":[[139.21779,36.10111],[139.21799,36.1009],[139.2181,36.1007],[139.21821,36.10035],[139.21826,36.10001],[139.21821,36.09961],[139.2179,36.09899]]}},{"type":"Feature","properties":{"idx":77,"road":NaN,"cls":"tertiary","shops":0,"st_km":1.06,"mesh":"54391126"},"geometry":{"type":"LineString","coordinates":[[139.20308,36.10368],[139.20219,36.10371]]}},{"type":"Feature","properties":{"idx":13,"road":NaN,"cls":"tertiary","shops":0,"st_km":1.75,"mesh":"54391117"},"geometry":{"type":"LineString","coordinates":[[139.2187,36.09803],[139.21875,36.09795],[139.21869,36.09784]]}},{"type":"Feature","properties":{"idx":99,"road":NaN,"cls":"tertiary","shops":0,"st_km":1.17,"mesh":"54391126"},"geometry":{"type":"LineString","coordinates":[[139.20308,36.10368],[139.20634,36.10357]]}},{"type":"Feature","properties":{"idx":23,"road":NaN,"cls":"tertiary","shops":0,"st_km":0.98,"mesh":"54391125"},"geometry":{"type":"LineString","coordinates":[[139.20219,36.10371],[139.20112,36.10378],[139.19777,36.10484]]}},{"type":"Feature","properties":{"idx":16,"road":NaN,"cls":"tertiary","shops":0,"st_km":1.4,"mesh":"54391117"},"geometry":{"type":"LineString","coordinates":[[139.21984,36.09089],[139.22078,36.09179],[139.22108,36.09271],[139.22121,36.09294],[139.22144,36.0932],[139.22199,36.0935]]}},{"type":"Feature","properties":{"idx":102,"road":NaN,"cls":"tertiary","shops":0,"st_km":1.13,"mesh":"54391126"},"geometry":{"type":"LineString","coordinates":[[139.21347,36.10452],[139.21079,36.10348],[139.21044,36.10341],[139.21004,36.10342]]}},{"type":"Feature","properties":{"idx":124,"road":NaN,"cls":"tertiary","shops":0,"st_km":0.8,"mesh":"54391127"},"geometry":{"type":"LineString","coordinates":[[139.21228,36.11001],[139.21214,36.10976],[139.21213,36.10957],[139.21277,36.10557],[139.21347,36.10452]]}},{"type":"Feature","properties":{"idx":146,"road":NaN,"cls":"tertiary","shops":0,"st_km":0.37,"mesh":"54391115"},"geometry":{"type":"LineString","coordinates":[[139.19578,36.09964],[139.19571,36.09934]]}},{"type":"Feature","properties":{"idx":102,"road":NaN,"cls":"tertiary","shops":0,"st_km":1.13,"mesh":"54391126"},"geometry":{"type":"LineString","coordinates":[[139.20317,36.10555],[139.20308,36.10368]]}},{"type":"Feature","properties":{"idx":15,"road":NaN,"cls":"tertiary","shops":0,"st_km":1.49,"mesh":"54391117"},"geometry":{"type":"LineString","coordinates":[[139.2186,36.09771],[139.21909,36.09745],[139.21933,36.09707],[139.21981,36.09689],[139.22063,36.09621],[139.22084,36.09584],[139.22083,36.09551],[139.22071,36.09525],[139.2193,36.0935],[139.21925,36.09331],[139.21927,36.09299],[139.2196,36.09189]]}},{"type":"Feature","properties":{"idx":127,"road":NaN,"cls":"tertiary","shops":0,"st_km":0.99,"mesh":"54391118"},"geometry":{"type":"LineString","coordinates":[[139.22847,36.09772],[139.229,36.0978]]}},{"type":"Feature","properties":{"idx":13,"road":NaN,"cls":"tertiary","shops":0,"st_km":1.76,"mesh":"54391117"},"geometry":{"type":"LineString","coordinates":[[139.2187,36.09803],[139.21834,36.09828],[139.2179,36.09899]]}},{"type":"Feature","properties":{"idx":100,"road":NaN,"cls":"tertiary","shops":0,"st_km":1.1,"mesh":"54391127"},"geometry":{"type":"LineString","coordinates":[[139.21499,36.10903],[139.21534,36.10862],[139.21541,36.10847],[139.21573,36.10641],[139.21595,36.1056],[139.21591,36.10447],[139.21602,36.10307],[139.2161,36.10288],[139.21653,36.1025]]}},{"type":"Feature","properties":{"idx":170,"road":NaN,"cls":"tertiary","shops":0,"st_km":1.23,"mesh":"54391137"},"geometry":{"type":"LineString","coordinates":[[139.22367,36.11434],[139.22252,36.11425],[139.22192,36.1143]]}},{"type":"Feature","properties":{"idx":30,"road":NaN,"cls":"tertiary","shops":0,"st_km":0.52,"mesh":"54391125"},"geometry":{"type":"LineString","coordinates":[[139.19682,36.10194],[139.19646,36.1009],[139.19595,36.10001],[139.19578,36.09964]]}},{"type":"Feature","properties":{"idx":16,"road":NaN,"cls":"tertiary","shops":0,"st_km":1.35,"mesh":"54391117"},"geometry":{"type":"LineString","coordinates":[[139.22275,36.09962],[139.22311,36.09946],[139.22347,36.09911]]}},{"type":"Feature","properties":{"idx":135,"road":NaN,"cls":"tertiary","shops":0,"st_km":0.92,"mesh":"54391118"},"geometry":{"type":"LineString","coordinates":[[139.23049,36.09749],[139.23038,36.09757],[139.22969,36.09763],[139.2292,36.0978],[139.229,36.0978]]}},{"type":"Feature","properties":{"idx":213,"road":NaN,"cls":"tertiary","shops":0,"st_km":0.88,"mesh":"54391137"},"geometry":{"type":"LineString","coordinates":[[139.21957,36.11429],[139.21844,36.11454],[139.21712,36.11466]]}},{"type":"Feature","properties":{"idx":1086,"road":NaN,"cls":"tertiary","shops":1,"st_km":0.76,"mesh":"54391147"},"geometry":{"type":"LineString","coordinates":[[139.21085,36.11742],[139.2127,36.11737],[139.21308,36.11725],[139.21356,36.11718],[139.21452,36.1172],[139.21538,36.11755],[139.21576,36.11808],[139.2159,36.11816],[139.21618,36.11817],[139.21676,36.11784],[139.21733,36.11725],[139.21771,36.11702],[139.21771,36.11696],[139.21753,36.11664],[139.2184,36.11591]]}},{"type":"Feature","properties":{"idx":19,"road":NaN,"cls":"tertiary","shops":0,"st_km":1.12,"mesh":"54391117"},"geometry":{"type":"LineString","coordinates":[[139.22382,36.09343],[139.22438,36.0937],[139.225,36.09383]]}},{"type":"Feature","properties":{"idx":122,"road":NaN,"cls":"tertiary","shops":0,"st_km":1.93,"mesh":"54391107"},"geometry":{"type":"LineString","coordinates":[[139.21984,36.09089],[139.21932,36.09032],[139.21935,36.08913],[139.21933,36.08901],[139.21919,36.08884],[139.21907,36.08874],[139.21727,36.08781],[139.21706,36.08772],[139.2168,36.08768],[139.21646,36.08778],[139.21575,36.08816],[139.21397,36.08862],[139.21383,36.08875],[139.21289,36.09015],[139.21255,36.09039],[139.21148,36.09072],[139.2112,36.09088],[139.2104,36.09198]]}},{"type":"Feature","properties":{"idx":77,"road":NaN,"cls":"tertiary","shops":0,"st_km":1.54,"mesh":"54391127"},"geometry":{"type":"LineString","coordinates":[[139.21779,36.10111],[139.21879,36.10145],[139.2195,36.10081]]}},{"type":"Feature","properties":{"idx":104,"road":NaN,"cls":"tertiary","shops":0,"st_km":1.28,"mesh":"54391118"},"geometry":{"type":"LineString","coordinates":[[139.22457,36.09877],[139.22479,36.0986],[139.22503,36.09821],[139.22567,36.09786]]}},{"type":"Feature","properties":{"idx":77,"road":NaN,"cls":"tertiary","shops":0,"st_km":1.53,"mesh":"54391127"},"geometry":{"type":"LineString","coordinates":[[139.21779,36.10111],[139.21721,36.10167],[139.2168,36.10221],[139.21653,36.1025]]}},{"type":"Feature","properties":{"idx":205,"road":"熊谷寄居線","cls":"primary","shops":0,"st_km":0.44,"mesh":"54391138"},"geometry":{"type":"LineString","coordinates":[[139.23194,36.11145],[139.2322,36.11149]]}},{"type":"Feature","properties":{"idx":77,"road":"熊谷寄居線","cls":"primary","shops":0,"st_km":1.3,"mesh":"54391139"},"geometry":{"type":"LineString","coordinates":[[139.2322,36.11149],[139.23367,36.11168],[139.24033,36.11192],[139.2419,36.11184],[139.2452,36.11188],[139.24783,36.11228],[139.24912,36.1124],[139.25044,36.11262],[139.25263,36.11264],[139.25292,36.11274],[139.25309,36.11285],[139.25351,36.11341],[139.25391,36.11379],[139.25498,36.11458],[139.25585,36.11502],[139.25807,36.11573],[139.25983,36.1165],[139.26026,36.11681],[139.26055,36.11724]]}},{"type":"Feature","properties":{"idx":119,"road":NaN,"cls":"tertiary","shops":0,"st_km":0.8,"mesh":"54391138"},"geometry":{"type":"LineString","coordinates":[[139.23961,36.11663],[139.23953,36.1164],[139.23927,36.11635],[139.23893,36.1162],[139.23797,36.1154],[139.2378,36.11531],[139.23673,36.11504],[139.23602,36.11462],[139.23585,36.11447],[139.23573,36.11416],[139.23572,36.11394],[139.23619,36.11177]]}},{"type":"Feature","properties":{"idx":81,"road":"川越児玉往還","cls":"tertiary","shops":0,"st_km":0.92,"mesh":"54391139"},"geometry":{"type":"LineString","coordinates":[[139.24293,36.11396],[139.2427,36.11386],[139.24258,36.11374],[139.24232,36.11319],[139.2419,36.11276],[139.24137,36.11207],[139.24127,36.11187]]}},{"type":"Feature","properties":{"idx":71,"road":"菅谷寄居線","cls":"secondary","shops":0,"st_km":1.26,"mesh":"54391139"},"geometry":{"type":"LineString","coordinates":[[139.2465,36.11297],[139.24678,36.1126],[139.24731,36.1113]]}},{"type":"Feature","properties":{"idx":75,"road":"菅谷寄居線","cls":"secondary","shops":0,"st_km":1.18,"mesh":"54391139"},"geometry":{"type":"LineString","coordinates":[[139.24196,36.11945],[139.24319,36.11519],[139.24344,36.11465],[139.24376,36.11429],[139.2442,36.11398],[139.24452,36.11384],[139.2458,36.11345],[139.24615,36.11326],[139.2465,36.11297]]}},{"type":"Feature","properties":{"idx":71,"road":"菅谷寄居線","cls":"secondary","shops":0,"st_km":1.26,"mesh":"54391139"},"geometry":{"type":"LineString","coordinates":[[139.24731,36.1113],[139.24745,36.11099]]}},{"type":"Feature","properties":{"idx":34,"road":NaN,"cls":"tertiary","shops":0,"st_km":0.86,"mesh":"54391129"},"geometry":{"type":"LineString","coordinates":[[139.24586,36.10912],[139.24514,36.10872],[139.24374,36.10785],[139.2419,36.10739],[139.241,36.10702]]}},{"type":"Feature","properties":{"idx":23,"road":NaN,"cls":"tertiary","shops":0,"st_km":1.41,"mesh":"54391129"},"geometry":{"type":"LineString","coordinates":[[139.24753,36.10578],[139.24994,36.1066],[139.2516,36.10738]]}},{"type":"Feature","properties":{"idx":66,"road":NaN,"cls":"tertiary","shops":0,"st_km":1.2,"mesh":"54391139"},"geometry":{"type":"LineString","coordinates":[[139.24723,36.10873],[139.24741,36.1087]]}},{"type":"Feature","properties":{"idx":64,"road":"川越児玉往還","cls":"tertiary","shops":0,"st_km":1.26,"mesh":"54391139"},"geometry":{"type":"LineString","coordinates":[[139.24741,36.1087],[139.24843,36.10852]]}},{"type":"Feature","properties":{"idx":13,"road":NaN,"cls":"tertiary","shops":0,"st_km":0.56,"mesh":"54391160"},"geometry":{"type":"LineString","coordinates":[[139.12747,36.13444],[139.12765,36.13396],[139.12782,36.13373]]}},{"type":"Feature","properties":{"idx":13,"road":NaN,"cls":"tertiary","shops":0,"st_km":0.58,"mesh":"54391160"},"geometry":{"type":"LineString","coordinates":[[139.12647,36.13531],[139.12681,36.13501]]}},{"type":"Feature","properties":{"idx":13,"road":NaN,"cls":"tertiary","shops":0,"st_km":0.58,"mesh":"54391160"},"geometry":{"type":"LineString","coordinates":[[139.12681,36.13501],[139.12747,36.13444]]}},{"type":"Feature","properties":{"idx":13,"road":NaN,"cls":"tertiary","shops":0,"st_km":0.6,"mesh":"54391160"},"geometry":{"type":"LineString","coordinates":[[139.12498,36.13645],[139.12599,36.13563],[139.12647,36.13531]]}},{"type":"Feature","properties":{"idx":124,"road":"岩田樋口停車場線","cls":"secondary","shops":0,"st_km":0.35,"mesh":"54391150"},"geometry":{"type":"LineString","coordinates":[[139.12599,36.13259],[139.12664,36.13157]]}},{"type":"Feature","properties":{"idx":120,"road":"岩田樋口停車場線","cls":"secondary","shops":0,"st_km":0.39,"mesh":"54391150"},"geometry":{"type":"LineString","coordinates":[[139.12664,36.13157],[139.12679,36.13115],[139.12705,36.12959]]}},{"type":"Feature","properties":{"idx":104,"road":"長瀞玉淀自然公園線","cls":"primary","shops":0,"st_km":1.56,"mesh":"54391151"},"geometry":{"type":"LineString","coordinates":[[139.14092,36.12929],[139.14114,36.12909]]}},{"type":"Feature","properties":{"idx":31,"road":"旧川越児玉往還","cls":"tertiary","shops":0,"st_km":1.36,"mesh":"54391193"},"geometry":{"type":"LineString","coordinates":[[139.17345,36.16296],[139.174,36.16281]]}},{"type":"Feature","properties":{"idx":47,"road":NaN,"cls":"tertiary","shops":0,"st_km":1.83,"mesh":"54391184"},"geometry":{"type":"LineString","coordinates":[[139.17719,36.15128],[139.17743,36.15141],[139.17906,36.15286],[139.17931,36.1531],[139.17953,36.1535],[139.18009,36.15395],[139.18027,36.15434],[139.18053,36.15557],[139.18076,36.15641],[139.18121,36.15701],[139.18272,36.15815],[139.18288,36.15891]]}},{"type":"Feature","properties":{"idx":27,"road":"小前田児玉線","cls":"secondary","shops":0,"st_km":1.53,"mesh":"54391194"},"geometry":{"type":"LineString","coordinates":[[139.1809,36.15931],[139.18108,36.15935],[139.1812,36.15932]]}},{"type":"Feature","properties":{"idx":71,"road":"本庄寄居線","cls":"primary","shops":0,"st_km":1.28,"mesh":"54391184"},"geometry":{"type":"LineString","coordinates":[[139.18637,36.15789],[139.18654,36.15616],[139.18684,36.15405],[139.18683,36.15396],[139.18665,36.15381]]}},{"type":"Feature","properties":{"idx":44,"road":"深谷寄居線","cls":"primary","shops":0,"st_km":1.38,"mesh":"54391168"},"geometry":{"type":"LineString","coordinates":[[139.22538,36.14124],[139.2251,36.14101]]}},{"type":"Feature","properties":{"idx":118,"road":"寄居岡部深谷線","cls":"secondary","shops":0,"st_km":1.13,"mesh":"54391196"},"geometry":{"type":"LineString","coordinates":[[139.20548,36.1629],[139.20566,36.16352]]}},{"type":"Feature","properties":{"idx":169,"road":NaN,"cls":"tertiary","shops":0,"st_km":0.43,"mesh":"54391145"},"geometry":{"type":"LineString","coordinates":[[139.18999,36.11908],[139.18994,36.11946],[139.18957,36.12079]]}},{"type":"Feature","properties":{"idx":119,"road":"広木折原線","cls":"secondary","shops":0,"st_km":1.24,"mesh":"54391143"},"geometry":{"type":"LineString","coordinates":[[139.1693,36.12281],[139.16964,36.12259],[139.16989,36.12223],[139.17056,36.12072],[139.1708,36.11985]]}},{"type":"Feature","properties":{"idx":122,"road":"中央通り","cls":"tertiary","shops":0,"st_km":0.21,"mesh":"54391135"},"geometry":{"type":"LineString","coordinates":[[139.19524,36.11495],[139.1947,36.11714]]}},{"type":"Feature","properties":{"idx":87,"road":NaN,"cls":"tertiary","shops":0,"st_km":0.53,"mesh":"54391128"},"geometry":{"type":"LineString","coordinates":[[139.23851,36.10235],[139.23711,36.10286],[139.23606,36.10341],[139.23431,36.1039],[139.23361,36.10401],[139.23338,36.104]]}},{"type":"Feature","properties":{"idx":37,"road":NaN,"cls":"tertiary","shops":0,"st_km":0.74,"mesh":"54391129"},"geometry":{"type":"LineString","coordinates":[[139.23863,36.1023],[139.23851,36.10235]]}},{"type":"Feature","properties":{"idx":57,"road":"東伴場地男衾停車場線","cls":"secondary","shops":0,"st_km":0.41,"mesh":"54391129"},"geometry":{"type":"LineString","coordinates":[[139.2358,36.10728],[139.23607,36.10687],[139.23619,36.10678],[139.23662,36.10668],[139.2399,36.1066],[139.24051,36.10677],[139.241,36.10702]]}},{"type":"Feature","properties":{"idx":325,"road":NaN,"cls":"primary","shops":0,"st_km":0.25,"mesh":"54391136"},"geometry":{"type":"LineString","coordinates":[[139.20675,36.11255],[139.20593,36.1124]]}},{"type":"Feature","properties":{"idx":249,"road":"飯能寄居線","cls":"primary","shops":0,"st_km":0.54,"mesh":"54391136"},"geometry":{"type":"LineString","coordinates":[[139.20593,36.1124],[139.20475,36.11211],[139.20042,36.1112]]}},{"type":"Feature","properties":{"idx":26,"road":"川越児玉往還","cls":"tertiary","shops":0,"st_km":1.31,"mesh":"54391194"},"geometry":{"type":"LineString","coordinates":[[139.17456,36.16269],[139.1759,36.16265]]}},{"type":"Feature","properties":{"idx":44,"road":NaN,"cls":"tertiary","shops":0,"st_km":2.18,"mesh":"54391184"},"geometry":{"type":"LineString","coordinates":[[139.17656,36.1494],[139.17645,36.14931],[139.17638,36.14918],[139.17644,36.14906],[139.17668,36.14907],[139.17742,36.14946],[139.17752,36.1496],[139.17737,36.15008],[139.17715,36.15022],[139.17623,36.15001],[139.1761,36.15001],[139.17596,36.15008],[139.17591,36.15026],[139.17602,36.15039],[139.17688,36.15081],[139.17719,36.15128]]}},{"type":"Feature","properties":{"idx":574,"road":"小前田児玉線","cls":"secondary","shops":1,"st_km":0.17,"mesh":"54391157"},"geometry":{"type":"LineString","coordinates":[[139.22245,36.12865],[139.22246,36.12614]]}},{"type":"Feature","properties":{"idx":364,"road":"小前田児玉線","cls":"secondary","shops":0,"st_km":0.22,"mesh":"54391157"},"geometry":{"type":"LineString","coordinates":[[139.21991,36.12895],[139.21996,36.12885]]}},{"type":"Feature","properties":{"idx":400,"road":"小前田児玉線","cls":"secondary","shops":0,"st_km":0.12,"mesh":"54391157"},"geometry":{"type":"LineString","coordinates":[[139.21996,36.12885],[139.22015,36.1286],[139.22039,36.12849],[139.22053,36.12847],[139.22245,36.12865]]}},{"type":"Feature","properties":{"idx":103,"road":"広木折原線","cls":"secondary","shops":0,"st_km":1.51,"mesh":"54391143"},"geometry":{"type":"LineString","coordinates":[[139.17153,36.11752],[139.17117,36.11809],[139.17102,36.11889]]}},{"type":"Feature","properties":{"idx":6,"road":"広木折原線","cls":"secondary","shops":0,"st_km":1.84,"mesh":"54391133"},"geometry":{"type":"LineString","coordinates":[[139.17362,36.11427],[139.17287,36.11559],[139.17226,36.11649]]}},{"type":"Feature","properties":{"idx":96,"road":NaN,"cls":"tertiary","shops":0,"st_km":1.38,"mesh":"54391134"},"geometry":{"type":"LineString","coordinates":[[139.18036,36.11123],[139.18048,36.11119]]}},{"type":"Feature","properties":{"idx":203,"road":NaN,"cls":"tertiary","shops":0,"st_km":1.09,"mesh":"54391116"},"geometry":{"type":"LineString","coordinates":[[139.20326,36.09071],[139.20444,36.09113],[139.20467,36.09127],[139.20572,36.0924],[139.20595,36.0925],[139.20974,36.09248],[139.21006,36.0924],[139.2104,36.09198]]}},{"type":"Feature","properties":{"idx":180,"road":NaN,"cls":"tertiary","shops":0,"st_km":0.36,"mesh":"54391145"},"geometry":{"type":"LineString","coordinates":[[139.19659,36.11981],[139.19642,36.11981]]}},{"type":"Feature","properties":{"idx":196,"road":NaN,"cls":"tertiary","shops":0,"st_km":0.28,"mesh":"54391145"},"geometry":{"type":"LineString","coordinates":[[139.19642,36.11981],[139.19562,36.11985],[139.19333,36.11974]]}},{"type":"Feature","properties":{"idx":36,"road":NaN,"cls":"tertiary","shops":0,"st_km":1.35,"mesh":"54391168"},"geometry":{"type":"LineString","coordinates":[[139.22568,36.1408],[139.22583,36.14084]]}},{"type":"Feature","properties":{"idx":82,"road":"深谷寄居線","cls":"primary","shops":0,"st_km":1.74,"mesh":"54391178"},"geometry":{"type":"LineString","coordinates":[[139.22762,36.144],[139.22766,36.14406]]}},{"type":"Feature","properties":{"idx":234,"road":"深谷寄居線","cls":"primary","shops":0,"st_km":2.87,"mesh":"54391188"},"geometry":{"type":"LineString","coordinates":[[139.23138,36.14852],[139.23251,36.14977],[139.23289,36.15041],[139.23314,36.1507],[139.23593,36.15385],[139.23701,36.1548],[139.23894,36.15569],[139.24015,36.15668],[139.24122,36.15779],[139.24316,36.15958],[139.2438,36.16033],[139.24421,36.16064]]}},{"type":"Feature","properties":{"idx":223,"road":NaN,"cls":"tertiary","shops":0,"st_km":0.15,"mesh":"54391145"},"geometry":{"type":"LineString","coordinates":[[139.19216,36.11863],[139.19368,36.11896]]}},{"type":"Feature","properties":{"idx":36,"road":NaN,"cls":"tertiary","shops":0,"st_km":1.34,"mesh":"54391168"},"geometry":{"type":"LineString","coordinates":[[139.22538,36.1407],[139.22568,36.1408]]}},{"type":"Feature","properties":{"idx":14,"road":"坂本寄居線","cls":"secondary","shops":0,"st_km":2.1,"mesh":"54391103"},"geometry":{"type":"LineString","coordinates":[[139.17367,36.08295],[139.17234,36.08486],[139.1723,36.08501],[139.17234,36.08555],[139.17241,36.08577],[139.17304,36.08709],[139.1732,36.08752],[139.17335,36.08829],[139.17387,36.08943],[139.17388,36.08954],[139.17384,36.08966],[139.17321,36.09041],[139.17259,36.09082],[139.17226,36.09094],[139.1722,36.09109],[139.17226,36.09121],[139.17268,36.09139],[139.17295,36.09143],[139.17392,36.09143],[139.17412,36.09149],[139.17424,36.09163],[139.17444,36.09254],[139.17471,36.09339],[139.17471,36.09353],[139.17464,36.09364]]}},{"type":"Feature","properties":{"idx":11,"road":NaN,"cls":"tertiary","shops":0,"st_km":2.69,"mesh":"54391122"},"geometry":{"type":"LineString","coordinates":[[139.15167,36.10274],[139.15115,36.10328],[139.15108,36.10347],[139.15106,36.10384]]}},{"type":"Feature","properties":{"idx":274,"road":"飯能寄居線","cls":"primary","shops":0,"st_km":1.11,"mesh":"54391144"},"geometry":{"type":"LineString","coordinates":[[139.18329,36.11848],[139.18054,36.11978],[139.18029,36.11982],[139.17963,36.1198],[139.17954,36.11983],[139.17951,36.11991]]}},{"type":"Feature","properties":{"idx":406,"road":"飯能寄居線","cls":"primary","shops":0,"st_km":0.63,"mesh":"54391144"},"geometry":{"type":"LineString","coordinates":[[139.18672,36.11686],[139.18656,36.11694]]}},{"type":"Feature","properties":{"idx":11,"road":NaN,"cls":"tertiary","shops":0,"st_km":1.6,"mesh":"54391117"},"geometry":{"type":"LineString","coordinates":[[139.21535,36.09448],[139.21435,36.09342],[139.21419,36.09339],[139.21398,36.09345],[139.21346,36.09399],[139.21334,36.09404],[139.21315,36.09402],[139.21228,36.09365],[139.21198,36.09338],[139.21158,36.09273],[139.2114,36.09252],[139.2104,36.09198]]}},{"type":"Feature","properties":{"idx":18,"road":NaN,"cls":"tertiary","shops":0,"st_km":1.17,"mesh":"54391117"},"geometry":{"type":"LineString","coordinates":[[139.22199,36.0935],[139.22509,36.09436],[139.22532,36.09437],[139.22586,36.09426]]}},{"type":"Feature","properties":{"idx":19,"road":NaN,"cls":"tertiary","shops":0,"st_km":1.12,"mesh":"54391117"},"geometry":{"type":"LineString","coordinates":[[139.22265,36.09369],[139.22282,36.0933],[139.22294,36.09317],[139.22345,36.09295],[139.2237,36.09275],[139.22444,36.09107],[139.22466,36.0909],[139.22489,36.09083],[139.22596,36.09084]]}},{"type":"Feature","properties":{"idx":15,"road":NaN,"cls":"tertiary","shops":0,"st_km":1.49,"mesh":"54391117"},"geometry":{"type":"LineString","coordinates":[[139.22303,36.09872],[139.21957,36.09964]]}},{"type":"Feature","properties":{"idx":70,"road":"川越児玉往還","cls":"tertiary","shops":0,"st_km":1.11,"mesh":"54391139"},"geometry":{"type":"LineString","coordinates":[[139.24531,36.10936],[139.24639,36.1089],[139.24723,36.10873]]}},{"type":"Feature","properties":{"idx":378,"road":NaN,"cls":"tertiary","shops":0,"st_km":1.05,"mesh":"54391149"},"geometry":{"type":"LineString","coordinates":[[139.24009,36.12292],[139.24257,36.12344]]}},{"type":"Feature","properties":{"idx":44,"road":NaN,"cls":"tertiary","shops":0,"st_km":2.23,"mesh":"54391184"},"geometry":{"type":"LineString","coordinates":[[139.17506,36.1543],[139.17507,36.15353],[139.17525,36.15332],[139.1757,36.15302],[139.1759,36.15282],[139.17605,36.15251],[139.17608,36.15193],[139.17653,36.15133]]}},{"type":"Feature","properties":{"idx":253,"road":"花植木街道（南線）","cls":"tertiary","shops":0,"st_km":0.48,"mesh":"54391157"},"geometry":{"type":"LineString","coordinates":[[139.21766,36.13199],[139.22013,36.13288],[139.22179,36.13333],[139.22338,36.13423]]}},{"type":"Feature","properties":{"idx":87,"road":"飯能寄居線","cls":"primary","shops":0,"st_km":0.67,"mesh":"54391135"},"geometry":{"type":"LineString","coordinates":[[139.20042,36.1112],[139.19938,36.11087],[139.19872,36.11083]]}},{"type":"Feature","properties":{"idx":195,"road":"飯能寄居線","cls":"primary","shops":1,"st_km":0.37,"mesh":"54391135"},"geometry":{"type":"LineString","coordinates":[[139.19524,36.11495],[139.19265,36.11377],[139.1922,36.11359],[139.19199,36.11357]]}},{"type":"Feature","properties":{"idx":121,"road":"菅谷寄居線","cls":"secondary","shops":0,"st_km":0.34,"mesh":"54391135"},"geometry":{"type":"LineString","coordinates":[[139.19627,36.11542],[139.19599,36.11528]]}},{"type":"Feature","properties":{"idx":135,"road":"寄居停車場線","cls":"secondary","shops":0,"st_km":0.23,"mesh":"54391135"},"geometry":{"type":"LineString","coordinates":[[139.19525,36.1174],[139.19542,36.11749],[139.1956,36.1174],[139.19589,36.11606],[139.19627,36.11542]]}},{"type":"Feature","properties":{"idx":122,"road":"飯能寄居線","cls":"primary","shops":0,"st_km":0.44,"mesh":"54391135"},"geometry":{"type":"LineString","coordinates":[[139.19152,36.11391],[139.19,36.11523],[139.18965,36.11548],[139.18672,36.11686]]}},{"type":"Feature","properties":{"idx":446,"road":NaN,"cls":"tertiary","shops":0,"st_km":1.38,"mesh":"54391175"},"geometry":{"type":"LineString","coordinates":[[139.19424,36.14133],[139.19497,36.14158],[139.196,36.1418],[139.19827,36.14269]]}},{"type":"Feature","properties":{"idx":26,"road":NaN,"cls":"tertiary","shops":0,"st_km":1.27,"mesh":"54391194"},"geometry":{"type":"LineString","coordinates":[[139.1759,36.16265],[139.17672,36.16262],[139.17684,36.16268]]}},{"type":"Feature","properties":{"idx":31,"road":"川越児玉往還","cls":"tertiary","shops":0,"st_km":1.34,"mesh":"54391193"},"geometry":{"type":"LineString","coordinates":[[139.174,36.16281],[139.17456,36.16269]]}},{"type":"Feature","properties":{"idx":180,"road":"飯能寄居線","cls":"primary","shops":1,"st_km":0.46,"mesh":"54391135"},"geometry":{"type":"LineString","coordinates":[[139.19199,36.11357],[139.19152,36.11391]]}},{"type":"Feature","properties":{"idx":356,"road":"飯能寄居線","cls":"primary","shops":0,"st_km":0.78,"mesh":"54391144"},"geometry":{"type":"LineString","coordinates":[[139.18656,36.11694],[139.18329,36.11848]]}},{"type":"Feature","properties":{"idx":142,"road":NaN,"cls":"tertiary","shops":0,"st_km":0.93,"mesh":"54391106"},"geometry":{"type":"LineString","coordinates":[[139.20326,36.09071],[139.20294,36.09062]]}},{"type":"Feature","properties":{"idx":139,"road":NaN,"cls":"tertiary","shops":0,"st_km":0.04,"mesh":"54391128"},"geometry":{"type":"LineString","coordinates":[[139.23344,36.10838],[139.23363,36.1083],[139.23381,36.10782]]}},{"type":"Feature","properties":{"idx":140,"road":"東伴場地男衾停車場線","cls":"secondary","shops":0,"st_km":0.15,"mesh":"54391128"},"geometry":{"type":"LineString","coordinates":[[139.2358,36.10728],[139.23515,36.10713]]}},{"type":"Feature","properties":{"idx":21,"road":NaN,"cls":"tertiary","shops":0,"st_km":2.77,"mesh":"54391121"},"geometry":{"type":"LineString","coordinates":[[139.14993,36.10278],[139.14981,36.10288],[139.1496,36.10293],[139.14901,36.10274],[139.14887,36.10276],[139.14874,36.10285]]}},{"type":"Feature","properties":{"idx":47,"road":NaN,"cls":"tertiary","shops":0,"st_km":0.68,"mesh":"54391159"},"geometry":{"type":"LineString","coordinates":[[139.24099,36.12938],[139.241,36.12935]]}},{"type":"Feature","properties":{"idx":90,"road":NaN,"cls":"tertiary","shops":0,"st_km":0.39,"mesh":"54391135"},"geometry":{"type":"LineString","coordinates":[[139.19685,36.11436],[139.19677,36.11478],[139.19627,36.11542]]}},{"type":"Feature","properties":{"idx":80,"road":"白鳥通り","cls":"primary","shops":0,"st_km":1.02,"mesh":"54391150"},"geometry":{"type":"LineString","coordinates":[[139.12663,36.12951],[139.12725,36.12964],[139.12847,36.13012],[139.12988,36.1305],[139.13072,36.1308],[139.13176,36.1308],[139.13372,36.13117],[139.13531,36.13137],[139.13563,36.13135],[139.13591,36.13128],[139.13675,36.13073],[139.13773,36.13041],[139.13878,36.1299],[139.1406,36.12947],[139.14092,36.12929]]}},{"type":"Feature","properties":{"idx":132,"road":"白鳥通り","cls":"primary","shops":0,"st_km":0.4,"mesh":"54391150"},"geometry":{"type":"LineString","coordinates":[[139.12653,36.1295],[139.12663,36.12951]]}},{"type":"Feature","properties":{"idx":28,"road":NaN,"cls":"tertiary","shops":3,"st_km":2.61,"mesh":"54391122"},"geometry":{"type":"LineString","coordinates":[[139.15102,36.10392],[139.15084,36.10406]]}},{"type":"Feature","properties":{"idx":28,"road":NaN,"cls":"tertiary","shops":3,"st_km":2.62,"mesh":"54391122"},"geometry":{"type":"LineString","coordinates":[[139.15106,36.10384],[139.15102,36.10392]]}},{"type":"Feature","properties":{"idx":13,"road":NaN,"cls":"tertiary","shops":0,"st_km":1.75,"mesh":"54391117"},"geometry":{"type":"LineString","coordinates":[[139.21869,36.09784],[139.2186,36.09771]]}},{"type":"Feature","properties":{"idx":122,"road":"菅谷寄居線","cls":"secondary","shops":0,"st_km":0.19,"mesh":"54391135"},"geometry":{"type":"LineString","coordinates":[[139.19969,36.11744],[139.19975,36.11699],[139.19972,36.11694],[139.19627,36.11542]]}},{"type":"Feature","properties":{"idx":234,"road":"菅谷寄居線","cls":"secondary","shops":0,"st_km":0.08,"mesh":"54391145"},"geometry":{"type":"LineString","coordinates":[[139.1997,36.11754],[139.19969,36.11744]]}},{"type":"Feature","properties":{"idx":36,"road":"赤浜小川線","cls":"secondary","shops":0,"st_km":0.94,"mesh":"54391129"},"geometry":{"type":"LineString","coordinates":[[139.24087,36.10229],[139.24254,36.10262],[139.24326,36.10266]]}},{"type":"Feature","properties":{"idx":97,"road":NaN,"cls":"tertiary","shops":0,"st_km":0.47,"mesh":"54391169"},"geometry":{"type":"LineString","coordinates":[[139.25028,36.13524],[139.24859,36.13506],[139.24561,36.13458],[139.24449,36.1345]]}},{"type":"Feature","properties":{"idx":99,"road":NaN,"cls":"tertiary","shops":0,"st_km":0.45,"mesh":"54391169"},"geometry":{"type":"LineString","coordinates":[[139.24821,36.13508],[139.24837,36.1344]]}},{"type":"Feature","properties":{"idx":118,"road":NaN,"cls":"tertiary","shops":1,"st_km":0.12,"mesh":"54391159"},"geometry":{"type":"LineString","coordinates":[[139.247,36.13054],[139.24717,36.13057]]}},{"type":"Feature","properties":{"idx":408,"road":NaN,"cls":"pedestrian","shops":5,"st_km":0.04,"mesh":"54391159"},"geometry":{"type":"LineString","coordinates":[[139.2478,36.13091],[139.24828,36.1311],[139.24837,36.13122]]}},{"type":"Feature","properties":{"idx":110,"road":NaN,"cls":"pedestrian","shops":0,"st_km":0.1,"mesh":"54391159"},"geometry":{"type":"LineString","coordinates":[[139.24837,36.13122],[139.24847,36.13143],[139.24875,36.1317],[139.24874,36.13191]]}},{"type":"Feature","properties":{"idx":73,"road":NaN,"cls":"tertiary","shops":0,"st_km":1.06,"mesh":"54391139"},"geometry":{"type":"LineString","coordinates":[[139.24336,36.11398],[139.24321,36.11385],[139.24312,36.11384],[139.24293,36.11396]]}},{"type":"Feature","properties":{"idx":70,"road":NaN,"cls":"tertiary","shops":0,"st_km":1.11,"mesh":"54391139"},"geometry":{"type":"LineString","coordinates":[[139.24376,36.11429],[139.24336,36.11398]]}},{"type":"Feature","properties":{"idx":17,"road":NaN,"cls":"tertiary","shops":0,"st_km":1.33,"mesh":"54391117"},"geometry":{"type":"LineString","coordinates":[[139.2243,36.09865],[139.22457,36.09877]]}},{"type":"Feature","properties":{"idx":13,"road":NaN,"cls":"tertiary","shops":0,"st_km":1.86,"mesh":"54391117"},"geometry":{"type":"LineString","coordinates":[[139.21655,36.09759],[139.21554,36.09549],[139.21534,36.09459],[139.21535,36.09448],[139.21543,36.09444],[139.21608,36.09435],[139.21624,36.09438],[139.21629,36.09444],[139.21643,36.09515],[139.21796,36.09677],[139.2186,36.09771]]}},{"type":"Feature","properties":{"idx":221,"road":NaN,"cls":"tertiary","shops":0,"st_km":0.13,"mesh":"54391138"},"geometry":{"type":"LineString","coordinates":[[139.2336,36.10898],[139.23376,36.10902]]}},{"type":"Feature","properties":{"idx":221,"road":NaN,"cls":"tertiary","shops":0,"st_km":0.13,"mesh":"54391138"},"geometry":{"type":"LineString","coordinates":[[139.23376,36.10902],[139.23383,36.10903]]}},{"type":"Feature","properties":{"idx":523,"road":"鉢形停車場線","cls":"secondary","shops":1,"st_km":0.07,"mesh":"54391136"},"geometry":{"type":"LineString","coordinates":[[139.20929,36.11362],[139.20938,36.11317]]}},{"type":"Feature","properties":{"idx":56,"road":NaN,"cls":"tertiary","shops":0,"st_km":1.1,"mesh":"54391135"},"geometry":{"type":"LineString","coordinates":[[139.18894,36.10844],[139.18904,36.10836]]}},{"type":"Feature","properties":{"idx":110,"road":NaN,"cls":"tertiary","shops":0,"st_km":1.18,"mesh":"54391134"},"geometry":{"type":"LineString","coordinates":[[139.18048,36.11119],[139.18158,36.11085],[139.18236,36.11023],[139.18385,36.11],[139.18536,36.1096],[139.18677,36.10944],[139.18792,36.10924],[139.18824,36.10906],[139.18894,36.10844]]}},{"type":"Feature","properties":{"idx":5,"road":NaN,"cls":"tertiary","shops":0,"st_km":1.7,"mesh":"54391133"},"geometry":{"type":"LineString","coordinates":[[139.17025,36.11498],[139.17008,36.11502]]}},{"type":"Feature","properties":{"idx":5,"road":NaN,"cls":"tertiary","shops":0,"st_km":1.71,"mesh":"54391133"},"geometry":{"type":"LineString","coordinates":[[139.1705,36.11497],[139.17025,36.11498]]}},{"type":"Feature","properties":{"idx":299,"road":NaN,"cls":"tertiary","shops":0,"st_km":0.37,"mesh":"54391156"},"geometry":{"type":"LineString","coordinates":[[139.20653,36.12843],[139.20617,36.12823],[139.20573,36.12786],[139.20504,36.12739],[139.20304,36.12661],[139.20293,36.12654],[139.20269,36.12613]]}},{"type":"Feature","properties":{"idx":86,"road":"飯能寄居線","cls":"primary","shops":0,"st_km":0.69,"mesh":"54391135"},"geometry":{"type":"LineString","coordinates":[[139.19872,36.11083],[139.19845,36.11085]]}},{"type":"Feature","properties":{"idx":88,"road":"飯能寄居線","cls":"primary","shops":0,"st_km":0.65,"mesh":"54391135"},"geometry":{"type":"LineString","coordinates":[[139.19676,36.11208],[139.19774,36.11103]]}},{"type":"Feature","properties":{"idx":96,"road":"広木折原線","cls":"secondary","shops":0,"st_km":1.65,"mesh":"54391143"},"geometry":{"type":"LineString","coordinates":[[139.17226,36.11649],[139.17153,36.11752]]}},{"type":"Feature","properties":{"idx":73,"road":"深谷寄居線","cls":"primary","shops":0,"st_km":2.04,"mesh":"54391178"},"geometry":{"type":"LineString","coordinates":[[139.22766,36.14406],[139.22904,36.14636],[139.22982,36.14719],[139.23068,36.14783],[139.23138,36.14852]]}},{"type":"Feature","properties":{"idx":221,"road":"深谷寄居線","cls":"primary","shops":0,"st_km":3.25,"mesh":"54391199"},"geometry":{"type":"LineString","coordinates":[[139.24421,36.16064],[139.24522,36.16142],[139.24598,36.16191],[139.2482,36.1638],[139.24914,36.16448],[139.24992,36.16517]]}},{"type":"Feature","properties":{"idx":35,"road":NaN,"cls":"tertiary","shops":0,"st_km":0.82,"mesh":"54391129"},"geometry":{"type":"LineString","coordinates":[[139.24087,36.10229],[139.24008,36.10214],[139.23966,36.10212],[139.23905,36.10218],[139.23863,36.1023]]}},{"type":"Feature","properties":{"idx":34,"road":"赤浜小川線","cls":"secondary","shops":0,"st_km":1.02,"mesh":"54391129"},"geometry":{"type":"LineString","coordinates":[[139.24326,36.10266],[139.24335,36.10266]]}},{"type":"Feature","properties":{"idx":32,"road":"赤浜小川線","cls":"secondary","shops":0,"st_km":1.11,"mesh":"54391129"},"geometry":{"type":"LineString","coordinates":[[139.24335,36.10266],[139.2442,36.10251],[139.24534,36.10219]]}},{"type":"Feature","properties":{"idx":26,"road":"赤浜小川線","cls":"secondary","shops":0,"st_km":1.42,"mesh":"54391129"},"geometry":{"type":"LineString","coordinates":[[139.24534,36.10219],[139.24919,36.10111],[139.24955,36.10099],[139.24994,36.10076]]}},{"type":"Feature","properties":{"idx":161,"road":"赤浜小川線","cls":"secondary","shops":0,"st_km":1.16,"mesh":"54391109"},"geometry":{"type":"LineString","coordinates":[[139.25119,36.0972],[139.25129,36.09672],[139.25153,36.09604],[139.25088,36.09568],[139.25013,36.09513],[139.2499,36.09482],[139.24953,36.09372],[139.24931,36.09204],[139.24905,36.09096],[139.24906,36.0907],[139.2492,36.0903],[139.24944,36.08999],[139.25096,36.08814],[139.25233,36.08665],[139.25242,36.08639],[139.25247,36.086],[139.25266,36.08542],[139.25294,36.085],[139.25359,36.08446],[139.25378,36.08424],[139.25407,36.08357]]}},{"type":"Feature","properties":{"idx":17,"road":"坂本寄居線","cls":"secondary","shops":0,"st_km":1.75,"mesh":"54391114"},"geometry":{"type":"LineString","coordinates":[[139.17456,36.09373],[139.17448,36.09383],[139.17449,36.09397],[139.17562,36.09548],[139.17577,36.0959],[139.17586,36.09654],[139.1758,36.09676],[139.17568,36.09698],[139.17522,36.09744],[139.17507,36.09777],[139.17509,36.09798],[139.17582,36.09945]]}},{"type":"Feature","properties":{"idx":92,"road":"坂本寄居線","cls":"secondary","shops":0,"st_km":1.89,"mesh":"54391113"},"geometry":{"type":"LineString","coordinates":[[139.17464,36.09364],[139.17456,36.09373]]}},{"type":"Feature","properties":{"idx":105,"road":NaN,"cls":"tertiary","shops":0,"st_km":1.25,"mesh":"54391134"},"geometry":{"type":"LineString","coordinates":[[139.18421,36.10884],[139.18423,36.10896],[139.18412,36.10917],[139.18412,36.10929],[139.18433,36.10987]]}},{"type":"Feature","properties":{"idx":100,"road":NaN,"cls":"tertiary","shops":0,"st_km":1.32,"mesh":"54391134"},"geometry":{"type":"LineString","coordinates":[[139.18394,36.10817],[139.18421,36.10884]]}},{"type":"Feature","properties":{"idx":16,"road":NaN,"cls":"tertiary","shops":0,"st_km":1.38,"mesh":"54391117"},"geometry":{"type":"LineString","coordinates":[[139.22303,36.09872],[139.2243,36.09865]]}},{"type":"Feature","properties":{"idx":14,"road":NaN,"cls":"tertiary","shops":0,"st_km":1.63,"mesh":"54391117"},"geometry":{"type":"LineString","coordinates":[[139.21957,36.09964],[139.21826,36.09993]]}},{"type":"Feature","properties":{"idx":124,"road":NaN,"cls":"tertiary","shops":0,"st_km":1.03,"mesh":"54391118"},"geometry":{"type":"LineString","coordinates":[[139.22511,36.09386],[139.22581,36.09401]]}},{"type":"Feature","properties":{"idx":121,"road":NaN,"cls":"tertiary","shops":0,"st_km":1.06,"mesh":"54391118"},"geometry":{"type":"LineString","coordinates":[[139.225,36.09383],[139.22511,36.09386]]}},{"type":"Feature","properties":{"idx":190,"road":NaN,"cls":"tertiary","shops":0,"st_km":1.04,"mesh":"54391137"},"geometry":{"type":"LineString","coordinates":[[139.21847,36.11584],[139.21869,36.11567],[139.21895,36.11557],[139.22028,36.11516],[139.22028,36.11482],[139.2202,36.11473],[139.21995,36.11465],[139.21957,36.11429]]}},{"type":"Feature","properties":{"idx":208,"road":NaN,"cls":"tertiary","shops":0,"st_km":0.91,"mesh":"54391137"},"geometry":{"type":"LineString","coordinates":[[139.2184,36.11591],[139.21847,36.11584]]}},{"type":"Feature","properties":{"idx":24,"road":"赤浜小川線旧道","cls":"tertiary","shops":0,"st_km":1.34,"mesh":"54391129"},"geometry":{"type":"LineString","coordinates":[[139.24087,36.10229],[139.24132,36.10197],[139.24166,36.10179],[139.24294,36.10131],[139.24354,36.1012],[139.24481,36.1012],[139.24529,36.10109],[139.24788,36.09941],[139.24897,36.09928],[139.24932,36.09914],[139.24956,36.09895],[139.24987,36.09844],[139.25038,36.09802]]}}]}