{"type":"FeatureCollection","features":[{"type":"Feature","properties":{"idx":285,"road":"妻沼小島太田線","cls":"secondary","shops":1,"st_km":3.73,"mesh":"54393208"},"geometry":{"type":"LineString","coordinates":[[139.36007,36.24739],[139.36002,36.24754],[139.35945,36.24815],[139.35915,36.24869],[139.35888,36.24901],[139.35738,36.25024],[139.357,36.2505],[139.35632,36.25085],[139.3556,36.25111],[139.35503,36.25119],[139.35382,36.25123]]}},{"type":"Feature","properties":{"idx":172,"road":NaN,"cls":"tertiary","shops":0,"st_km":3.47,"mesh":"54393208"},"geometry":{"type":"LineString","coordinates":[[139.3523,36.25272],[139.35296,36.2519],[139.35382,36.25123]]}},{"type":"Feature","properties":{"idx":192,"road":"妻沼小島太田線","cls":"secondary","shops":0,"st_km":3.56,"mesh":"54393208"},"geometry":{"type":"LineString","coordinates":[[139.35382,36.25123],[139.35323,36.25124],[139.35273,36.25118],[139.35043,36.25054]]}},{"type":"Feature","properties":{"idx":194,"road":"妻沼小島太田線","cls":"secondary","shops":0,"st_km":3.47,"mesh":"54393208"},"geometry":{"type":"LineString","coordinates":[[139.35043,36.25054],[139.35059,36.25111],[139.35077,36.25143],[139.3523,36.25272]]}}]}