{"type":"FeatureCollection","features":[{"type":"Feature","properties":{"idx":23,"road":"羽生妻沼線","cls":"primary","shops":0,"st_km":6.39,"mesh":"54392333"},"geometry":{"type":"LineString","coordinates":[[139.42457,36.19771],[139.42447,36.19715],[139.4247,36.1955],[139.42472,36.19459],[139.42509,36.19362],[139.42512,36.19308],[139.42493,36.19235],[139.4245,36.19189],[139.42388,36.19101]]}},{"type":"Feature","properties":{"idx":251,"road":"羽生妻沼線","cls":"primary","shops":0,"st_km":2.58,"mesh":"54392328"},"geometry":{"type":"LineString","coordinates":[[139.50077,36.18369],[139.49929,36.18505],[139.49875,36.18536],[139.49805,36.18553],[139.4946,36.18586],[139.49431,36.18595],[139.49373,36.18623],[139.49238,36.18661],[139.49196,36.18665],[139.49151,36.18658],[139.48838,36.18584],[139.48758,36.18577],[139.48518,36.18571],[139.48422,36.18547],[139.48344,36.18551],[139.48298,36.18543],[139.4825,36.18519],[139.48217,36.18512],[139.48124,36.18514],[139.47805,36.18493],[139.47589,36.18499],[139.47443,36.18485],[139.47316,36.18489]]}},{"type":"Feature","properties":{"idx":81,"road":"弥藤吾行田線","cls":"secondary","shops":0,"st_km":4.55,"mesh":"54392312"},"geometry":{"type":"LineString","coordinates":[[139.4025,36.17925],[139.40238,36.1799],[139.40207,36.18111]]}},{"type":"Feature","properties":{"idx":80,"road":"","cls":"tertiary","shops":0,"st_km":1.7,"mesh":"54392329"},"geometry":{"type":"LineString","coordinates":[[139.47394,36.18126],[139.47411,36.181],[139.47436,36.1808],[139.47466,36.18068],[139.47506,36.18066],[139.49926,36.1835],[139.50074,36.18371],[139.51784,36.1857],[139.51901,36.18574],[139.51971,36.18571],[139.52075,36.18558],[139.52152,36.18558],[139.52237,36.18573],[139.52454,36.18626]]}},{"type":"Feature","properties":{"idx":25,"road":"行田市停車場酒巻線","cls":"secondary","shops":0,"st_km":4.03,"mesh":"54392326"},"geometry":{"type":"LineString","coordinates":[[139.45487,36.18718],[139.45486,36.18696],[139.45508,36.18583]]}},{"type":"Feature","properties":{"idx":57,"road":"","cls":"tertiary","shops":0,"st_km":3.78,"mesh":"54392315"},"geometry":{"type":"LineString","coordinates":[[139.44549,36.17674],[139.44558,36.17517]]}},{"type":"Feature","properties":{"idx":100,"road":"弁財深谷線","cls":"secondary","shops":0,"st_km":6.11,"mesh":"54392342"},"geometry":{"type":"LineString","coordinates":[[139.39998,36.20325],[139.40212,36.20319],[139.40204,36.2049],[139.40208,36.20501],[139.40261,36.20563],[139.40306,36.20593]]}},{"type":"Feature","properties":{"idx":113,"road":"太田熊谷線","cls":"secondary","shops":0,"st_km":4.01,"mesh":"54392380"},"geometry":{"type":"LineString","coordinates":[[139.3751,36.23455],[139.37501,36.23487]]}},{"type":"Feature","properties":{"idx":60,"road":"羽生妻沼線","cls":"primary","shops":1,"st_km":6.34,"mesh":"54392343"},"geometry":{"type":"LineString","coordinates":[[139.42031,36.20399],[139.41902,36.20165],[139.41857,36.20071],[139.41832,36.20041]]}},{"type":"Feature","properties":{"idx":27,"road":"","cls":"tertiary","shops":0,"st_km":4.74,"mesh":"54392330"},"geometry":{"type":"LineString","coordinates":[[139.37758,36.18932],[139.37768,36.18939],[139.37771,36.18948],[139.37849,36.19542]]}},{"type":"Feature","properties":{"idx":124,"road":"足利邑楽行田線","cls":"primary","shops":1,"st_km":2.71,"mesh":"54392327"},"geometry":{"type":"LineString","coordinates":[[139.4737,36.18628],[139.47371,36.186],[139.47343,36.18563],[139.47337,36.185],[139.47347,36.18456],[139.47387,36.18383],[139.47407,36.18227],[139.4741,36.18158],[139.47406,36.18142],[139.4739,36.18121]]}},{"type":"Feature","properties":{"idx":77,"road":"足利邑楽行田線","cls":"primary","shops":0,"st_km":3.28,"mesh":"54392327"},"geometry":{"type":"LineString","coordinates":[[139.47293,36.19246],[139.4737,36.18628]]}},{"type":"Feature","properties":{"idx":90,"road":"","cls":"tertiary","shops":0,"st_km":4.86,"mesh":"54392360"},"geometry":{"type":"LineString","coordinates":[[139.37766,36.22181],[139.37897,36.22182],[139.38082,36.22157]]}},{"type":"Feature","properties":{"idx":58,"road":"","cls":"tertiary","shops":0,"st_km":3.8,"mesh":"54392370"},"geometry":{"type":"LineString","coordinates":[[139.38079,36.22847],[139.38085,36.22971],[139.381,36.23036],[139.38134,36.23115],[139.38156,36.23154],[139.38193,36.23203],[139.38196,36.23211],[139.38192,36.23218],[139.37887,36.23387],[139.37721,36.235],[139.37566,36.23587]]}},{"type":"Feature","properties":{"idx":57,"road":"","cls":"tertiary","shops":0,"st_km":4.18,"mesh":"54392370"},"geometry":{"type":"LineString","coordinates":[[139.38079,36.22838],[139.38079,36.22847]]}},{"type":"Feature","properties":{"idx":64,"road":"太田熊谷線","cls":"secondary","shops":0,"st_km":4.31,"mesh":"54392370"},"geometry":{"type":"LineString","coordinates":[[139.37683,36.22951],[139.37687,36.2294]]}},{"type":"Feature","properties":{"idx":96,"road":"太田熊谷線","cls":"secondary","shops":1,"st_km":4.41,"mesh":"54392370"},"geometry":{"type":"LineString","coordinates":[[139.37716,36.22859],[139.37771,36.22754],[139.37774,36.22741],[139.3777,36.22706]]}},{"type":"Feature","properties":{"idx":489,"road":"","cls":"tertiary","shops":0,"st_km":4.57,"mesh":"54392361"},"geometry":{"type":"LineString","coordinates":[[139.38784,36.21996],[139.38851,36.22181]]}},{"type":"Feature","properties":{"idx":90,"road":"","cls":"tertiary","shops":0,"st_km":4.86,"mesh":"54392360"},"geometry":{"type":"LineString","coordinates":[[139.38431,36.22077],[139.38351,36.21855]]}},{"type":"Feature","properties":{"idx":90,"road":"","cls":"tertiary","shops":0,"st_km":4.63,"mesh":"54392360"},"geometry":{"type":"LineString","coordinates":[[139.38498,36.22262],[139.38431,36.22077]]}},{"type":"Feature","properties":{"idx":90,"road":"","cls":"tertiary","shops":0,"st_km":4.82,"mesh":"54392360"},"geometry":{"type":"LineString","coordinates":[[139.38784,36.21996],[139.38738,36.21842],[139.38737,36.21738]]}},{"type":"Feature","properties":{"idx":90,"road":"","cls":"tertiary","shops":0,"st_km":4.72,"mesh":"54392360"},"geometry":{"type":"LineString","coordinates":[[139.38082,36.22157],[139.38981,36.21951]]}},{"type":"Feature","properties":{"idx":24,"road":"","cls":"tertiary","shops":0,"st_km":3.85,"mesh":"54392371"},"geometry":{"type":"LineString","coordinates":[[139.39109,36.22742],[139.38976,36.22761],[139.38772,36.22745]]}},{"type":"Feature","properties":{"idx":486,"road":"","cls":"tertiary","shops":0,"st_km":4.97,"mesh":"54392361"},"geometry":{"type":"LineString","coordinates":[[139.38473,36.21608],[139.38484,36.21646],[139.38495,36.21656],[139.38799,36.21648],[139.38849,36.21651],[139.38971,36.21673],[139.39452,36.21675]]}},{"type":"Feature","properties":{"idx":57,"road":"","cls":"tertiary","shops":0,"st_km":4.32,"mesh":"54392370"},"geometry":{"type":"LineString","coordinates":[[139.38082,36.2268],[139.38097,36.22676]]}},{"type":"Feature","properties":{"idx":57,"road":"弁財深谷線","cls":"secondary","shops":0,"st_km":6.41,"mesh":"54392341"},"geometry":{"type":"LineString","coordinates":[[139.3978,36.20035],[139.39796,36.20034]]}},{"type":"Feature","properties":{"idx":57,"road":"弁財深谷線","cls":"secondary","shops":0,"st_km":6.44,"mesh":"54392341"},"geometry":{"type":"LineString","coordinates":[[139.40021,36.20006],[139.39987,36.20014],[139.39796,36.20034]]}},{"type":"Feature","properties":{"idx":101,"road":"熊谷館林線","cls":"primary","shops":0,"st_km":6.04,"mesh":"54392344"},"geometry":{"type":"LineString","coordinates":[[139.42778,36.20393],[139.42762,36.20391],[139.42727,36.20413],[139.42552,36.20495],[139.42491,36.2053],[139.42406,36.20591],[139.4237,36.20606],[139.42322,36.20636]]}},{"type":"Feature","properties":{"idx":21,"road":"葛和田橋","cls":"secondary","shops":0,"st_km":6.63,"mesh":"54392333"},"geometry":{"type":"LineString","coordinates":[[139.41649,36.19897],[139.41691,36.19963]]}},{"type":"Feature","properties":{"idx":36,"road":"葛和田新堀線","cls":"secondary","shops":0,"st_km":6.55,"mesh":"54392343"},"geometry":{"type":"LineString","coordinates":[[139.41691,36.19963],[139.41724,36.19991],[139.41832,36.20041]]}},{"type":"Feature","properties":{"idx":90,"road":"","cls":"tertiary","shops":0,"st_km":4.69,"mesh":"54392360"},"geometry":{"type":"LineString","coordinates":[[139.3808,36.21737],[139.38083,36.22106],[139.38079,36.22838]]}},{"type":"Feature","properties":{"idx":70,"road":"","cls":"tertiary","shops":1,"st_km":5.55,"mesh":"54392350"},"geometry":{"type":"LineString","coordinates":[[139.3808,36.21389],[139.38081,36.21412]]}},{"type":"Feature","properties":{"idx":20,"road":"","cls":"tertiary","shops":0,"st_km":4.99,"mesh":"54392351"},"geometry":{"type":"LineString","coordinates":[[139.39452,36.21675],[139.39455,36.21359]]}},{"type":"Feature","properties":{"idx":20,"road":"","cls":"tertiary","shops":0,"st_km":5.24,"mesh":"54392351"},"geometry":{"type":"LineString","coordinates":[[139.39455,36.21359],[139.39454,36.21211]]}},{"type":"Feature","properties":{"idx":20,"road":"","cls":"tertiary","shops":0,"st_km":5.64,"mesh":"54392351"},"geometry":{"type":"LineString","coordinates":[[139.39455,36.21062],[139.39456,36.20754]]}},{"type":"Feature","properties":{"idx":51,"road":"","cls":"tertiary","shops":0,"st_km":5.97,"mesh":"54392341"},"geometry":{"type":"LineString","coordinates":[[139.39456,36.20754],[139.39458,36.2046]]}},{"type":"Feature","properties":{"idx":20,"road":"","cls":"tertiary","shops":0,"st_km":5.4,"mesh":"54392351"},"geometry":{"type":"LineString","coordinates":[[139.39454,36.21211],[139.39455,36.21062]]}},{"type":"Feature","properties":{"idx":23,"road":"","cls":"tertiary","shops":0,"st_km":6.32,"mesh":"54392332"},"geometry":{"type":"LineString","coordinates":[[139.40464,36.19683],[139.40407,36.19691],[139.40325,36.19723],[139.403,36.19737]]}},{"type":"Feature","properties":{"idx":23,"road":"","cls":"tertiary","shops":0,"st_km":6.36,"mesh":"54392332"},"geometry":{"type":"LineString","coordinates":[[139.41044,36.19522],[139.41012,36.19534],[139.40817,36.19586]]}},{"type":"Feature","properties":{"idx":23,"road":"","cls":"tertiary","shops":0,"st_km":6.34,"mesh":"54392332"},"geometry":{"type":"LineString","coordinates":[[139.40727,36.19612],[139.40574,36.19654]]}},{"type":"Feature","properties":{"idx":23,"road":"","cls":"tertiary","shops":0,"st_km":6.34,"mesh":"54392332"},"geometry":{"type":"LineString","coordinates":[[139.40574,36.19654],[139.40464,36.19683]]}},{"type":"Feature","properties":{"idx":23,"road":"","cls":"tertiary","shops":0,"st_km":6.61,"mesh":"54392332"},"geometry":{"type":"LineString","coordinates":[[139.41033,36.19874],[139.40978,36.19895],[139.40824,36.19929]]}},{"type":"Feature","properties":{"idx":23,"road":"","cls":"tertiary","shops":0,"st_km":6.31,"mesh":"54392332"},"geometry":{"type":"LineString","coordinates":[[139.403,36.19737],[139.40198,36.19766],[139.40145,36.19755]]}},{"type":"Feature","properties":{"idx":23,"road":"","cls":"tertiary","shops":0,"st_km":6.57,"mesh":"54392332"},"geometry":{"type":"LineString","coordinates":[[139.40824,36.19929],[139.40723,36.19945],[139.40621,36.19944],[139.40575,36.19954]]}},{"type":"Feature","properties":{"idx":23,"road":"","cls":"tertiary","shops":0,"st_km":6.23,"mesh":"54392332"},"geometry":{"type":"LineString","coordinates":[[139.40145,36.19755],[139.40165,36.19711],[139.40155,36.19667]]}},{"type":"Feature","properties":{"idx":23,"road":"","cls":"tertiary","shops":0,"st_km":6.11,"mesh":"54392332"},"geometry":{"type":"LineString","coordinates":[[139.40163,36.19503],[139.40187,36.19517],[139.40189,36.19535],[139.40188,36.19557],[139.40155,36.19667]]}},{"type":"Feature","properties":{"idx":100,"road":"弁財深谷線","cls":"secondary","shops":0,"st_km":5.61,"mesh":"54392342"},"geometry":{"type":"LineString","coordinates":[[139.40324,36.20601],[139.40381,36.20617],[139.40431,36.20667],[139.405,36.20777],[139.40585,36.20896],[139.40635,36.2099],[139.4065,36.21002],[139.40735,36.21042]]}},{"type":"Feature","properties":{"idx":100,"road":"弁財深谷線","cls":"secondary","shops":0,"st_km":5.87,"mesh":"54392342"},"geometry":{"type":"LineString","coordinates":[[139.40306,36.20593],[139.40324,36.20601]]}},{"type":"Feature","properties":{"idx":260,"road":"弥藤吾行田線","cls":"secondary","shops":0,"st_km":6.16,"mesh":"54392331"},"geometry":{"type":"LineString","coordinates":[[139.40169,36.19487],[139.40163,36.19503],[139.40144,36.19528],[139.39982,36.19689],[139.39954,36.19731],[139.39948,36.19759],[139.39952,36.19789],[139.40011,36.19931],[139.40021,36.20006]]}},{"type":"Feature","properties":{"idx":57,"road":"弁財深谷線","cls":"secondary","shops":0,"st_km":6.36,"mesh":"54392341"},"geometry":{"type":"LineString","coordinates":[[139.39995,36.20151],[139.39995,36.20201]]}},{"type":"Feature","properties":{"idx":26,"road":"弥藤吾行田線","cls":"secondary","shops":0,"st_km":6.0,"mesh":"54392332"},"geometry":{"type":"LineString","coordinates":[[139.40168,36.19463],[139.40169,36.19487]]}},{"type":"Feature","properties":{"idx":57,"road":"弁財深谷線","cls":"secondary","shops":0,"st_km":6.26,"mesh":"54392341"},"geometry":{"type":"LineString","coordinates":[[139.39995,36.20201],[139.39998,36.20325]]}},{"type":"Feature","properties":{"idx":23,"road":"落合橋","cls":"primary","shops":0,"st_km":6.77,"mesh":"54392333"},"geometry":{"type":"LineString","coordinates":[[139.42474,36.19839],[139.42457,36.19771]]}},{"type":"Feature","properties":{"idx":22,"road":"弥藤吾行田線","cls":"secondary","shops":0,"st_km":5.77,"mesh":"54392351"},"geometry":{"type":"LineString","coordinates":[[139.38011,36.2173],[139.3822,36.21692],[139.38418,36.21632],[139.38473,36.21608],[139.38653,36.2149],[139.38682,36.21457],[139.3873,36.21375],[139.38779,36.21315],[139.38809,36.21243],[139.38903,36.21104],[139.38955,36.21018],[139.38964,36.20978],[139.38959,36.20876],[139.38975,36.20741],[139.3897,36.20666],[139.38975,36.2065],[139.38989,36.20635],[139.3923,36.20496],[139.39294,36.20473],[139.39335,36.20466],[139.39724,36.20445],[139.39733,36.20437],[139.39722,36.20353],[139.39728,36.20348],[139.39998,36.20325]]}},{"type":"Feature","properties":{"idx":47,"road":"","cls":"tertiary","shops":0,"st_km":5.81,"mesh":"54392350"},"geometry":{"type":"LineString","coordinates":[[139.37718,36.20925],[139.37785,36.20902],[139.37859,36.20899],[139.37958,36.20867],[139.38035,36.20831]]}},{"type":"Feature","properties":{"idx":69,"road":"","cls":"tertiary","shops":0,"st_km":5.67,"mesh":"54392340"},"geometry":{"type":"LineString","coordinates":[[139.37997,36.20563],[139.38004,36.20611]]}},{"type":"Feature","properties":{"idx":69,"road":"","cls":"tertiary","shops":0,"st_km":6.12,"mesh":"54392340"},"geometry":{"type":"LineString","coordinates":[[139.38614,36.20655],[139.38628,36.20651]]}},{"type":"Feature","properties":{"idx":69,"road":"","cls":"tertiary","shops":0,"st_km":5.98,"mesh":"54392340"},"geometry":{"type":"LineString","coordinates":[[139.38614,36.20655],[139.38479,36.20692],[139.38334,36.20709],[139.38291,36.20719],[139.38226,36.20748],[139.38158,36.20792],[139.38035,36.20831]]}},{"type":"Feature","properties":{"idx":101,"road":"弥藤吾行田線","cls":"secondary","shops":0,"st_km":5.28,"mesh":"54392360"},"geometry":{"type":"LineString","coordinates":[[139.37797,36.21795],[139.37899,36.21755],[139.38004,36.21743]]}},{"type":"Feature","properties":{"idx":51,"road":"","cls":"tertiary","shops":0,"st_km":6.1,"mesh":"54392341"},"geometry":{"type":"LineString","coordinates":[[139.38628,36.20651],[139.38713,36.20627],[139.38764,36.20623],[139.38975,36.2065]]}},{"type":"Feature","properties":{"idx":47,"road":"","cls":"tertiary","shops":0,"st_km":5.95,"mesh":"54392350"},"geometry":{"type":"LineString","coordinates":[[139.38004,36.20611],[139.38074,36.21105],[139.38075,36.21308],[139.3808,36.21389]]}},{"type":"Feature","properties":{"idx":47,"road":"","cls":"tertiary","shops":0,"st_km":5.65,"mesh":"54392350"},"geometry":{"type":"LineString","coordinates":[[139.37565,36.20963],[139.37584,36.20956]]}},{"type":"Feature","properties":{"idx":47,"road":"","cls":"tertiary","shops":0,"st_km":5.69,"mesh":"54392350"},"geometry":{"type":"LineString","coordinates":[[139.37584,36.20956],[139.3768,36.20938],[139.37718,36.20925]]}},{"type":"Feature","properties":{"idx":53,"road":"","cls":"secondary","shops":0,"st_km":5.72,"mesh":"54392350"},"geometry":{"type":"LineString","coordinates":[[139.3779,36.21354],[139.37796,36.21337]]}},{"type":"Feature","properties":{"idx":53,"road":"太田熊谷線","cls":"secondary","shops":0,"st_km":5.82,"mesh":"54392350"},"geometry":{"type":"LineString","coordinates":[[139.37796,36.21337],[139.37843,36.21164],[139.37844,36.21117],[139.37828,36.21082],[139.37688,36.20884],[139.37577,36.20687]]}},{"type":"Feature","properties":{"idx":78,"road":"弁財深谷線","cls":"secondary","shops":0,"st_km":5.39,"mesh":"54392340"},"geometry":{"type":"LineString","coordinates":[[139.37429,36.20234],[139.37523,36.20234],[139.37827,36.20218],[139.37945,36.20204],[139.38086,36.2018],[139.38313,36.20187],[139.38416,36.20186],[139.38495,36.2018]]}},{"type":"Feature","properties":{"idx":78,"road":"弁財深谷線","cls":"secondary","shops":0,"st_km":5.79,"mesh":"54392340"},"geometry":{"type":"LineString","coordinates":[[139.38495,36.2018],[139.38509,36.20179]]}},{"type":"Feature","properties":{"idx":57,"road":"弁財深谷線","cls":"secondary","shops":0,"st_km":6.26,"mesh":"54392341"},"geometry":{"type":"LineString","coordinates":[[139.3978,36.20035],[139.39623,36.20055],[139.39498,36.20055],[139.39402,36.20065],[139.3925,36.20112],[139.3919,36.20123],[139.38509,36.20179]]}},{"type":"Feature","properties":{"idx":27,"road":"","cls":"tertiary","shops":0,"st_km":5.39,"mesh":"54392330"},"geometry":{"type":"LineString","coordinates":[[139.38393,36.18884],[139.38396,36.18933],[139.38548,36.19961],[139.38577,36.1999],[139.38598,36.20051]]}},{"type":"Feature","properties":{"idx":27,"road":"","cls":"tertiary","shops":0,"st_km":5.09,"mesh":"54392330"},"geometry":{"type":"LineString","coordinates":[[139.37883,36.19787],[139.37887,36.19804]]}},{"type":"Feature","properties":{"idx":69,"road":"","cls":"tertiary","shops":0,"st_km":5.24,"mesh":"54392340"},"geometry":{"type":"LineString","coordinates":[[139.37889,36.19822],[139.37945,36.20204]]}},{"type":"Feature","properties":{"idx":27,"road":"","cls":"tertiary","shops":0,"st_km":4.94,"mesh":"54392330"},"geometry":{"type":"LineString","coordinates":[[139.37849,36.19542],[139.37856,36.19594]]}},{"type":"Feature","properties":{"idx":51,"road":"","cls":"tertiary","shops":0,"st_km":5.97,"mesh":"54392341"},"geometry":{"type":"LineString","coordinates":[[139.38813,36.19872],[139.3886,36.2003],[139.38874,36.20149]]}},{"type":"Feature","properties":{"idx":27,"road":"","cls":"tertiary","shops":0,"st_km":5.08,"mesh":"54392330"},"geometry":{"type":"LineString","coordinates":[[139.37884,36.19785],[139.37883,36.19787]]}},{"type":"Feature","properties":{"idx":27,"road":"","cls":"tertiary","shops":0,"st_km":5.1,"mesh":"54392330"},"geometry":{"type":"LineString","coordinates":[[139.37887,36.19804],[139.37889,36.19822]]}},{"type":"Feature","properties":{"idx":231,"road":"","cls":"tertiary","shops":0,"st_km":5.85,"mesh":"54392331"},"geometry":{"type":"LineString","coordinates":[[139.38542,36.19918],[139.39041,36.19833]]}},{"type":"Feature","properties":{"idx":27,"road":"","cls":"tertiary","shops":0,"st_km":5.02,"mesh":"54392330"},"geometry":{"type":"LineString","coordinates":[[139.37856,36.19594],[139.37884,36.19785]]}},{"type":"Feature","properties":{"idx":27,"road":"","cls":"tertiary","shops":0,"st_km":4.78,"mesh":"54392330"},"geometry":{"type":"LineString","coordinates":[[139.37739,36.19541],[139.37597,36.19542]]}},{"type":"Feature","properties":{"idx":69,"road":"","cls":"tertiary","shops":0,"st_km":5.52,"mesh":"54392340"},"geometry":{"type":"LineString","coordinates":[[139.37945,36.20204],[139.37997,36.20563]]}},{"type":"Feature","properties":{"idx":27,"road":"","cls":"tertiary","shops":0,"st_km":4.88,"mesh":"54392330"},"geometry":{"type":"LineString","coordinates":[[139.37739,36.19541],[139.37849,36.19542]]}},{"type":"Feature","properties":{"idx":78,"road":"井殿橋","cls":"secondary","shops":0,"st_km":5.43,"mesh":"54392340"},"geometry":{"type":"LineString","coordinates":[[139.37577,36.20687],[139.37551,36.20643]]}},{"type":"Feature","properties":{"idx":72,"road":"","cls":"tertiary","shops":0,"st_km":4.73,"mesh":"54392312"},"geometry":{"type":"LineString","coordinates":[[139.40204,36.18225],[139.40123,36.18221]]}},{"type":"Feature","properties":{"idx":72,"road":"","cls":"tertiary","shops":0,"st_km":4.68,"mesh":"54392312"},"geometry":{"type":"LineString","coordinates":[[139.40123,36.18221],[139.39935,36.18214]]}},{"type":"Feature","properties":{"idx":108,"road":"","cls":"tertiary","shops":0,"st_km":4.63,"mesh":"54392311"},"geometry":{"type":"LineString","coordinates":[[139.39935,36.18214],[139.39856,36.18208]]}},{"type":"Feature","properties":{"idx":108,"road":"","cls":"tertiary","shops":0,"st_km":4.59,"mesh":"54392311"},"geometry":{"type":"LineString","coordinates":[[139.39856,36.18208],[139.39744,36.18202]]}},{"type":"Feature","properties":{"idx":109,"road":"","cls":"tertiary","shops":0,"st_km":4.31,"mesh":"54392311"},"geometry":{"type":"LineString","coordinates":[[139.39538,36.18184],[139.38923,36.18136],[139.38902,36.1813]]}},{"type":"Feature","properties":{"idx":109,"road":"","cls":"tertiary","shops":0,"st_km":4.53,"mesh":"54392311"},"geometry":{"type":"LineString","coordinates":[[139.39744,36.18202],[139.39538,36.18184]]}},{"type":"Feature","properties":{"idx":302,"road":"","cls":"tertiary","shops":0,"st_km":3.25,"mesh":"54392310"},"geometry":{"type":"LineString","coordinates":[[139.37672,36.16457],[139.37682,36.17336],[139.37703,36.18412],[139.37716,36.18581],[139.37746,36.18769]]}},{"type":"Feature","properties":{"idx":81,"road":"弥藤吾行田線","cls":"secondary","shops":0,"st_km":4.64,"mesh":"54392312"},"geometry":{"type":"LineString","coordinates":[[139.40207,36.18111],[139.40204,36.18131]]}},{"type":"Feature","properties":{"idx":80,"road":"弥藤吾行田線","cls":"secondary","shops":0,"st_km":5.36,"mesh":"54392322"},"geometry":{"type":"LineString","coordinates":[[139.40204,36.18131],[139.40204,36.18225],[139.40271,36.18749],[139.40265,36.1879],[139.40255,36.18809],[139.40141,36.18969],[139.40113,36.19053],[139.40112,36.19095],[139.40149,36.1927],[139.40168,36.19463]]}},{"type":"Feature","properties":{"idx":57,"road":"羽生妻沼線","cls":"primary","shops":0,"st_km":4.81,"mesh":"54392352"},"geometry":{"type":"LineString","coordinates":[[139.37968,36.22384],[139.3902,36.22143],[139.39576,36.22041],[139.39598,36.22029],[139.3972,36.21922],[139.39732,36.21895],[139.39761,36.21778],[139.39783,36.21748],[139.39807,36.21726],[139.39914,36.2168],[139.40109,36.2158],[139.40202,36.21549],[139.40241,36.21531],[139.4026,36.21515],[139.40401,36.21238],[139.40413,36.21219],[139.40434,36.21199],[139.40468,36.2118],[139.40549,36.21152],[139.40593,36.21131],[139.40813,36.20994],[139.40938,36.20892],[139.41004,36.20859],[139.41031,36.20841],[139.41078,36.20794],[139.41179,36.20709],[139.41199,36.20699],[139.41307,36.20682],[139.41533,36.20691],[139.41626,36.20685],[139.41654,36.20679],[139.41694,36.2066],[139.41765,36.20607],[139.41901,36.20528],[139.41979,36.20473],[139.42031,36.20399]]}},{"type":"Feature","properties":{"idx":386,"road":"葛和田新堀線","cls":"secondary","shops":0,"st_km":4.65,"mesh":"54392320"},"geometry":{"type":"LineString","coordinates":[[139.37007,36.18596],[139.37106,36.18625],[139.37134,36.18646],[139.37226,36.18734],[139.37265,36.18752],[139.37336,36.18765],[139.37392,36.18766],[139.37618,36.18738],[139.37654,36.18739],[139.37746,36.18769],[139.3793,36.18852],[139.37984,36.18868],[139.38028,36.18872],[139.38316,36.18876],[139.38505,36.18894],[139.38555,36.18886],[139.3866,36.18843],[139.38868,36.1882],[139.39005,36.18791]]}},{"type":"Feature","properties":{"idx":635,"road":"太田熊谷線","cls":"secondary","shops":0,"st_km":3.02,"mesh":"54392300"},"geometry":{"type":"LineString","coordinates":[[139.38304,36.17473],[139.38312,36.17407],[139.38345,36.17262],[139.38403,36.17098],[139.38405,36.16986],[139.38411,36.16936]]}},{"type":"Feature","properties":{"idx":57,"road":"","cls":"tertiary","shops":0,"st_km":3.39,"mesh":"54392301"},"geometry":{"type":"LineString","coordinates":[[139.40074,36.17031],[139.40051,36.17011],[139.40018,36.17001],[139.39867,36.16989],[139.39814,36.16897],[139.39816,36.1689],[139.39869,36.1687]]}},{"type":"Feature","properties":{"idx":70,"road":"","cls":"tertiary","shops":0,"st_km":3.51,"mesh":"54392302"},"geometry":{"type":"LineString","coordinates":[[139.3964,36.17201],[139.39717,36.17167],[139.40074,36.17031],[139.40558,36.16864],[139.40655,36.16835]]}},{"type":"Feature","properties":{"idx":69,"road":"スポーツ公園通り","cls":"tertiary","shops":0,"st_km":3.77,"mesh":"54392302"},"geometry":{"type":"LineString","coordinates":[[139.40655,36.16835],[139.40774,36.17065],[139.40786,36.17152],[139.40795,36.17302]]}},{"type":"Feature","properties":{"idx":57,"road":"","cls":"tertiary","shops":0,"st_km":3.29,"mesh":"54392301"},"geometry":{"type":"LineString","coordinates":[[139.39534,36.17039],[139.39819,36.16907]]}},{"type":"Feature","properties":{"idx":70,"road":"","cls":"tertiary","shops":0,"st_km":3.59,"mesh":"54392302"},"geometry":{"type":"LineString","coordinates":[[139.40655,36.16835],[139.407,36.16827],[139.40769,36.16824],[139.41127,36.16839]]}},{"type":"Feature","properties":{"idx":68,"road":"","cls":"tertiary","shops":0,"st_km":3.95,"mesh":"54392302"},"geometry":{"type":"LineString","coordinates":[[139.39677,36.17259],[139.39755,36.17231],[139.39914,36.17232],[139.41557,36.17361]]}},{"type":"Feature","properties":{"idx":292,"road":"上中条斉条線","cls":"secondary","shops":0,"st_km":4.78,"mesh":"54392314"},"geometry":{"type":"LineString","coordinates":[[139.43511,36.18147],[139.43429,36.18151],[139.43292,36.18148],[139.432,36.18167],[139.43169,36.18169],[139.43052,36.18153],[139.43006,36.18132],[139.42799,36.17984],[139.42753,36.17962],[139.42729,36.17958],[139.42385,36.17951],[139.42272,36.17929],[139.42188,36.17897],[139.42063,36.17865],[139.42017,36.1786],[139.41944,36.17863],[139.41899,36.17871],[139.41482,36.17992]]}},{"type":"Feature","properties":{"idx":25,"road":"北河原熊谷線","cls":"secondary","shops":0,"st_km":4.11,"mesh":"54392304"},"geometry":{"type":"LineString","coordinates":[[139.41627,36.1676],[139.41866,36.16777],[139.41908,36.16788],[139.41954,36.1682],[139.42032,36.16933],[139.42077,36.16977],[139.42116,36.17],[139.42333,36.17091],[139.42608,36.17232],[139.4264,36.17255],[139.42712,36.17321],[139.42746,36.17341],[139.42851,36.17385],[139.429,36.174],[139.43018,36.17422],[139.43173,36.17438],[139.43227,36.1746],[139.43242,36.17475],[139.43296,36.17557],[139.434,36.1769],[139.43418,36.17725],[139.43437,36.17782],[139.43511,36.18147]]}},{"type":"Feature","properties":{"idx":18,"road":"北河原熊谷線","cls":"secondary","shops":0,"st_km":5.4,"mesh":"54392325"},"geometry":{"type":"LineString","coordinates":[[139.4379,36.19178],[139.43836,36.19094],[139.43852,36.19048],[139.43863,36.18737]]}},{"type":"Feature","properties":{"idx":26,"road":"葛和田新堀線","cls":"secondary","shops":0,"st_km":6.42,"mesh":"54392332"},"geometry":{"type":"LineString","coordinates":[[139.40615,36.19089],[139.40945,36.19433],[139.41121,36.19587],[139.41141,36.19601],[139.41169,36.1961],[139.4135,36.19633],[139.41422,36.19666],[139.41447,36.19688],[139.41649,36.19897]]}},{"type":"Feature","properties":{"idx":79,"road":"葛和田新堀線","cls":"secondary","shops":0,"st_km":5.77,"mesh":"54392322"},"geometry":{"type":"LineString","coordinates":[[139.40607,36.1908],[139.40615,36.19089]]}},{"type":"Feature","properties":{"idx":9,"road":"新弥五郎橋","cls":"secondary","shops":0,"st_km":1.17,"mesh":"54392308"},"geometry":{"type":"LineString","coordinates":[[139.47799,36.16873],[139.47816,36.16876]]}},{"type":"Feature","properties":{"idx":9,"road":"熊谷羽生線","cls":"secondary","shops":0,"st_km":1.18,"mesh":"54392308"},"geometry":{"type":"LineString","coordinates":[[139.4778,36.1687],[139.47799,36.16873]]}},{"type":"Feature","properties":{"idx":9,"road":"弥五郎橋","cls":"secondary","shops":0,"st_km":1.19,"mesh":"54392308"},"geometry":{"type":"LineString","coordinates":[[139.47761,36.16866],[139.4778,36.1687]]}},{"type":"Feature","properties":{"idx":9,"road":"熊谷羽生線","cls":"secondary","shops":0,"st_km":1.16,"mesh":"54392308"},"geometry":{"type":"LineString","coordinates":[[139.47816,36.16876],[139.47824,36.16877]]}},{"type":"Feature","properties":{"idx":11,"road":"荒木橋","cls":"primary","shops":0,"st_km":1.0,"mesh":"54392308"},"geometry":{"type":"LineString","coordinates":[[139.47905,36.16727],[139.4789,36.16706]]}},{"type":"Feature","properties":{"idx":7,"road":"足利邑楽行田線","cls":"primary","shops":0,"st_km":1.73,"mesh":"54392308"},"geometry":{"type":"LineString","coordinates":[[139.47367,36.1809],[139.47365,36.18073],[139.47374,36.17973],[139.47369,36.17948],[139.47345,36.17879],[139.47341,36.1784],[139.47345,36.17813],[139.47392,36.1767],[139.47495,36.17471],[139.47562,36.17394],[139.47629,36.17249],[139.47635,36.17192],[139.47755,36.16968],[139.47894,36.16785],[139.47908,36.16755],[139.47908,36.16733]]}},{"type":"Feature","properties":{"idx":2,"road":"","cls":"tertiary","shops":0,"st_km":1.59,"mesh":"54392319"},"geometry":{"type":"LineString","coordinates":[[139.48801,36.17666],[139.49026,36.17683],[139.49064,36.17679],[139.49101,36.17667],[139.49216,36.1766],[139.49566,36.17703]]}},{"type":"Feature","properties":{"idx":24,"road":"","cls":"tertiary","shops":0,"st_km":3.15,"mesh":"54392305"},"geometry":{"type":"LineString","coordinates":[[139.43884,36.16576],[139.43875,36.16807]]}},{"type":"Feature","properties":{"idx":101,"road":"太田熊谷線","cls":"secondary","shops":0,"st_km":5.11,"mesh":"54392360"},"geometry":{"type":"LineString","coordinates":[[139.37766,36.22181],[139.37766,36.22114],[139.37797,36.21791]]}},{"type":"Feature","properties":{"idx":75,"road":"","cls":"secondary_link","shops":0,"st_km":3.99,"mesh":"54392380"},"geometry":{"type":"LineString","coordinates":[[139.37527,36.23524],[139.3751,36.23455]]}},{"type":"Feature","properties":{"idx":65,"road":"太田熊谷線","cls":"secondary","shops":0,"st_km":4.12,"mesh":"54392370"},"geometry":{"type":"LineString","coordinates":[[139.3751,36.23455],[139.37515,36.23409],[139.37533,36.23367],[139.37636,36.23222],[139.37656,36.23188],[139.37666,36.23135],[139.37668,36.23005],[139.37683,36.22951]]}},{"type":"Feature","properties":{"idx":18,"road":"北河原熊谷線","cls":"secondary","shops":0,"st_km":5.17,"mesh":"54392325"},"geometry":{"type":"LineString","coordinates":[[139.43863,36.18737],[139.43863,36.18724]]}},{"type":"Feature","properties":{"idx":18,"road":"北河原熊谷線","cls":"secondary","shops":0,"st_km":4.87,"mesh":"54392325"},"geometry":{"type":"LineString","coordinates":[[139.43863,36.18724],[139.43868,36.18623],[139.43885,36.18557],[139.43885,36.18527],[139.43868,36.18456],[139.43856,36.18442],[139.43832,36.18426],[139.4376,36.18394],[139.43707,36.18363],[139.43668,36.18325],[139.43604,36.18244],[139.43581,36.18181],[139.43574,36.18138]]}},{"type":"Feature","properties":{"idx":81,"road":"羽生妻沼線","cls":"primary","shops":0,"st_km":2.85,"mesh":"54392327"},"geometry":{"type":"LineString","coordinates":[[139.47316,36.18489],[139.47273,36.18486]]}},{"type":"Feature","properties":{"idx":68,"road":"熊谷館林線","cls":"primary","shops":0,"st_km":5.85,"mesh":"54392323"},"geometry":{"type":"LineString","coordinates":[[139.4232,36.18925],[139.42318,36.18913]]}},{"type":"Feature","properties":{"idx":2,"road":"","cls":"tertiary","shops":0,"st_km":2.16,"mesh":"54392319"},"geometry":{"type":"LineString","coordinates":[[139.48766,36.18207],[139.48767,36.18198]]}},{"type":"Feature","properties":{"idx":2,"road":"","cls":"tertiary","shops":0,"st_km":1.96,"mesh":"54392319"},"geometry":{"type":"LineString","coordinates":[[139.48767,36.18198],[139.48831,36.17841]]}},{"type":"Feature","properties":{"idx":25,"road":"行田市停車場酒巻線","cls":"secondary","shops":0,"st_km":3.97,"mesh":"54392326"},"geometry":{"type":"LineString","coordinates":[[139.45508,36.18583],[139.45509,36.18572]]}},{"type":"Feature","properties":{"idx":12,"road":"行田市停車場酒巻線","cls":"secondary","shops":0,"st_km":3.53,"mesh":"54392316"},"geometry":{"type":"LineString","coordinates":[[139.45509,36.18572],[139.45518,36.1854],[139.45586,36.18435],[139.4561,36.18379],[139.45672,36.18197],[139.45674,36.18028],[139.45658,36.17918],[139.45632,36.17825],[139.45625,36.17777],[139.45629,36.17748],[139.45681,36.17634]]}},{"type":"Feature","properties":{"idx":65,"road":"上中条斉条線","cls":"secondary","shops":0,"st_km":3.68,"mesh":"54392315"},"geometry":{"type":"LineString","coordinates":[[139.44918,36.17668],[139.44915,36.17668]]}},{"type":"Feature","properties":{"idx":65,"road":"上中条斉条線","cls":"secondary","shops":0,"st_km":3.66,"mesh":"54392315"},"geometry":{"type":"LineString","coordinates":[[139.44932,36.17668],[139.45014,36.17666]]}},{"type":"Feature","properties":{"idx":105,"road":"熊谷羽生線","cls":"secondary","shops":0,"st_km":2.38,"mesh":"54392306"},"geometry":{"type":"LineString","coordinates":[[139.4577,36.16613],[139.45763,36.16656],[139.45772,36.16699],[139.45769,36.16752],[139.45773,36.16766],[139.45788,36.16782]]}},{"type":"Feature","properties":{"idx":103,"road":"熊谷羽生線","cls":"secondary","shops":0,"st_km":2.46,"mesh":"54392306"},"geometry":{"type":"LineString","coordinates":[[139.45788,36.16782],[139.45794,36.16785]]}},{"type":"Feature","properties":{"idx":102,"road":"熊谷羽生線","cls":"secondary","shops":0,"st_km":2.48,"mesh":"54392306"},"geometry":{"type":"LineString","coordinates":[[139.45826,36.16814],[139.45829,36.16818]]}},{"type":"Feature","properties":{"idx":138,"road":"熊谷館林線","cls":"primary","shops":0,"st_km":4.02,"mesh":"54392311"},"geometry":{"type":"LineString","coordinates":[[139.4025,36.17925],[139.40188,36.17926],[139.40146,36.17922],[139.40083,36.17898],[139.40049,36.17872],[139.40035,36.17849],[139.39977,36.17721],[139.3964,36.17201]]}},{"type":"Feature","properties":{"idx":101,"road":"弥藤吾行田線","cls":"secondary","shops":0,"st_km":5.25,"mesh":"54392360"},"geometry":{"type":"LineString","coordinates":[[139.38004,36.21743],[139.38011,36.2173]]}},{"type":"Feature","properties":{"idx":58,"road":"","cls":"tertiary","shops":0,"st_km":3.11,"mesh":"54392301"},"geometry":{"type":"LineString","coordinates":[[139.39869,36.1687],[139.39869,36.16863],[139.39815,36.16789],[139.39806,36.1677],[139.3984,36.16715],[139.39848,36.16711],[139.39899,36.1671],[139.39914,36.16705],[139.40007,36.16658]]}},{"type":"Feature","properties":{"idx":58,"road":"","cls":"tertiary","shops":0,"st_km":4.06,"mesh":"54392370"},"geometry":{"type":"LineString","coordinates":[[139.38772,36.22745],[139.387,36.22603],[139.38681,36.22549],[139.38669,36.22544]]}},{"type":"Feature","properties":{"idx":57,"road":"","cls":"tertiary","shops":0,"st_km":4.32,"mesh":"54392370"},"geometry":{"type":"LineString","coordinates":[[139.38097,36.22676],[139.38107,36.22674]]}},{"type":"Feature","properties":{"idx":57,"road":"","cls":"tertiary","shops":0,"st_km":4.24,"mesh":"54392370"},"geometry":{"type":"LineString","coordinates":[[139.38107,36.22674],[139.38669,36.22544]]}},{"type":"Feature","properties":{"idx":101,"road":"","cls":"secondary","shops":0,"st_km":5.3,"mesh":"54392360"},"geometry":{"type":"LineString","coordinates":[[139.37797,36.21791],[139.37795,36.21781]]}},{"type":"Feature","properties":{"idx":53,"road":"太田熊谷線","cls":"secondary","shops":0,"st_km":5.52,"mesh":"54392350"},"geometry":{"type":"LineString","coordinates":[[139.37795,36.21781],[139.37761,36.21477],[139.37764,36.21433],[139.3779,36.21354]]}},{"type":"Feature","properties":{"idx":113,"road":"羽生妻沼線","cls":"primary","shops":0,"st_km":4.69,"mesh":"54392360"},"geometry":{"type":"LineString","coordinates":[[139.37773,36.22419],[139.37968,36.22384]]}},{"type":"Feature","properties":{"idx":110,"road":"ラグビーロード","cls":"primary","shops":1,"st_km":3.05,"mesh":"54392301"},"geometry":{"type":"LineString","coordinates":[[139.3947,36.16941],[139.39434,36.16891],[139.39312,36.16747]]}},{"type":"Feature","properties":{"idx":11,"road":"佐野行田線","cls":"primary","shops":0,"st_km":1.08,"mesh":"54392309"},"geometry":{"type":"LineString","coordinates":[[139.50481,36.17611],[139.50364,36.17617],[139.50304,36.17609],[139.50244,36.17592],[139.49641,36.17281],[139.49349,36.1715]]}},{"type":"Feature","properties":{"idx":11,"road":"熊谷羽生線","cls":"secondary","shops":0,"st_km":0.89,"mesh":"54392308"},"geometry":{"type":"LineString","coordinates":[[139.48103,36.16922],[139.48183,36.16941],[139.48327,36.16945],[139.48367,36.16943],[139.48584,36.16906]]}},{"type":"Feature","properties":{"idx":2,"road":"","cls":"tertiary","shops":0,"st_km":1.74,"mesh":"54392319"},"geometry":{"type":"LineString","coordinates":[[139.48832,36.17833],[139.48828,36.17804]]}},{"type":"Feature","properties":{"idx":2,"road":"","cls":"tertiary","shops":0,"st_km":2.17,"mesh":"54392319"},"geometry":{"type":"LineString","coordinates":[[139.48765,36.18214],[139.48766,36.18207]]}},{"type":"Feature","properties":{"idx":3,"road":"","cls":"tertiary","shops":0,"st_km":1.43,"mesh":"54392319"},"geometry":{"type":"LineString","coordinates":[[139.48794,36.17642],[139.48786,36.17581],[139.48774,36.17543],[139.48724,36.17448]]}},{"type":"Feature","properties":{"idx":48,"road":"弥藤吾行田線","cls":"secondary","shops":0,"st_km":3.55,"mesh":"54392303"},"geometry":{"type":"LineString","coordinates":[[139.41627,36.1676],[139.41622,36.16801]]}},{"type":"Feature","properties":{"idx":47,"road":"弥藤吾行田線","cls":"secondary","shops":0,"st_km":3.88,"mesh":"54392303"},"geometry":{"type":"LineString","coordinates":[[139.41591,36.17076],[139.41591,36.17083]]}},{"type":"Feature","properties":{"idx":16,"road":"弥藤吾行田線","cls":"secondary","shops":0,"st_km":4.96,"mesh":"54392313"},"geometry":{"type":"LineString","coordinates":[[139.41482,36.17992],[139.41375,36.18023],[139.41301,36.18038],[139.4119,36.18049],[139.41113,36.18048]]}},{"type":"Feature","properties":{"idx":48,"road":"弥藤吾行田線","cls":"secondary","shops":0,"st_km":3.5,"mesh":"54392303"},"geometry":{"type":"LineString","coordinates":[[139.41634,36.16711],[139.41627,36.1676]]}},{"type":"Feature","properties":{"idx":48,"road":"弥藤吾行田線","cls":"secondary","shops":0,"st_km":3.73,"mesh":"54392303"},"geometry":{"type":"LineString","coordinates":[[139.41622,36.16801],[139.41591,36.17076]]}},{"type":"Feature","properties":{"idx":16,"road":"弥藤吾行田線","cls":"secondary","shops":0,"st_km":4.39,"mesh":"54392313"},"geometry":{"type":"LineString","coordinates":[[139.41591,36.17083],[139.41482,36.17992]]}},{"type":"Feature","properties":{"idx":97,"road":"行田市停車場酒巻線","cls":"secondary","shops":0,"st_km":2.71,"mesh":"54392306"},"geometry":{"type":"LineString","coordinates":[[139.45221,36.16685],[139.45168,36.16808],[139.45154,36.16867]]}},{"type":"Feature","properties":{"idx":22,"road":"","cls":"tertiary","shops":0,"st_km":3.84,"mesh":"54392305"},"geometry":{"type":"LineString","coordinates":[[139.43875,36.16807],[139.43848,36.17488],[139.43721,36.17478],[139.4361,36.17457],[139.43543,36.1745],[139.43264,36.17444],[139.43242,36.17448],[139.43227,36.1746]]}},{"type":"Feature","properties":{"idx":24,"road":"","cls":"tertiary","shops":0,"st_km":3.03,"mesh":"54392305"},"geometry":{"type":"LineString","coordinates":[[139.43875,36.16807],[139.44587,36.16826],[139.44558,36.17517]]}},{"type":"Feature","properties":{"idx":102,"road":"熊谷羽生線","cls":"secondary","shops":0,"st_km":2.48,"mesh":"54392306"},"geometry":{"type":"LineString","coordinates":[[139.45829,36.16818],[139.45832,36.16821]]}},{"type":"Feature","properties":{"idx":106,"road":"熊谷羽生線","cls":"secondary","shops":0,"st_km":2.33,"mesh":"54392306"},"geometry":{"type":"LineString","coordinates":[[139.45832,36.16821],[139.45953,36.16816],[139.46351,36.16639]]}},{"type":"Feature","properties":{"idx":103,"road":"熊谷羽生線","cls":"secondary","shops":0,"st_km":2.46,"mesh":"54392306"},"geometry":{"type":"LineString","coordinates":[[139.45794,36.16785],[139.4581,36.16795]]}},{"type":"Feature","properties":{"idx":103,"road":"熊谷羽生線","cls":"secondary","shops":0,"st_km":2.47,"mesh":"54392306"},"geometry":{"type":"LineString","coordinates":[[139.4581,36.16795],[139.45826,36.16814]]}},{"type":"Feature","properties":{"idx":11,"road":"熊谷羽生線","cls":"secondary","shops":0,"st_km":1.96,"mesh":"54392307"},"geometry":{"type":"LineString","coordinates":[[139.46351,36.16639],[139.46527,36.1663],[139.4657,36.16633],[139.4669,36.16696],[139.46707,36.167],[139.46884,36.16701],[139.47151,36.16767]]}},{"type":"Feature","properties":{"idx":95,"road":"北進大橋","cls":"secondary","shops":0,"st_km":2.83,"mesh":"54392306"},"geometry":{"type":"LineString","coordinates":[[139.45154,36.16867],[139.45141,36.16903]]}},{"type":"Feature","properties":{"idx":93,"road":"行田市停車場酒巻線","cls":"secondary","shops":0,"st_km":2.96,"mesh":"54392306"},"geometry":{"type":"LineString","coordinates":[[139.45141,36.16903],[139.45082,36.17015],[139.45056,36.1708],[139.45053,36.171]]}},{"type":"Feature","properties":{"idx":65,"road":"","cls":"secondary","shops":0,"st_km":3.68,"mesh":"54392315"},"geometry":{"type":"LineString","coordinates":[[139.44918,36.17668],[139.44932,36.17668]]}},{"type":"Feature","properties":{"idx":89,"road":"行田市停車場酒巻線","cls":"secondary","shops":0,"st_km":3.36,"mesh":"54392306"},"geometry":{"type":"LineString","coordinates":[[139.45053,36.171],[139.45044,36.17157],[139.45031,36.17453],[139.45016,36.17596],[139.45014,36.17666]]}},{"type":"Feature","properties":{"idx":84,"road":"","cls":"tertiary","shops":0,"st_km":2.91,"mesh":"54392306"},"geometry":{"type":"LineString","coordinates":[[139.45681,36.17634],[139.45709,36.17574],[139.45729,36.17511],[139.45806,36.1717],[139.45839,36.17089],[139.45905,36.16951],[139.45906,36.1692],[139.45894,36.16893],[139.45832,36.16821]]}},{"type":"Feature","properties":{"idx":13,"road":"行田市停車場酒巻線","cls":"secondary","shops":0,"st_km":3.51,"mesh":"54392316"},"geometry":{"type":"LineString","coordinates":[[139.45014,36.17666],[139.45291,36.17659],[139.45681,36.17634]]}},{"type":"Feature","properties":{"idx":11,"road":"足利邑楽行田線","cls":"primary","shops":0,"st_km":1.01,"mesh":"54392308"},"geometry":{"type":"LineString","coordinates":[[139.47908,36.16733],[139.47905,36.16727]]}},{"type":"Feature","properties":{"idx":11,"road":"足利邑楽行田線","cls":"primary","shops":0,"st_km":1.01,"mesh":"54392308"},"geometry":{"type":"LineString","coordinates":[[139.4789,36.16706],[139.47887,36.16702]]}},{"type":"Feature","properties":{"idx":40,"road":"熊谷館林線","cls":"primary","shops":0,"st_km":6.05,"mesh":"54392343"},"geometry":{"type":"LineString","coordinates":[[139.42322,36.20636],[139.42141,36.20493],[139.42031,36.20399]]}},{"type":"Feature","properties":{"idx":23,"road":"羽生妻沼線","cls":"primary","shops":0,"st_km":6.65,"mesh":"54392333"},"geometry":{"type":"LineString","coordinates":[[139.41832,36.20041],[139.41856,36.20028],[139.41913,36.20013],[139.4212,36.1999],[139.42425,36.19904],[139.42451,36.19894],[139.42464,36.19883],[139.42475,36.1986],[139.42474,36.19839]]}},{"type":"Feature","properties":{"idx":100,"road":"弁財深谷線","cls":"secondary","shops":0,"st_km":6.47,"mesh":"54392342"},"geometry":{"type":"LineString","coordinates":[[139.40021,36.20006],[139.4002,36.2003],[139.39995,36.20109],[139.39995,36.20151]]}},{"type":"Feature","properties":{"idx":68,"road":"熊谷館林線","cls":"primary","shops":0,"st_km":5.95,"mesh":"54392323"},"geometry":{"type":"LineString","coordinates":[[139.42388,36.19101],[139.42346,36.19029],[139.4232,36.18925]]}},{"type":"Feature","properties":{"idx":71,"road":"羽生妻沼線","cls":"primary","shops":0,"st_km":4.6,"mesh":"54392370"},"geometry":{"type":"LineString","coordinates":[[139.3777,36.22706],[139.37765,36.22628],[139.37773,36.22419]]}},{"type":"Feature","properties":{"idx":152,"road":"太田熊谷線","cls":"secondary","shops":1,"st_km":4.93,"mesh":"54392360"},"geometry":{"type":"LineString","coordinates":[[139.37767,36.22205],[139.37766,36.22181]]}},{"type":"Feature","properties":{"idx":101,"road":"太田熊谷線","cls":"secondary","shops":0,"st_km":4.82,"mesh":"54392360"},"geometry":{"type":"LineString","coordinates":[[139.37773,36.22419],[139.37774,36.22341],[139.37767,36.22205]]}},{"type":"Feature","properties":{"idx":488,"road":"","cls":"tertiary","shops":0,"st_km":4.65,"mesh":"54392361"},"geometry":{"type":"LineString","coordinates":[[139.38981,36.21951],[139.39069,36.2193]]}},{"type":"Feature","properties":{"idx":64,"road":"太田熊谷線","cls":"secondary","shops":0,"st_km":4.34,"mesh":"54392370"},"geometry":{"type":"LineString","coordinates":[[139.37687,36.2294],[139.37716,36.22859]]}},{"type":"Feature","properties":{"idx":80,"road":"羽生妻沼線","cls":"primary","shops":0,"st_km":2.96,"mesh":"54392327"},"geometry":{"type":"LineString","coordinates":[[139.47273,36.18486],[139.47164,36.18476],[139.47015,36.18449],[139.46954,36.18448],[139.46702,36.1847]]}},{"type":"Feature","properties":{"idx":90,"road":"熊谷館林線","cls":"primary","shops":0,"st_km":4.68,"mesh":"54392312"},"geometry":{"type":"LineString","coordinates":[[139.41063,36.18045],[139.40922,36.18042],[139.40774,36.18012],[139.40637,36.17976],[139.40473,36.17951],[139.40385,36.17929],[139.40311,36.17923],[139.4025,36.17925]]}},{"type":"Feature","properties":{"idx":68,"road":"熊谷館林線","cls":"primary","shops":0,"st_km":5.37,"mesh":"54392323"},"geometry":{"type":"LineString","coordinates":[[139.42318,36.18913],[139.42318,36.18888],[139.42327,36.1885],[139.42322,36.18819],[139.42305,36.18796],[139.42252,36.18752],[139.41879,36.18546],[139.41723,36.18448],[139.4115,36.18171],[139.41115,36.18142],[139.41063,36.18045]]}},{"type":"Feature","properties":{"idx":81,"road":"弥藤吾行田線","cls":"secondary","shops":0,"st_km":4.89,"mesh":"54392312"},"geometry":{"type":"LineString","coordinates":[[139.41113,36.18048],[139.41063,36.18045]]}},{"type":"Feature","properties":{"idx":71,"road":"熊谷館林線","cls":"primary","shops":0,"st_km":3.4,"mesh":"54392301"},"geometry":{"type":"LineString","coordinates":[[139.3964,36.17201],[139.39534,36.17039]]}},{"type":"Feature","properties":{"idx":42,"road":"","cls":"tertiary","shops":0,"st_km":3.68,"mesh":"54392303"},"geometry":{"type":"LineString","coordinates":[[139.41127,36.16839],[139.41616,36.1686]]}},{"type":"Feature","properties":{"idx":438,"road":"北河原熊谷線","cls":"secondary","shops":1,"st_km":4.69,"mesh":"54392314"},"geometry":{"type":"LineString","coordinates":[[139.43574,36.18138],[139.43511,36.18147]]}},{"type":"Feature","properties":{"idx":63,"road":"上中条斉条線","cls":"secondary","shops":0,"st_km":4.2,"mesh":"54392315"},"geometry":{"type":"LineString","coordinates":[[139.44573,36.17675],[139.44369,36.17675],[139.44351,36.17678],[139.44269,36.17717],[139.44231,36.17773],[139.44078,36.17819],[139.44055,36.17843],[139.44015,36.17903],[139.43981,36.1793],[139.43888,36.17971],[139.43859,36.17991],[139.43832,36.17996],[139.43719,36.18043],[139.43643,36.18106],[139.43574,36.18138]]}},{"type":"Feature","properties":{"idx":74,"road":"ラグビーロード","cls":"primary","shops":0,"st_km":2.92,"mesh":"54392301"},"geometry":{"type":"LineString","coordinates":[[139.39312,36.16747],[139.39306,36.1674]]}},{"type":"Feature","properties":{"idx":71,"road":"ラグビーロード","cls":"primary","shops":0,"st_km":3.28,"mesh":"54392301"},"geometry":{"type":"LineString","coordinates":[[139.39534,36.17039],[139.39508,36.17]]}},{"type":"Feature","properties":{"idx":72,"road":"ラグビーロード","cls":"primary","shops":0,"st_km":3.18,"mesh":"54392301"},"geometry":{"type":"LineString","coordinates":[[139.39475,36.16948],[139.3947,36.16941]]}},{"type":"Feature","properties":{"idx":72,"road":"ラグビーロード","cls":"primary","shops":0,"st_km":3.22,"mesh":"54392301"},"geometry":{"type":"LineString","coordinates":[[139.39504,36.16992],[139.39475,36.16948]]}},{"type":"Feature","properties":{"idx":72,"road":"ラグビーロード","cls":"primary","shops":0,"st_km":3.25,"mesh":"54392301"},"geometry":{"type":"LineString","coordinates":[[139.39508,36.17],[139.39504,36.16992]]}},{"type":"Feature","properties":{"idx":30,"road":"太田熊谷線","cls":"secondary","shops":0,"st_km":4.75,"mesh":"54392330"},"geometry":{"type":"LineString","coordinates":[[139.37467,36.20066],[139.37576,36.19801],[139.3759,36.19706],[139.37599,36.19562],[139.37597,36.19542],[139.37567,36.19442],[139.37567,36.19398],[139.376,36.19267],[139.37674,36.19111]]}},{"type":"Feature","properties":{"idx":388,"road":"太田熊谷線","cls":"secondary","shops":0,"st_km":4.57,"mesh":"54392320"},"geometry":{"type":"LineString","coordinates":[[139.37674,36.19111],[139.37677,36.19103]]}},{"type":"Feature","properties":{"idx":389,"road":"太田熊谷線","cls":"secondary","shops":0,"st_km":4.28,"mesh":"54392320"},"geometry":{"type":"LineString","coordinates":[[139.37677,36.19103],[139.378,36.18843],[139.3784,36.18776],[139.379,36.18706],[139.37949,36.1866],[139.38027,36.18576],[139.38211,36.18329],[139.38245,36.18272],[139.38259,36.18223],[139.38274,36.18127],[139.3829,36.17813]]}},{"type":"Feature","properties":{"idx":330,"road":"太田熊谷線","cls":"secondary","shops":0,"st_km":3.61,"mesh":"54392310"},"geometry":{"type":"LineString","coordinates":[[139.3829,36.17813],[139.3829,36.17805]]}},{"type":"Feature","properties":{"idx":334,"road":"太田熊谷線","cls":"secondary","shops":0,"st_km":3.44,"mesh":"54392310"},"geometry":{"type":"LineString","coordinates":[[139.3829,36.17805],[139.38304,36.17481]]}},{"type":"Feature","properties":{"idx":618,"road":"太田熊谷線","cls":"secondary","shops":0,"st_km":3.27,"mesh":"54392300"},"geometry":{"type":"LineString","coordinates":[[139.38304,36.17481],[139.38304,36.17473]]}},{"type":"Feature","properties":{"idx":73,"road":"葛和田新堀線","cls":"secondary","shops":0,"st_km":5.27,"mesh":"54392321"},"geometry":{"type":"LineString","coordinates":[[139.39017,36.18788],[139.39266,36.18733],[139.39303,36.18729],[139.39497,36.18732],[139.39723,36.18724],[139.39788,36.18739],[139.39824,36.18756],[139.39874,36.188],[139.39929,36.18872],[139.39981,36.18907],[139.40037,36.18929],[139.40069,36.18936],[139.40338,36.18958],[139.40446,36.1887],[139.40448,36.18914],[139.40607,36.1908]]}},{"type":"Feature","properties":{"idx":73,"road":"葛和田新堀線","cls":"secondary","shops":0,"st_km":4.86,"mesh":"54392321"},"geometry":{"type":"LineString","coordinates":[[139.39017,36.18788],[139.39005,36.18791]]}},{"type":"Feature","properties":{"idx":34,"road":"羽生妻沼線","cls":"primary","shops":0,"st_km":5.78,"mesh":"54392324"},"geometry":{"type":"LineString","coordinates":[[139.43881,36.19191],[139.43835,36.1919],[139.43795,36.1918],[139.43693,36.19131],[139.43648,36.19114],[139.43619,36.19112],[139.43494,36.19121],[139.43211,36.19065],[139.4304,36.19086],[139.4281,36.19068],[139.42753,36.19068],[139.426,36.19102],[139.42563,36.19102],[139.42465,36.19091],[139.42388,36.19101]]}},{"type":"Feature","properties":{"idx":16,"road":"羽生妻沼線","cls":"primary","shops":0,"st_km":5.53,"mesh":"54392335"},"geometry":{"type":"LineString","coordinates":[[139.4389,36.19191],[139.43881,36.19191]]}},{"type":"Feature","properties":{"idx":2,"road":"","cls":"tertiary","shops":0,"st_km":1.75,"mesh":"54392319"},"geometry":{"type":"LineString","coordinates":[[139.48832,36.17834],[139.48832,36.17833]]}},{"type":"Feature","properties":{"idx":2,"road":"","cls":"tertiary","shops":0,"st_km":1.76,"mesh":"54392319"},"geometry":{"type":"LineString","coordinates":[[139.48831,36.17841],[139.48832,36.17834]]}},{"type":"Feature","properties":{"idx":9,"road":"","cls":"tertiary","shops":0,"st_km":0.98,"mesh":"54392308"},"geometry":{"type":"LineString","coordinates":[[139.48673,36.17333],[139.48593,36.16925],[139.48584,36.16906]]}},{"type":"Feature","properties":{"idx":8,"road":"","cls":"tertiary","shops":0,"st_km":1.21,"mesh":"54392308"},"geometry":{"type":"LineString","coordinates":[[139.48674,36.17339],[139.48673,36.17333]]}},{"type":"Feature","properties":{"idx":2,"road":"","cls":"tertiary","shops":0,"st_km":1.64,"mesh":"54392319"},"geometry":{"type":"LineString","coordinates":[[139.48828,36.17804],[139.48795,36.1765]]}},{"type":"Feature","properties":{"idx":2,"road":"","cls":"tertiary","shops":0,"st_km":1.55,"mesh":"54392319"},"geometry":{"type":"LineString","coordinates":[[139.48795,36.1765],[139.48794,36.17642]]}},{"type":"Feature","properties":{"idx":13,"road":"佐野行田線","cls":"primary","shops":0,"st_km":0.81,"mesh":"54392309"},"geometry":{"type":"LineString","coordinates":[[139.49096,36.1704],[139.488,36.16914]]}},{"type":"Feature","properties":{"idx":13,"road":"佐野行田線","cls":"primary","shops":0,"st_km":0.9,"mesh":"54392309"},"geometry":{"type":"LineString","coordinates":[[139.49108,36.17045],[139.49096,36.1704]]}},{"type":"Feature","properties":{"idx":7,"road":"","cls":"tertiary","shops":0,"st_km":1.27,"mesh":"54392308"},"geometry":{"type":"LineString","coordinates":[[139.48719,36.17441],[139.487,36.17411],[139.48674,36.17339]]}},{"type":"Feature","properties":{"idx":7,"road":"","cls":"tertiary","shops":0,"st_km":1.33,"mesh":"54392308"},"geometry":{"type":"LineString","coordinates":[[139.48724,36.17448],[139.48719,36.17441]]}},{"type":"Feature","properties":{"idx":12,"road":"佐野行田線","cls":"primary","shops":0,"st_km":0.95,"mesh":"54392309"},"geometry":{"type":"LineString","coordinates":[[139.49238,36.17101],[139.49108,36.17045]]}},{"type":"Feature","properties":{"idx":12,"road":"佐野行田線","cls":"primary","shops":0,"st_km":1.0,"mesh":"54392309"},"geometry":{"type":"LineString","coordinates":[[139.49247,36.17105],[139.49238,36.17101]]}},{"type":"Feature","properties":{"idx":11,"road":"佐野行田線","cls":"primary","shops":0,"st_km":1.05,"mesh":"54392309"},"geometry":{"type":"LineString","coordinates":[[139.49343,36.17147],[139.49247,36.17105]]}},{"type":"Feature","properties":{"idx":11,"road":"佐野行田線","cls":"primary","shops":0,"st_km":1.09,"mesh":"54392309"},"geometry":{"type":"LineString","coordinates":[[139.49349,36.1715],[139.49343,36.17147]]}},{"type":"Feature","properties":{"idx":61,"road":"足利邑楽行田線","cls":"primary","shops":0,"st_km":2.44,"mesh":"54392317"},"geometry":{"type":"LineString","coordinates":[[139.4738,36.18108],[139.47367,36.1809]]}},{"type":"Feature","properties":{"idx":9,"road":"熊谷羽生線","cls":"secondary","shops":0,"st_km":1.07,"mesh":"54392308"},"geometry":{"type":"LineString","coordinates":[[139.47824,36.16877],[139.47972,36.16893],[139.48094,36.1692]]}},{"type":"Feature","properties":{"idx":10,"road":"熊谷羽生線","cls":"secondary","shops":0,"st_km":1.01,"mesh":"54392308"},"geometry":{"type":"LineString","coordinates":[[139.48094,36.1692],[139.48103,36.16922]]}},{"type":"Feature","properties":{"idx":13,"road":"","cls":"primary","shops":0,"st_km":0.76,"mesh":"54392308"},"geometry":{"type":"LineString","coordinates":[[139.48579,36.16902],[139.48574,36.16898]]}},{"type":"Feature","properties":{"idx":13,"road":"","cls":"primary","shops":0,"st_km":0.76,"mesh":"54392308"},"geometry":{"type":"LineString","coordinates":[[139.48584,36.16906],[139.48579,36.16902]]}},{"type":"Feature","properties":{"idx":61,"road":"足利邑楽行田線","cls":"primary","shops":0,"st_km":2.45,"mesh":"54392317"},"geometry":{"type":"LineString","coordinates":[[139.4739,36.18121],[139.4738,36.18108]]}},{"type":"Feature","properties":{"idx":100,"road":"熊谷館林線","cls":"primary","shops":0,"st_km":6.09,"mesh":"54392344"},"geometry":{"type":"LineString","coordinates":[[139.42804,36.20401],[139.42778,36.20393]]}},{"type":"Feature","properties":{"idx":78,"road":"羽生妻沼線","cls":"primary","shops":0,"st_km":3.14,"mesh":"54392327"},"geometry":{"type":"LineString","coordinates":[[139.46702,36.1847],[139.4667,36.18472]]}},{"type":"Feature","properties":{"idx":28,"road":"羽生妻沼線","cls":"primary","shops":0,"st_km":4.26,"mesh":"54392326"},"geometry":{"type":"LineString","coordinates":[[139.4667,36.18472],[139.46552,36.18479],[139.46205,36.18532],[139.46144,36.18553],[139.46069,36.186],[139.45993,36.18637],[139.45919,36.18663],[139.45847,36.18664],[139.45665,36.18703],[139.45444,36.18722],[139.45314,36.18742],[139.44172,36.19121],[139.4389,36.19191]]}},{"type":"Feature","properties":{"idx":13,"road":"佐野行田線","cls":"primary","shops":0,"st_km":0.74,"mesh":"54392308"},"geometry":{"type":"LineString","coordinates":[[139.488,36.16914],[139.48746,36.16905],[139.48584,36.16906]]}},{"type":"Feature","properties":{"idx":65,"road":"上中条斉条線","cls":"secondary","shops":0,"st_km":3.76,"mesh":"54392315"},"geometry":{"type":"LineString","coordinates":[[139.44915,36.17668],[139.44573,36.17675]]}},{"type":"Feature","properties":{"idx":14,"road":"熊谷羽生線","cls":"secondary","shops":0,"st_km":1.4,"mesh":"54392307"},"geometry":{"type":"LineString","coordinates":[[139.47151,36.16767],[139.47348,36.16806],[139.4739,36.16801],[139.47761,36.16866]]}},{"type":"Feature","properties":{"idx":47,"road":"","cls":"tertiary","shops":0,"st_km":5.38,"mesh":"54392350"},"geometry":{"type":"LineString","coordinates":[[139.38081,36.21412],[139.3808,36.21727]]}},{"type":"Feature","properties":{"idx":90,"road":"","cls":"tertiary","shops":0,"st_km":5.22,"mesh":"54392360"},"geometry":{"type":"LineString","coordinates":[[139.3808,36.21727],[139.3808,36.21737]]}}]}