{"type":"FeatureCollection","features":[{"type":"Feature","properties":{"idx":173,"road":NaN,"cls":"tertiary","shops":0,"st_km":2.26,"mesh":"54393009"},"geometry":{"type":"LineString","coordinates":[[139.13113,36.25525],[139.1302,36.25523],[139.12739,36.2553],[139.12419,36.25554],[139.12115,36.25609],[139.11847,36.25689],[139.11791,36.25692],[139.11715,36.25674]]}},{"type":"Feature","properties":{"idx":72,"road":NaN,"cls":"tertiary","shops":0,"st_km":1.84,"mesh":"54393019"},"geometry":{"type":"LineString","coordinates":[[139.12223,36.26112],[139.12176,36.26121],[139.12115,36.26104],[139.12087,36.26102],[139.11903,36.26187],[139.11894,36.26186],[139.11776,36.26087],[139.11721,36.26033],[139.11663,36.25963],[139.1161,36.25888],[139.11581,36.25831],[139.11406,36.25662],[139.1134,36.25572],[139.11275,36.25505],[139.11167,36.25365]]}},{"type":"Feature","properties":{"idx":162,"road":NaN,"cls":"tertiary","shops":0,"st_km":2.5,"mesh":"54393009"},"geometry":{"type":"LineString","coordinates":[[139.1221,36.25417],[139.12186,36.25347],[139.12156,36.25297],[139.12009,36.25094]]}},{"type":"Feature","properties":{"idx":185,"road":NaN,"cls":"tertiary","shops":0,"st_km":2.06,"mesh":"54393009"},"geometry":{"type":"LineString","coordinates":[[139.1165,36.25597],[139.1142,36.25676]]}},{"type":"Feature","properties":{"idx":173,"road":NaN,"cls":"tertiary","shops":0,"st_km":2.27,"mesh":"54393009"},"geometry":{"type":"LineString","coordinates":[[139.11785,36.25434],[139.11721,36.25446],[139.11695,36.25462],[139.11687,36.25472],[139.11679,36.25495],[139.11678,36.25559],[139.11663,36.25585],[139.1165,36.25597]]}},{"type":"Feature","properties":{"idx":162,"road":NaN,"cls":"tertiary","shops":0,"st_km":2.5,"mesh":"54393009"},"geometry":{"type":"LineString","coordinates":[[139.12066,36.25339],[139.12133,36.25413],[139.12171,36.25416],[139.12208,36.25404]]}},{"type":"Feature","properties":{"idx":165,"road":NaN,"cls":"tertiary","shops":0,"st_km":2.41,"mesh":"54393009"},"geometry":{"type":"LineString","coordinates":[[139.12223,36.25467],[139.1221,36.25417]]}},{"type":"Feature","properties":{"idx":249,"road":NaN,"cls":"tertiary","shops":1,"st_km":2.41,"mesh":"54393009"},"geometry":{"type":"LineString","coordinates":[[139.11785,36.25434],[139.11905,36.25396]]}},{"type":"Feature","properties":{"idx":187,"road":NaN,"cls":"tertiary","shops":0,"st_km":2.03,"mesh":"54393009"},"geometry":{"type":"LineString","coordinates":[[139.11473,36.25727],[139.11657,36.25673],[139.11684,36.2567],[139.11715,36.25674]]}},{"type":"Feature","properties":{"idx":66,"road":NaN,"cls":"tertiary","shops":0,"st_km":2.02,"mesh":"54393019"},"geometry":{"type":"LineString","coordinates":[[139.11899,36.25672],[139.11922,36.25723],[139.11952,36.25836],[139.11947,36.25843],[139.11886,36.25874],[139.11674,36.25975]]}},{"type":"Feature","properties":{"idx":66,"road":NaN,"cls":"tertiary","shops":0,"st_km":2.05,"mesh":"54393019"},"geometry":{"type":"LineString","coordinates":[[139.12311,36.2611],[139.12223,36.26112]]}},{"type":"Feature","properties":{"idx":166,"road":NaN,"cls":"tertiary","shops":0,"st_km":2.41,"mesh":"54393009"},"geometry":{"type":"LineString","coordinates":[[139.12233,36.25641],[139.12234,36.25527],[139.12223,36.25467]]}},{"type":"Feature","properties":{"idx":320,"road":NaN,"cls":"tertiary","shops":2,"st_km":2.56,"mesh":"54393009"},"geometry":{"type":"LineString","coordinates":[[139.11905,36.25396],[139.12066,36.25339],[139.12156,36.25297]]}},{"type":"Feature","properties":{"idx":69,"road":NaN,"cls":"tertiary","shops":0,"st_km":1.92,"mesh":"54393019"},"geometry":{"type":"LineString","coordinates":[[139.12464,36.26628],[139.12443,36.26556],[139.12427,36.26538],[139.1239,36.26509],[139.12353,36.26445],[139.12331,36.26332],[139.12328,36.26205],[139.12311,36.2611]]}}]}