{
"type": "FeatureCollection",
"name": "mountains",
"crs": { "type": "name", "properties": { "name": "urn:ogc:def:crs:OGC:1.3:CRS84" } },
"features": [
{ "type": "Feature", "properties": { "type": "mountain" }, "geometry": { "type": "MultiPolygon", "coordinates": [ [ [ [ 138.075000000000102, 34.916666668988299 ], [ 138.075000000000102, 34.891666668987433 ], [ 138.087500000000119, 34.891666668987433 ], [ 138.087500000000119, 34.866666668986568 ], [ 138.075000000000102, 34.866666668986568 ], [ 138.075000000000102, 34.841666668985702 ], [ 138.0625, 34.841666668985702 ], [ 138.0625, 34.850000002319319 ], [ 138.0375, 34.850000002319319 ], [ 138.0375, 34.858333335652944 ], [ 138.025, 34.858333335652944 ], [ 138.025, 34.875000002320185 ], [ 138.0125, 34.875000002320185 ], [ 138.0125, 34.866666668986568 ], [ 138.0, 34.866666668986568 ], [ 138.0, 34.916666668988299 ], [ 138.075000000000102, 34.916666668988299 ] ] ], [ [ [ 138.0, 34.916666668989237 ], [ 138.0, 35.000000002325457 ], [ 138.125000000000171, 35.000000002325457 ], [ 138.125000000000171, 34.916666668989237 ], [ 138.112500000000153, 34.916666668989237 ], [ 138.112500000000153, 34.925000002322861 ], [ 138.100000000000136, 34.925000002322861 ], [ 138.100000000000136, 34.966666668990968 ], [ 138.087500000000119, 34.966666668990968 ], [ 138.087500000000119, 34.975000002324585 ], [ 138.075000000000102, 34.975000002324585 ], [ 138.075000000000102, 34.950000002323726 ], [ 138.0625, 34.950000002323726 ], [ 138.0625, 34.933333335656485 ], [ 138.075000000000102, 34.933333335656485 ], [ 138.075000000000102, 34.916666668989237 ], [ 138.0, 34.916666668989237 ] ] ], [ [ [ 138.0, 35.000000002326388 ], [ 138.0, 35.083333335662608 ], [ 138.125000000000171, 35.083333335662608 ], [ 138.125000000000171, 35.000000002326388 ], [ 138.0, 35.000000002326388 ] ] ], [ [ [ 138.0, 35.083333335663539 ], [ 138.0, 35.16666666899976 ], [ 138.125000000000171, 35.16666666899976 ], [ 138.125000000000171, 35.083333335663539 ], [ 138.0, 35.083333335663539 ] ] ], [ [ [ 138.0, 35.166666669000691 ], [ 138.0, 35.250000002336911 ], [ 138.125000000000171, 35.250000002336911 ], [ 138.125000000000171, 35.166666669000691 ], [ 138.0, 35.166666669000691 ] ] ], [ [ [ 138.0, 35.250000002337842 ], [ 138.0, 35.333333335674062 ], [ 138.125000000000171, 35.333333335674062 ], [ 138.125000000000171, 35.250000002337842 ], [ 138.0, 35.250000002337842 ] ] ], [ [ [ 138.0, 35.333333335688891 ], [ 138.0, 35.416666669025112 ], [ 138.125000000000171, 35.416666669025112 ], [ 138.125000000000171, 35.333333335688891 ], [ 138.0, 35.333333335688891 ] ] ], [ [ [ 138.0, 35.416666669026043 ], [ 138.0, 35.500000002362263 ], [ 138.125000000000171, 35.500000002362263 ], [ 138.125000000000171, 35.416666669026043 ], [ 138.0, 35.416666669026043 ] ] ], [ [ [ 138.0, 35.500000002363194 ], [ 138.0, 35.583333335699415 ], [ 138.125000000000171, 35.583333335699415 ], [ 138.125000000000171, 35.500000002363194 ], [ 138.0, 35.500000002363194 ] ] ], [ [ [ 138.0, 35.583333335700353 ], [ 138.0, 35.666666669036573 ], [ 138.125000000000171, 35.666666669036573 ], [ 138.125000000000171, 35.583333335700353 ], [ 138.0, 35.583333335700353 ] ] ], [ [ [ 138.0, 35.666666669037504 ], [ 138.0, 35.750000002373724 ], [ 138.125000000000171, 35.750000002373724 ], [ 138.125000000000171, 35.666666669037504 ], [ 138.0, 35.666666669037504 ] ] ], [ [ [ 138.0, 35.750000002374655 ], [ 138.0, 35.833333335710876 ], [ 138.125000000000171, 35.833333335710876 ], [ 138.125000000000171, 35.750000002374655 ], [ 138.0, 35.750000002374655 ] ] ], [ [ [ 138.0, 35.833333335711806 ], [ 138.0, 35.916666669048027 ], [ 138.125000000000171, 35.916666669048027 ], [ 138.125000000000171, 35.833333335711806 ], [ 138.0, 35.833333335711806 ] ] ], [ [ [ 138.0, 35.916666669048958 ], [ 138.0, 36.000000002385178 ], [ 138.125000000000171, 36.000000002385178 ], [ 138.125000000000171, 35.916666669048958 ], [ 138.0, 35.916666669048958 ] ] ], [ [ [ 138.0, 36.0000000024 ], [ 138.0, 36.083333335736221 ], [ 138.125000000000171, 36.083333335736221 ], [ 138.125000000000171, 36.0000000024 ], [ 138.0, 36.0000000024 ] ] ], [ [ [ 138.0, 36.083333335737152 ], [ 138.0, 36.166666669073372 ], [ 138.125000000000171, 36.166666669073372 ], [ 138.125000000000171, 36.083333335737152 ], [ 138.0, 36.083333335737152 ] ] ], [ [ [ 138.0, 36.166666669074303 ], [ 138.0, 36.250000002410523 ], [ 138.125000000000171, 36.250000002410523 ], [ 138.125000000000171, 36.166666669074303 ], [ 138.0, 36.166666669074303 ] ] ], [ [ [ 138.0, 36.250000002411461 ], [ 138.0, 36.333333335747682 ], [ 138.125000000000171, 36.333333335747682 ], [ 138.125000000000171, 36.250000002411461 ], [ 138.0, 36.250000002411461 ] ] ], [ [ [ 138.0, 36.333333335748613 ], [ 138.0, 36.416666669084833 ], [ 138.125000000000171, 36.416666669084833 ], [ 138.125000000000171, 36.333333335748613 ], [ 138.0, 36.333333335748613 ] ] ], [ [ [ 138.0, 36.416666669085764 ], [ 138.0, 36.500000002421984 ], [ 138.125000000000171, 36.500000002421984 ], [ 138.125000000000171, 36.416666669085764 ], [ 138.0, 36.416666669085764 ] ] ], [ [ [ 138.0, 36.500000002422915 ], [ 138.0, 36.583333335759136 ], [ 138.125000000000171, 36.583333335759136 ], [ 138.125000000000171, 36.500000002422915 ], [ 138.0, 36.500000002422915 ] ] ], [ [ [ 138.0, 36.583333335760067 ], [ 138.0, 36.666666669096287 ], [ 138.125000000000171, 36.666666669096287 ], [ 138.125000000000171, 36.583333335760067 ], [ 138.0, 36.583333335760067 ] ] ], [ [ [ 138.100000000000136, 34.833333335652078 ], [ 138.087500000000119, 34.833333335652078 ], [ 138.087500000000119, 34.841666668985702 ], [ 138.100000000000136, 34.841666668985702 ], [ 138.100000000000136, 34.833333335652078 ] ] ], [ [ [ 138.125000000001563, 35.000000002326388 ], [ 138.125000000001563, 35.083333335662608 ], [ 138.250000000001734, 35.083333335662608 ], [ 138.250000000001734, 35.050000002328119 ], [ 138.237500000001717, 35.050000002328119 ], [ 138.237500000001717, 35.041666668994495 ], [ 138.2250000000017, 35.041666668994495 ], [ 138.2250000000017, 35.025000002327253 ], [ 138.250000000001734, 35.025000002327253 ], [ 138.250000000001734, 35.000000002326388 ], [ 138.125000000001563, 35.000000002326388 ] ] ], [ [ [ 138.125000000001563, 35.083333335663539 ], [ 138.125000000001563, 35.16666666899976 ], [ 138.250000000001734, 35.16666666899976 ], [ 138.250000000001734, 35.083333335663539 ], [ 138.125000000001563, 35.083333335663539 ] ] ], [ [ [ 138.125000000001563, 35.166666669000691 ], [ 138.125000000001563, 35.250000002336911 ], [ 138.250000000001734, 35.250000002336911 ], [ 138.250000000001734, 35.166666669000691 ], [ 138.125000000001563, 35.166666669000691 ] ] ], [ [ [ 138.125000000001563, 35.333333335688891 ], [ 138.125000000001563, 35.416666669025112 ], [ 138.250000000001734, 35.416666669025112 ], [ 138.250000000001734, 35.333333335688891 ], [ 138.125000000001563, 35.333333335688891 ] ] ], [ [ [ 138.125000000001563, 35.666666669036573 ], [ 138.250000000001734, 35.666666669036573 ], [ 138.250000000001734, 35.583333335700353 ], [ 138.125000000001563, 35.583333335700353 ], [ 138.125000000001563, 35.666666669036573 ] ] ], [ [ [ 138.125000000001563, 35.666666669037504 ], [ 138.125000000001563, 35.750000002373724 ], [ 138.250000000001734, 35.750000002373724 ], [ 138.250000000001734, 35.666666669037504 ], [ 138.125000000001563, 35.666666669037504 ] ] ], [ [ [ 138.125000000001563, 35.750000002374655 ], [ 138.125000000001563, 35.833333335710876 ], [ 138.250000000001734, 35.833333335710876 ], [ 138.250000000001734, 35.750000002374655 ], [ 138.125000000001563, 35.750000002374655 ] ] ], [ [ [ 138.125000000001563, 35.833333335711806 ], [ 138.125000000001563, 35.916666669048027 ], [ 138.250000000001734, 35.916666669048027 ], [ 138.250000000001734, 35.833333335711806 ], [ 138.125000000001563, 35.833333335711806 ] ] ], [ [ [ 138.125000000001563, 36.000000002385178 ], [ 138.250000000001734, 36.000000002385178 ], [ 138.250000000001734, 35.916666669048958 ], [ 138.125000000001563, 35.916666669048958 ], [ 138.125000000001563, 36.000000002385178 ] ] ], [ [ [ 138.125000000001563, 36.0000000024 ], [ 138.125000000001563, 36.083333335736221 ], [ 138.250000000001734, 36.083333335736221 ], [ 138.250000000001734, 36.0000000024 ], [ 138.125000000001563, 36.0000000024 ] ] ], [ [ [ 138.125000000001563, 36.083333335737152 ], [ 138.125000000001563, 36.166666669073372 ], [ 138.250000000001734, 36.166666669073372 ], [ 138.250000000001734, 36.083333335737152 ], [ 138.125000000001563, 36.083333335737152 ] ] ], [ [ [ 138.125000000001563, 36.166666669074303 ], [ 138.125000000001563, 36.250000002410523 ], [ 138.250000000001734, 36.250000002410523 ], [ 138.250000000001734, 36.166666669074303 ], [ 138.125000000001563, 36.166666669074303 ] ] ], [ [ [ 138.125000000001563, 36.416666669084833 ], [ 138.250000000001734, 36.416666669084833 ], [ 138.250000000001734, 36.333333335748613 ], [ 138.125000000001563, 36.333333335748613 ], [ 138.125000000001563, 36.416666669084833 ] ] ], [ [ [ 138.125000000001563, 36.500000002422915 ], [ 138.125000000001563, 36.583333335759136 ], [ 138.250000000001734, 36.583333335759136 ], [ 138.250000000001734, 36.500000002422915 ], [ 138.125000000001563, 36.500000002422915 ] ] ], [ [ [ 138.13750000000158, 34.891666668987426 ], [ 138.125000000001563, 34.891666668987426 ], [ 138.125000000001563, 34.90000000232105 ], [ 138.13750000000158, 34.90000000232105 ], [ 138.13750000000158, 34.891666668987426 ] ] ], [ [ [ 138.13750000000158, 34.916666668988299 ], [ 138.162500000001614, 34.916666668988299 ], [ 138.162500000001614, 34.90000000232105 ], [ 138.13750000000158, 34.90000000232105 ], [ 138.13750000000158, 34.916666668988299 ] ] ], [ [ [ 138.125000000001563, 34.916666668989237 ], [ 138.125000000001563, 35.000000002325457 ], [ 138.250000000001734, 35.000000002325457 ], [ 138.250000000001734, 34.991666668991833 ], [ 138.237500000001717, 34.991666668991833 ], [ 138.237500000001717, 34.983333335658209 ], [ 138.2250000000017, 34.983333335658209 ], [ 138.2250000000017, 34.975000002324592 ], [ 138.237500000001717, 34.975000002324592 ], [ 138.237500000001717, 34.966666668990968 ], [ 138.2250000000017, 34.966666668990968 ], [ 138.2250000000017, 34.958333335657343 ], [ 138.212500000001683, 34.958333335657343 ], [ 138.212500000001683, 34.950000002323726 ], [ 138.200000000001666, 34.950000002323726 ], [ 138.200000000001666, 34.933333335656478 ], [ 138.175000000001631, 34.933333335656478 ], [ 138.175000000001631, 34.925000002322861 ], [ 138.162500000001614, 34.925000002322861 ], [ 138.162500000001614, 34.916666668989237 ], [ 138.125000000001563, 34.916666668989237 ] ] ], [ [ [ 138.125000000001563, 35.250000002337842 ], [ 138.125000000001563, 35.333333335674062 ], [ 138.250000000001734, 35.333333335674062 ], [ 138.250000000001734, 35.250000002337842 ], [ 138.125000000001563, 35.250000002337842 ] ] ], [ [ [ 138.125000000001563, 35.416666669026043 ], [ 138.125000000001563, 35.500000002362263 ], [ 138.250000000001734, 35.500000002362263 ], [ 138.250000000001734, 35.416666669026043 ], [ 138.125000000001563, 35.416666669026043 ] ] ], [ [ [ 138.125000000001563, 35.500000002363194 ], [ 138.125000000001563, 35.583333335699415 ], [ 138.250000000001734, 35.583333335699415 ], [ 138.250000000001734, 35.500000002363194 ], [ 138.125000000001563, 35.500000002363194 ] ] ], [ [ [ 138.125000000001563, 36.250000002411461 ], [ 138.125000000001563, 36.333333335747682 ], [ 138.250000000001734, 36.333333335747682 ], [ 138.250000000001734, 36.250000002411461 ], [ 138.125000000001563, 36.250000002411461 ] ] ], [ [ [ 138.125000000001563, 36.416666669085764 ], [ 138.125000000001563, 36.500000002421984 ], [ 138.250000000001734, 36.500000002421984 ], [ 138.250000000001734, 36.416666669085764 ], [ 138.125000000001563, 36.416666669085764 ] ] ], [ [ [ 138.125000000001563, 36.583333335760067 ], [ 138.125000000001563, 36.666666669096287 ], [ 138.250000000001734, 36.666666669096287 ], [ 138.250000000001734, 36.583333335760067 ], [ 138.125000000001563, 36.583333335760067 ] ] ], [ [ [ 138.175000000001631, 34.891666668987426 ], [ 138.162500000001614, 34.891666668987426 ], [ 138.162500000001614, 34.90000000232105 ], [ 138.175000000001631, 34.90000000232105 ], [ 138.175000000001631, 34.891666668987426 ] ] ], [ [ [ 138.262500000003143, 35.008333335660012 ], [ 138.262500000003143, 35.000000002326388 ], [ 138.250000000003126, 35.000000002326388 ], [ 138.250000000003126, 35.008333335660012 ], [ 138.262500000003143, 35.008333335660012 ] ] ], [ [ [ 138.250000000003126, 35.050000002328119 ], [ 138.250000000003126, 35.083333335662608 ], [ 138.337500000003246, 35.083333335662608 ], [ 138.337500000003246, 35.075000002328984 ], [ 138.312500000003212, 35.075000002328984 ], [ 138.312500000003212, 35.058333335661743 ], [ 138.325000000003229, 35.058333335661743 ], [ 138.325000000003229, 35.033333335660878 ], [ 138.27500000000316, 35.033333335660878 ], [ 138.27500000000316, 35.025000002327253 ], [ 138.262500000003143, 35.025000002327253 ], [ 138.262500000003143, 35.050000002328119 ], [ 138.250000000003126, 35.050000002328119 ] ] ], [ [ [ 138.250000000003126, 35.083333335663539 ], [ 138.250000000003126, 35.16666666899976 ], [ 138.375000000003297, 35.16666666899976 ], [ 138.375000000003297, 35.116666668998029 ], [ 138.36250000000328, 35.116666668998029 ], [ 138.36250000000328, 35.125000002331646 ], [ 138.337500000003246, 35.125000002331646 ], [ 138.337500000003246, 35.108333335664405 ], [ 138.350000000003263, 35.108333335664405 ], [ 138.350000000003263, 35.100000002330788 ], [ 138.36250000000328, 35.100000002330788 ], [ 138.36250000000328, 35.091666668997163 ], [ 138.350000000003263, 35.091666668997163 ], [ 138.350000000003263, 35.083333335663539 ], [ 138.250000000003126, 35.083333335663539 ] ] ], [ [ [ 138.250000000003126, 35.250000002336911 ], [ 138.375000000003297, 35.250000002336911 ], [ 138.375000000003297, 35.166666669000691 ], [ 138.250000000003126, 35.166666669000691 ], [ 138.250000000003126, 35.250000002336911 ] ] ], [ [ [ 138.250000000003126, 35.250000002337842 ], [ 138.250000000003126, 35.333333335674062 ], [ 138.375000000003297, 35.333333335674062 ], [ 138.375000000003297, 35.250000002337842 ], [ 138.250000000003126, 35.250000002337842 ] ] ], [ [ [ 138.250000000003126, 35.333333335688891 ], [ 138.250000000003126, 35.416666669025112 ], [ 138.375000000003297, 35.416666669025112 ], [ 138.375000000003297, 35.333333335688891 ], [ 138.250000000003126, 35.333333335688891 ] ] ], [ [ [ 138.250000000003126, 35.416666669026043 ], [ 138.250000000003126, 35.500000002362263 ], [ 138.375000000003297, 35.500000002362263 ], [ 138.375000000003297, 35.416666669026043 ], [ 138.250000000003126, 35.416666669026043 ] ] ], [ [ [ 138.250000000003126, 35.500000002363194 ], [ 138.250000000003126, 35.583333335699415 ], [ 138.375000000003297, 35.583333335699415 ], [ 138.375000000003297, 35.500000002363194 ], [ 138.250000000003126, 35.500000002363194 ] ] ], [ [ [ 138.250000000003126, 35.583333335700353 ], [ 138.250000000003126, 35.666666669036573 ], [ 138.375000000003297, 35.666666669036573 ], [ 138.375000000003297, 35.583333335700353 ], [ 138.250000000003126, 35.583333335700353 ] ] ], [ [ [ 138.250000000003126, 35.666666669037504 ], [ 138.250000000003126, 35.750000002373724 ], [ 138.375000000003297, 35.750000002373724 ], [ 138.375000000003297, 35.666666669037504 ], [ 138.250000000003126, 35.666666669037504 ] ] ], [ [ [ 138.250000000003126, 35.750000002374655 ], [ 138.250000000003126, 35.833333335710876 ], [ 138.375000000003297, 35.833333335710876 ], [ 138.375000000003297, 35.750000002374655 ], [ 138.250000000003126, 35.750000002374655 ] ] ], [ [ [ 138.250000000003126, 35.833333335711806 ], [ 138.250000000003126, 35.916666669048027 ], [ 138.375000000003297, 35.916666669048027 ], [ 138.375000000003297, 35.833333335711806 ], [ 138.250000000003126, 35.833333335711806 ] ] ], [ [ [ 138.250000000003126, 36.000000002385178 ], [ 138.375000000003297, 36.000000002385178 ], [ 138.375000000003297, 35.916666669048958 ], [ 138.250000000003126, 35.916666669048958 ], [ 138.250000000003126, 36.000000002385178 ] ] ], [ [ [ 138.250000000003126, 36.0000000024 ], [ 138.250000000003126, 36.083333335736221 ], [ 138.375000000003297, 36.083333335736221 ], [ 138.375000000003297, 36.0000000024 ], [ 138.250000000003126, 36.0000000024 ] ] ], [ [ [ 138.250000000003126, 36.083333335737152 ], [ 138.250000000003126, 36.166666669073372 ], [ 138.375000000003297, 36.166666669073372 ], [ 138.375000000003297, 36.083333335737152 ], [ 138.250000000003126, 36.083333335737152 ] ] ], [ [ [ 138.250000000003126, 36.166666669074303 ], [ 138.250000000003126, 36.250000002410523 ], [ 138.375000000003297, 36.250000002410523 ], [ 138.375000000003297, 36.166666669074303 ], [ 138.250000000003126, 36.166666669074303 ] ] ], [ [ [ 138.250000000003126, 36.250000002411461 ], [ 138.250000000003126, 36.333333335747682 ], [ 138.375000000003297, 36.333333335747682 ], [ 138.375000000003297, 36.250000002411461 ], [ 138.250000000003126, 36.250000002411461 ] ] ], [ [ [ 138.250000000003126, 36.333333335748613 ], [ 138.250000000003126, 36.416666669084833 ], [ 138.375000000003297, 36.416666669084833 ], [ 138.375000000003297, 36.333333335748613 ], [ 138.250000000003126, 36.333333335748613 ] ] ], [ [ [ 138.250000000003126, 36.416666669085764 ], [ 138.250000000003126, 36.500000002421984 ], [ 138.375000000003297, 36.500000002421984 ], [ 138.375000000003297, 36.416666669085764 ], [ 138.250000000003126, 36.416666669085764 ] ] ], [ [ [ 138.250000000003126, 36.500000002422915 ], [ 138.250000000003126, 36.583333335759136 ], [ 138.375000000003297, 36.583333335759136 ], [ 138.375000000003297, 36.500000002422915 ], [ 138.250000000003126, 36.500000002422915 ] ] ], [ [ [ 138.250000000003126, 36.583333335760067 ], [ 138.250000000003126, 36.666666669096287 ], [ 138.375000000003297, 36.666666669096287 ], [ 138.375000000003297, 36.583333335760067 ], [ 138.250000000003126, 36.583333335760067 ] ] ], [ [ [ 138.27500000000316, 35.000000002325457 ], [ 138.27500000000316, 34.975000002324585 ], [ 138.262500000003143, 34.975000002324585 ], [ 138.262500000003143, 35.000000002325457 ], [ 138.27500000000316, 35.000000002325457 ] ] ], [ [ [ 138.325000000003229, 34.925000002322861 ], [ 138.325000000003229, 34.916666668989237 ], [ 138.312500000003212, 34.916666668989237 ], [ 138.312500000003212, 34.925000002322861 ], [ 138.325000000003229, 34.925000002322861 ] ] ], [ [ [ 138.312500000003212, 34.95833333565735 ], [ 138.312500000003212, 34.950000002323726 ], [ 138.300000000003195, 34.950000002323726 ], [ 138.300000000003195, 34.95833333565735 ], [ 138.312500000003212, 34.95833333565735 ] ] ], [ [ [ 138.350000000003263, 35.075000002328984 ], [ 138.350000000003263, 35.06666666899536 ], [ 138.337500000003246, 35.06666666899536 ], [ 138.337500000003246, 35.075000002328984 ], [ 138.350000000003263, 35.075000002328984 ] ] ], [ [ [ 138.387500000004707, 35.083333335662608 ], [ 138.450000000004792, 35.083333335662608 ], [ 138.450000000004792, 35.058333335661736 ], [ 138.437500000004775, 35.058333335661736 ], [ 138.437500000004775, 35.06666666899536 ], [ 138.412500000004741, 35.06666666899536 ], [ 138.412500000004741, 35.058333335661736 ], [ 138.387500000004707, 35.058333335661736 ], [ 138.387500000004707, 35.083333335662608 ] ] ], [ [ [ 138.37500000000469, 35.100000002330781 ], [ 138.37500000000469, 35.16666666899976 ], [ 138.50000000000486, 35.16666666899976 ], [ 138.50000000000486, 35.116666668998029 ], [ 138.487500000004843, 35.116666668998029 ], [ 138.487500000004843, 35.13333333566527 ], [ 138.475000000004826, 35.13333333566527 ], [ 138.475000000004826, 35.141666668998887 ], [ 138.462500000004809, 35.141666668998887 ], [ 138.462500000004809, 35.13333333566527 ], [ 138.437500000004775, 35.13333333566527 ], [ 138.437500000004775, 35.141666668998887 ], [ 138.425000000004758, 35.141666668998887 ], [ 138.425000000004758, 35.116666668998029 ], [ 138.437500000004775, 35.116666668998029 ], [ 138.437500000004775, 35.100000002330788 ], [ 138.462500000004809, 35.100000002330788 ], [ 138.462500000004809, 35.083333335663539 ], [ 138.387500000004707, 35.083333335663539 ], [ 138.387500000004707, 35.100000002330781 ], [ 138.37500000000469, 35.100000002330781 ] ] ], [ [ [ 138.37500000000469, 35.166666669000691 ], [ 138.37500000000469, 35.250000002336911 ], [ 138.462500000004809, 35.250000002336911 ], [ 138.462500000004809, 35.208333335668804 ], [ 138.475000000004826, 35.208333335668804 ], [ 138.475000000004826, 35.216666669002421 ], [ 138.487500000004843, 35.216666669002421 ], [ 138.487500000004843, 35.208333335668804 ], [ 138.50000000000486, 35.208333335668804 ], [ 138.50000000000486, 35.166666669000691 ], [ 138.37500000000469, 35.166666669000691 ] ] ], [ [ [ 138.37500000000469, 35.250000002337842 ], [ 138.37500000000469, 35.333333335674062 ], [ 138.437500000004775, 35.333333335674062 ], [ 138.437500000004775, 35.300000002339573 ], [ 138.425000000004758, 35.300000002339573 ], [ 138.425000000004758, 35.291666669005956 ], [ 138.437500000004775, 35.291666669005956 ], [ 138.437500000004775, 35.275000002338707 ], [ 138.450000000004792, 35.275000002338707 ], [ 138.450000000004792, 35.258333335671466 ], [ 138.462500000004809, 35.258333335671466 ], [ 138.462500000004809, 35.250000002337842 ], [ 138.37500000000469, 35.250000002337842 ] ] ], [ [ [ 138.37500000000469, 35.333333335688891 ], [ 138.37500000000469, 35.416666669025112 ], [ 138.50000000000486, 35.416666669025112 ], [ 138.50000000000486, 35.333333335688891 ], [ 138.450000000004792, 35.333333335688891 ], [ 138.450000000004792, 35.341666669022516 ], [ 138.437500000004775, 35.341666669022516 ], [ 138.437500000004775, 35.333333335688891 ], [ 138.37500000000469, 35.333333335688891 ] ] ], [ [ [ 138.37500000000469, 35.416666669026043 ], [ 138.37500000000469, 35.500000002362263 ], [ 138.50000000000486, 35.500000002362263 ], [ 138.50000000000486, 35.416666669026043 ], [ 138.37500000000469, 35.416666669026043 ] ] ], [ [ [ 138.37500000000469, 35.500000002363194 ], [ 138.37500000000469, 35.583333335699415 ], [ 138.50000000000486, 35.583333335699415 ], [ 138.50000000000486, 35.500000002363194 ], [ 138.37500000000469, 35.500000002363194 ] ] ], [ [ [ 138.37500000000469, 35.583333335700353 ], [ 138.37500000000469, 35.666666669036573 ], [ 138.50000000000486, 35.666666669036573 ], [ 138.50000000000486, 35.583333335700353 ], [ 138.37500000000469, 35.583333335700353 ] ] ], [ [ [ 138.37500000000469, 35.666666669037504 ], [ 138.37500000000469, 35.750000002373724 ], [ 138.50000000000486, 35.750000002373724 ], [ 138.50000000000486, 35.666666669037504 ], [ 138.37500000000469, 35.666666669037504 ] ] ], [ [ [ 138.37500000000469, 35.750000002374655 ], [ 138.37500000000469, 35.833333335710876 ], [ 138.50000000000486, 35.833333335710876 ], [ 138.50000000000486, 35.750000002374655 ], [ 138.37500000000469, 35.750000002374655 ] ] ], [ [ [ 138.37500000000469, 35.833333335711806 ], [ 138.37500000000469, 35.916666669048027 ], [ 138.50000000000486, 35.916666669048027 ], [ 138.50000000000486, 35.833333335711806 ], [ 138.37500000000469, 35.833333335711806 ] ] ], [ [ [ 138.37500000000469, 35.916666669048958 ], [ 138.37500000000469, 36.000000002385178 ], [ 138.50000000000486, 36.000000002385178 ], [ 138.50000000000486, 35.916666669048958 ], [ 138.37500000000469, 35.916666669048958 ] ] ], [ [ [ 138.37500000000469, 36.0000000024 ], [ 138.37500000000469, 36.083333335736221 ], [ 138.50000000000486, 36.083333335736221 ], [ 138.50000000000486, 36.0000000024 ], [ 138.37500000000469, 36.0000000024 ] ] ], [ [ [ 138.37500000000469, 36.083333335737152 ], [ 138.37500000000469, 36.166666669073372 ], [ 138.50000000000486, 36.166666669073372 ], [ 138.50000000000486, 36.083333335737152 ], [ 138.37500000000469, 36.083333335737152 ] ] ], [ [ [ 138.37500000000469, 36.166666669074303 ], [ 138.37500000000469, 36.250000002410523 ], [ 138.50000000000486, 36.250000002410523 ], [ 138.50000000000486, 36.166666669074303 ], [ 138.37500000000469, 36.166666669074303 ] ] ], [ [ [ 138.37500000000469, 36.250000002411461 ], [ 138.37500000000469, 36.333333335747682 ], [ 138.50000000000486, 36.333333335747682 ], [ 138.50000000000486, 36.250000002411461 ], [ 138.37500000000469, 36.250000002411461 ] ] ], [ [ [ 138.37500000000469, 36.333333335748613 ], [ 138.37500000000469, 36.416666669084833 ], [ 138.50000000000486, 36.416666669084833 ], [ 138.50000000000486, 36.333333335748613 ], [ 138.37500000000469, 36.333333335748613 ] ] ], [ [ [ 138.37500000000469, 36.416666669085764 ], [ 138.37500000000469, 36.500000002421984 ], [ 138.50000000000486, 36.500000002421984 ], [ 138.50000000000486, 36.416666669085764 ], [ 138.37500000000469, 36.416666669085764 ] ] ], [ [ [ 138.37500000000469, 36.500000002422915 ], [ 138.37500000000469, 36.583333335759136 ], [ 138.50000000000486, 36.583333335759136 ], [ 138.50000000000486, 36.500000002422915 ], [ 138.37500000000469, 36.500000002422915 ] ] ], [ [ [ 138.37500000000469, 36.583333335760067 ], [ 138.37500000000469, 36.666666669096287 ], [ 138.50000000000486, 36.666666669096287 ], [ 138.50000000000486, 36.583333335760067 ], [ 138.37500000000469, 36.583333335760067 ] ] ], [ [ [ 138.462500000004809, 35.291666669005949 ], [ 138.462500000004809, 35.333333335674062 ], [ 138.50000000000486, 35.333333335674062 ], [ 138.50000000000486, 35.266666669005083 ], [ 138.475000000004826, 35.266666669005083 ], [ 138.475000000004826, 35.291666669005949 ], [ 138.462500000004809, 35.291666669005949 ] ] ], [ [ [ 138.50000000000486, 35.091666668997163 ], [ 138.50000000000486, 35.083333335663539 ], [ 138.487500000004843, 35.083333335663539 ], [ 138.487500000004843, 35.091666668997163 ], [ 138.50000000000486, 35.091666668997163 ] ] ], [ [ [ 138.525000000006287, 35.150000002332511 ], [ 138.550000000006321, 35.150000002332511 ], [ 138.550000000006321, 35.13333333566527 ], [ 138.537500000006304, 35.13333333566527 ], [ 138.537500000006304, 35.100000002330781 ], [ 138.525000000006287, 35.100000002330781 ], [ 138.525000000006287, 35.13333333566527 ], [ 138.500000000006253, 35.13333333566527 ], [ 138.500000000006253, 35.16666666899976 ], [ 138.525000000006287, 35.16666666899976 ], [ 138.525000000006287, 35.150000002332511 ] ] ], [ [ [ 138.51250000000627, 35.208333335668804 ], [ 138.51250000000627, 35.191666669001556 ], [ 138.537500000006304, 35.191666669001556 ], [ 138.537500000006304, 35.183333335667932 ], [ 138.525000000006287, 35.183333335667932 ], [ 138.525000000006287, 35.166666669000691 ], [ 138.500000000006253, 35.166666669000691 ], [ 138.500000000006253, 35.208333335668804 ], [ 138.51250000000627, 35.208333335668804 ] ] ], [ [ [ 138.525000000006287, 35.250000002336911 ], [ 138.525000000006287, 35.241666669003287 ], [ 138.51250000000627, 35.241666669003287 ], [ 138.51250000000627, 35.250000002336911 ], [ 138.525000000006287, 35.250000002336911 ] ] ], [ [ [ 138.500000000006253, 35.266666669005083 ], [ 138.500000000006253, 35.333333335674062 ], [ 138.625000000006423, 35.333333335674062 ], [ 138.625000000006423, 35.250000002337842 ], [ 138.537500000006304, 35.250000002337842 ], [ 138.537500000006304, 35.266666669005083 ], [ 138.525000000006287, 35.266666669005083 ], [ 138.525000000006287, 35.250000002337842 ], [ 138.51250000000627, 35.250000002337842 ], [ 138.51250000000627, 35.266666669005083 ], [ 138.500000000006253, 35.266666669005083 ] ] ], [ [ [ 138.500000000006253, 35.333333335688891 ], [ 138.500000000006253, 35.416666669025112 ], [ 138.625000000006423, 35.416666669025112 ], [ 138.625000000006423, 35.333333335688891 ], [ 138.500000000006253, 35.333333335688891 ] ] ], [ [ [ 138.500000000006253, 35.416666669026043 ], [ 138.500000000006253, 35.500000002362263 ], [ 138.625000000006423, 35.500000002362263 ], [ 138.625000000006423, 35.416666669026043 ], [ 138.500000000006253, 35.416666669026043 ] ] ], [ [ [ 138.500000000006253, 35.500000002363194 ], [ 138.500000000006253, 35.583333335699415 ], [ 138.625000000006423, 35.583333335699415 ], [ 138.625000000006423, 35.500000002363194 ], [ 138.500000000006253, 35.500000002363194 ] ] ], [ [ [ 138.500000000006253, 35.583333335700353 ], [ 138.500000000006253, 35.666666669036573 ], [ 138.625000000006423, 35.666666669036573 ], [ 138.625000000006423, 35.583333335700353 ], [ 138.500000000006253, 35.583333335700353 ] ] ], [ [ [ 138.500000000006253, 35.666666669037504 ], [ 138.500000000006253, 35.750000002373724 ], [ 138.625000000006423, 35.750000002373724 ], [ 138.625000000006423, 35.666666669037504 ], [ 138.500000000006253, 35.666666669037504 ] ] ], [ [ [ 138.500000000006253, 35.750000002374655 ], [ 138.500000000006253, 35.833333335710876 ], [ 138.625000000006423, 35.833333335710876 ], [ 138.625000000006423, 35.750000002374655 ], [ 138.500000000006253, 35.750000002374655 ] ] ], [ [ [ 138.500000000006253, 35.833333335711806 ], [ 138.500000000006253, 35.916666669048027 ], [ 138.625000000006423, 35.916666669048027 ], [ 138.625000000006423, 35.833333335711806 ], [ 138.500000000006253, 35.833333335711806 ] ] ], [ [ [ 138.500000000006253, 35.916666669048958 ], [ 138.500000000006253, 36.000000002385178 ], [ 138.625000000006423, 36.000000002385178 ], [ 138.625000000006423, 35.916666669048958 ], [ 138.500000000006253, 35.916666669048958 ] ] ], [ [ [ 138.500000000006253, 36.0000000024 ], [ 138.500000000006253, 36.083333335736221 ], [ 138.625000000006423, 36.083333335736221 ], [ 138.625000000006423, 36.0000000024 ], [ 138.500000000006253, 36.0000000024 ] ] ], [ [ [ 138.500000000006253, 36.083333335737152 ], [ 138.500000000006253, 36.166666669073372 ], [ 138.625000000006423, 36.166666669073372 ], [ 138.625000000006423, 36.083333335737152 ], [ 138.500000000006253, 36.083333335737152 ] ] ], [ [ [ 138.500000000006253, 36.166666669074303 ], [ 138.500000000006253, 36.250000002410523 ], [ 138.625000000006423, 36.250000002410523 ], [ 138.625000000006423, 36.166666669074303 ], [ 138.500000000006253, 36.166666669074303 ] ] ], [ [ [ 138.500000000006253, 36.250000002411461 ], [ 138.500000000006253, 36.333333335747682 ], [ 138.625000000006423, 36.333333335747682 ], [ 138.625000000006423, 36.250000002411461 ], [ 138.500000000006253, 36.250000002411461 ] ] ], [ [ [ 138.500000000006253, 36.333333335748613 ], [ 138.500000000006253, 36.416666669084833 ], [ 138.625000000006423, 36.416666669084833 ], [ 138.625000000006423, 36.333333335748613 ], [ 138.500000000006253, 36.333333335748613 ] ] ], [ [ [ 138.500000000006253, 36.416666669085764 ], [ 138.500000000006253, 36.500000002421984 ], [ 138.625000000006423, 36.500000002421984 ], [ 138.625000000006423, 36.416666669085764 ], [ 138.500000000006253, 36.416666669085764 ] ] ], [ [ [ 138.500000000006253, 36.500000002422915 ], [ 138.500000000006253, 36.583333335759136 ], [ 138.625000000006423, 36.583333335759136 ], [ 138.625000000006423, 36.500000002422915 ], [ 138.500000000006253, 36.500000002422915 ] ] ], [ [ [ 138.500000000006253, 36.583333335760067 ], [ 138.500000000006253, 36.666666669096287 ], [ 138.625000000006423, 36.666666669096287 ], [ 138.625000000006423, 36.583333335760067 ], [ 138.500000000006253, 36.583333335760067 ] ] ], [ [ [ 138.550000000006321, 35.16666666899976 ], [ 138.587500000006372, 35.16666666899976 ], [ 138.587500000006372, 35.158333335666136 ], [ 138.600000000006389, 35.158333335666136 ], [ 138.600000000006389, 35.141666668998887 ], [ 138.587500000006372, 35.141666668998887 ], [ 138.587500000006372, 35.13333333566527 ], [ 138.562500000006338, 35.13333333566527 ], [ 138.562500000006338, 35.141666668998894 ], [ 138.575000000006355, 35.141666668998894 ], [ 138.575000000006355, 35.150000002332511 ], [ 138.550000000006321, 35.150000002332511 ], [ 138.550000000006321, 35.16666666899976 ] ] ], [ [ [ 138.550000000006321, 35.250000002336911 ], [ 138.550000000006321, 35.241666669003287 ], [ 138.537500000006304, 35.241666669003287 ], [ 138.537500000006304, 35.250000002336911 ], [ 138.550000000006321, 35.250000002336911 ] ] ], [ [ [ 138.562500000006338, 35.175000002334315 ], [ 138.562500000006338, 35.183333335667939 ], [ 138.575000000006355, 35.183333335667939 ], [ 138.575000000006355, 35.166666669000691 ], [ 138.550000000006321, 35.166666669000691 ], [ 138.550000000006321, 35.175000002334315 ], [ 138.562500000006338, 35.175000002334315 ] ] ], [ [ [ 138.587500000006372, 35.233333335669663 ], [ 138.587500000006372, 35.216666669002421 ], [ 138.575000000006355, 35.216666669002421 ], [ 138.575000000006355, 35.233333335669663 ], [ 138.587500000006372, 35.233333335669663 ] ] ], [ [ [ 138.562500000006338, 35.250000002336911 ], [ 138.587500000006372, 35.250000002336911 ], [ 138.587500000006372, 35.241666669003287 ], [ 138.562500000006338, 35.241666669003287 ], [ 138.562500000006338, 35.250000002336911 ] ] ], [ [ [ 138.612500000006406, 35.233333335669663 ], [ 138.612500000006406, 35.241666669003287 ], [ 138.600000000006389, 35.241666669003287 ], [ 138.600000000006389, 35.250000002336911 ], [ 138.625000000006423, 35.250000002336911 ], [ 138.625000000006423, 35.233333335669663 ], [ 138.612500000006406, 35.233333335669663 ] ] ], [ [ [ 138.637500000007833, 35.225000002336039 ], [ 138.637500000007833, 35.233333335669663 ], [ 138.625000000007816, 35.233333335669663 ], [ 138.625000000007816, 35.250000002336911 ], [ 138.750000000007987, 35.250000002336911 ], [ 138.750000000007987, 35.191666669001556 ], [ 138.737500000007969, 35.191666669001556 ], [ 138.737500000007969, 35.20000000233518 ], [ 138.675000000007884, 35.20000000233518 ], [ 138.675000000007884, 35.216666669002421 ], [ 138.65000000000785, 35.216666669002421 ], [ 138.65000000000785, 35.225000002336039 ], [ 138.637500000007833, 35.225000002336039 ] ] ], [ [ [ 138.625000000007816, 35.250000002337842 ], [ 138.625000000007816, 35.333333335674062 ], [ 138.750000000007987, 35.333333335674062 ], [ 138.750000000007987, 35.250000002337842 ], [ 138.625000000007816, 35.250000002337842 ] ] ], [ [ [ 138.625000000007816, 35.333333335688891 ], [ 138.625000000007816, 35.416666669025112 ], [ 138.750000000007987, 35.416666669025112 ], [ 138.750000000007987, 35.333333335688891 ], [ 138.625000000007816, 35.333333335688891 ] ] ], [ [ [ 138.625000000007816, 35.416666669026043 ], [ 138.625000000007816, 35.500000002362263 ], [ 138.750000000007987, 35.500000002362263 ], [ 138.750000000007987, 35.416666669026043 ], [ 138.625000000007816, 35.416666669026043 ] ] ], [ [ [ 138.625000000007816, 35.500000002363194 ], [ 138.625000000007816, 35.583333335699415 ], [ 138.750000000007987, 35.583333335699415 ], [ 138.750000000007987, 35.500000002363194 ], [ 138.625000000007816, 35.500000002363194 ] ] ], [ [ [ 138.625000000007816, 35.583333335700353 ], [ 138.625000000007816, 35.666666669036573 ], [ 138.750000000007987, 35.666666669036573 ], [ 138.750000000007987, 35.583333335700353 ], [ 138.625000000007816, 35.583333335700353 ] ] ], [ [ [ 138.625000000007816, 35.666666669037504 ], [ 138.625000000007816, 35.750000002373724 ], [ 138.750000000007987, 35.750000002373724 ], [ 138.750000000007987, 35.666666669037504 ], [ 138.625000000007816, 35.666666669037504 ] ] ], [ [ [ 138.625000000007816, 35.750000002374655 ], [ 138.625000000007816, 35.833333335710876 ], [ 138.750000000007987, 35.833333335710876 ], [ 138.750000000007987, 35.750000002374655 ], [ 138.625000000007816, 35.750000002374655 ] ] ], [ [ [ 138.625000000007816, 35.833333335711806 ], [ 138.625000000007816, 35.916666669048027 ], [ 138.750000000007987, 35.916666669048027 ], [ 138.750000000007987, 35.833333335711806 ], [ 138.625000000007816, 35.833333335711806 ] ] ], [ [ [ 138.750000000007987, 35.916666669048958 ], [ 138.625000000007816, 35.916666669048958 ], [ 138.625000000007816, 36.000000002385178 ], [ 138.750000000007987, 36.000000002385178 ], [ 138.750000000007987, 35.916666669048958 ] ] ], [ [ [ 138.625000000007816, 36.0000000024 ], [ 138.625000000007816, 36.083333335736221 ], [ 138.750000000007987, 36.083333335736221 ], [ 138.750000000007987, 36.0000000024 ], [ 138.625000000007816, 36.0000000024 ] ] ], [ [ [ 138.625000000007816, 36.083333335737152 ], [ 138.625000000007816, 36.166666669073372 ], [ 138.750000000007987, 36.166666669073372 ], [ 138.750000000007987, 36.083333335737152 ], [ 138.625000000007816, 36.083333335737152 ] ] ], [ [ [ 138.625000000007816, 36.166666669074303 ], [ 138.625000000007816, 36.250000002410523 ], [ 138.750000000007987, 36.250000002410523 ], [ 138.750000000007987, 36.166666669074303 ], [ 138.625000000007816, 36.166666669074303 ] ] ], [ [ [ 138.625000000007816, 36.250000002411461 ], [ 138.625000000007816, 36.333333335747682 ], [ 138.750000000007987, 36.333333335747682 ], [ 138.750000000007987, 36.250000002411461 ], [ 138.625000000007816, 36.250000002411461 ] ] ], [ [ [ 138.625000000007816, 36.333333335748613 ], [ 138.625000000007816, 36.416666669084833 ], [ 138.750000000007987, 36.416666669084833 ], [ 138.750000000007987, 36.333333335748613 ], [ 138.625000000007816, 36.333333335748613 ] ] ], [ [ [ 138.625000000007816, 36.416666669085764 ], [ 138.625000000007816, 36.500000002421984 ], [ 138.750000000007987, 36.500000002421984 ], [ 138.750000000007987, 36.416666669085764 ], [ 138.625000000007816, 36.416666669085764 ] ] ], [ [ [ 138.625000000007816, 36.500000002422915 ], [ 138.625000000007816, 36.583333335759136 ], [ 138.750000000007987, 36.583333335759136 ], [ 138.750000000007987, 36.500000002422915 ], [ 138.625000000007816, 36.500000002422915 ] ] ], [ [ [ 138.625000000007816, 36.583333335760067 ], [ 138.625000000007816, 36.666666669096287 ], [ 138.750000000007987, 36.666666669096287 ], [ 138.750000000007987, 36.583333335760067 ], [ 138.625000000007816, 36.583333335760067 ] ] ], [ [ [ 138.750000000009379, 34.716666668979506 ], [ 138.800000000009447, 34.716666668979506 ], [ 138.800000000009447, 34.708333335645889 ], [ 138.812500000009464, 34.708333335645889 ], [ 138.812500000009464, 34.716666668979506 ], [ 138.825000000009481, 34.716666668979506 ], [ 138.825000000009481, 34.733333335646748 ], [ 138.850000000009516, 34.733333335646748 ], [ 138.850000000009516, 34.750000002313996 ], [ 138.87500000000955, 34.750000002313996 ], [ 138.87500000000955, 34.733333335646748 ], [ 138.862500000009533, 34.733333335646748 ], [ 138.862500000009533, 34.716666668979506 ], [ 138.87500000000955, 34.716666668979506 ], [ 138.87500000000955, 34.700000002312265 ], [ 138.862500000009533, 34.700000002312265 ], [ 138.862500000009533, 34.691666668978641 ], [ 138.850000000009516, 34.691666668978641 ], [ 138.850000000009516, 34.700000002312265 ], [ 138.812500000009464, 34.700000002312265 ], [ 138.812500000009464, 34.691666668978641 ], [ 138.800000000009447, 34.691666668978641 ], [ 138.800000000009447, 34.700000002312265 ], [ 138.78750000000943, 34.700000002312265 ], [ 138.78750000000943, 34.683333335645017 ], [ 138.775000000009413, 34.683333335645017 ], [ 138.775000000009413, 34.700000002312265 ], [ 138.750000000009379, 34.700000002312265 ], [ 138.750000000009379, 34.716666668979506 ] ] ], [ [ [ 138.750000000009379, 35.175000002334315 ], [ 138.750000000009379, 35.250000002336911 ], [ 138.87500000000955, 35.250000002336911 ], [ 138.87500000000955, 35.166666669000691 ], [ 138.78750000000943, 35.166666669000691 ], [ 138.78750000000943, 35.175000002334315 ], [ 138.750000000009379, 35.175000002334315 ] ] ], [ [ [ 138.750000000009379, 35.250000002337842 ], [ 138.750000000009379, 35.333333335674062 ], [ 138.87500000000955, 35.333333335674062 ], [ 138.87500000000955, 35.250000002337842 ], [ 138.750000000009379, 35.250000002337842 ] ] ], [ [ [ 138.750000000009379, 35.333333335688891 ], [ 138.750000000009379, 35.416666669025112 ], [ 138.87500000000955, 35.416666669025112 ], [ 138.87500000000955, 35.333333335688891 ], [ 138.750000000009379, 35.333333335688891 ] ] ], [ [ [ 138.750000000009379, 35.416666669026043 ], [ 138.750000000009379, 35.500000002362263 ], [ 138.87500000000955, 35.500000002362263 ], [ 138.87500000000955, 35.416666669026043 ], [ 138.750000000009379, 35.416666669026043 ] ] ], [ [ [ 138.750000000009379, 35.500000002363194 ], [ 138.750000000009379, 35.583333335699415 ], [ 138.87500000000955, 35.583333335699415 ], [ 138.87500000000955, 35.500000002363194 ], [ 138.750000000009379, 35.500000002363194 ] ] ], [ [ [ 138.750000000009379, 35.583333335700353 ], [ 138.750000000009379, 35.666666669036573 ], [ 138.87500000000955, 35.666666669036573 ], [ 138.87500000000955, 35.583333335700353 ], [ 138.750000000009379, 35.583333335700353 ] ] ], [ [ [ 138.750000000009379, 35.666666669037504 ], [ 138.750000000009379, 35.750000002373724 ], [ 138.87500000000955, 35.750000002373724 ], [ 138.87500000000955, 35.666666669037504 ], [ 138.750000000009379, 35.666666669037504 ] ] ], [ [ [ 138.750000000009379, 35.750000002374655 ], [ 138.750000000009379, 35.833333335710876 ], [ 138.87500000000955, 35.833333335710876 ], [ 138.87500000000955, 35.750000002374655 ], [ 138.750000000009379, 35.750000002374655 ] ] ], [ [ [ 138.750000000009379, 35.833333335711806 ], [ 138.750000000009379, 35.916666669048027 ], [ 138.87500000000955, 35.916666669048027 ], [ 138.87500000000955, 35.833333335711806 ], [ 138.750000000009379, 35.833333335711806 ] ] ], [ [ [ 138.750000000009379, 35.916666669048958 ], [ 138.750000000009379, 36.000000002385178 ], [ 138.87500000000955, 36.000000002385178 ], [ 138.87500000000955, 35.916666669048958 ], [ 138.750000000009379, 35.916666669048958 ] ] ], [ [ [ 138.750000000009379, 36.0000000024 ], [ 138.750000000009379, 36.083333335736221 ], [ 138.87500000000955, 36.083333335736221 ], [ 138.87500000000955, 36.0000000024 ], [ 138.750000000009379, 36.0000000024 ] ] ], [ [ [ 138.750000000009379, 36.083333335737152 ], [ 138.750000000009379, 36.166666669073372 ], [ 138.87500000000955, 36.166666669073372 ], [ 138.87500000000955, 36.083333335737152 ], [ 138.750000000009379, 36.083333335737152 ] ] ], [ [ [ 138.750000000009379, 36.166666669074303 ], [ 138.750000000009379, 36.250000002410523 ], [ 138.87500000000955, 36.250000002410523 ], [ 138.87500000000955, 36.166666669074303 ], [ 138.750000000009379, 36.166666669074303 ] ] ], [ [ [ 138.750000000009379, 36.250000002411461 ], [ 138.750000000009379, 36.333333335747682 ], [ 138.87500000000955, 36.333333335747682 ], [ 138.87500000000955, 36.258333335745085 ], [ 138.862500000009533, 36.258333335745085 ], [ 138.862500000009533, 36.250000002411461 ], [ 138.750000000009379, 36.250000002411461 ] ] ], [ [ [ 138.750000000009379, 36.333333335748613 ], [ 138.750000000009379, 36.416666669084833 ], [ 138.87500000000955, 36.416666669084833 ], [ 138.87500000000955, 36.333333335748613 ], [ 138.750000000009379, 36.333333335748613 ] ] ], [ [ [ 138.750000000009379, 36.416666669085764 ], [ 138.750000000009379, 36.500000002421984 ], [ 138.87500000000955, 36.500000002421984 ], [ 138.87500000000955, 36.416666669085764 ], [ 138.750000000009379, 36.416666669085764 ] ] ], [ [ [ 138.750000000009379, 36.500000002422915 ], [ 138.750000000009379, 36.583333335759136 ], [ 138.87500000000955, 36.583333335759136 ], [ 138.87500000000955, 36.500000002422915 ], [ 138.750000000009379, 36.500000002422915 ] ] ], [ [ [ 138.750000000009379, 36.583333335760067 ], [ 138.750000000009379, 36.666666669096287 ], [ 138.87500000000955, 36.666666669096287 ], [ 138.87500000000955, 36.583333335760067 ], [ 138.750000000009379, 36.583333335760067 ] ] ], [ [ [ 138.812500000009464, 34.825000002317523 ], [ 138.812500000009464, 34.833333335651147 ], [ 138.87500000000955, 34.833333335651147 ], [ 138.87500000000955, 34.758333335648551 ], [ 138.862500000009533, 34.758333335648551 ], [ 138.862500000009533, 34.766666668982168 ], [ 138.837500000009499, 34.766666668982168 ], [ 138.837500000009499, 34.775000002315792 ], [ 138.812500000009464, 34.775000002315792 ], [ 138.812500000009464, 34.783333335649417 ], [ 138.825000000009481, 34.783333335649417 ], [ 138.825000000009481, 34.791666668983034 ], [ 138.812500000009464, 34.791666668983034 ], [ 138.812500000009464, 34.800000002316658 ], [ 138.837500000009499, 34.800000002316658 ], [ 138.837500000009499, 34.825000002317523 ], [ 138.825000000009481, 34.825000002317523 ], [ 138.825000000009481, 34.816666668983899 ], [ 138.812500000009464, 34.816666668983899 ], [ 138.812500000009464, 34.808333335650275 ], [ 138.800000000009447, 34.808333335650275 ], [ 138.800000000009447, 34.800000002316658 ], [ 138.78750000000943, 34.800000002316658 ], [ 138.78750000000943, 34.833333335651147 ], [ 138.800000000009447, 34.833333335651147 ], [ 138.800000000009447, 34.825000002317523 ], [ 138.812500000009464, 34.825000002317523 ] ] ], [ [ [ 138.800000000009447, 34.841666668985702 ], [ 138.800000000009447, 34.833333335652078 ], [ 138.78750000000943, 34.833333335652078 ], [ 138.78750000000943, 34.841666668985702 ], [ 138.800000000009447, 34.841666668985702 ] ] ], [ [ [ 138.78750000000943, 34.891666668987433 ], [ 138.812500000009464, 34.891666668987433 ], [ 138.812500000009464, 34.90000000232105 ], [ 138.837500000009499, 34.90000000232105 ], [ 138.837500000009499, 34.916666668988299 ], [ 138.87500000000955, 34.916666668988299 ], [ 138.87500000000955, 34.833333335652078 ], [ 138.825000000009481, 34.833333335652078 ], [ 138.825000000009481, 34.841666668985702 ], [ 138.812500000009464, 34.841666668985702 ], [ 138.812500000009464, 34.850000002319327 ], [ 138.825000000009481, 34.850000002319327 ], [ 138.825000000009481, 34.866666668986568 ], [ 138.775000000009413, 34.866666668986568 ], [ 138.775000000009413, 34.875000002320192 ], [ 138.78750000000943, 34.875000002320192 ], [ 138.78750000000943, 34.891666668987433 ] ] ], [ [ [ 138.825000000009481, 34.95833333565735 ], [ 138.825000000009481, 34.966666668990968 ], [ 138.812500000009464, 34.966666668990968 ], [ 138.812500000009464, 34.983333335658209 ], [ 138.78750000000943, 34.983333335658209 ], [ 138.78750000000943, 34.991666668991833 ], [ 138.800000000009447, 34.991666668991833 ], [ 138.800000000009447, 35.000000002325457 ], [ 138.850000000009516, 35.000000002325457 ], [ 138.850000000009516, 34.991666668991833 ], [ 138.87500000000955, 34.991666668991833 ], [ 138.87500000000955, 34.916666668989237 ], [ 138.812500000009464, 34.916666668989237 ], [ 138.812500000009464, 34.933333335656478 ], [ 138.78750000000943, 34.933333335656478 ], [ 138.78750000000943, 34.95833333565735 ], [ 138.825000000009481, 34.95833333565735 ] ] ], [ [ [ 138.812500000009464, 34.750000002313996 ], [ 138.825000000009481, 34.750000002313996 ], [ 138.825000000009481, 34.733333335646748 ], [ 138.812500000009464, 34.733333335646748 ], [ 138.812500000009464, 34.750000002313996 ] ] ], [ [ [ 138.825000000009481, 35.008333335660012 ], [ 138.825000000009481, 35.000000002326388 ], [ 138.812500000009464, 35.000000002326388 ], [ 138.812500000009464, 35.008333335660012 ], [ 138.825000000009481, 35.008333335660012 ] ] ], [ [ [ 138.812500000009464, 35.16666666899976 ], [ 138.812500000009464, 35.158333335666136 ], [ 138.800000000009447, 35.158333335666136 ], [ 138.800000000009447, 35.16666666899976 ], [ 138.812500000009464, 35.16666666899976 ] ] ], [ [ [ 138.862500000009533, 35.158333335666136 ], [ 138.837500000009499, 35.158333335666136 ], [ 138.837500000009499, 35.16666666899976 ], [ 138.862500000009533, 35.16666666899976 ], [ 138.862500000009533, 35.158333335666136 ] ] ], [ [ [ 138.875000000010942, 34.725000002313124 ], [ 138.875000000010942, 34.750000002313996 ], [ 138.912500000010994, 34.750000002313996 ], [ 138.912500000010994, 34.741666668980372 ], [ 138.887500000010959, 34.741666668980372 ], [ 138.887500000010959, 34.725000002313124 ], [ 138.875000000010942, 34.725000002313124 ] ] ], [ [ [ 138.875000000010942, 34.750000002314927 ], [ 138.875000000010942, 34.833333335651147 ], [ 139.05, 34.833333335651147 ], [ 139.05, 34.825000002317523 ], [ 139.025, 34.825000002317523 ], [ 139.025, 34.816666668983899 ], [ 139.0125, 34.816666668983899 ], [ 139.0125, 34.808333335650282 ], [ 139.0375, 34.808333335650282 ], [ 139.0375, 34.800000002316658 ], [ 139.05, 34.800000002316658 ], [ 139.05, 34.791666668983034 ], [ 139.025, 34.791666668983034 ], [ 139.025, 34.783333335649417 ], [ 139.000000000011113, 34.783333335649417 ], [ 139.000000000011113, 34.775000002315792 ], [ 138.975000000011079, 34.775000002315792 ], [ 138.975000000011079, 34.783333335649417 ], [ 138.962500000011062, 34.783333335649417 ], [ 138.962500000011062, 34.791666668983034 ], [ 138.950000000011045, 34.791666668983034 ], [ 138.950000000011045, 34.800000002316658 ], [ 138.925000000011011, 34.800000002316658 ], [ 138.925000000011011, 34.783333335649417 ], [ 138.912500000010994, 34.783333335649417 ], [ 138.912500000010994, 34.775000002315792 ], [ 138.925000000011011, 34.775000002315792 ], [ 138.925000000011011, 34.766666668982175 ], [ 138.937500000011028, 34.766666668982175 ], [ 138.937500000011028, 34.758333335648551 ], [ 138.900000000010976, 34.758333335648551 ], [ 138.900000000010976, 34.750000002314927 ], [ 138.875000000010942, 34.750000002314927 ] ] ], [ [ [ 138.875000000010942, 34.833333335652078 ], [ 138.875000000010942, 34.916666668988299 ], [ 138.912500000010994, 34.916666668988299 ], [ 138.912500000010994, 34.90000000232105 ], [ 138.937500000011028, 34.90000000232105 ], [ 138.937500000011028, 34.916666668988299 ], [ 139.125000000000171, 34.916666668988299 ], [ 139.125000000000171, 34.90000000232105 ], [ 139.112500000000153, 34.90000000232105 ], [ 139.112500000000153, 34.891666668987426 ], [ 139.087500000000119, 34.891666668987426 ], [ 139.087500000000119, 34.875000002320185 ], [ 139.075000000000102, 34.875000002320185 ], [ 139.075000000000102, 34.858333335652944 ], [ 139.0625, 34.858333335652944 ], [ 139.0625, 34.833333335652078 ], [ 138.875000000010942, 34.833333335652078 ] ] ], [ [ [ 138.875000000010942, 35.250000002336911 ], [ 139.112500000000153, 35.250000002336911 ], [ 139.112500000000153, 35.241666669003287 ], [ 139.075000000000102, 35.241666669003287 ], [ 139.075000000000102, 35.225000002336046 ], [ 139.125000000000171, 35.225000002336046 ], [ 139.125000000000171, 35.208333335668797 ], [ 139.112500000000153, 35.208333335668797 ], [ 139.112500000000153, 35.20000000233518 ], [ 139.125000000000171, 35.20000000233518 ], [ 139.125000000000171, 35.166666669000691 ], [ 138.950000000011045, 35.166666669000691 ], [ 138.950000000011045, 35.175000002334315 ], [ 138.937500000011028, 35.175000002334315 ], [ 138.937500000011028, 35.183333335667932 ], [ 138.925000000011011, 35.183333335667932 ], [ 138.925000000011011, 35.191666669001556 ], [ 138.912500000010994, 35.191666669001556 ], [ 138.912500000010994, 35.20000000233518 ], [ 138.900000000010976, 35.20000000233518 ], [ 138.900000000010976, 35.191666669001556 ], [ 138.887500000010959, 35.191666669001556 ], [ 138.887500000010959, 35.175000002334315 ], [ 138.875000000010942, 35.175000002334315 ], [ 138.875000000010942, 35.250000002336911 ] ] ], [ [ [ 138.875000000010942, 35.333333335688891 ], [ 138.875000000010942, 35.416666669025112 ], [ 139.125000000000171, 35.416666669025112 ], [ 139.125000000000171, 35.366666669023381 ], [ 139.112500000000153, 35.366666669023381 ], [ 139.112500000000153, 35.375000002356998 ], [ 139.0625, 35.375000002356998 ], [ 139.0625, 35.366666669023381 ], [ 139.05, 35.366666669023381 ], [ 139.05, 35.375000002356998 ], [ 139.0375, 35.375000002356998 ], [ 139.0375, 35.358333335689757 ], [ 139.05, 35.358333335689757 ], [ 139.05, 35.35000000235614 ], [ 139.0625, 35.35000000235614 ], [ 139.0625, 35.333333335688891 ], [ 138.875000000010942, 35.333333335688891 ] ] ], [ [ [ 138.875000000010942, 35.416666669026043 ], [ 138.875000000010942, 35.500000002362263 ], [ 139.125000000000171, 35.500000002362263 ], [ 139.125000000000171, 35.416666669026043 ], [ 138.875000000010942, 35.416666669026043 ] ] ], [ [ [ 138.875000000010942, 35.666666669036573 ], [ 139.125000000000171, 35.666666669036573 ], [ 139.125000000000171, 35.583333335700353 ], [ 138.875000000010942, 35.583333335700353 ], [ 138.875000000010942, 35.666666669036573 ] ] ], [ [ [ 138.875000000010942, 35.666666669037504 ], [ 138.875000000010942, 35.750000002373724 ], [ 139.125000000000171, 35.750000002373724 ], [ 139.125000000000171, 35.666666669037504 ], [ 138.875000000010942, 35.666666669037504 ] ] ], [ [ [ 138.875000000010942, 35.750000002374655 ], [ 138.875000000010942, 35.833333335710876 ], [ 139.125000000000171, 35.833333335710876 ], [ 139.125000000000171, 35.750000002374655 ], [ 138.875000000010942, 35.750000002374655 ] ] ], [ [ [ 138.875000000010942, 36.0000000024 ], [ 138.875000000010942, 36.083333335736221 ], [ 139.075000000000102, 36.083333335736221 ], [ 139.075000000000102, 36.066666669068972 ], [ 139.0625, 36.066666669068972 ], [ 139.0625, 36.058333335735355 ], [ 139.087500000000119, 36.058333335735355 ], [ 139.087500000000119, 36.050000002401731 ], [ 139.100000000000136, 36.050000002401731 ], [ 139.100000000000136, 36.075000002402597 ], [ 139.125000000000171, 36.075000002402597 ], [ 139.125000000000171, 36.0000000024 ], [ 138.875000000010942, 36.0000000024 ] ] ], [ [ [ 138.875000000010942, 36.083333335737152 ], [ 138.875000000010942, 36.166666669073372 ], [ 139.05, 36.166666669073372 ], [ 139.05, 36.158333335739748 ], [ 139.0375, 36.158333335739748 ], [ 139.0375, 36.125000002405265 ], [ 139.05, 36.125000002405265 ], [ 139.05, 36.141666669072507 ], [ 139.075000000000102, 36.141666669072507 ], [ 139.075000000000102, 36.166666669073372 ], [ 139.087500000000119, 36.166666669073372 ], [ 139.087500000000119, 36.150000002406124 ], [ 139.112500000000153, 36.150000002406124 ], [ 139.112500000000153, 36.158333335739748 ], [ 139.125000000000171, 36.158333335739748 ], [ 139.125000000000171, 36.141666669072499 ], [ 139.112500000000153, 36.141666669072499 ], [ 139.112500000000153, 36.133333335738882 ], [ 139.100000000000136, 36.133333335738882 ], [ 139.100000000000136, 36.116666669071641 ], [ 139.087500000000119, 36.116666669071641 ], [ 139.087500000000119, 36.108333335738017 ], [ 139.100000000000136, 36.108333335738017 ], [ 139.100000000000136, 36.083333335737152 ], [ 138.875000000010942, 36.083333335737152 ] ] ], [ [ [ 138.887500000010959, 36.316666669080433 ], [ 138.937500000011028, 36.316666669080433 ], [ 138.937500000011028, 36.325000002414058 ], [ 138.962500000011062, 36.325000002414058 ], [ 138.962500000011062, 36.316666669080433 ], [ 138.950000000011045, 36.316666669080433 ], [ 138.950000000011045, 36.308333335746816 ], [ 138.962500000011062, 36.308333335746816 ], [ 138.962500000011062, 36.291666669079568 ], [ 138.912500000010994, 36.291666669079568 ], [ 138.912500000010994, 36.283333335745951 ], [ 138.900000000010976, 36.283333335745951 ], [ 138.900000000010976, 36.275000002412327 ], [ 138.912500000010994, 36.275000002412327 ], [ 138.912500000010994, 36.266666669078703 ], [ 138.900000000010976, 36.266666669078703 ], [ 138.900000000010976, 36.258333335745085 ], [ 138.875000000010942, 36.258333335745085 ], [ 138.875000000010942, 36.325000002414058 ], [ 138.887500000010959, 36.325000002414058 ], [ 138.887500000010959, 36.316666669080433 ] ] ], [ [ [ 138.875000000010942, 36.350000002415854 ], [ 138.875000000010942, 36.416666669084833 ], [ 139.000000000011113, 36.416666669084833 ], [ 139.000000000011113, 36.391666669083961 ], [ 138.962500000011062, 36.391666669083961 ], [ 138.962500000011062, 36.383333335750343 ], [ 138.937500000011028, 36.383333335750343 ], [ 138.937500000011028, 36.375000002416719 ], [ 138.912500000010994, 36.375000002416719 ], [ 138.912500000010994, 36.350000002415854 ], [ 138.875000000010942, 36.350000002415854 ] ] ], [ [ [ 138.875000000010942, 36.500000002422915 ], [ 138.875000000010942, 36.583333335759136 ], [ 139.125000000000171, 36.583333335759136 ], [ 139.125000000000171, 36.500000002422915 ], [ 138.875000000010942, 36.500000002422915 ] ] ], [ [ [ 138.875000000010942, 36.666666669096287 ], [ 139.125000000000171, 36.666666669096287 ], [ 139.125000000000171, 36.583333335760067 ], [ 138.875000000010942, 36.583333335760067 ], [ 138.875000000010942, 36.666666669096287 ] ] ], [ [ [ 138.900000000010976, 34.700000002312265 ], [ 138.900000000010976, 34.691666668978641 ], [ 138.887500000010959, 34.691666668978641 ], [ 138.887500000010959, 34.700000002312265 ], [ 138.900000000010976, 34.700000002312265 ] ] ], [ [ [ 138.875000000010942, 34.700000002312265 ], [ 138.875000000010942, 34.716666668979506 ], [ 138.887500000010959, 34.716666668979506 ], [ 138.887500000010959, 34.700000002312265 ], [ 138.875000000010942, 34.700000002312265 ] ] ], [ [ [ 138.875000000010942, 34.916666668989237 ], [ 138.875000000010942, 35.000000002325457 ], [ 138.887500000010959, 35.000000002325457 ], [ 138.887500000010959, 34.983333335658209 ], [ 138.900000000010976, 34.983333335658209 ], [ 138.900000000010976, 34.966666668990968 ], [ 138.912500000010994, 34.966666668990968 ], [ 138.912500000010994, 34.941666668990102 ], [ 138.900000000010976, 34.941666668990102 ], [ 138.900000000010976, 34.933333335656485 ], [ 138.925000000011011, 34.933333335656485 ], [ 138.925000000011011, 34.925000002322861 ], [ 138.912500000010994, 34.925000002322861 ], [ 138.912500000010994, 34.916666668989237 ], [ 138.875000000010942, 34.916666668989237 ] ] ], [ [ [ 138.875000000010942, 35.250000002337842 ], [ 138.875000000010942, 35.333333335674062 ], [ 139.0625, 35.333333335674062 ], [ 139.0625, 35.325000002340438 ], [ 139.075000000000102, 35.325000002340438 ], [ 139.075000000000102, 35.308333335673197 ], [ 139.087500000000119, 35.308333335673197 ], [ 139.087500000000119, 35.300000002339573 ], [ 139.100000000000136, 35.300000002339573 ], [ 139.100000000000136, 35.26666666900509 ], [ 139.112500000000153, 35.26666666900509 ], [ 139.112500000000153, 35.250000002337842 ], [ 138.875000000010942, 35.250000002337842 ] ] ], [ [ [ 138.875000000010942, 35.500000002363194 ], [ 138.875000000010942, 35.583333335699415 ], [ 139.125000000000171, 35.583333335699415 ], [ 139.125000000000171, 35.500000002363194 ], [ 138.875000000010942, 35.500000002363194 ] ] ], [ [ [ 138.875000000010942, 35.833333335711806 ], [ 138.875000000010942, 35.916666669048027 ], [ 139.125000000000171, 35.916666669048027 ], [ 139.125000000000171, 35.833333335711806 ], [ 138.875000000010942, 35.833333335711806 ] ] ], [ [ [ 138.875000000010942, 35.916666669048958 ], [ 138.875000000010942, 36.000000002385178 ], [ 139.125000000000171, 36.000000002385178 ], [ 139.125000000000171, 35.916666669048958 ], [ 138.875000000010942, 35.916666669048958 ] ] ], [ [ [ 138.875000000010942, 36.166666669074303 ], [ 138.875000000010942, 36.250000002410523 ], [ 138.887500000010959, 36.250000002410523 ], [ 138.887500000010959, 36.241666669076899 ], [ 138.962500000011062, 36.241666669076899 ], [ 138.962500000011062, 36.233333335743275 ], [ 138.987500000011096, 36.233333335743275 ], [ 138.987500000011096, 36.225000002409658 ], [ 139.0125, 36.225000002409658 ], [ 139.0125, 36.200000002408792 ], [ 139.025, 36.200000002408792 ], [ 139.025, 36.208333335742417 ], [ 139.0375, 36.208333335742417 ], [ 139.0375, 36.191666669075168 ], [ 139.05, 36.191666669075168 ], [ 139.05, 36.166666669074303 ], [ 138.875000000010942, 36.166666669074303 ] ] ], [ [ [ 138.875000000010942, 36.416666669085764 ], [ 138.875000000010942, 36.500000002421984 ], [ 139.125000000000171, 36.500000002421984 ], [ 139.125000000000171, 36.425000002419388 ], [ 139.100000000000136, 36.425000002419388 ], [ 139.100000000000136, 36.433333335753005 ], [ 139.075000000000102, 36.433333335753005 ], [ 139.075000000000102, 36.441666669086629 ], [ 139.0625, 36.441666669086629 ], [ 139.0625, 36.458333335753871 ], [ 139.05, 36.458333335753871 ], [ 139.05, 36.466666669087495 ], [ 139.0375, 36.466666669087495 ], [ 139.0375, 36.475000002421112 ], [ 139.025, 36.475000002421112 ], [ 139.025, 36.450000002420254 ], [ 139.0125, 36.450000002420254 ], [ 139.0125, 36.441666669086629 ], [ 139.025, 36.441666669086629 ], [ 139.025, 36.425000002419388 ], [ 139.0125, 36.425000002419388 ], [ 139.0125, 36.416666669085764 ], [ 138.875000000010942, 36.416666669085764 ] ] ], [ [ [ 138.962500000011062, 34.750000002313996 ], [ 138.962500000011062, 34.741666668980372 ], [ 138.950000000011045, 34.741666668980372 ], [ 138.950000000011045, 34.750000002313996 ], [ 138.962500000011062, 34.750000002313996 ] ] ], [ [ [ 138.962500000011062, 34.758333335648551 ], [ 138.962500000011062, 34.750000002314927 ], [ 138.950000000011045, 34.750000002314927 ], [ 138.950000000011045, 34.758333335648551 ], [ 138.962500000011062, 34.758333335648551 ] ] ], [ [ [ 138.950000000011045, 34.916666668989237 ], [ 138.950000000011045, 34.950000002323726 ], [ 138.987500000011096, 34.950000002323726 ], [ 138.987500000011096, 34.933333335656485 ], [ 139.0, 34.933333335656485 ], [ 139.0, 34.941666668990102 ], [ 139.0125, 34.941666668990102 ], [ 139.0125, 34.966666668990968 ], [ 139.0, 34.966666668990968 ], [ 139.0, 35.000000002325457 ], [ 139.05, 35.000000002325457 ], [ 139.05, 34.991666668991833 ], [ 139.075000000000102, 34.991666668991833 ], [ 139.075000000000102, 34.950000002323726 ], [ 139.0625, 34.950000002323726 ], [ 139.0625, 34.941666668990102 ], [ 139.05, 34.941666668990102 ], [ 139.05, 34.925000002322861 ], [ 139.100000000000136, 34.925000002322861 ], [ 139.100000000000136, 34.933333335656485 ], [ 139.125000000000171, 34.933333335656485 ], [ 139.125000000000171, 34.916666668989237 ], [ 138.950000000011045, 34.916666668989237 ] ] ], [ [ [ 138.950000000011045, 35.158333335666136 ], [ 138.937500000011028, 35.158333335666136 ], [ 138.937500000011028, 35.16666666899976 ], [ 139.087500000000119, 35.16666666899976 ], [ 139.087500000000119, 35.150000002332511 ], [ 139.075000000000102, 35.150000002332511 ], [ 139.075000000000102, 35.158333335666136 ], [ 139.0625, 35.158333335666136 ], [ 139.0625, 35.141666668998894 ], [ 139.075000000000102, 35.141666668998894 ], [ 139.075000000000102, 35.13333333566527 ], [ 139.087500000000119, 35.13333333566527 ], [ 139.087500000000119, 35.125000002331646 ], [ 139.075000000000102, 35.125000002331646 ], [ 139.075000000000102, 35.108333335664405 ], [ 139.05, 35.108333335664405 ], [ 139.05, 35.083333335663539 ], [ 138.987500000011096, 35.083333335663539 ], [ 138.987500000011096, 35.091666668997163 ], [ 139.0, 35.091666668997163 ], [ 139.0, 35.100000002330781 ], [ 138.987500000011096, 35.100000002330781 ], [ 138.987500000011096, 35.116666668998029 ], [ 139.0, 35.116666668998029 ], [ 139.0, 35.125000002331646 ], [ 138.987500000011096, 35.125000002331646 ], [ 138.987500000011096, 35.13333333566527 ], [ 138.962500000011062, 35.13333333566527 ], [ 138.962500000011062, 35.150000002332511 ], [ 138.950000000011045, 35.150000002332511 ], [ 138.950000000011045, 35.158333335666136 ] ] ], [ [ [ 138.975000000011079, 35.041666668994495 ], [ 138.975000000011079, 35.058333335661743 ], [ 138.987500000011096, 35.058333335661743 ], [ 138.987500000011096, 35.083333335662608 ], [ 139.0625, 35.083333335662608 ], [ 139.0625, 35.075000002328984 ], [ 139.05, 35.075000002328984 ], [ 139.05, 35.033333335660878 ], [ 139.0625, 35.033333335660878 ], [ 139.0625, 35.025000002327253 ], [ 139.05, 35.025000002327253 ], [ 139.05, 35.000000002326388 ], [ 138.987500000011096, 35.000000002326388 ], [ 138.987500000011096, 35.016666668993629 ], [ 138.975000000011079, 35.016666668993629 ], [ 138.975000000011079, 35.033333335660878 ], [ 138.987500000011096, 35.033333335660878 ], [ 138.987500000011096, 35.041666668994495 ], [ 138.975000000011079, 35.041666668994495 ] ] ], [ [ [ 139.087500000000119, 35.033333335660878 ], [ 139.087500000000119, 35.025000002327253 ], [ 139.075000000000102, 35.025000002327253 ], [ 139.075000000000102, 35.033333335660878 ], [ 139.087500000000119, 35.033333335660878 ] ] ], [ [ [ 139.100000000000136, 36.166666669074303 ], [ 139.075000000000102, 36.166666669074303 ], [ 139.075000000000102, 36.175000002407927 ], [ 139.100000000000136, 36.175000002407927 ], [ 139.100000000000136, 36.166666669074303 ] ] ], [ [ [ 139.125000000001563, 35.358333335689757 ], [ 139.125000000001563, 35.416666669025112 ], [ 139.250000000001734, 35.416666669025112 ], [ 139.250000000001734, 35.400000002357864 ], [ 139.212500000001683, 35.400000002357864 ], [ 139.212500000001683, 35.391666669024239 ], [ 139.187500000001648, 35.391666669024239 ], [ 139.187500000001648, 35.350000002356133 ], [ 139.175000000001631, 35.350000002356133 ], [ 139.175000000001631, 35.383333335690622 ], [ 139.162500000001614, 35.383333335690622 ], [ 139.162500000001614, 35.375000002356998 ], [ 139.13750000000158, 35.375000002356998 ], [ 139.13750000000158, 35.366666669023381 ], [ 139.150000000001597, 35.366666669023381 ], [ 139.150000000001597, 35.358333335689757 ], [ 139.125000000001563, 35.358333335689757 ] ] ], [ [ [ 139.125000000001563, 35.416666669026043 ], [ 139.125000000001563, 35.500000002362263 ], [ 139.250000000001734, 35.500000002362263 ], [ 139.250000000001734, 35.416666669026043 ], [ 139.125000000001563, 35.416666669026043 ] ] ], [ [ [ 139.125000000001563, 35.500000002363194 ], [ 139.125000000001563, 35.583333335699415 ], [ 139.212500000001683, 35.583333335699415 ], [ 139.212500000001683, 35.566666669032166 ], [ 139.2250000000017, 35.566666669032166 ], [ 139.2250000000017, 35.57500000236579 ], [ 139.237500000001717, 35.57500000236579 ], [ 139.237500000001717, 35.583333335699415 ], [ 139.250000000001734, 35.583333335699415 ], [ 139.250000000001734, 35.500000002363194 ], [ 139.125000000001563, 35.500000002363194 ] ] ], [ [ [ 139.125000000001563, 35.583333335700353 ], [ 139.125000000001563, 35.666666669036573 ], [ 139.250000000001734, 35.666666669036573 ], [ 139.250000000001734, 35.608333335701218 ], [ 139.2250000000017, 35.608333335701218 ], [ 139.2250000000017, 35.616666669034842 ], [ 139.212500000001683, 35.616666669034842 ], [ 139.212500000001683, 35.625000002368459 ], [ 139.187500000001648, 35.625000002368459 ], [ 139.187500000001648, 35.608333335701218 ], [ 139.212500000001683, 35.608333335701218 ], [ 139.212500000001683, 35.583333335700353 ], [ 139.125000000001563, 35.583333335700353 ] ] ], [ [ [ 139.125000000001563, 35.750000002373724 ], [ 139.250000000001734, 35.750000002373724 ], [ 139.250000000001734, 35.733333335706476 ], [ 139.237500000001717, 35.733333335706476 ], [ 139.237500000001717, 35.725000002372859 ], [ 139.250000000001734, 35.725000002372859 ], [ 139.250000000001734, 35.666666669037504 ], [ 139.125000000001563, 35.666666669037504 ], [ 139.125000000001563, 35.750000002373724 ] ] ], [ [ [ 139.125000000001563, 35.833333335710876 ], [ 139.250000000001734, 35.833333335710876 ], [ 139.250000000001734, 35.825000002377251 ], [ 139.237500000001717, 35.825000002377251 ], [ 139.237500000001717, 35.816666669043627 ], [ 139.250000000001734, 35.816666669043627 ], [ 139.250000000001734, 35.750000002374655 ], [ 139.125000000001563, 35.750000002374655 ], [ 139.125000000001563, 35.833333335710876 ] ] ], [ [ [ 139.125000000001563, 35.833333335711806 ], [ 139.125000000001563, 35.916666669048027 ], [ 139.250000000001734, 35.916666669048027 ], [ 139.250000000001734, 35.908333335714403 ], [ 139.237500000001717, 35.908333335714403 ], [ 139.237500000001717, 35.891666669047162 ], [ 139.250000000001734, 35.891666669047162 ], [ 139.250000000001734, 35.875000002379913 ], [ 139.237500000001717, 35.875000002379913 ], [ 139.237500000001717, 35.866666669046296 ], [ 139.250000000001734, 35.866666669046296 ], [ 139.250000000001734, 35.833333335711806 ], [ 139.125000000001563, 35.833333335711806 ] ] ], [ [ [ 139.125000000001563, 35.916666669048958 ], [ 139.125000000001563, 36.000000002385178 ], [ 139.2250000000017, 36.000000002385178 ], [ 139.2250000000017, 35.991666669051554 ], [ 139.250000000001734, 35.991666669051554 ], [ 139.250000000001734, 35.966666669050689 ], [ 139.237500000001717, 35.966666669050689 ], [ 139.237500000001717, 35.958333335717072 ], [ 139.250000000001734, 35.958333335717072 ], [ 139.250000000001734, 35.916666669048958 ], [ 139.125000000001563, 35.916666669048958 ] ] ], [ [ [ 139.125000000001563, 36.0000000024 ], [ 139.125000000001563, 36.083333335736221 ], [ 139.187500000001648, 36.083333335736221 ], [ 139.187500000001648, 36.075000002402597 ], [ 139.212500000001683, 36.075000002402597 ], [ 139.212500000001683, 36.058333335735348 ], [ 139.200000000001666, 36.058333335735348 ], [ 139.200000000001666, 36.066666669068972 ], [ 139.187500000001648, 36.066666669068972 ], [ 139.187500000001648, 36.050000002401731 ], [ 139.200000000001666, 36.050000002401731 ], [ 139.200000000001666, 36.041666669068114 ], [ 139.212500000001683, 36.041666669068114 ], [ 139.212500000001683, 36.025000002400866 ], [ 139.250000000001734, 36.025000002400866 ], [ 139.250000000001734, 36.016666669067241 ], [ 139.237500000001717, 36.016666669067241 ], [ 139.237500000001717, 36.008333335733624 ], [ 139.2250000000017, 36.008333335733624 ], [ 139.2250000000017, 36.0000000024 ], [ 139.125000000001563, 36.0000000024 ] ] ], [ [ [ 139.125000000001563, 36.416666669085764 ], [ 139.125000000001563, 36.500000002421984 ], [ 139.250000000001734, 36.500000002421984 ], [ 139.250000000001734, 36.416666669085764 ], [ 139.125000000001563, 36.416666669085764 ] ] ], [ [ [ 139.125000000001563, 36.500000002422915 ], [ 139.125000000001563, 36.583333335759136 ], [ 139.250000000001734, 36.583333335759136 ], [ 139.250000000001734, 36.500000002422915 ], [ 139.125000000001563, 36.500000002422915 ] ] ], [ [ [ 139.162500000001614, 36.108333335738017 ], [ 139.162500000001614, 36.091666669070776 ], [ 139.175000000001631, 36.091666669070776 ], [ 139.175000000001631, 36.083333335737152 ], [ 139.125000000001563, 36.083333335737152 ], [ 139.125000000001563, 36.116666669071641 ], [ 139.13750000000158, 36.116666669071641 ], [ 139.13750000000158, 36.108333335738017 ], [ 139.162500000001614, 36.108333335738017 ] ] ], [ [ [ 139.162500000001614, 36.150000002406124 ], [ 139.162500000001614, 36.141666669072507 ], [ 139.175000000001631, 36.141666669072507 ], [ 139.175000000001631, 36.133333335738882 ], [ 139.162500000001614, 36.133333335738882 ], [ 139.162500000001614, 36.141666669072499 ], [ 139.125000000001563, 36.141666669072499 ], [ 139.125000000001563, 36.158333335739748 ], [ 139.13750000000158, 36.158333335739748 ], [ 139.13750000000158, 36.150000002406124 ], [ 139.162500000001614, 36.150000002406124 ] ] ], [ [ [ 139.125000000001563, 36.583333335760067 ], [ 139.125000000001563, 36.666666669096287 ], [ 139.250000000001734, 36.666666669096287 ], [ 139.250000000001734, 36.583333335760067 ], [ 139.125000000001563, 36.583333335760067 ] ] ], [ [ [ 139.200000000001666, 35.316666669006814 ], [ 139.187500000001648, 35.316666669006814 ], [ 139.187500000001648, 35.325000002340438 ], [ 139.200000000001666, 35.325000002340438 ], [ 139.200000000001666, 35.316666669006814 ] ] ], [ [ [ 139.237500000001717, 36.408333335751209 ], [ 139.175000000001631, 36.408333335751209 ], [ 139.175000000001631, 36.416666669084833 ], [ 139.237500000001717, 36.416666669084833 ], [ 139.237500000001717, 36.408333335751209 ] ] ], [ [ [ 139.262500000003143, 35.400000002357864 ], [ 139.250000000003126, 35.400000002357864 ], [ 139.250000000003126, 35.416666669025112 ], [ 139.262500000003143, 35.416666669025112 ], [ 139.262500000003143, 35.400000002357864 ] ] ], [ [ [ 139.250000000003126, 35.416666669026043 ], [ 139.250000000003126, 35.500000002362263 ], [ 139.287500000003178, 35.500000002362263 ], [ 139.287500000003178, 35.491666669028639 ], [ 139.262500000003143, 35.491666669028639 ], [ 139.262500000003143, 35.475000002361398 ], [ 139.27500000000316, 35.475000002361398 ], [ 139.27500000000316, 35.425000002359667 ], [ 139.262500000003143, 35.425000002359667 ], [ 139.262500000003143, 35.416666669026043 ], [ 139.250000000003126, 35.416666669026043 ] ] ], [ [ [ 139.250000000003126, 35.500000002363194 ], [ 139.250000000003126, 35.533333335697684 ], [ 139.27500000000316, 35.533333335697684 ], [ 139.27500000000316, 35.508333335696818 ], [ 139.287500000003178, 35.508333335696818 ], [ 139.287500000003178, 35.500000002363194 ], [ 139.250000000003126, 35.500000002363194 ] ] ], [ [ [ 139.250000000003126, 35.583333335699415 ], [ 139.27500000000316, 35.583333335699415 ], [ 139.27500000000316, 35.57500000236579 ], [ 139.262500000003143, 35.57500000236579 ], [ 139.262500000003143, 35.558333335698549 ], [ 139.287500000003178, 35.558333335698549 ], [ 139.287500000003178, 35.566666669032166 ], [ 139.300000000003195, 35.566666669032166 ], [ 139.300000000003195, 35.541666669031301 ], [ 139.287500000003178, 35.541666669031301 ], [ 139.287500000003178, 35.550000002364925 ], [ 139.250000000003126, 35.550000002364925 ], [ 139.250000000003126, 35.583333335699415 ] ] ], [ [ [ 139.250000000003126, 35.600000002367594 ], [ 139.250000000003126, 35.666666669036573 ], [ 139.287500000003178, 35.666666669036573 ], [ 139.287500000003178, 35.625000002368466 ], [ 139.300000000003195, 35.625000002368466 ], [ 139.300000000003195, 35.616666669034842 ], [ 139.325000000003229, 35.616666669034842 ], [ 139.325000000003229, 35.608333335701218 ], [ 139.300000000003195, 35.608333335701218 ], [ 139.300000000003195, 35.600000002367594 ], [ 139.250000000003126, 35.600000002367594 ] ] ], [ [ [ 139.250000000003126, 35.666666669037504 ], [ 139.250000000003126, 35.708333335705618 ], [ 139.287500000003178, 35.708333335705618 ], [ 139.287500000003178, 35.691666669038369 ], [ 139.27500000000316, 35.691666669038369 ], [ 139.27500000000316, 35.683333335704752 ], [ 139.287500000003178, 35.683333335704752 ], [ 139.287500000003178, 35.675000002371128 ], [ 139.27500000000316, 35.675000002371128 ], [ 139.27500000000316, 35.666666669037504 ], [ 139.250000000003126, 35.666666669037504 ] ] ], [ [ [ 139.287500000003178, 35.733333335706476 ], [ 139.287500000003178, 35.725000002372852 ], [ 139.262500000003143, 35.725000002372852 ], [ 139.262500000003143, 35.733333335706476 ], [ 139.250000000003126, 35.733333335706476 ], [ 139.250000000003126, 35.750000002373724 ], [ 139.27500000000316, 35.750000002373724 ], [ 139.27500000000316, 35.733333335706476 ], [ 139.287500000003178, 35.733333335706476 ] ] ], [ [ [ 139.287500000003178, 35.766666669041904 ], [ 139.287500000003178, 35.750000002374655 ], [ 139.250000000003126, 35.750000002374655 ], [ 139.250000000003126, 35.775000002375521 ], [ 139.27500000000316, 35.775000002375521 ], [ 139.27500000000316, 35.766666669041904 ], [ 139.287500000003178, 35.766666669041904 ] ] ], [ [ [ 139.250000000003126, 35.791666669042762 ], [ 139.250000000003126, 35.825000002377251 ], [ 139.262500000003143, 35.825000002377251 ], [ 139.262500000003143, 35.80833333571001 ], [ 139.300000000003195, 35.80833333571001 ], [ 139.300000000003195, 35.825000002377251 ], [ 139.312500000003212, 35.825000002377251 ], [ 139.312500000003212, 35.80833333571001 ], [ 139.337500000003246, 35.80833333571001 ], [ 139.337500000003246, 35.800000002376386 ], [ 139.325000000003229, 35.800000002376386 ], [ 139.325000000003229, 35.766666669041896 ], [ 139.312500000003212, 35.766666669041896 ], [ 139.312500000003212, 35.775000002375521 ], [ 139.300000000003195, 35.775000002375521 ], [ 139.300000000003195, 35.783333335709145 ], [ 139.287500000003178, 35.783333335709145 ], [ 139.287500000003178, 35.791666669042762 ], [ 139.250000000003126, 35.791666669042762 ] ] ], [ [ [ 139.262500000003143, 35.833333335711806 ], [ 139.250000000003126, 35.833333335711806 ], [ 139.250000000003126, 35.841666669045431 ], [ 139.262500000003143, 35.841666669045431 ], [ 139.262500000003143, 35.833333335711806 ] ] ], [ [ [ 139.262500000003143, 35.850000002379048 ], [ 139.250000000003126, 35.850000002379048 ], [ 139.250000000003126, 35.858333335712672 ], [ 139.262500000003143, 35.858333335712672 ], [ 139.262500000003143, 35.850000002379048 ] ] ], [ [ [ 139.287500000003178, 35.908333335714403 ], [ 139.300000000003195, 35.908333335714403 ], [ 139.300000000003195, 35.891666669047154 ], [ 139.287500000003178, 35.891666669047154 ], [ 139.287500000003178, 35.900000002380779 ], [ 139.262500000003143, 35.900000002380779 ], [ 139.262500000003143, 35.908333335714403 ], [ 139.250000000003126, 35.908333335714403 ], [ 139.250000000003126, 35.916666669048027 ], [ 139.287500000003178, 35.916666669048027 ], [ 139.287500000003178, 35.908333335714403 ] ] ], [ [ [ 139.27500000000316, 35.933333335716206 ], [ 139.27500000000316, 35.925000002382582 ], [ 139.287500000003178, 35.925000002382582 ], [ 139.287500000003178, 35.916666669048958 ], [ 139.250000000003126, 35.916666669048958 ], [ 139.250000000003126, 35.941666669049823 ], [ 139.262500000003143, 35.941666669049823 ], [ 139.262500000003143, 35.933333335716206 ], [ 139.27500000000316, 35.933333335716206 ] ] ], [ [ [ 139.262500000003143, 35.975000002384306 ], [ 139.250000000003126, 35.975000002384306 ], [ 139.250000000003126, 35.98333333571793 ], [ 139.262500000003143, 35.98333333571793 ], [ 139.262500000003143, 35.975000002384306 ] ] ], [ [ [ 139.262500000003143, 36.000000002385178 ], [ 139.262500000003143, 35.991666669051554 ], [ 139.250000000003126, 35.991666669051554 ], [ 139.250000000003126, 36.000000002385178 ], [ 139.262500000003143, 36.000000002385178 ] ] ], [ [ [ 139.250000000003126, 36.416666669084833 ], [ 139.27500000000316, 36.416666669084833 ], [ 139.27500000000316, 36.408333335751209 ], [ 139.250000000003126, 36.408333335751209 ], [ 139.250000000003126, 36.416666669084833 ] ] ], [ [ [ 139.250000000003126, 36.416666669085764 ], [ 139.250000000003126, 36.500000002421984 ], [ 139.375000000003297, 36.500000002421984 ], [ 139.375000000003297, 36.458333335753871 ], [ 139.36250000000328, 36.458333335753871 ], [ 139.36250000000328, 36.450000002420254 ], [ 139.350000000003263, 36.450000002420254 ], [ 139.350000000003263, 36.433333335753005 ], [ 139.312500000003212, 36.433333335753005 ], [ 139.312500000003212, 36.441666669086629 ], [ 139.300000000003195, 36.441666669086629 ], [ 139.300000000003195, 36.433333335753005 ], [ 139.27500000000316, 36.433333335753005 ], [ 139.27500000000316, 36.425000002419388 ], [ 139.287500000003178, 36.425000002419388 ], [ 139.287500000003178, 36.416666669085764 ], [ 139.250000000003126, 36.416666669085764 ] ] ], [ [ [ 139.250000000003126, 36.500000002422915 ], [ 139.250000000003126, 36.583333335759136 ], [ 139.375000000003297, 36.583333335759136 ], [ 139.375000000003297, 36.500000002422915 ], [ 139.250000000003126, 36.500000002422915 ] ] ], [ [ [ 139.250000000003126, 36.583333335760067 ], [ 139.250000000003126, 36.666666669096287 ], [ 139.375000000003297, 36.666666669096287 ], [ 139.375000000003297, 36.583333335760067 ], [ 139.250000000003126, 36.583333335760067 ] ] ], [ [ [ 139.37500000000469, 34.750000002313996 ], [ 139.437500000004775, 34.750000002313996 ], [ 139.437500000004775, 34.700000002312265 ], [ 139.400000000004724, 34.700000002312265 ], [ 139.400000000004724, 34.708333335645882 ], [ 139.37500000000469, 34.708333335645882 ], [ 139.37500000000469, 34.750000002313996 ] ] ], [ [ [ 139.425000000004758, 34.750000002314927 ], [ 139.37500000000469, 34.750000002314927 ], [ 139.37500000000469, 34.766666668982175 ], [ 139.387500000004707, 34.766666668982175 ], [ 139.387500000004707, 34.775000002315792 ], [ 139.412500000004741, 34.775000002315792 ], [ 139.412500000004741, 34.766666668982175 ], [ 139.425000000004758, 34.766666668982175 ], [ 139.425000000004758, 34.750000002314927 ] ] ], [ [ [ 139.387500000004707, 36.408333335751209 ], [ 139.400000000004724, 36.408333335751209 ], [ 139.400000000004724, 36.416666669084833 ], [ 139.425000000004758, 36.416666669084833 ], [ 139.425000000004758, 36.400000002417585 ], [ 139.387500000004707, 36.400000002417585 ], [ 139.387500000004707, 36.408333335751209 ] ] ], [ [ [ 139.462500000004809, 36.408333335751209 ], [ 139.462500000004809, 36.400000002417585 ], [ 139.450000000004792, 36.400000002417585 ], [ 139.450000000004792, 36.408333335751209 ], [ 139.462500000004809, 36.408333335751209 ] ] ], [ [ [ 139.450000000004792, 36.408333335751209 ], [ 139.437500000004775, 36.408333335751209 ], [ 139.437500000004775, 36.416666669084833 ], [ 139.450000000004792, 36.416666669084833 ], [ 139.450000000004792, 36.408333335751209 ] ] ], [ [ [ 139.450000000004792, 36.416666669085764 ], [ 139.37500000000469, 36.416666669085764 ], [ 139.37500000000469, 36.500000002421984 ], [ 139.50000000000486, 36.500000002421984 ], [ 139.50000000000486, 36.433333335753005 ], [ 139.475000000004826, 36.433333335753005 ], [ 139.475000000004826, 36.425000002419388 ], [ 139.450000000004792, 36.425000002419388 ], [ 139.450000000004792, 36.416666669085764 ] ] ], [ [ [ 139.375000000003297, 36.425000002419388 ], [ 139.36250000000328, 36.425000002419388 ], [ 139.36250000000328, 36.433333335753012 ], [ 139.375000000003297, 36.433333335753012 ], [ 139.375000000003297, 36.425000002419388 ] ] ], [ [ [ 139.37500000000469, 36.500000002422915 ], [ 139.37500000000469, 36.583333335759136 ], [ 139.50000000000486, 36.583333335759136 ], [ 139.50000000000486, 36.500000002422915 ], [ 139.37500000000469, 36.500000002422915 ] ] ], [ [ [ 139.37500000000469, 36.583333335760067 ], [ 139.37500000000469, 36.666666669096287 ], [ 139.50000000000486, 36.666666669096287 ], [ 139.50000000000486, 36.583333335760067 ], [ 139.37500000000469, 36.583333335760067 ] ] ], [ [ [ 139.675000000007884, 36.358333335749478 ], [ 139.662500000007867, 36.358333335749478 ], [ 139.662500000007867, 36.366666669083102 ], [ 139.675000000007884, 36.366666669083102 ], [ 139.675000000007884, 36.358333335749478 ] ] ], [ [ [ 139.637500000007833, 36.416666669084833 ], [ 139.65000000000785, 36.416666669084833 ], [ 139.65000000000785, 36.400000002417585 ], [ 139.637500000007833, 36.400000002417585 ], [ 139.637500000007833, 36.416666669084833 ] ] ], [ [ [ 139.500000000006253, 36.416666669085764 ], [ 139.500000000006253, 36.500000002421984 ], [ 139.625000000006423, 36.500000002421984 ], [ 139.625000000006423, 36.49166666908836 ], [ 139.612500000006406, 36.49166666908836 ], [ 139.612500000006406, 36.466666669087495 ], [ 139.587500000006372, 36.466666669087495 ], [ 139.587500000006372, 36.458333335753871 ], [ 139.562500000006338, 36.458333335753871 ], [ 139.562500000006338, 36.441666669086629 ], [ 139.550000000006321, 36.441666669086629 ], [ 139.550000000006321, 36.450000002420254 ], [ 139.525000000006287, 36.450000002420254 ], [ 139.525000000006287, 36.441666669086629 ], [ 139.537500000006304, 36.441666669086629 ], [ 139.537500000006304, 36.416666669085764 ], [ 139.525000000006287, 36.416666669085764 ], [ 139.525000000006287, 36.433333335753005 ], [ 139.51250000000627, 36.433333335753005 ], [ 139.51250000000627, 36.416666669085764 ], [ 139.500000000006253, 36.416666669085764 ] ] ], [ [ [ 139.600000000006389, 36.458333335753878 ], [ 139.612500000006406, 36.458333335753878 ], [ 139.612500000006406, 36.466666669087495 ], [ 139.625000000006423, 36.466666669087495 ], [ 139.625000000006423, 36.458333335753871 ], [ 139.612500000006406, 36.458333335753871 ], [ 139.612500000006406, 36.450000002420254 ], [ 139.625000000006423, 36.450000002420254 ], [ 139.625000000006423, 36.433333335753005 ], [ 139.600000000006389, 36.433333335753005 ], [ 139.600000000006389, 36.458333335753878 ] ] ], [ [ [ 139.637500000007833, 36.433333335753005 ], [ 139.625000000007816, 36.433333335753005 ], [ 139.625000000007816, 36.441666669086629 ], [ 139.637500000007833, 36.441666669086629 ], [ 139.637500000007833, 36.433333335753005 ] ] ], [ [ [ 139.575000000006355, 36.433333335753005 ], [ 139.562500000006338, 36.433333335753005 ], [ 139.562500000006338, 36.441666669086629 ], [ 139.575000000006355, 36.441666669086629 ], [ 139.575000000006355, 36.433333335753005 ] ] ], [ [ [ 139.625000000007816, 36.500000002421984 ], [ 139.687500000007901, 36.500000002421984 ], [ 139.687500000007901, 36.49166666908836 ], [ 139.675000000007884, 36.49166666908836 ], [ 139.675000000007884, 36.466666669087495 ], [ 139.662500000007867, 36.466666669087495 ], [ 139.662500000007867, 36.458333335753871 ], [ 139.65000000000785, 36.458333335753871 ], [ 139.65000000000785, 36.475000002421112 ], [ 139.637500000007833, 36.475000002421112 ], [ 139.637500000007833, 36.483333335754736 ], [ 139.625000000007816, 36.483333335754736 ], [ 139.625000000007816, 36.500000002421984 ] ] ], [ [ [ 139.500000000006253, 36.500000002422915 ], [ 139.500000000006253, 36.583333335759136 ], [ 139.625000000006423, 36.583333335759136 ], [ 139.625000000006423, 36.500000002422915 ], [ 139.500000000006253, 36.500000002422915 ] ] ], [ [ [ 139.625000000007816, 36.508333335756539 ], [ 139.625000000007816, 36.583333335759136 ], [ 139.750000000007987, 36.583333335759136 ], [ 139.750000000007987, 36.575000002425512 ], [ 139.725000000007952, 36.575000002425512 ], [ 139.725000000007952, 36.550000002424646 ], [ 139.662500000007867, 36.550000002424646 ], [ 139.662500000007867, 36.541666669091029 ], [ 139.675000000007884, 36.541666669091029 ], [ 139.675000000007884, 36.533333335757405 ], [ 139.637500000007833, 36.533333335757405 ], [ 139.637500000007833, 36.525000002423781 ], [ 139.65000000000785, 36.525000002423781 ], [ 139.65000000000785, 36.516666669090156 ], [ 139.637500000007833, 36.516666669090156 ], [ 139.637500000007833, 36.508333335756539 ], [ 139.625000000007816, 36.508333335756539 ] ] ], [ [ [ 139.625000000007816, 36.583333335760067 ], [ 139.625000000007816, 36.666666669096287 ], [ 139.750000000007987, 36.666666669096287 ], [ 139.750000000007987, 36.583333335760067 ], [ 139.625000000007816, 36.583333335760067 ] ] ], [ [ [ 139.500000000006253, 36.583333335760067 ], [ 139.500000000006253, 36.666666669096287 ], [ 139.625000000006423, 36.666666669096287 ], [ 139.625000000006423, 36.583333335760067 ], [ 139.500000000006253, 36.583333335760067 ] ] ], [ [ [ 139.950000000011045, 35.116666668998029 ], [ 139.987500000011096, 35.116666668998029 ], [ 139.987500000011096, 35.108333335664405 ], [ 139.950000000011045, 35.108333335664405 ], [ 139.950000000011045, 35.116666668998029 ] ] ], [ [ [ 140.150000000001597, 35.16666666899976 ], [ 140.150000000001597, 35.158333335666136 ], [ 140.13750000000158, 35.158333335666136 ], [ 140.13750000000158, 35.16666666899976 ], [ 140.150000000001597, 35.16666666899976 ] ] ], [ [ [ 140.025, 35.16666666899976 ], [ 140.025, 35.158333335666136 ], [ 140.0, 35.158333335666136 ], [ 140.0, 35.16666666899976 ], [ 140.025, 35.16666666899976 ] ] ], [ [ [ 140.0625, 35.166666669000691 ], [ 140.025, 35.166666669000691 ], [ 140.025, 35.175000002334315 ], [ 140.0375, 35.175000002334315 ], [ 140.0375, 35.183333335667939 ], [ 140.05, 35.183333335667939 ], [ 140.05, 35.175000002334315 ], [ 140.0625, 35.175000002334315 ], [ 140.0625, 35.166666669000691 ] ] ], [ [ [ 140.150000000001597, 35.216666669002421 ], [ 140.175000000001631, 35.216666669002421 ], [ 140.175000000001631, 35.20000000233518 ], [ 140.200000000001666, 35.20000000233518 ], [ 140.200000000001666, 35.208333335668804 ], [ 140.212500000001683, 35.208333335668804 ], [ 140.212500000001683, 35.183333335667932 ], [ 140.200000000001666, 35.183333335667932 ], [ 140.200000000001666, 35.175000002334315 ], [ 140.175000000001631, 35.175000002334315 ], [ 140.175000000001631, 35.166666669000691 ], [ 140.125000000001563, 35.166666669000691 ], [ 140.125000000001563, 35.183333335667939 ], [ 140.150000000001597, 35.183333335667939 ], [ 140.150000000001597, 35.216666669002421 ] ] ], [ [ [ 140.100000000000136, 35.183333335667932 ], [ 140.100000000000136, 35.175000002334315 ], [ 140.087500000000119, 35.175000002334315 ], [ 140.087500000000119, 35.191666669001556 ], [ 140.112500000000153, 35.191666669001556 ], [ 140.112500000000153, 35.20000000233518 ], [ 140.125000000000171, 35.20000000233518 ], [ 140.125000000000171, 35.183333335667932 ], [ 140.100000000000136, 35.183333335667932 ] ] ], [ [ [ 139.937500000011028, 35.250000002336911 ], [ 139.937500000011028, 35.241666669003287 ], [ 139.925000000011011, 35.241666669003287 ], [ 139.925000000011011, 35.250000002336911 ], [ 139.937500000011028, 35.250000002336911 ] ] ], [ [ [ 139.950000000011045, 35.26666666900509 ], [ 139.975000000011079, 35.26666666900509 ], [ 139.975000000011079, 35.258333335671466 ], [ 139.962500000011062, 35.258333335671466 ], [ 139.962500000011062, 35.250000002337842 ], [ 139.950000000011045, 35.250000002337842 ], [ 139.950000000011045, 35.26666666900509 ] ] ], [ [ [ 140.0375, 35.266666669005083 ], [ 140.025, 35.266666669005083 ], [ 140.025, 35.275000002338707 ], [ 140.0375, 35.275000002338707 ], [ 140.0375, 35.266666669005083 ] ] ], [ [ [ 140.025, 35.291666669005956 ], [ 140.025, 35.283333335672332 ], [ 140.0125, 35.283333335672332 ], [ 140.0125, 35.291666669005956 ], [ 140.025, 35.291666669005956 ] ] ], [ [ [ 140.125000000001563, 36.175000002407927 ], [ 140.150000000001597, 36.175000002407927 ], [ 140.150000000001597, 36.166666669074303 ], [ 140.125000000001563, 36.166666669074303 ], [ 140.125000000001563, 36.175000002407927 ] ] ], [ [ [ 140.13750000000158, 36.208333335742417 ], [ 140.13750000000158, 36.191666669075168 ], [ 140.125000000001563, 36.191666669075168 ], [ 140.125000000001563, 36.208333335742417 ], [ 140.13750000000158, 36.208333335742417 ] ] ], [ [ [ 140.087500000000119, 36.241666669076899 ], [ 140.100000000000136, 36.241666669076899 ], [ 140.100000000000136, 36.250000002410523 ], [ 140.125000000000171, 36.250000002410523 ], [ 140.125000000000171, 36.20833333574241 ], [ 140.100000000000136, 36.20833333574241 ], [ 140.100000000000136, 36.216666669076034 ], [ 140.087500000000119, 36.216666669076034 ], [ 140.087500000000119, 36.241666669076899 ] ] ], [ [ [ 140.13750000000158, 36.241666669076899 ], [ 140.125000000001563, 36.241666669076899 ], [ 140.125000000001563, 36.250000002410523 ], [ 140.13750000000158, 36.250000002410523 ], [ 140.13750000000158, 36.241666669076899 ] ] ], [ [ [ 140.13750000000158, 36.316666669080433 ], [ 140.13750000000158, 36.325000002414058 ], [ 140.150000000001597, 36.325000002414058 ], [ 140.150000000001597, 36.283333335745951 ], [ 140.162500000001614, 36.283333335745951 ], [ 140.162500000001614, 36.275000002412327 ], [ 140.150000000001597, 36.275000002412327 ], [ 140.150000000001597, 36.266666669078703 ], [ 140.13750000000158, 36.266666669078703 ], [ 140.13750000000158, 36.250000002411461 ], [ 140.125000000001563, 36.250000002411461 ], [ 140.125000000001563, 36.275000002412327 ], [ 140.13750000000158, 36.275000002412327 ], [ 140.13750000000158, 36.300000002413192 ], [ 140.125000000001563, 36.300000002413192 ], [ 140.125000000001563, 36.316666669080433 ], [ 140.13750000000158, 36.316666669080433 ] ] ], [ [ [ 140.2250000000017, 36.325000002414058 ], [ 140.2250000000017, 36.300000002413192 ], [ 140.212500000001683, 36.300000002413192 ], [ 140.212500000001683, 36.316666669080433 ], [ 140.187500000001648, 36.316666669080433 ], [ 140.187500000001648, 36.325000002414058 ], [ 140.2250000000017, 36.325000002414058 ] ] ], [ [ [ 140.13750000000158, 36.325000002414058 ], [ 140.125000000001563, 36.325000002414058 ], [ 140.125000000001563, 36.333333335747682 ], [ 140.13750000000158, 36.333333335747682 ], [ 140.13750000000158, 36.325000002414058 ] ] ], [ [ [ 140.112500000000153, 36.400000002417585 ], [ 140.112500000000153, 36.391666669083961 ], [ 140.100000000000136, 36.391666669083961 ], [ 140.100000000000136, 36.400000002417585 ], [ 140.112500000000153, 36.400000002417585 ] ] ], [ [ [ 140.13750000000158, 36.416666669084833 ], [ 140.200000000001666, 36.416666669084833 ], [ 140.200000000001666, 36.400000002417585 ], [ 140.187500000001648, 36.400000002417585 ], [ 140.187500000001648, 36.391666669083961 ], [ 140.162500000001614, 36.391666669083961 ], [ 140.162500000001614, 36.400000002417585 ], [ 140.150000000001597, 36.400000002417585 ], [ 140.150000000001597, 36.408333335751209 ], [ 140.13750000000158, 36.408333335751209 ], [ 140.13750000000158, 36.416666669084833 ] ] ], [ [ [ 140.150000000001597, 36.458333335753878 ], [ 140.162500000001614, 36.458333335753878 ], [ 140.162500000001614, 36.441666669086629 ], [ 140.175000000001631, 36.441666669086629 ], [ 140.175000000001631, 36.433333335753012 ], [ 140.200000000001666, 36.433333335753012 ], [ 140.200000000001666, 36.458333335753871 ], [ 140.187500000001648, 36.458333335753871 ], [ 140.187500000001648, 36.475000002421119 ], [ 140.200000000001666, 36.475000002421119 ], [ 140.200000000001666, 36.483333335754736 ], [ 140.212500000001683, 36.483333335754736 ], [ 140.212500000001683, 36.49166666908836 ], [ 140.237500000001717, 36.49166666908836 ], [ 140.237500000001717, 36.483333335754736 ], [ 140.250000000001734, 36.483333335754736 ], [ 140.250000000001734, 36.466666669087495 ], [ 140.237500000001717, 36.466666669087495 ], [ 140.237500000001717, 36.458333335753871 ], [ 140.2250000000017, 36.458333335753871 ], [ 140.2250000000017, 36.450000002420254 ], [ 140.250000000001734, 36.450000002420254 ], [ 140.250000000001734, 36.425000002419388 ], [ 140.212500000001683, 36.425000002419388 ], [ 140.212500000001683, 36.433333335753005 ], [ 140.200000000001666, 36.433333335753005 ], [ 140.200000000001666, 36.416666669085764 ], [ 140.13750000000158, 36.416666669085764 ], [ 140.13750000000158, 36.425000002419388 ], [ 140.125000000001563, 36.425000002419388 ], [ 140.125000000001563, 36.441666669086629 ], [ 140.13750000000158, 36.441666669086629 ], [ 140.13750000000158, 36.450000002420254 ], [ 140.150000000001597, 36.450000002420254 ], [ 140.150000000001597, 36.458333335753878 ] ] ], [ [ [ 140.250000000001734, 36.508333335756539 ], [ 140.250000000001734, 36.500000002422915 ], [ 140.237500000001717, 36.500000002422915 ], [ 140.237500000001717, 36.508333335756539 ], [ 140.250000000001734, 36.508333335756539 ] ] ], [ [ [ 140.262500000003143, 36.508333335756539 ], [ 140.262500000003143, 36.500000002422915 ], [ 140.250000000003126, 36.500000002422915 ], [ 140.250000000003126, 36.508333335756539 ], [ 140.262500000003143, 36.508333335756539 ] ] ], [ [ [ 140.27500000000316, 36.516666669090164 ], [ 140.287500000003178, 36.516666669090164 ], [ 140.287500000003178, 36.500000002422915 ], [ 140.27500000000316, 36.500000002422915 ], [ 140.27500000000316, 36.516666669090164 ] ] ], [ [ [ 140.587500000006372, 36.575000002425512 ], [ 140.600000000006389, 36.575000002425512 ], [ 140.600000000006389, 36.541666669091022 ], [ 140.587500000006372, 36.541666669091022 ], [ 140.587500000006372, 36.550000002424646 ], [ 140.575000000006355, 36.550000002424646 ], [ 140.575000000006355, 36.566666669091887 ], [ 140.562500000006338, 36.566666669091887 ], [ 140.562500000006338, 36.583333335759136 ], [ 140.587500000006372, 36.583333335759136 ], [ 140.587500000006372, 36.575000002425512 ] ] ], [ [ [ 139.775000000009413, 36.566666669091887 ], [ 139.762500000009396, 36.566666669091887 ], [ 139.762500000009396, 36.583333335759136 ], [ 139.78750000000943, 36.583333335759136 ], [ 139.78750000000943, 36.575000002425512 ], [ 139.775000000009413, 36.575000002425512 ], [ 139.775000000009413, 36.566666669091887 ] ] ], [ [ [ 140.562500000006338, 36.583333335760067 ], [ 140.562500000006338, 36.641666669095414 ], [ 140.537500000006304, 36.641666669095414 ], [ 140.537500000006304, 36.666666669096287 ], [ 140.625000000006423, 36.666666669096287 ], [ 140.625000000006423, 36.633333335761797 ], [ 140.612500000006406, 36.633333335761797 ], [ 140.612500000006406, 36.608333335760932 ], [ 140.625000000006423, 36.608333335760932 ], [ 140.625000000006423, 36.591666669093691 ], [ 140.600000000006389, 36.591666669093691 ], [ 140.600000000006389, 36.583333335760067 ], [ 140.562500000006338, 36.583333335760067 ] ] ], [ [ [ 139.750000000009379, 36.583333335760067 ], [ 139.750000000009379, 36.666666669096287 ], [ 139.87500000000955, 36.666666669096287 ], [ 139.87500000000955, 36.625000002428173 ], [ 139.862500000009533, 36.625000002428173 ], [ 139.862500000009533, 36.608333335760932 ], [ 139.812500000009464, 36.608333335760932 ], [ 139.812500000009464, 36.600000002427308 ], [ 139.800000000009447, 36.600000002427308 ], [ 139.800000000009447, 36.591666669093691 ], [ 139.78750000000943, 36.591666669093691 ], [ 139.78750000000943, 36.583333335760067 ], [ 139.750000000009379, 36.583333335760067 ] ] ], [ [ [ 140.525000000006287, 36.650000002429039 ], [ 140.525000000006287, 36.641666669095414 ], [ 140.51250000000627, 36.641666669095414 ], [ 140.51250000000627, 36.616666669094556 ], [ 140.525000000006287, 36.616666669094556 ], [ 140.525000000006287, 36.600000002427308 ], [ 140.51250000000627, 36.600000002427308 ], [ 140.51250000000627, 36.608333335760932 ], [ 140.500000000006253, 36.608333335760932 ], [ 140.500000000006253, 36.641666669095422 ], [ 140.51250000000627, 36.641666669095422 ], [ 140.51250000000627, 36.650000002429039 ], [ 140.525000000006287, 36.650000002429039 ] ] ], [ [ [ 140.250000000003126, 36.666666669096287 ], [ 140.312500000003212, 36.666666669096287 ], [ 140.312500000003212, 36.658333335762663 ], [ 140.325000000003229, 36.658333335762663 ], [ 140.325000000003229, 36.641666669095414 ], [ 140.287500000003178, 36.641666669095414 ], [ 140.287500000003178, 36.633333335761797 ], [ 140.262500000003143, 36.633333335761797 ], [ 140.262500000003143, 36.616666669094556 ], [ 140.27500000000316, 36.616666669094556 ], [ 140.27500000000316, 36.608333335760932 ], [ 140.250000000003126, 36.608333335760932 ], [ 140.250000000003126, 36.666666669096287 ] ] ], [ [ [ 140.2250000000017, 36.633333335761797 ], [ 140.187500000001648, 36.633333335761797 ], [ 140.187500000001648, 36.641666669095422 ], [ 140.200000000001666, 36.641666669095422 ], [ 140.200000000001666, 36.666666669096287 ], [ 140.250000000001734, 36.666666669096287 ], [ 140.250000000001734, 36.616666669094556 ], [ 140.2250000000017, 36.616666669094556 ], [ 140.2250000000017, 36.633333335761797 ] ] ], [ [ [ 140.625000000007816, 36.666666669096287 ], [ 140.65000000000785, 36.666666669096287 ], [ 140.65000000000785, 36.633333335761797 ], [ 140.637500000007833, 36.633333335761797 ], [ 140.637500000007833, 36.625000002428173 ], [ 140.625000000007816, 36.625000002428173 ], [ 140.625000000007816, 36.666666669096287 ] ] ], [ [ [ 139.875000000010942, 36.666666669096287 ], [ 139.950000000011045, 36.666666669096287 ], [ 139.950000000011045, 36.658333335762663 ], [ 139.937500000011028, 36.658333335762663 ], [ 139.937500000011028, 36.650000002429039 ], [ 139.925000000011011, 36.650000002429039 ], [ 139.925000000011011, 36.641666669095414 ], [ 139.900000000010976, 36.641666669095414 ], [ 139.900000000010976, 36.633333335761797 ], [ 139.875000000010942, 36.633333335761797 ], [ 139.875000000010942, 36.666666669096287 ] ] ], [ [ [ 140.450000000004792, 36.641666669095414 ], [ 140.450000000004792, 36.650000002429039 ], [ 140.437500000004775, 36.650000002429039 ], [ 140.437500000004775, 36.658333335762663 ], [ 140.450000000004792, 36.658333335762663 ], [ 140.450000000004792, 36.666666669096287 ], [ 140.462500000004809, 36.666666669096287 ], [ 140.462500000004809, 36.641666669095414 ], [ 140.450000000004792, 36.641666669095414 ] ] ], [ [ [ 140.350000000003263, 36.650000002429039 ], [ 140.350000000003263, 36.666666669096287 ], [ 140.36250000000328, 36.666666669096287 ], [ 140.36250000000328, 36.650000002429039 ], [ 140.350000000003263, 36.650000002429039 ] ] ], [ [ [ 140.05, 36.650000002429039 ], [ 140.05, 36.666666669096287 ], [ 140.0625, 36.666666669096287 ], [ 140.0625, 36.650000002429039 ], [ 140.05, 36.650000002429039 ] ] ], [ [ [ 140.50000000000486, 36.666666669096287 ], [ 140.50000000000486, 36.658333335762663 ], [ 140.487500000004843, 36.658333335762663 ], [ 140.487500000004843, 36.666666669096287 ], [ 140.50000000000486, 36.666666669096287 ] ] ], [ [ [ 140.51250000000627, 36.658333335762663 ], [ 140.500000000006253, 36.658333335762663 ], [ 140.500000000006253, 36.666666669096287 ], [ 140.51250000000627, 36.666666669096287 ], [ 140.51250000000627, 36.658333335762663 ] ] ], [ [ [ 139.975000000011079, 36.666666669096287 ], [ 139.975000000011079, 36.658333335762663 ], [ 139.962500000011062, 36.658333335762663 ], [ 139.962500000011062, 36.666666669096287 ], [ 139.975000000011079, 36.666666669096287 ] ] ] ] } }
]
}
